<?xml version="1.0" encoding="UTF-8" standalone="yes"?>
<gpx
 version="1.1"
 creator="Generated by MapOut iPhone App. See https://mapout.app"
 xmlns="http://www.topografix.com/GPX/1/1"
 xmlns:xsi="http://www.w3.org/2001/XMLSchema-instance"
 xmlns:gpxx="http://www.garmin.com/xmlschemas/GpxExtensions/v3"
 xmlns:mapout="https://mapout.app/xmlschemas/MapOutExtensions"
 xsi:schemaLocation="http://www.topografix.com/GPX/1/1 https://www.topografix.com/GPX/1/1/gpx.xsd http://www.garmin.com/xmlschemas/GpxExtensions/v3 https://www8.garmin.com/xmlschemas/GpxExtensionsv3.xsd https://mapout.app/xmlschemas/MapOutExtensions https://mapout.app/xmlschemas/MapOutExtensions.xsd">
  <metadata>
    <name>Mangorei Track to Pouākai Tarns</name>
    <author><name>iPhone</name></author>
    <time>2026-05-28T23:26:07Z</time>
    <bounds minlat="-39.2363217623498" minlon="174.033699218005" maxlat="-39.20272553881366" maxlon="174.057120923136"/>
  </metadata>
  <trk>
    <name>Mangorei Track to Pouākai Tarns</name>
    <trkseg>
      <trkpt lat="-39.23409879839786" lon="174.047160022888">
        <ele>1149</ele>
      </trkpt>
      <trkpt lat="-39.23411882510013" lon="174.047074194164">
        <ele>1149</ele>
      </trkpt>
      <trkpt lat="-39.23416841502956" lon="174.046937821858">
        <ele>1150</ele>
      </trkpt>
      <trkpt lat="-39.23434484074003" lon="174.046573526607">
        <ele>1151</ele>
      </trkpt>
      <trkpt lat="-39.23439443066946" lon="174.046395193591">
        <ele>1151</ele>
      </trkpt>
      <trkpt lat="-39.23439729162693" lon="174.046106236887">
        <ele>1152</ele>
      </trkpt>
      <trkpt lat="-39.23430001907305" lon="174.045570284188">
        <ele>1157</ele>
      </trkpt>
      <trkpt lat="-39.23426187297348" lon="174.045159259966">
        <ele>1163</ele>
      </trkpt>
      <trkpt lat="-39.23425042914361" lon="174.044505054358">
        <ele>1172</ele>
      </trkpt>
      <trkpt lat="-39.23446690825863" lon="174.043925233645">
        <ele>1180</ele>
      </trkpt>
      <trkpt lat="-39.23452317375548" lon="174.043710661835">
        <ele>1182</ele>
      </trkpt>
      <trkpt lat="-39.23471676521076" lon="174.04327198169">
        <ele>1189</ele>
      </trkpt>
      <trkpt lat="-39.23483501811939" lon="174.042942017929">
        <ele>1193</ele>
      </trkpt>
      <trkpt lat="-39.23521552546252" lon="174.04215716193">
        <ele>1203</ele>
      </trkpt>
      <trkpt lat="-39.23557886706084" lon="174.04134846462">
        <ele>1212</ele>
      </trkpt>
      <trkpt lat="-39.23598512302117" lon="174.040423421705">
        <ele>1220</ele>
      </trkpt>
      <trkpt lat="-39.23615105855426" lon="174.04">
        <ele>1219</ele>
      </trkpt>
      <trkpt lat="-39.23615105855426" lon="174.04">
        <ele>1219</ele>
      </trkpt>
      <trkpt lat="-39.23624356284569" lon="174.03980068663">
        <ele>1218</ele>
      </trkpt>
      <trkpt lat="-39.2363217623498" lon="174.039336257868">
        <ele>1219</ele>
      </trkpt>
      <trkpt lat="-39.23628266259774" lon="174.038986267404">
        <ele>1220</ele>
      </trkpt>
      <trkpt lat="-39.23620923135609" lon="174.038856570666">
        <ele>1220</ele>
      </trkpt>
      <trkpt lat="-39.23615391951173" lon="174.038789814991">
        <ele>1220</ele>
      </trkpt>
      <trkpt lat="-39.23605664695785" lon="174.038761205417">
        <ele>1220</ele>
      </trkpt>
      <trkpt lat="-39.23597654014877" lon="174.038732595842">
        <ele>1220</ele>
      </trkpt>
      <trkpt lat="-39.2358954796872" lon="174.038703986267">
        <ele>1220</ele>
      </trkpt>
      <trkpt lat="-39.23587831394239" lon="174.038641998856">
        <ele>1220</ele>
      </trkpt>
      <trkpt lat="-39.23583158497043" lon="174.038602899104">
        <ele>1220</ele>
      </trkpt>
      <trkpt lat="-39.23576864390616" lon="174.038589547969">
        <ele>1217</ele>
      </trkpt>
      <trkpt lat="-39.23570761014686" lon="174.038511348465">
        <ele>1214</ele>
      </trkpt>
      <trkpt lat="-39.23560652298302" lon="174.038231928285">
        <ele>1208</ele>
      </trkpt>
      <trkpt lat="-39.23554262826626" lon="174.038151821476">
        <ele>1205</ele>
      </trkpt>
      <trkpt lat="-39.235477779897" lon="174.03807266832">
        <ele>1202</ele>
      </trkpt>
      <trkpt lat="-39.23544440205988" lon="174.037996376121">
        <ele>1200</ele>
      </trkpt>
      <trkpt lat="-39.23548350181193" lon="174.037876215907">
        <ele>1200</ele>
      </trkpt>
      <trkpt lat="-39.23548159450696" lon="174.037772267786">
        <ele>1198</ele>
      </trkpt>
      <trkpt lat="-39.23544630936487" lon="174.037678809842">
        <ele>1196</ele>
      </trkpt>
      <trkpt lat="-39.23541102422277" lon="174.037585351898">
        <ele>1194</ele>
      </trkpt>
      <trkpt lat="-39.23535857333587" lon="174.037549113103">
        <ele>1192</ele>
      </trkpt>
      <trkpt lat="-39.23536143429334" lon="174.037492847606">
        <ele>1192</ele>
      </trkpt>
      <trkpt lat="-39.23531756627884" lon="174.037404157925">
        <ele>1189</ele>
      </trkpt>
      <trkpt lat="-39.23528895670417" lon="174.037400343315">
        <ele>1188</ele>
      </trkpt>
      <trkpt lat="-39.23528418844173" lon="174.037365058173">
        <ele>1187</ele>
      </trkpt>
      <trkpt lat="-39.2352603471295" lon="174.037357428953">
        <ele>1186</ele>
      </trkpt>
      <trkpt lat="-39.23525081060461" lon="174.037339309556">
        <ele>1185</ele>
      </trkpt>
      <trkpt lat="-39.23521934007248" lon="174.037320236506">
        <ele>1184</ele>
      </trkpt>
      <trkpt lat="-39.23520217432768" lon="174.037281136754">
        <ele>1183</ele>
      </trkpt>
      <trkpt lat="-39.23519073049781" lon="174.037273507534">
        <ele>1182</ele>
      </trkpt>
      <trkpt lat="-39.23517928666794" lon="174.037277322144">
        <ele>1182</ele>
      </trkpt>
      <trkpt lat="-39.23513541865344" lon="174.037253480832">
        <ele>1180</ele>
      </trkpt>
      <trkpt lat="-39.23506008010681" lon="174.037175281328">
        <ele>1177</ele>
      </trkpt>
      <trkpt lat="-39.23498378790768" lon="174.037098035476">
        <ele>1173</ele>
      </trkpt>
      <trkpt lat="-39.23494945641808" lon="174.037035094412">
        <ele>1171</ele>
      </trkpt>
      <trkpt lat="-39.23493229067328" lon="174.036930192638">
        <ele>1169</ele>
      </trkpt>
      <trkpt lat="-39.23491512492847" lon="174.036825290864">
        <ele>1167</ele>
      </trkpt>
      <trkpt lat="-39.23490177379362" lon="174.036771886325">
        <ele>1166</ele>
      </trkpt>
      <trkpt lat="-39.23487507152393" lon="174.03673564753">
        <ele>1165</ele>
      </trkpt>
      <trkpt lat="-39.23484169368682" lon="174.036703223345">
        <ele>1164</ele>
      </trkpt>
      <trkpt lat="-39.23482166698454" lon="174.036667938203">
        <ele>1163</ele>
      </trkpt>
      <trkpt lat="-39.2347997329773" lon="174.036604997139">
        <ele>1162</ele>
      </trkpt>
      <trkpt lat="-39.23477684531756" lon="174.036543009727">
        <ele>1162</ele>
      </trkpt>
      <trkpt lat="-39.23471485790578" lon="174.036475300401">
        <ele>1161</ele>
      </trkpt>
      <trkpt lat="-39.23470150677093" lon="174.036441922563">
        <ele>1161</ele>
      </trkpt>
      <trkpt lat="-39.23468815563609" lon="174.036358001144">
        <ele>1161</ele>
      </trkpt>
      <trkpt lat="-39.23466526797635" lon="174.036332252527">
        <ele>1161</ele>
      </trkpt>
      <trkpt lat="-39.23464142666412" lon="174.036249284761">
        <ele>1161</ele>
      </trkpt>
      <trkpt lat="-39.2346166316994" lon="174.036167270647">
        <ele>1161</ele>
      </trkpt>
      <trkpt lat="-39.23459374403967" lon="174.03612244898">
        <ele>1161</ele>
      </trkpt>
      <trkpt lat="-39.23455845889757" lon="174.036097654015">
        <ele>1161</ele>
      </trkpt>
      <trkpt lat="-39.23450791531565" lon="174.036082395575">
        <ele>1162</ele>
      </trkpt>
      <trkpt lat="-39.23444974251382" lon="174.036083349228">
        <ele>1162</ele>
      </trkpt>
      <trkpt lat="-39.23435819187488" lon="174.036101468625">
        <ele>1162</ele>
      </trkpt>
      <trkpt lat="-39.23426568758345" lon="174.036141522029">
        <ele>1162</ele>
      </trkpt>
      <trkpt lat="-39.23417222963952" lon="174.036181575434">
        <ele>1162</ele>
      </trkpt>
      <trkpt lat="-39.23408830822048" lon="174.036252145718">
        <ele>1161</ele>
      </trkpt>
      <trkpt lat="-39.23398912836162" lon="174.036313179477">
        <ele>1161</ele>
      </trkpt>
      <trkpt lat="-39.23390997520503" lon="174.036389471677">
        <ele>1160</ele>
      </trkpt>
      <trkpt lat="-39.23382986839595" lon="174.036466717528">
        <ele>1159</ele>
      </trkpt>
      <trkpt lat="-39.23372019835971" lon="174.0365515926">
        <ele>1158</ele>
      </trkpt>
      <trkpt lat="-39.23360957467099" lon="174.036636467671">
        <ele>1157</ele>
      </trkpt>
      <trkpt lat="-39.23348750715239" lon="174.036710852565">
        <ele>1156</ele>
      </trkpt>
      <trkpt lat="-39.23342551974061" lon="174.036793820332">
        <ele>1154</ele>
      </trkpt>
      <trkpt lat="-39.23331012778943" lon="174.036829105474">
        <ele>1154</ele>
      </trkpt>
      <trkpt lat="-39.23322811367537" lon="174.03691588785">
        <ele>1151</ele>
      </trkpt>
      <trkpt lat="-39.23315086782376" lon="174.03693877551">
        <ele>1151</ele>
      </trkpt>
      <trkpt lat="-39.23309364867442" lon="174.036977875262">
        <ele>1150</ele>
      </trkpt>
      <trkpt lat="-39.23305836353232" lon="174.037032233454">
        <ele>1148</ele>
      </trkpt>
      <trkpt lat="-39.23301544917032" lon="174.037011253099">
        <ele>1149</ele>
      </trkpt>
      <trkpt lat="-39.23297730307076" lon="174.036963570475">
        <ele>1150</ele>
      </trkpt>
      <trkpt lat="-39.23294106427618" lon="174.036966431432">
        <ele>1150</ele>
      </trkpt>
      <trkpt lat="-39.23290673278657" lon="174.037029372497">
        <ele>1148</ele>
      </trkpt>
      <trkpt lat="-39.2328695403395" lon="174.037062750334">
        <ele>1147</ele>
      </trkpt>
      <trkpt lat="-39.23275224108335" lon="174.037035094412">
        <ele>1148</ele>
      </trkpt>
      <trkpt lat="-39.2326339881747" lon="174.037008392142">
        <ele>1149</ele>
      </trkpt>
      <trkpt lat="-39.23254529849323" lon="174.036994087355">
        <ele>1150</ele>
      </trkpt>
      <trkpt lat="-39.23245660881175" lon="174.03698073622">
        <ele>1150</ele>
      </trkpt>
      <trkpt lat="-39.23234884608048" lon="174.03699218005">
        <ele>1151</ele>
      </trkpt>
      <trkpt lat="-39.23224012969673" lon="174.037004577532">
        <ele>1151</ele>
      </trkpt>
      <trkpt lat="-39.23216765210757" lon="174.037045584589">
        <ele>1151</ele>
      </trkpt>
      <trkpt lat="-39.2320951745184" lon="174.037087545299">
        <ele>1150</ele>
      </trkpt>
      <trkpt lat="-39.23205130650391" lon="174.03717623498">
        <ele>1147</ele>
      </trkpt>
      <trkpt lat="-39.23199408735456" lon="174.037126645051">
        <ele>1149</ele>
      </trkpt>
      <trkpt lat="-39.23193591455274" lon="174.037154300973">
        <ele>1149</ele>
      </trkpt>
      <trkpt lat="-39.23189109288575" lon="174.03721819569">
        <ele>1147</ele>
      </trkpt>
      <trkpt lat="-39.23184627121876" lon="174.037282090406">
        <ele>1146</ele>
      </trkpt>
      <trkpt lat="-39.23181575433912" lon="174.037384131223">
        <ele>1143</ele>
      </trkpt>
      <trkpt lat="-39.23176902536715" lon="174.037465191684">
        <ele>1141</ele>
      </trkpt>
      <trkpt lat="-39.23172229639519" lon="174.037546252146">
        <ele>1139</ele>
      </trkpt>
      <trkpt lat="-39.23163169940873" lon="174.037654968529">
        <ele>1136</ele>
      </trkpt>
      <trkpt lat="-39.23155063894716" lon="174.037707419416">
        <ele>1136</ele>
      </trkpt>
      <trkpt lat="-39.23146862483311" lon="174.037759870303">
        <ele>1136</ele>
      </trkpt>
      <trkpt lat="-39.23137993515163" lon="174.037864772077">
        <ele>1134</ele>
      </trkpt>
      <trkpt lat="-39.23131794773984" lon="174.037929620446">
        <ele>1133</ele>
      </trkpt>
      <trkpt lat="-39.23125500667557" lon="174.037995422468">
        <ele>1132</ele>
      </trkpt>
      <trkpt lat="-39.23083349227541" lon="174.038290101087">
        <ele>1127</ele>
      </trkpt>
      <trkpt lat="-39.23077055121114" lon="174.038326339882">
        <ele>1125</ele>
      </trkpt>
      <trkpt lat="-39.23070761014686" lon="174.038362578676">
        <ele>1123</ele>
      </trkpt>
      <trkpt lat="-39.23063894716765" lon="174.038453175663">
        <ele>1118</ele>
      </trkpt>
      <trkpt lat="-39.2305998474156" lon="174.038425519741">
        <ele>1119</ele>
      </trkpt>
      <trkpt lat="-39.23052546252146" lon="174.038423612436">
        <ele>1118</ele>
      </trkpt>
      <trkpt lat="-39.23041769979019" lon="174.03850944116">
        <ele>1114</ele>
      </trkpt>
      <trkpt lat="-39.23030993705893" lon="174.038595269884">
        <ele>1109</ele>
      </trkpt>
      <trkpt lat="-39.23023555216479" lon="174.038621972153">
        <ele>1107</ele>
      </trkpt>
      <trkpt lat="-39.23016116727064" lon="174.038649628076">
        <ele>1106</ele>
      </trkpt>
      <trkpt lat="-39.23006675567423" lon="174.038642952508">
        <ele>1105</ele>
      </trkpt>
      <trkpt lat="-39.22997234407782" lon="174.038637230593">
        <ele>1103</ele>
      </trkpt>
      <trkpt lat="-39.22988079343887" lon="174.038585733359">
        <ele>1102</ele>
      </trkpt>
      <trkpt lat="-39.22980545489224" lon="174.038567613962">
        <ele>1101</ele>
      </trkpt>
      <trkpt lat="-39.2297301163456" lon="174.038550448217">
        <ele>1099</ele>
      </trkpt>
      <trkpt lat="-39.2296519168415" lon="174.038543772649">
        <ele>1097</ele>
      </trkpt>
      <trkpt lat="-39.22957276368491" lon="174.038537097082">
        <ele>1094</ele>
      </trkpt>
      <trkpt lat="-39.22948502765592" lon="174.038480831585">
        <ele>1093</ele>
      </trkpt>
      <trkpt lat="-39.2294430669464" lon="174.038384512684">
        <ele>1095</ele>
      </trkpt>
      <trkpt lat="-39.22933244325768" lon="174.038420751478">
        <ele>1090</ele>
      </trkpt>
      <trkpt lat="-39.22922277322144" lon="174.038408353996">
        <ele>1087</ele>
      </trkpt>
      <trkpt lat="-39.22911787144764" lon="174.038295823002">
        <ele>1086</ele>
      </trkpt>
      <trkpt lat="-39.22905302307839" lon="174.038182338356">
        <ele>1087</ele>
      </trkpt>
      <trkpt lat="-39.228999618539" lon="174.038121304597">
        <ele>1086</ele>
      </trkpt>
      <trkpt lat="-39.22892523364486" lon="174.038095555979">
        <ele>1084</ele>
      </trkpt>
      <trkpt lat="-39.22884989509822" lon="174.038070761015">
        <ele>1081</ele>
      </trkpt>
      <trkpt lat="-39.22880221247377" lon="174.03800400534">
        <ele>1080</ele>
      </trkpt>
      <trkpt lat="-39.22875357619683" lon="174.037938203319">
        <ele>1080</ele>
      </trkpt>
      <trkpt lat="-39.2286429525081" lon="174.037840930765">
        <ele>1077</ele>
      </trkpt>
      <trkpt lat="-39.22836639328629" lon="174.037473774557">
        <ele>1070</ele>
      </trkpt>
      <trkpt lat="-39.22837974442113" lon="174.037411787145">
        <ele>1072</ele>
      </trkpt>
      <trkpt lat="-39.22839214190348" lon="174.037349799733">
        <ele>1073</ele>
      </trkpt>
      <trkpt lat="-39.228391188251" lon="174.037094220866">
        <ele>1075</ele>
      </trkpt>
      <trkpt lat="-39.22836067137135" lon="174.036986458135">
        <ele>1073</ele>
      </trkpt>
      <trkpt lat="-39.22832920083921" lon="174.036879649056">
        <ele>1072</ele>
      </trkpt>
      <trkpt lat="-39.22832729353424" lon="174.036502956323">
        <ele>1071</ele>
      </trkpt>
      <trkpt lat="-39.22836830059126" lon="174.036257867633">
        <ele>1070</ele>
      </trkpt>
      <trkpt lat="-39.22833206179668" lon="174.036013732596">
        <ele>1063</ele>
      </trkpt>
      <trkpt lat="-39.22830535952698" lon="174.035928857524">
        <ele>1060</ele>
      </trkpt>
      <trkpt lat="-39.22826339881747" lon="174.035842075148">
        <ele>1056</ele>
      </trkpt>
      <trkpt lat="-39.22822334541293" lon="174.035735266069">
        <ele>1053</ele>
      </trkpt>
      <trkpt lat="-39.2281823383559" lon="174.035629410643">
        <ele>1050</ele>
      </trkpt>
      <trkpt lat="-39.22814514590883" lon="174.035368109861">
        <ele>1047</ele>
      </trkpt>
      <trkpt lat="-39.22807266831966" lon="174.03502288766">
        <ele>1040</ele>
      </trkpt>
      <trkpt lat="-39.22803261491512" lon="174.034755864963">
        <ele>1036</ele>
      </trkpt>
      <trkpt lat="-39.22801831012779" lon="174.034482166698">
        <ele>1034</ele>
      </trkpt>
      <trkpt lat="-39.22808792675949" lon="174.03409212283">
        <ele>1034</ele>
      </trkpt>
      <trkpt lat="-39.2281127217242" lon="174.033984360099">
        <ele>1033</ele>
      </trkpt>
      <trkpt lat="-39.22813751668892" lon="174.03387755102">
        <ele>1031</ele>
      </trkpt>
      <trkpt lat="-39.22812225824909" lon="174.033767880984">
        <ele>1028</ele>
      </trkpt>
      <trkpt lat="-39.22806790005722" lon="174.033746900629">
        <ele>1026</ele>
      </trkpt>
      <trkpt lat="-39.2276864390616" lon="174.033699218005">
        <ele>1012</ele>
      </trkpt>
      <trkpt lat="-39.22733835590311" lon="174.033801258821">
        <ele>1001</ele>
      </trkpt>
      <trkpt lat="-39.22722963951936" lon="174.033802212474">
        <ele>998</ele>
      </trkpt>
      <trkpt lat="-39.2271647911501" lon="174.033857524318">
        <ele>997</ele>
      </trkpt>
      <trkpt lat="-39.22709994278085" lon="174.033912836163">
        <ele>996</ele>
      </trkpt>
      <trkpt lat="-39.22698455082968" lon="174.033905206943">
        <ele>992</ele>
      </trkpt>
      <trkpt lat="-39.22686343696357" lon="174.033955750525">
        <ele>990</ele>
      </trkpt>
      <trkpt lat="-39.22674136944497" lon="174.034006294106">
        <ele>987</ele>
      </trkpt>
      <trkpt lat="-39.22666507724585" lon="174.034074957086">
        <ele>987</ele>
      </trkpt>
      <trkpt lat="-39.2265649437345" lon="174.034102613008">
        <ele>986</ele>
      </trkpt>
      <trkpt lat="-39.22646385657066" lon="174.034131222583">
        <ele>985</ele>
      </trkpt>
      <trkpt lat="-39.22634465000953" lon="174.034171275987">
        <ele>984</ele>
      </trkpt>
      <trkpt lat="-39.22622448979592" lon="174.034211329392">
        <ele>982</ele>
      </trkpt>
      <trkpt lat="-39.22615296585924" lon="174.034290482548">
        <ele>981</ele>
      </trkpt>
      <trkpt lat="-39.2260518786954" lon="174.034354377265">
        <ele>980</ele>
      </trkpt>
      <trkpt lat="-39.22596891092886" lon="174.034377264925">
        <ele>979</ele>
      </trkpt>
      <trkpt lat="-39.22588498950982" lon="174.034400152584">
        <ele>978</ele>
      </trkpt>
      <trkpt lat="-39.22579820713332" lon="174.034476444784">
        <ele>977</ele>
      </trkpt>
      <trkpt lat="-39.22571142475682" lon="174.034553690635">
        <ele>976</ele>
      </trkpt>
      <trkpt lat="-39.22563131794774" lon="174.03458611482">
        <ele>974</ele>
      </trkpt>
      <trkpt lat="-39.22555025748617" lon="174.034618539004">
        <ele>973</ele>
      </trkpt>
      <trkpt lat="-39.22529658592408" lon="174.034995231738">
        <ele>975</ele>
      </trkpt>
      <trkpt lat="-39.22521743276749" lon="174.03501525844">
        <ele>974</ele>
      </trkpt>
      <trkpt lat="-39.22513732595841" lon="174.035035285142">
        <ele>974</ele>
      </trkpt>
      <trkpt lat="-39.22504768262445" lon="174.03498855617">
        <ele>973</ele>
      </trkpt>
      <trkpt lat="-39.22495708563799" lon="174.034942780851">
        <ele>971</ele>
      </trkpt>
      <trkpt lat="-39.22486458134655" lon="174.034849322907">
        <ele>966</ele>
      </trkpt>
      <trkpt lat="-39.22478352088498" lon="174.034833110814">
        <ele>964</ele>
      </trkpt>
      <trkpt lat="-39.22469101659355" lon="174.034865534999">
        <ele>963</ele>
      </trkpt>
      <trkpt lat="-39.22459755864963" lon="174.034898912836">
        <ele>962</ele>
      </trkpt>
      <trkpt lat="-39.22451077627312" lon="174.034949456418">
        <ele>962</ele>
      </trkpt>
      <trkpt lat="-39.22442304024413" lon="174.035000953653">
        <ele>962</ele>
      </trkpt>
      <trkpt lat="-39.22431241655541" lon="174.035009536525">
        <ele>959</ele>
      </trkpt>
      <trkpt lat="-39.22420179286668" lon="174.03501907305">
        <ele>957</ele>
      </trkpt>
      <trkpt lat="-39.22410833492275" lon="174.035070570284">
        <ele>955</ele>
      </trkpt>
      <trkpt lat="-39.22401392332634" lon="174.035122067519">
        <ele>953</ele>
      </trkpt>
      <trkpt lat="-39.22367251573526" lon="174.035456799542">
        <ele>946</ele>
      </trkpt>
      <trkpt lat="-39.22306122448979" lon="174.035571237841">
        <ele>937</ele>
      </trkpt>
      <trkpt lat="-39.22273507533854" lon="174.035392904825">
        <ele>934</ele>
      </trkpt>
      <trkpt lat="-39.22261872973488" lon="174.035362387946">
        <ele>933</ele>
      </trkpt>
      <trkpt lat="-39.22250238413122" lon="174.035331871066">
        <ele>932</ele>
      </trkpt>
      <trkpt lat="-39.22173755483502" lon="174.035303261492">
        <ele>921</ele>
      </trkpt>
      <trkpt lat="-39.22166221628838" lon="174.035361434293">
        <ele>919</ele>
      </trkpt>
      <trkpt lat="-39.22158592408926" lon="174.035419607095">
        <ele>917</ele>
      </trkpt>
      <trkpt lat="-39.2214695784856" lon="174.035502574862">
        <ele>914</ele>
      </trkpt>
      <trkpt lat="-39.22135227922944" lon="174.035585542628">
        <ele>912</ele>
      </trkpt>
      <trkpt lat="-39.22132271600228" lon="174.0356704177">
        <ele>910</ele>
      </trkpt>
      <trkpt lat="-39.22129219912264" lon="174.035755292771">
        <ele>909</ele>
      </trkpt>
      <trkpt lat="-39.22129696738508" lon="174.035845889758">
        <ele>908</ele>
      </trkpt>
      <trkpt lat="-39.22130173564753" lon="174.035937440397">
        <ele>907</ele>
      </trkpt>
      <trkpt lat="-39.22121876788098" lon="174.036303642953">
        <ele>899</ele>
      </trkpt>
      <trkpt lat="-39.22114629029181" lon="174.036682242991">
        <ele>892</ele>
      </trkpt>
      <trkpt lat="-39.22055597940111" lon="174.037353614343">
        <ele>877</ele>
      </trkpt>
      <trkpt lat="-39.2205388136563" lon="174.03741750906">
        <ele>876</ele>
      </trkpt>
      <trkpt lat="-39.2205216479115" lon="174.037481403776">
        <ele>875</ele>
      </trkpt>
      <trkpt lat="-39.22023936677474" lon="174.037873354949">
        <ele>870</ele>
      </trkpt>
      <trkpt lat="-39.22012016021362" lon="174.037885752432">
        <ele>870</ele>
      </trkpt>
      <trkpt lat="-39.22" lon="174.037898149914">
        <ele>869</ele>
      </trkpt>
      <trkpt lat="-39.22" lon="174.037898149914">
        <ele>869</ele>
      </trkpt>
      <trkpt lat="-39.21992275414839" lon="174.037906732787">
        <ele>867</ele>
      </trkpt>
      <trkpt lat="-39.21975109670036" lon="174.038125119207">
        <ele>862</ele>
      </trkpt>
      <trkpt lat="-39.21936105283235" lon="174.038043105093">
        <ele>853</ele>
      </trkpt>
      <trkpt lat="-39.21920942208659" lon="174.038200457753">
        <ele>849</ele>
      </trkpt>
      <trkpt lat="-39.21908640091551" lon="174.038194735838">
        <ele>846</ele>
      </trkpt>
      <trkpt lat="-39.21896624070189" lon="174.038359717719">
        <ele>844</ele>
      </trkpt>
      <trkpt lat="-39.21876311272172" lon="174.038441731833">
        <ele>839</ele>
      </trkpt>
      <trkpt lat="-39.21854186534427" lon="174.038427427046">
        <ele>835</ele>
      </trkpt>
      <trkpt lat="-39.21834159832157" lon="174.038563799352">
        <ele>830</ele>
      </trkpt>
      <trkpt lat="-39.21745374785429" lon="174.038982452794">
        <ele>811</ele>
      </trkpt>
      <trkpt lat="-39.21682052260157" lon="174.039305740988">
        <ele>797</ele>
      </trkpt>
      <trkpt lat="-39.21653728781232" lon="174.039547015068">
        <ele>790</ele>
      </trkpt>
      <trkpt lat="-39.216478161358" lon="174.039736791913">
        <ele>788</ele>
      </trkpt>
      <trkpt lat="-39.2163570474919" lon="174.04">
        <ele>784</ele>
      </trkpt>
      <trkpt lat="-39.2163570474919" lon="174.04">
        <ele>784</ele>
      </trkpt>
      <trkpt lat="-39.2162349799733" lon="174.040267022697">
        <ele>779</ele>
      </trkpt>
      <trkpt lat="-39.21610051497235" lon="174.040395765783">
        <ele>776</ele>
      </trkpt>
      <trkpt lat="-39.21598512302117" lon="174.040495899294">
        <ele>773</ele>
      </trkpt>
      <trkpt lat="-39.21550925042914" lon="174.040703795537">
        <ele>765</ele>
      </trkpt>
      <trkpt lat="-39.215391951173" lon="174.040797253481">
        <ele>763</ele>
      </trkpt>
      <trkpt lat="-39.21534999046347" lon="174.040871638375">
        <ele>762</ele>
      </trkpt>
      <trkpt lat="-39.2153213808888" lon="174.040981308411">
        <ele>760</ele>
      </trkpt>
      <trkpt lat="-39.21526511539195" lon="174.041032805646">
        <ele>759</ele>
      </trkpt>
      <trkpt lat="-39.2151916841503" lon="174.041015639901">
        <ele>758</ele>
      </trkpt>
      <trkpt lat="-39.21511253099371" lon="174.040899294297">
        <ele>758</ele>
      </trkpt>
      <trkpt lat="-39.21497901964524" lon="174.040889757772">
        <ele>756</ele>
      </trkpt>
      <trkpt lat="-39.21453652489033" lon="174.041033759298">
        <ele>747</ele>
      </trkpt>
      <trkpt lat="-39.2142962044631" lon="174.041058554263">
        <ele>742</ele>
      </trkpt>
      <trkpt lat="-39.21390902155255" lon="174.0411300782">
        <ele>734</ele>
      </trkpt>
      <trkpt lat="-39.21370589357238" lon="174.041226397101">
        <ele>730</ele>
      </trkpt>
      <trkpt lat="-39.21361243562846" lon="174.041318901392">
        <ele>729</ele>
      </trkpt>
      <trkpt lat="-39.21354949456418" lon="174.041563990082">
        <ele>731</ele>
      </trkpt>
      <trkpt lat="-39.21340263208087" lon="174.041633606714">
        <ele>729</ele>
      </trkpt>
      <trkpt lat="-39.21332347892428" lon="174.041816707992">
        <ele>727</ele>
      </trkpt>
      <trkpt lat="-39.21331012778943" lon="174.04195021934">
        <ele>725</ele>
      </trkpt>
      <trkpt lat="-39.21284093076483" lon="174.042508106046">
        <ele>711</ele>
      </trkpt>
      <trkpt lat="-39.21269025367156" lon="174.042514781614">
        <ele>709</ele>
      </trkpt>
      <trkpt lat="-39.21260537860004" lon="174.042552927713">
        <ele>707</ele>
      </trkpt>
      <trkpt lat="-39.21250143047873" lon="174.042695975586">
        <ele>703</ele>
      </trkpt>
      <trkpt lat="-39.21248998664887" lon="174.042947739844">
        <ele>699</ele>
      </trkpt>
      <trkpt lat="-39.2122258249094" lon="174.043339691017">
        <ele>689</ele>
      </trkpt>
      <trkpt lat="-39.21200934579439" lon="174.043620064848">
        <ele>683</ele>
      </trkpt>
      <trkpt lat="-39.21184531756628" lon="174.043695403395">
        <ele>680</ele>
      </trkpt>
      <trkpt lat="-39.21162788479878" lon="174.043883272935">
        <ele>675</ele>
      </trkpt>
      <trkpt lat="-39.21148865153538" lon="174.044222773221">
        <ele>669</ele>
      </trkpt>
      <trkpt lat="-39.21130555025749" lon="174.044508868968">
        <ele>662</ele>
      </trkpt>
      <trkpt lat="-39.21108430288003" lon="174.044655731451">
        <ele>658</ele>
      </trkpt>
      <trkpt lat="-39.21102899103567" lon="174.04480068663">
        <ele>655</ele>
      </trkpt>
      <trkpt lat="-39.21096891092886" lon="174.045020026702">
        <ele>652</ele>
      </trkpt>
      <trkpt lat="-39.21072286858669" lon="174.045354758726">
        <ele>648</ele>
      </trkpt>
      <trkpt lat="-39.21057505245088" lon="174.045661834827">
        <ele>645</ele>
      </trkpt>
      <trkpt lat="-39.21038146099561" lon="174.045741941636">
        <ele>644</ele>
      </trkpt>
      <trkpt lat="-39.21024508868968" lon="174.045953652489">
        <ele>642</ele>
      </trkpt>
      <trkpt lat="-39.21021266450506" lon="174.04608430288">
        <ele>641</ele>
      </trkpt>
      <trkpt lat="-39.21026320808697" lon="174.046316040435">
        <ele>639</ele>
      </trkpt>
      <trkpt lat="-39.21001811939729" lon="174.046994087355">
        <ele>632</ele>
      </trkpt>
      <trkpt lat="-39.20990940301354" lon="174.047200076292">
        <ele>629</ele>
      </trkpt>
      <trkpt lat="-39.20979782567233" lon="174.047280183101">
        <ele>627</ele>
      </trkpt>
      <trkpt lat="-39.2097739843601" lon="174.047381270265">
        <ele>626</ele>
      </trkpt>
      <trkpt lat="-39.20964047301163" lon="174.047592981118">
        <ele>623</ele>
      </trkpt>
      <trkpt lat="-39.20929525081061" lon="174.047666412359">
        <ele>620</ele>
      </trkpt>
      <trkpt lat="-39.2091569711997" lon="174.047821857715">
        <ele>618</ele>
      </trkpt>
      <trkpt lat="-39.20864772077055" lon="174.047713141331">
        <ele>613</ele>
      </trkpt>
      <trkpt lat="-39.20839786381843" lon="174.047830440587">
        <ele>611</ele>
      </trkpt>
      <trkpt lat="-39.20802689300019" lon="174.047899103567">
        <ele>606</ele>
      </trkpt>
      <trkpt lat="-39.20790768643906" lon="174.04804978066">
        <ele>604</ele>
      </trkpt>
      <trkpt lat="-39.20780755292771" lon="174.048314896052">
        <ele>602</ele>
      </trkpt>
      <trkpt lat="-39.20762349799733" lon="174.048389280946">
        <ele>599</ele>
      </trkpt>
      <trkpt lat="-39.2071562082777" lon="174.048642952508">
        <ele>593</ele>
      </trkpt>
      <trkpt lat="-39.20631413312989" lon="174.049359145527">
        <ele>581</ele>
      </trkpt>
      <trkpt lat="-39.20609097844746" lon="174.0493677284">
        <ele>579</ele>
      </trkpt>
      <trkpt lat="-39.20591073812703" lon="174.049847415602">
        <ele>576</ele>
      </trkpt>
      <trkpt lat="-39.2058258630555" lon="174.050179286668">
        <ele>574</ele>
      </trkpt>
      <trkpt lat="-39.20561892046538" lon="174.050548350181">
        <ele>572</ele>
      </trkpt>
      <trkpt lat="-39.20544535571238" lon="174.050830631318">
        <ele>570</ele>
      </trkpt>
      <trkpt lat="-39.20540244135037" lon="174.051297921038">
        <ele>567</ele>
      </trkpt>
      <trkpt lat="-39.2054005340454" lon="174.05174709136">
        <ele>565</ele>
      </trkpt>
      <trkpt lat="-39.2053909975205" lon="174.052073240511">
        <ele>564</ele>
      </trkpt>
      <trkpt lat="-39.20529944688155" lon="174.0524327675">
        <ele>562</ele>
      </trkpt>
      <trkpt lat="-39.20518786954034" lon="174.052655922182">
        <ele>561</ele>
      </trkpt>
      <trkpt lat="-39.20500381460996" lon="174.052978256723">
        <ele>560</ele>
      </trkpt>
      <trkpt lat="-39.20475491131032" lon="174.053170894526">
        <ele>557</ele>
      </trkpt>
      <trkpt lat="-39.20466812893382" lon="174.053266259775">
        <ele>556</ele>
      </trkpt>
      <trkpt lat="-39.20448979591837" lon="174.05351707038">
        <ele>553</ele>
      </trkpt>
      <trkpt lat="-39.20431050925043" lon="174.053783139424">
        <ele>551</ele>
      </trkpt>
      <trkpt lat="-39.20420942208659" lon="174.053974823574">
        <ele>550</ele>
      </trkpt>
      <trkpt lat="-39.20402822811368" lon="174.054611863437">
        <ele>546</ele>
      </trkpt>
      <trkpt lat="-39.20401106236887" lon="174.054692923899">
        <ele>545</ele>
      </trkpt>
      <trkpt lat="-39.20401392332634" lon="174.05476254053">
        <ele>545</ele>
      </trkpt>
      <trkpt lat="-39.20405016212092" lon="174.055060080107">
        <ele>543</ele>
      </trkpt>
      <trkpt lat="-39.20404253290101" lon="174.055483501812">
        <ele>539</ele>
      </trkpt>
      <trkpt lat="-39.2040177379363" lon="174.055598893763">
        <ele>538</ele>
      </trkpt>
      <trkpt lat="-39.20397673087927" lon="174.055703795537">
        <ele>537</ele>
      </trkpt>
      <trkpt lat="-39.20380507343124" lon="174.055986076674">
        <ele>535</ele>
      </trkpt>
      <trkpt lat="-39.20328151821477" lon="174.056913026893">
        <ele>529</ele>
      </trkpt>
      <trkpt lat="-39.20323765020026" lon="174.056960709517">
        <ele>528</ele>
      </trkpt>
      <trkpt lat="-39.20315849704368" lon="174.056943543773">
        <ele>528</ele>
      </trkpt>
      <trkpt lat="-39.2031127217242" lon="174.056944497425">
        <ele>527</ele>
      </trkpt>
      <trkpt lat="-39.20306313179478" lon="174.05696929239">
        <ele>527</ele>
      </trkpt>
      <trkpt lat="-39.20302498569522" lon="174.057002670227">
        <ele>526</ele>
      </trkpt>
      <trkpt lat="-39.20296681289338" lon="174.057039862674">
        <ele>526</ele>
      </trkpt>
      <trkpt lat="-39.20272553881366" lon="174.057120923136">
        <ele>524</ele>
      </trkpt>
    </trkseg>
  </trk>
</gpx>