<?xml version="1.0" encoding="UTF-8" standalone="yes"?>
<gpx
 version="1.1"
 creator="Generated by MapOut iPhone App. See https://mapout.app"
 xmlns="http://www.topografix.com/GPX/1/1"
 xmlns:xsi="http://www.w3.org/2001/XMLSchema-instance"
 xmlns:gpxx="http://www.garmin.com/xmlschemas/GpxExtensions/v3"
 xmlns:mapout="https://mapout.app/xmlschemas/MapOutExtensions"
 xsi:schemaLocation="http://www.topografix.com/GPX/1/1 https://www.topografix.com/GPX/1/1/gpx.xsd http://www.garmin.com/xmlschemas/GpxExtensions/v3 https://www8.garmin.com/xmlschemas/GpxExtensionsv3.xsd https://mapout.app/xmlschemas/MapOutExtensions https://mapout.app/xmlschemas/MapOutExtensions.xsd">
  <metadata>
    <name>Piripiri Caves</name>
    <desc>Cave</desc>
    <author><name>iPhone</name></author>
    <time>2026-05-30T20:11:07Z</time>
    <bounds minlat="-38.25582777036048" minlon="174.862126645051" maxlat="-38.2550267022697" maxlon="174.863332621186"/>
  </metadata>
  <wpt lat="-38.25570761014686" lon="174.862126645051">
    <ele>176</ele>
    <name>Piripiri Caves</name>
    <desc>Cave</desc>
    <sym>Waypoint</sym>
  </wpt>
  <trk>
    <trkseg>
      <trkpt lat="-38.25503683964897" lon="174.863332621186">
        <ele>158</ele>
      </trkpt>
      <trkpt lat="-38.2550267022697" lon="174.863331108144">
        <ele>158</ele>
      </trkpt>
      <trkpt lat="-38.2550267022697" lon="174.863331108144">
        <ele>158</ele>
      </trkpt>
      <trkpt lat="-38.25502765592218" lon="174.863288193782">
        <ele>159</ele>
      </trkpt>
      <trkpt lat="-38.25506866297921" lon="174.863208086973">
        <ele>161</ele>
      </trkpt>
      <trkpt lat="-38.25511062368873" lon="174.863107953462">
        <ele>163</ele>
      </trkpt>
      <trkpt lat="-38.25515258439825" lon="174.863008773603">
        <ele>165</ele>
      </trkpt>
      <trkpt lat="-38.25518405493038" lon="174.862944878886">
        <ele>167</ele>
      </trkpt>
      <trkpt lat="-38.25521457181003" lon="174.862881937822">
        <ele>168</ele>
      </trkpt>
      <trkpt lat="-38.2552956322716" lon="174.862807552928">
        <ele>169</ele>
      </trkpt>
      <trkpt lat="-38.25536810986077" lon="174.862724585161">
        <ele>169</ele>
      </trkpt>
      <trkpt lat="-38.25543963379744" lon="174.862642571047">
        <ele>170</ele>
      </trkpt>
      <trkpt lat="-38.25553786000381" lon="174.862558649628">
        <ele>170</ele>
      </trkpt>
      <trkpt lat="-38.25562559603281" lon="174.862501430479">
        <ele>170</ele>
      </trkpt>
      <trkpt lat="-38.25567709326722" lon="174.862431813847">
        <ele>171</ele>
      </trkpt>
      <trkpt lat="-38.25572859050162" lon="174.862362197215">
        <ele>171</ele>
      </trkpt>
      <trkpt lat="-38.25579725348083" lon="174.86234884608">
        <ele>170</ele>
      </trkpt>
      <trkpt lat="-38.25582777036048" lon="174.862281136754">
        <ele>171</ele>
      </trkpt>
      <trkpt lat="-38.25580488270074" lon="174.862250619874">
        <ele>172</ele>
      </trkpt>
    </trkseg>
  </trk>
</gpx>