<?xml version="1.0" encoding="UTF-8" standalone="yes"?>
<gpx
 version="1.1"
 creator="Generated by MapOut iPhone App. See https://mapout.app"
 xmlns="http://www.topografix.com/GPX/1/1"
 xmlns:xsi="http://www.w3.org/2001/XMLSchema-instance"
 xmlns:gpxx="http://www.garmin.com/xmlschemas/GpxExtensions/v3"
 xmlns:mapout="https://mapout.app/xmlschemas/MapOutExtensions"
 xsi:schemaLocation="http://www.topografix.com/GPX/1/1 https://www.topografix.com/GPX/1/1/gpx.xsd http://www.garmin.com/xmlschemas/GpxExtensions/v3 https://www8.garmin.com/xmlschemas/GpxExtensionsv3.xsd https://mapout.app/xmlschemas/MapOutExtensions https://mapout.app/xmlschemas/MapOutExtensions.xsd">
  <metadata>
    <name>Rotorua Central Walk</name>
    <author><name>iPhone</name></author>
    <time>2026-05-11T07:25:32Z</time>
    <bounds minlat="-38.13795823002098" minlon="176.241514237977" maxlat="-38.13029086400915" maxlon="176.262354567995"/>
  </metadata>
  <trk>
    <name>Rotorua Central Walk</name>
    <trkseg>
      <trkpt lat="-38.13314896051878" lon="176.241653633416">
        <ele>288</ele>
      </trkpt>
      <trkpt lat="-38.13312225824909" lon="176.241637421324">
        <ele>288</ele>
      </trkpt>
      <trkpt lat="-38.13305454892237" lon="176.241516307458">
        <ele>288</ele>
      </trkpt>
      <trkpt lat="-38.13305339200235" lon="176.241514237977">
        <ele>288</ele>
      </trkpt>
      <trkpt lat="-38.13261968338737" lon="176.241691779516">
        <ele>287</ele>
      </trkpt>
      <trkpt lat="-38.13251859622353" lon="176.241742323097">
        <ele>287</ele>
      </trkpt>
      <trkpt lat="-38.13251859622353" lon="176.241742323097">
        <ele>287</ele>
      </trkpt>
      <trkpt lat="-38.1324569593298" lon="176.242646074052">
        <ele>287</ele>
      </trkpt>
      <trkpt lat="-38.13245695933071" lon="176.24264607405">
        <ele>287</ele>
      </trkpt>
      <trkpt lat="-38.13242799923707" lon="176.242676902537">
        <ele>287</ele>
      </trkpt>
      <trkpt lat="-38.13239652870494" lon="176.242695021934">
        <ele>287</ele>
      </trkpt>
      <trkpt lat="-38.13235742895289" lon="176.242698836544">
        <ele>287</ele>
      </trkpt>
      <trkpt lat="-38.13232595842074" lon="176.242677856189">
        <ele>287</ele>
      </trkpt>
      <trkpt lat="-38.13229859799648" lon="176.242650495765">
        <ele>287</ele>
      </trkpt>
      <trkpt lat="-38.13229859799663" lon="176.242650495773">
        <ele>287</ele>
      </trkpt>
      <trkpt lat="-38.13229925615106" lon="176.242697882891">
        <ele>287</ele>
      </trkpt>
      <trkpt lat="-38.13229925615106" lon="176.242697882891">
        <ele>287</ele>
      </trkpt>
      <trkpt lat="-38.13227732214381" lon="176.242778943353">
        <ele>287</ele>
      </trkpt>
      <trkpt lat="-38.13228590501621" lon="176.24305740988">
        <ele>287</ele>
      </trkpt>
      <trkpt lat="-38.13226969292389" lon="176.243192828533">
        <ele>287</ele>
      </trkpt>
      <trkpt lat="-38.13223822239176" lon="176.243244325768">
        <ele>287</ele>
      </trkpt>
      <trkpt lat="-38.13216383749761" lon="176.243267213427">
        <ele>287</ele>
      </trkpt>
      <trkpt lat="-38.13216383749761" lon="176.243267213427">
        <ele>287</ele>
      </trkpt>
      <trkpt lat="-38.13216288384512" lon="176.24327961091">
        <ele>287</ele>
      </trkpt>
      <trkpt lat="-38.13210947930574" lon="176.243209994278">
        <ele>287</ele>
      </trkpt>
      <trkpt lat="-38.13205512111386" lon="176.243141331299">
        <ele>287</ele>
      </trkpt>
      <trkpt lat="-38.13201506770933" lon="176.243099370589">
        <ele>287</ele>
      </trkpt>
      <trkpt lat="-38.13193114629028" lon="176.243058363532">
        <ele>286</ele>
      </trkpt>
      <trkpt lat="-38.13185962235361" lon="176.24304978066">
        <ele>286</ele>
      </trkpt>
      <trkpt lat="-38.131782376502" lon="176.243064085447">
        <ele>286</ele>
      </trkpt>
      <trkpt lat="-38.13172038909021" lon="176.243138470341">
        <ele>286</ele>
      </trkpt>
      <trkpt lat="-38.13165744802593" lon="176.243213808888">
        <ele>286</ele>
      </trkpt>
      <trkpt lat="-38.13158497043677" lon="176.243282471867">
        <ele>286</ele>
      </trkpt>
      <trkpt lat="-38.1314867442304" lon="176.243349227541">
        <ele>286</ele>
      </trkpt>
      <trkpt lat="-38.13138851802402" lon="176.243415983216">
        <ele>286</ele>
      </trkpt>
      <trkpt lat="-38.13130459660499" lon="176.24345985123">
        <ele>286</ele>
      </trkpt>
      <trkpt lat="-38.13119492656875" lon="176.243483692542">
        <ele>287</ele>
      </trkpt>
      <trkpt lat="-38.13112626358954" lon="176.243507533855">
        <ele>287</ele>
      </trkpt>
      <trkpt lat="-38.13106999809269" lon="176.243550448217">
        <ele>287</ele>
      </trkpt>
      <trkpt lat="-38.13101850085828" lon="176.243618157543">
        <ele>287</ele>
      </trkpt>
      <trkpt lat="-38.13096604997138" lon="176.243686820523">
        <ele>287</ele>
      </trkpt>
      <trkpt lat="-38.13096604997138" lon="176.243686820523">
        <ele>287</ele>
      </trkpt>
      <trkpt lat="-38.13087926759489" lon="176.243805073431">
        <ele>288</ele>
      </trkpt>
      <trkpt lat="-38.13077913408353" lon="176.243922372687">
        <ele>288</ele>
      </trkpt>
      <trkpt lat="-38.13077913408353" lon="176.243922372687">
        <ele>288</ele>
      </trkpt>
      <trkpt lat="-38.13073717337402" lon="176.243955750525">
        <ele>288</ele>
      </trkpt>
      <trkpt lat="-38.13073717337402" lon="176.243955750525">
        <ele>288</ele>
      </trkpt>
      <trkpt lat="-38.13072859050162" lon="176.243961472439">
        <ele>288</ele>
      </trkpt>
      <trkpt lat="-38.13067041769978" lon="176.243966240702">
        <ele>288</ele>
      </trkpt>
      <trkpt lat="-38.13056742323097" lon="176.243952889567">
        <ele>288</ele>
      </trkpt>
      <trkpt lat="-38.13056742323097" lon="176.243952889567">
        <ele>288</ele>
      </trkpt>
      <trkpt lat="-38.13052164791149" lon="176.243948121305">
        <ele>288</ele>
      </trkpt>
      <trkpt lat="-38.13052164791149" lon="176.243948121305">
        <ele>288</ele>
      </trkpt>
      <trkpt lat="-38.13047301163456" lon="176.243943353042">
        <ele>288</ele>
      </trkpt>
      <trkpt lat="-38.13047301163456" lon="176.243943353042">
        <ele>288</ele>
      </trkpt>
      <trkpt lat="-38.13046442876215" lon="176.243966240702">
        <ele>288</ele>
      </trkpt>
      <trkpt lat="-38.13046442876215" lon="176.243966240702">
        <ele>288</ele>
      </trkpt>
      <trkpt lat="-38.13044249475491" lon="176.244000572191">
        <ele>288</ele>
      </trkpt>
      <trkpt lat="-38.13043295823002" lon="176.244072096128">
        <ele>289</ele>
      </trkpt>
      <trkpt lat="-38.13042246805264" lon="176.244144573717">
        <ele>289</ele>
      </trkpt>
      <trkpt lat="-38.13042246805264" lon="176.244144573717">
        <ele>289</ele>
      </trkpt>
      <trkpt lat="-38.13040339500286" lon="176.244212283044">
        <ele>289</ele>
      </trkpt>
      <trkpt lat="-38.13034712950601" lon="176.244285714286">
        <ele>290</ele>
      </trkpt>
      <trkpt lat="-38.13029086400915" lon="176.244359145527">
        <ele>290</ele>
      </trkpt>
      <trkpt lat="-38.13035761968338" lon="176.244475491131">
        <ele>291</ele>
      </trkpt>
      <trkpt lat="-38.13038146099561" lon="176.244543200458">
        <ele>291</ele>
      </trkpt>
      <trkpt lat="-38.13040530230784" lon="176.244610909784">
        <ele>292</ele>
      </trkpt>
      <trkpt lat="-38.13043581918748" lon="176.244665267976">
        <ele>292</ele>
      </trkpt>
      <trkpt lat="-38.13052355521648" lon="176.244782567233">
        <ele>292</ele>
      </trkpt>
      <trkpt lat="-38.13056265496852" lon="176.244877932481">
        <ele>293</ele>
      </trkpt>
      <trkpt lat="-38.13060175472057" lon="176.244974251383">
        <ele>293</ele>
      </trkpt>
      <trkpt lat="-38.13063608621018" lon="176.245029563227">
        <ele>293</ele>
      </trkpt>
      <trkpt lat="-38.13066851039481" lon="176.245066755674">
        <ele>293</ele>
      </trkpt>
      <trkpt lat="-38.13073145145908" lon="176.245123021171">
        <ele>294</ele>
      </trkpt>
      <trkpt lat="-38.1307648292962" lon="176.245142094221">
        <ele>294</ele>
      </trkpt>
      <trkpt lat="-38.13080583635323" lon="176.245150677093">
        <ele>294</ele>
      </trkpt>
      <trkpt lat="-38.13089738699217" lon="176.245145908831">
        <ele>293</ele>
      </trkpt>
      <trkpt lat="-38.13101468624833" lon="176.245109670036">
        <ele>293</ele>
      </trkpt>
      <trkpt lat="-38.13113198550447" lon="176.245073431242">
        <ele>293</ele>
      </trkpt>
      <trkpt lat="-38.13121304596604" lon="176.245061033759">
        <ele>293</ele>
      </trkpt>
      <trkpt lat="-38.13129792103757" lon="176.245040053405">
        <ele>293</ele>
      </trkpt>
      <trkpt lat="-38.13136658401678" lon="176.245002860957">
        <ele>292</ele>
      </trkpt>
      <trkpt lat="-38.13143524699599" lon="176.244981880603">
        <ele>292</ele>
      </trkpt>
      <trkpt lat="-38.13149246614533" lon="176.244982834255">
        <ele>292</ele>
      </trkpt>
      <trkpt lat="-38.13151249284761" lon="176.244990463475">
        <ele>292</ele>
      </trkpt>
      <trkpt lat="-38.1315477779897" lon="176.245025748617">
        <ele>293</ele>
      </trkpt>
      <trkpt lat="-38.13161644096891" lon="176.245133511348">
        <ele>293</ele>
      </trkpt>
      <trkpt lat="-38.13168415029563" lon="176.24524127408">
        <ele>294</ele>
      </trkpt>
      <trkpt lat="-38.13170513065039" lon="176.245258439825">
        <ele>294</ele>
      </trkpt>
      <trkpt lat="-38.13173374022506" lon="176.245268930002">
        <ele>294</ele>
      </trkpt>
      <trkpt lat="-38.13175758153729" lon="176.245267976349">
        <ele>293</ele>
      </trkpt>
      <trkpt lat="-38.13180240320427" lon="176.24524508869">
        <ele>293</ele>
      </trkpt>
      <trkpt lat="-38.13182147625405" lon="176.245216479115">
        <ele>293</ele>
      </trkpt>
      <trkpt lat="-38.13185962235361" lon="176.245114438299">
        <ele>293</ele>
      </trkpt>
      <trkpt lat="-38.13189681480068" lon="176.245076292199">
        <ele>292</ele>
      </trkpt>
      <trkpt lat="-38.131913026893" lon="176.245067709327">
        <ele>292</ele>
      </trkpt>
      <trkpt lat="-38.1319387755102" lon="176.245065802022">
        <ele>292</ele>
      </trkpt>
      <trkpt lat="-38.13198931909212" lon="176.245074384894">
        <ele>292</ele>
      </trkpt>
      <trkpt lat="-38.1320608430288" lon="176.245068662979">
        <ele>292</ele>
      </trkpt>
      <trkpt lat="-38.13213236696547" lon="176.245063894717">
        <ele>292</ele>
      </trkpt>
      <trkpt lat="-38.1322429906542" lon="176.245077245852">
        <ele>292</ele>
      </trkpt>
      <trkpt lat="-38.13232214381079" lon="176.245074384894">
        <ele>292</ele>
      </trkpt>
      <trkpt lat="-38.13236696547778" lon="176.245081060462">
        <ele>292</ele>
      </trkpt>
      <trkpt lat="-38.13236696547778" lon="176.245081060462">
        <ele>292</ele>
      </trkpt>
      <trkpt lat="-38.13241846271218" lon="176.245082967767">
        <ele>292</ele>
      </trkpt>
      <trkpt lat="-38.13241846271218" lon="176.245082967767">
        <ele>292</ele>
      </trkpt>
      <trkpt lat="-38.13249284760633" lon="176.245067709327">
        <ele>291</ele>
      </trkpt>
      <trkpt lat="-38.13256341789052" lon="176.245082014114">
        <ele>291</ele>
      </trkpt>
      <trkpt lat="-38.1326339881747" lon="176.245096318901">
        <ele>292</ele>
      </trkpt>
      <trkpt lat="-38.13273126072858" lon="176.245165935533">
        <ele>292</ele>
      </trkpt>
      <trkpt lat="-38.13276940682815" lon="176.245227922945">
        <ele>292</ele>
      </trkpt>
      <trkpt lat="-38.13280469197024" lon="176.245257486172">
        <ele>292</ele>
      </trkpt>
      <trkpt lat="-38.1328342551974" lon="176.245271790959">
        <ele>292</ele>
      </trkpt>
      <trkpt lat="-38.13293057409879" lon="176.245282281137">
        <ele>292</ele>
      </trkpt>
      <trkpt lat="-38.13301163456036" lon="176.245301354187">
        <ele>292</ele>
      </trkpt>
      <trkpt lat="-38.13310986076673" lon="176.245314705321">
        <ele>292</ele>
      </trkpt>
      <trkpt lat="-38.13320713332061" lon="176.245329010109">
        <ele>293</ele>
      </trkpt>
      <trkpt lat="-38.13325958420751" lon="176.245342361244">
        <ele>293</ele>
      </trkpt>
      <trkpt lat="-38.13331108144192" lon="176.245369063513">
        <ele>293</ele>
      </trkpt>
      <trkpt lat="-38.13342742704558" lon="176.245484455464">
        <ele>292</ele>
      </trkpt>
      <trkpt lat="-38.13347208290456" lon="176.245490745022">
        <ele>292</ele>
      </trkpt>
      <trkpt lat="-38.13347208290456" lon="176.245490745022">
        <ele>292</ele>
      </trkpt>
      <trkpt lat="-38.13353460770293" lon="176.245578317815">
        <ele>292</ele>
      </trkpt>
      <trkpt lat="-38.13353460770293" lon="176.245578317815">
        <ele>292</ele>
      </trkpt>
      <trkpt lat="-38.13358859431623" lon="176.245625596033">
        <ele>292</ele>
      </trkpt>
      <trkpt lat="-38.13358859431623" lon="176.245625596033">
        <ele>292</ele>
      </trkpt>
      <trkpt lat="-38.13368014495517" lon="176.24568186153">
        <ele>292</ele>
      </trkpt>
      <trkpt lat="-38.13374976158687" lon="176.245703795537">
        <ele>292</ele>
      </trkpt>
      <trkpt lat="-38.13376406637421" lon="176.245720007629">
        <ele>292</ele>
      </trkpt>
      <trkpt lat="-38.13379553690635" lon="176.245799160786">
        <ele>292</ele>
      </trkpt>
      <trkpt lat="-38.13383654396338" lon="176.245845889758">
        <ele>292</ele>
      </trkpt>
      <trkpt lat="-38.1338775510204" lon="176.245859240893">
        <ele>292</ele>
      </trkpt>
      <trkpt lat="-38.13397196261682" lon="176.245905969865">
        <ele>292</ele>
      </trkpt>
      <trkpt lat="-38.13406542056074" lon="176.245953652489">
        <ele>292</ele>
      </trkpt>
      <trkpt lat="-38.13415792485218" lon="176.246022315468">
        <ele>292</ele>
      </trkpt>
      <trkpt lat="-38.13425042914361" lon="176.2460919321">
        <ele>292</ele>
      </trkpt>
      <trkpt lat="-38.13425042914361" lon="176.2460919321">
        <ele>292</ele>
      </trkpt>
      <trkpt lat="-38.13429715811558" lon="176.246089071142">
        <ele>292</ele>
      </trkpt>
      <trkpt lat="-38.13436200648484" lon="176.24606522983">
        <ele>292</ele>
      </trkpt>
      <trkpt lat="-38.13439729162693" lon="176.246044249475">
        <ele>292</ele>
      </trkpt>
      <trkpt lat="-38.13444115964142" lon="176.245989891284">
        <ele>292</ele>
      </trkpt>
      <trkpt lat="-38.13447263017356" lon="176.245924089262">
        <ele>291</ele>
      </trkpt>
      <trkpt lat="-38.13446786191111" lon="176.245829677665">
        <ele>291</ele>
      </trkpt>
      <trkpt lat="-38.13446213999618" lon="176.245736219722">
        <ele>291</ele>
      </trkpt>
      <trkpt lat="-38.13446213999618" lon="176.245736219722">
        <ele>291</ele>
      </trkpt>
      <trkpt lat="-38.13445927903872" lon="176.245629410643">
        <ele>291</ele>
      </trkpt>
      <trkpt lat="-38.13445927903872" lon="176.245629410643">
        <ele>291</ele>
      </trkpt>
      <trkpt lat="-38.13445355712378" lon="176.24540244135">
        <ele>290</ele>
      </trkpt>
      <trkpt lat="-38.13445355712378" lon="176.24540244135">
        <ele>290</ele>
      </trkpt>
      <trkpt lat="-38.13451459088308" lon="176.245379553691">
        <ele>290</ele>
      </trkpt>
      <trkpt lat="-38.1345565515926" lon="176.245353805073">
        <ele>290</ele>
      </trkpt>
      <trkpt lat="-38.13463951935914" lon="176.245272744612">
        <ele>290</ele>
      </trkpt>
      <trkpt lat="-38.13467575815373" lon="176.245246995995">
        <ele>289</ele>
      </trkpt>
      <trkpt lat="-38.13471295060079" lon="176.24523364486">
        <ele>289</ele>
      </trkpt>
      <trkpt lat="-38.13473156451541" lon="176.24523364486">
        <ele>289</ele>
      </trkpt>
      <trkpt lat="-38.13473156448632" lon="176.245233644853">
        <ele>289</ele>
      </trkpt>
      <trkpt lat="-38.13471962616822" lon="176.245283234789">
        <ele>289</ele>
      </trkpt>
      <trkpt lat="-38.13472630173564" lon="176.245334732024">
        <ele>290</ele>
      </trkpt>
      <trkpt lat="-38.13477875262254" lon="176.245387182911">
        <ele>290</ele>
      </trkpt>
      <trkpt lat="-38.1347997329773" lon="176.245435819187">
        <ele>290</ele>
      </trkpt>
      <trkpt lat="-38.13482643524699" lon="176.245468243372">
        <ele>290</ele>
      </trkpt>
      <trkpt lat="-38.13486839595651" lon="176.245490177379">
        <ele>290</ele>
      </trkpt>
      <trkpt lat="-38.13490463475109" lon="176.245485409117">
        <ele>290</ele>
      </trkpt>
      <trkpt lat="-38.13497520503528" lon="176.245416746138">
        <ele>290</ele>
      </trkpt>
      <trkpt lat="-38.13497460547372" lon="176.24541455478">
        <ele>290</ele>
      </trkpt>
      <trkpt lat="-38.13503242418462" lon="176.24547873355">
        <ele>290</ele>
      </trkpt>
      <trkpt lat="-38.13512778943353" lon="176.245585542628">
        <ele>290</ele>
      </trkpt>
      <trkpt lat="-38.13518119397291" lon="176.245658020217">
        <ele>290</ele>
      </trkpt>
      <trkpt lat="-38.13523650581728" lon="176.245775319474">
        <ele>290</ele>
      </trkpt>
      <trkpt lat="-38.13525081060461" lon="176.24583921419">
        <ele>290</ele>
      </trkpt>
      <trkpt lat="-38.13525653251955" lon="176.245902155255">
        <ele>290</ele>
      </trkpt>
      <trkpt lat="-38.13525653251955" lon="176.245902155255">
        <ele>290</ele>
      </trkpt>
      <trkpt lat="-38.1353213808888" lon="176.245894526035">
        <ele>290</ele>
      </trkpt>
      <trkpt lat="-38.13538813656303" lon="176.245878313942">
        <ele>290</ele>
      </trkpt>
      <trkpt lat="-38.13545012397482" lon="176.24583921419">
        <ele>290</ele>
      </trkpt>
      <trkpt lat="-38.13551115773411" lon="176.245801068091">
        <ele>290</ele>
      </trkpt>
      <trkpt lat="-38.1355826816708" lon="176.245746709899">
        <ele>289</ele>
      </trkpt>
      <trkpt lat="-38.13558458897577" lon="176.245667556742">
        <ele>289</ele>
      </trkpt>
      <trkpt lat="-38.13558649628075" lon="176.245588403586">
        <ele>289</ele>
      </trkpt>
      <trkpt lat="-38.13558649628075" lon="176.245588403586">
        <ele>289</ele>
      </trkpt>
      <trkpt lat="-38.13559507915316" lon="176.245514972344">
        <ele>289</ele>
      </trkpt>
      <trkpt lat="-38.13559507915316" lon="176.245514972344">
        <ele>289</ele>
      </trkpt>
      <trkpt lat="-38.1356170131604" lon="176.245449170322">
        <ele>289</ele>
      </trkpt>
      <trkpt lat="-38.13565134465001" lon="176.24539481213">
        <ele>289</ele>
      </trkpt>
      <trkpt lat="-38.13565284491472" lon="176.245393375257">
        <ele>289</ele>
      </trkpt>
      <trkpt lat="-38.13565284491472" lon="176.245393375257">
        <ele>289</ele>
      </trkpt>
      <trkpt lat="-38.13571905397673" lon="176.245329963761">
        <ele>289</ele>
      </trkpt>
      <trkpt lat="-38.13571905397673" lon="176.245329963761">
        <ele>289</ele>
      </trkpt>
      <trkpt lat="-38.13575433911882" lon="176.245305168796">
        <ele>289</ele>
      </trkpt>
      <trkpt lat="-38.13575433911882" lon="176.245305168796">
        <ele>289</ele>
      </trkpt>
      <trkpt lat="-38.13577011220126" lon="176.245302352175">
        <ele>289</ele>
      </trkpt>
      <trkpt lat="-38.13577011220126" lon="176.245302352175">
        <ele>289</ele>
      </trkpt>
      <trkpt lat="-38.13581994071526" lon="176.245296110588">
        <ele>288</ele>
      </trkpt>
      <trkpt lat="-38.13581994071526" lon="176.245296110588">
        <ele>288</ele>
      </trkpt>
      <trkpt lat="-38.13585637993515" lon="176.245297539577">
        <ele>288</ele>
      </trkpt>
      <trkpt lat="-38.13591169177951" lon="176.245310890711">
        <ele>288</ele>
      </trkpt>
      <trkpt lat="-38.13594602326911" lon="176.245337592981">
        <ele>288</ele>
      </trkpt>
      <trkpt lat="-38.13597177188632" lon="176.245384321953">
        <ele>289</ele>
      </trkpt>
      <trkpt lat="-38.13600228876597" lon="176.245472057982">
        <ele>289</ele>
      </trkpt>
      <trkpt lat="-38.13603280564562" lon="176.245559794011">
        <ele>289</ele>
      </trkpt>
      <trkpt lat="-38.13619683387373" lon="176.245976540149">
        <ele>289</ele>
      </trkpt>
      <trkpt lat="-38.13621590692351" lon="176.246047110433">
        <ele>289</ele>
      </trkpt>
      <trkpt lat="-38.1362349799733" lon="176.24611863437">
        <ele>290</ele>
      </trkpt>
      <trkpt lat="-38.13623784093076" lon="176.246183482739">
        <ele>290</ele>
      </trkpt>
      <trkpt lat="-38.13623974823574" lon="176.246249284761">
        <ele>290</ele>
      </trkpt>
      <trkpt lat="-38.13622735075338" lon="176.246290291818">
        <ele>290</ele>
      </trkpt>
      <trkpt lat="-38.13615010490177" lon="176.246407591074">
        <ele>290</ele>
      </trkpt>
      <trkpt lat="-38.13607190539767" lon="176.246469578486">
        <ele>291</ele>
      </trkpt>
      <trkpt lat="-38.13601850085828" lon="176.246466717528">
        <ele>291</ele>
      </trkpt>
      <trkpt lat="-38.13597463284378" lon="176.246418081251">
        <ele>291</ele>
      </trkpt>
      <trkpt lat="-38.13596128170894" lon="176.246358954797">
        <ele>290</ele>
      </trkpt>
      <trkpt lat="-38.13595269883654" lon="176.246245470151">
        <ele>290</ele>
      </trkpt>
      <trkpt lat="-38.1359212283044" lon="176.246135800114">
        <ele>290</ele>
      </trkpt>
      <trkpt lat="-38.13589357238222" lon="176.246085256533">
        <ele>290</ele>
      </trkpt>
      <trkpt lat="-38.13586782376502" lon="176.246048064085">
        <ele>290</ele>
      </trkpt>
      <trkpt lat="-38.13582300209803" lon="176.246005149723">
        <ele>290</ele>
      </trkpt>
      <trkpt lat="-38.13572763684913" lon="176.245923135609">
        <ele>290</ele>
      </trkpt>
      <trkpt lat="-38.13563131794773" lon="176.245841121495">
        <ele>290</ele>
      </trkpt>
      <trkpt lat="-38.13560080106809" lon="176.245792485218">
        <ele>290</ele>
      </trkpt>
      <trkpt lat="-38.1355826816708" lon="176.245746709899">
        <ele>289</ele>
      </trkpt>
      <trkpt lat="-38.13551115773411" lon="176.245801068091">
        <ele>290</ele>
      </trkpt>
      <trkpt lat="-38.13545012397482" lon="176.24583921419">
        <ele>290</ele>
      </trkpt>
      <trkpt lat="-38.13538813656303" lon="176.245878313942">
        <ele>290</ele>
      </trkpt>
      <trkpt lat="-38.1353213808888" lon="176.245894526035">
        <ele>290</ele>
      </trkpt>
      <trkpt lat="-38.13531184436391" lon="176.245989891284">
        <ele>290</ele>
      </trkpt>
      <trkpt lat="-38.13528800305168" lon="176.246038527561">
        <ele>291</ele>
      </trkpt>
      <trkpt lat="-38.13526320808697" lon="176.246052832348">
        <ele>291</ele>
      </trkpt>
      <trkpt lat="-38.13526416173946" lon="176.246177760824">
        <ele>291</ele>
      </trkpt>
      <trkpt lat="-38.13521838641999" lon="176.246217814228">
        <ele>291</ele>
      </trkpt>
      <trkpt lat="-38.13519645241274" lon="176.246270265115">
        <ele>292</ele>
      </trkpt>
      <trkpt lat="-38.13512778943353" lon="176.246249284761">
        <ele>292</ele>
      </trkpt>
      <trkpt lat="-38.13505817280183" lon="176.246228304406">
        <ele>292</ele>
      </trkpt>
      <trkpt lat="-38.13496185390044" lon="176.246224489796">
        <ele>292</ele>
      </trkpt>
      <trkpt lat="-38.13492370780087" lon="176.246222582491">
        <ele>292</ele>
      </trkpt>
      <trkpt lat="-38.13484836925424" lon="176.246200648484">
        <ele>292</ele>
      </trkpt>
      <trkpt lat="-38.13477207705512" lon="176.246179668129">
        <ele>292</ele>
      </trkpt>
      <trkpt lat="-38.13473202365058" lon="176.246157734122">
        <ele>292</ele>
      </trkpt>
      <trkpt lat="-38.13464047301163" lon="176.246064276178">
        <ele>292</ele>
      </trkpt>
      <trkpt lat="-38.13454892237268" lon="176.245970818234">
        <ele>291</ele>
      </trkpt>
      <trkpt lat="-38.13447263017356" lon="176.245924089262">
        <ele>291</ele>
      </trkpt>
      <trkpt lat="-38.13444115964142" lon="176.245989891284">
        <ele>292</ele>
      </trkpt>
      <trkpt lat="-38.13439729162693" lon="176.246044249475">
        <ele>292</ele>
      </trkpt>
      <trkpt lat="-38.13436200648484" lon="176.24606522983">
        <ele>292</ele>
      </trkpt>
      <trkpt lat="-38.13429715811558" lon="176.246089071142">
        <ele>292</ele>
      </trkpt>
      <trkpt lat="-38.13425042914361" lon="176.2460919321">
        <ele>292</ele>
      </trkpt>
      <trkpt lat="-38.13415792485218" lon="176.246022315468">
        <ele>292</ele>
      </trkpt>
      <trkpt lat="-38.13406542056074" lon="176.245953652489">
        <ele>292</ele>
      </trkpt>
      <trkpt lat="-38.13397196261682" lon="176.245905969865">
        <ele>292</ele>
      </trkpt>
      <trkpt lat="-38.1338775510204" lon="176.245859240893">
        <ele>292</ele>
      </trkpt>
      <trkpt lat="-38.13383654396338" lon="176.245845889758">
        <ele>292</ele>
      </trkpt>
      <trkpt lat="-38.13379553690635" lon="176.245799160786">
        <ele>292</ele>
      </trkpt>
      <trkpt lat="-38.13376406637421" lon="176.245720007629">
        <ele>292</ele>
      </trkpt>
      <trkpt lat="-38.13375710068644" lon="176.245712113183">
        <ele>292</ele>
      </trkpt>
      <trkpt lat="-38.13376406637421" lon="176.245720007629">
        <ele>292</ele>
      </trkpt>
      <trkpt lat="-38.13379553690635" lon="176.245799160786">
        <ele>292</ele>
      </trkpt>
      <trkpt lat="-38.13375739080679" lon="176.245800114438">
        <ele>292</ele>
      </trkpt>
      <trkpt lat="-38.13369063513255" lon="176.245851611673">
        <ele>292</ele>
      </trkpt>
      <trkpt lat="-38.13366011825291" lon="176.245924089262">
        <ele>292</ele>
      </trkpt>
      <trkpt lat="-38.1336696547778" lon="176.246016593553">
        <ele>293</ele>
      </trkpt>
      <trkpt lat="-38.13366488651535" lon="176.246047110433">
        <ele>293</ele>
      </trkpt>
      <trkpt lat="-38.13364676711806" lon="176.246083349228">
        <ele>293</ele>
      </trkpt>
      <trkpt lat="-38.13361815754339" lon="176.246110051497">
        <ele>293</ele>
      </trkpt>
      <trkpt lat="-38.13353042151439" lon="176.246139614724">
        <ele>294</ele>
      </trkpt>
      <trkpt lat="-38.13355712378409" lon="176.246234026321">
        <ele>294</ele>
      </trkpt>
      <trkpt lat="-38.13356284569902" lon="176.246281708945">
        <ele>294</ele>
      </trkpt>
      <trkpt lat="-38.13355079294853" lon="176.2463901837">
        <ele>295</ele>
      </trkpt>
      <trkpt lat="-38.13392714094984" lon="176.246594506962">
        <ele>295</ele>
      </trkpt>
      <trkpt lat="-38.1339738699218" lon="176.246785237459">
        <ele>296</ele>
      </trkpt>
      <trkpt lat="-38.13473202365058" lon="176.247129506008">
        <ele>295</ele>
      </trkpt>
      <trkpt lat="-38.13473106999809" lon="176.247178142285">
        <ele>295</ele>
      </trkpt>
      <trkpt lat="-38.13474251382796" lon="176.247224871257">
        <ele>296</ele>
      </trkpt>
      <trkpt lat="-38.13476540148769" lon="176.247263971009">
        <ele>296</ele>
      </trkpt>
      <trkpt lat="-38.13479687201983" lon="176.24762063704">
        <ele>296</ele>
      </trkpt>
      <trkpt lat="-38.1348254815945" lon="176.248086973107">
        <ele>297</ele>
      </trkpt>
      <trkpt lat="-38.13482555958212" lon="176.248089943726">
        <ele>297</ele>
      </trkpt>
      <trkpt lat="-38.13474440159744" lon="176.24809290736">
        <ele>297</ele>
      </trkpt>
      <trkpt lat="-38.13474346748045" lon="176.248192828533">
        <ele>297</ele>
      </trkpt>
      <trkpt lat="-38.13475109670036" lon="176.249873164219">
        <ele>293</ele>
      </trkpt>
      <trkpt lat="-38.13475109670036" lon="176.24995803929">
        <ele>293</ele>
      </trkpt>
      <trkpt lat="-38.13474918939538" lon="176.250118252909">
        <ele>293</ele>
      </trkpt>
      <trkpt lat="-38.13476063322525" lon="176.251369444974">
        <ele>291</ele>
      </trkpt>
      <trkpt lat="-38.13475014304787" lon="176.251382796109">
        <ele>291</ele>
      </trkpt>
      <trkpt lat="-38.13473106999809" lon="176.251401869159">
        <ele>291</ele>
      </trkpt>
      <trkpt lat="-38.13436677474728" lon="176.251400915506">
        <ele>291</ele>
      </trkpt>
      <trkpt lat="-38.13401201602136" lon="176.251397100896">
        <ele>291</ele>
      </trkpt>
      <trkpt lat="-38.13399389662406" lon="176.251367537669">
        <ele>291</ele>
      </trkpt>
      <trkpt lat="-38.13394335304215" lon="176.251367537669">
        <ele>290</ele>
      </trkpt>
      <trkpt lat="-38.13381270265115" lon="176.251366584017">
        <ele>290</ele>
      </trkpt>
      <trkpt lat="-38.1337650200267" lon="176.251431432386">
        <ele>290</ele>
      </trkpt>
      <trkpt lat="-38.13374499332443" lon="176.251519168415">
        <ele>290</ele>
      </trkpt>
      <trkpt lat="-38.13301926378028" lon="176.251516307458">
        <ele>288</ele>
      </trkpt>
      <trkpt lat="-38.13296776654587" lon="176.251526797635">
        <ele>288</ele>
      </trkpt>
      <trkpt lat="-38.13296204463093" lon="176.251493419798">
        <ele>288</ele>
      </trkpt>
      <trkpt lat="-38.13294964714857" lon="176.251463856571">
        <ele>288</ele>
      </trkpt>
      <trkpt lat="-38.13293057409879" lon="176.251439061606">
        <ele>288</ele>
      </trkpt>
      <trkpt lat="-38.13290768643905" lon="176.251420942209">
        <ele>288</ele>
      </trkpt>
      <trkpt lat="-38.1328781232119" lon="176.251411405684">
        <ele>288</ele>
      </trkpt>
      <trkpt lat="-38.13284855998474" lon="176.251412359336">
        <ele>288</ele>
      </trkpt>
      <trkpt lat="-38.13281995041007" lon="176.251424756819">
        <ele>288</ele>
      </trkpt>
      <trkpt lat="-38.13279515544535" lon="176.251447644478">
        <ele>288</ele>
      </trkpt>
      <trkpt lat="-38.13277703604806" lon="176.251480068663">
        <ele>288</ele>
      </trkpt>
      <trkpt lat="-38.13276654587068" lon="176.25151726111">
        <ele>288</ele>
      </trkpt>
      <trkpt lat="-38.13276559221819" lon="176.251550638947">
        <ele>288</ele>
      </trkpt>
      <trkpt lat="-38.13270990438277" lon="176.251550410718">
        <ele>287</ele>
      </trkpt>
      <trkpt lat="-38.1327140809568" lon="176.251710315532">
        <ele>287</ele>
      </trkpt>
      <trkpt lat="-38.13267213427427" lon="176.251704176998">
        <ele>287</ele>
      </trkpt>
      <trkpt lat="-38.13255483501811" lon="176.251687964906">
        <ele>287</ele>
      </trkpt>
      <trkpt lat="-38.13245660881174" lon="176.251687011253">
        <ele>287</ele>
      </trkpt>
      <trkpt lat="-38.13235742895289" lon="176.251686057601">
        <ele>287</ele>
      </trkpt>
      <trkpt lat="-38.13226206370398" lon="176.251693686821">
        <ele>287</ele>
      </trkpt>
      <trkpt lat="-38.13216669845508" lon="176.25170131604">
        <ele>287</ele>
      </trkpt>
      <trkpt lat="-38.13209135990844" lon="176.251729925615">
        <ele>287</ele>
      </trkpt>
      <trkpt lat="-38.132043677284" lon="176.251736601183">
        <ele>287</ele>
      </trkpt>
      <trkpt lat="-38.13196357047492" lon="176.251736601183">
        <ele>287</ele>
      </trkpt>
      <trkpt lat="-38.13186820522601" lon="176.25174709136">
        <ele>286</ele>
      </trkpt>
      <trkpt lat="-38.13177283997711" lon="176.251757581537">
        <ele>286</ele>
      </trkpt>
      <trkpt lat="-38.13172038909021" lon="176.251753766927">
        <ele>286</ele>
      </trkpt>
      <trkpt lat="-38.13160785809651" lon="176.251826244517">
        <ele>287</ele>
      </trkpt>
      <trkpt lat="-38.13152393667747" lon="176.251824337212">
        <ele>287</ele>
      </trkpt>
      <trkpt lat="-38.13144001525843" lon="176.251822429907">
        <ele>286</ele>
      </trkpt>
      <trkpt lat="-38.13144001525843" lon="176.251912073241">
        <ele>287</ele>
      </trkpt>
      <trkpt lat="-38.13140473011634" lon="176.252013160404">
        <ele>287</ele>
      </trkpt>
      <trkpt lat="-38.13136944497425" lon="176.252115201221">
        <ele>287</ele>
      </trkpt>
      <trkpt lat="-38.13135514018691" lon="176.252142857143">
        <ele>287</ele>
      </trkpt>
      <trkpt lat="-38.13127026511539" lon="176.252253480832">
        <ele>287</ele>
      </trkpt>
      <trkpt lat="-38.1312693114629" lon="176.25237173374">
        <ele>287</ele>
      </trkpt>
      <trkpt lat="-38.13127694068281" lon="176.252439443067">
        <ele>287</ele>
      </trkpt>
      <trkpt lat="-38.13128456990272" lon="176.252507152394">
        <ele>287</ele>
      </trkpt>
      <trkpt lat="-38.13128075529276" lon="176.252555788671">
        <ele>287</ele>
      </trkpt>
      <trkpt lat="-38.13124833110814" lon="176.252667366012">
        <ele>286</ele>
      </trkpt>
      <trkpt lat="-38.13126835781041" lon="176.252744611863">
        <ele>286</ele>
      </trkpt>
      <trkpt lat="-38.13128838451268" lon="176.252822811368">
        <ele>286</ele>
      </trkpt>
      <trkpt lat="-38.13124070188822" lon="176.252877169559">
        <ele>286</ele>
      </trkpt>
      <trkpt lat="-38.13126645050543" lon="176.252914362006">
        <ele>286</ele>
      </trkpt>
      <trkpt lat="-38.13124928476063" lon="176.252937249666">
        <ele>286</ele>
      </trkpt>
      <trkpt lat="-38.13120541674613" lon="176.252909593744">
        <ele>286</ele>
      </trkpt>
      <trkpt lat="-38.13117776082395" lon="176.252924852184">
        <ele>286</ele>
      </trkpt>
      <trkpt lat="-38.13116822429906" lon="176.252990654206">
        <ele>285</ele>
      </trkpt>
      <trkpt lat="-38.13116405609102" lon="176.252990370794">
        <ele>285</ele>
      </trkpt>
      <trkpt lat="-38.13116087770172" lon="176.25300264027">
        <ele>285</ele>
      </trkpt>
      <trkpt lat="-38.13115849391247" lon="176.253037403748">
        <ele>285</ele>
      </trkpt>
      <trkpt lat="-38.13115849391247" lon="176.253091593887">
        <ele>285</ele>
      </trkpt>
      <trkpt lat="-38.13116961827322" lon="176.253189749611">
        <ele>285</ele>
      </trkpt>
      <trkpt lat="-38.13121411570532" lon="176.253287905332">
        <ele>285</ele>
      </trkpt>
      <trkpt lat="-38.13124669418389" lon="176.253387083506">
        <ele>285</ele>
      </trkpt>
      <trkpt lat="-38.13130390517685" lon="176.253486261677">
        <ele>285</ele>
      </trkpt>
      <trkpt lat="-38.13131794773984" lon="176.253532328819">
        <ele>285</ele>
      </trkpt>
      <trkpt lat="-38.13135132557696" lon="176.253643906161">
        <ele>285</ele>
      </trkpt>
      <trkpt lat="-38.13138470341407" lon="176.253673469388">
        <ele>285</ele>
      </trkpt>
      <trkpt lat="-38.13139710089643" lon="176.253695403395">
        <ele>285</ele>
      </trkpt>
      <trkpt lat="-38.1314514590883" lon="176.253842265878">
        <ele>286</ele>
      </trkpt>
      <trkpt lat="-38.13146004196071" lon="176.253945260347">
        <ele>286</ele>
      </trkpt>
      <trkpt lat="-38.13142380316612" lon="176.254214190349">
        <ele>286</ele>
      </trkpt>
      <trkpt lat="-38.13127407972534" lon="176.255164028228">
        <ele>285</ele>
      </trkpt>
      <trkpt lat="-38.13126740415792" lon="176.255232691207">
        <ele>285</ele>
      </trkpt>
      <trkpt lat="-38.1312607285905" lon="176.255302307839">
        <ele>285</ele>
      </trkpt>
      <trkpt lat="-38.13126508373352" lon="176.255429042501">
        <ele>286</ele>
      </trkpt>
      <trkpt lat="-38.13126843801873" lon="176.255526652201">
        <ele>286</ele>
      </trkpt>
      <trkpt lat="-38.13128338649096" lon="176.25553055797">
        <ele>286</ele>
      </trkpt>
      <trkpt lat="-38.13119813808827" lon="176.255572817208">
        <ele>286</ele>
      </trkpt>
      <trkpt lat="-38.13111358844309" lon="176.255612379047">
        <ele>285</ele>
      </trkpt>
      <trkpt lat="-38.13107285905016" lon="176.25564371543">
        <ele>285</ele>
      </trkpt>
      <trkpt lat="-38.13107096512172" lon="176.255666442571">
        <ele>285</ele>
      </trkpt>
      <trkpt lat="-38.13106713713523" lon="176.255712378409">
        <ele>285</ele>
      </trkpt>
      <trkpt lat="-38.13105283234789" lon="176.255772458516">
        <ele>285</ele>
      </trkpt>
      <trkpt lat="-38.13105760061033" lon="176.255876406637">
        <ele>285</ele>
      </trkpt>
      <trkpt lat="-38.13106236887278" lon="176.255980354759">
        <ele>285</ele>
      </trkpt>
      <trkpt lat="-38.1311129124547" lon="176.256082395575">
        <ele>286</ele>
      </trkpt>
      <trkpt lat="-38.13112435628457" lon="176.256152965859">
        <ele>286</ele>
      </trkpt>
      <trkpt lat="-38.13111958802212" lon="176.256252145718">
        <ele>286</ele>
      </trkpt>
      <trkpt lat="-38.13113389280946" lon="176.256318901392">
        <ele>286</ele>
      </trkpt>
      <trkpt lat="-38.13114724394431" lon="176.256385657067">
        <ele>286</ele>
      </trkpt>
      <trkpt lat="-38.13115296585924" lon="176.256449551783">
        <ele>286</ele>
      </trkpt>
      <trkpt lat="-38.13115773412168" lon="176.256514400153">
        <ele>286</ele>
      </trkpt>
      <trkpt lat="-38.13117680717146" lon="176.256601182529">
        <ele>286</ele>
      </trkpt>
      <trkpt lat="-38.13119492656875" lon="176.256687964906">
        <ele>286</ele>
      </trkpt>
      <trkpt lat="-38.13120255578867" lon="176.256752813275">
        <ele>286</ele>
      </trkpt>
      <trkpt lat="-38.13121018500858" lon="176.256818615297">
        <ele>286</ele>
      </trkpt>
      <trkpt lat="-38.13124165554072" lon="176.256906351326">
        <ele>286</ele>
      </trkpt>
      <trkpt lat="-38.13125405302307" lon="176.256971199695">
        <ele>286</ele>
      </trkpt>
      <trkpt lat="-38.1312778943353" lon="176.257022696929">
        <ele>286</ele>
      </trkpt>
      <trkpt lat="-38.1313036429525" lon="176.25713427427">
        <ele>286</ele>
      </trkpt>
      <trkpt lat="-38.13130841121495" lon="176.257165744803">
        <ele>286</ele>
      </trkpt>
      <trkpt lat="-38.13130555025748" lon="176.257200076292">
        <ele>286</ele>
      </trkpt>
      <trkpt lat="-38.13132366965478" lon="176.257296395194">
        <ele>286</ele>
      </trkpt>
      <trkpt lat="-38.131347510967" lon="176.257359336258">
        <ele>286</ele>
      </trkpt>
      <trkpt lat="-38.13137039862674" lon="176.257422277322">
        <ele>286</ele>
      </trkpt>
      <trkpt lat="-38.13138565706656" lon="176.257502384131">
        <ele>286</ele>
      </trkpt>
      <trkpt lat="-38.1314171275987" lon="176.257596795728">
        <ele>286</ele>
      </trkpt>
      <trkpt lat="-38.13144096891092" lon="176.257696929239">
        <ele>286</ele>
      </trkpt>
      <trkpt lat="-38.13145908830822" lon="176.25781232119">
        <ele>287</ele>
      </trkpt>
      <trkpt lat="-38.13146004196071" lon="176.257820904063">
        <ele>287</ele>
      </trkpt>
      <trkpt lat="-38.13157257295441" lon="176.25785046729">
        <ele>287</ele>
      </trkpt>
      <trkpt lat="-38.1315992752241" lon="176.257867633035">
        <ele>287</ele>
      </trkpt>
      <trkpt lat="-38.13168382775731" lon="176.257889483689">
        <ele>287</ele>
      </trkpt>
      <trkpt lat="-38.13168424420735" lon="176.257890952241">
        <ele>287</ele>
      </trkpt>
      <trkpt lat="-38.13168550678684" lon="176.257909575287">
        <ele>287</ele>
      </trkpt>
      <trkpt lat="-38.13168796490558" lon="176.257945832539">
        <ele>287</ele>
      </trkpt>
      <trkpt lat="-38.13170131604043" lon="176.258009727255">
        <ele>287</ele>
      </trkpt>
      <trkpt lat="-38.13176139614724" lon="176.258128933817">
        <ele>287</ele>
      </trkpt>
      <trkpt lat="-38.13183292008392" lon="176.258205226016">
        <ele>287</ele>
      </trkpt>
      <trkpt lat="-38.13193400724776" lon="176.258266259775">
        <ele>287</ele>
      </trkpt>
      <trkpt lat="-38.13202651153919" lon="176.258297730307">
        <ele>287</ele>
      </trkpt>
      <trkpt lat="-38.13211899915724" lon="176.258329195167">
        <ele>287</ele>
      </trkpt>
      <trkpt lat="-38.13212378409307" lon="176.258299637612">
        <ele>287</ele>
      </trkpt>
      <trkpt lat="-38.13238127026511" lon="176.258393095556">
        <ele>287</ele>
      </trkpt>
      <trkpt lat="-38.13247091359908" lon="176.258413122258">
        <ele>287</ele>
      </trkpt>
      <trkpt lat="-38.13253671562082" lon="176.258421705131">
        <ele>287</ele>
      </trkpt>
      <trkpt lat="-38.13259870303261" lon="176.258419797826">
        <ele>287</ele>
      </trkpt>
      <trkpt lat="-38.13265973679191" lon="176.258418844173">
        <ele>287</ele>
      </trkpt>
      <trkpt lat="-38.13325290864009" lon="176.258238603853">
        <ele>289</ele>
      </trkpt>
      <trkpt lat="-38.13331394239938" lon="176.25823002098">
        <ele>289</ele>
      </trkpt>
      <trkpt lat="-38.13337879076864" lon="176.258231928285">
        <ele>289</ele>
      </trkpt>
      <trkpt lat="-38.13346652679763" lon="176.258265306122">
        <ele>289</ele>
      </trkpt>
      <trkpt lat="-38.13353614342933" lon="176.258326339882">
        <ele>289</ele>
      </trkpt>
      <trkpt lat="-38.13374880793438" lon="176.258644859813">
        <ele>289</ele>
      </trkpt>
      <trkpt lat="-38.13381747091359" lon="176.2586973107">
        <ele>290</ele>
      </trkpt>
      <trkpt lat="-38.13388327293534" lon="176.258717337402">
        <ele>290</ele>
      </trkpt>
      <trkpt lat="-38.13418081251191" lon="176.258717337402">
        <ele>290</ele>
      </trkpt>
      <trkpt lat="-38.13426473393095" lon="176.258705893572">
        <ele>290</ele>
      </trkpt>
      <trkpt lat="-38.13434865534999" lon="176.258694449743">
        <ele>290</ele>
      </trkpt>
      <trkpt lat="-38.13482166698454" lon="176.258519931337">
        <ele>291</ele>
      </trkpt>
      <trkpt lat="-38.13484360099179" lon="176.258568567614">
        <ele>291</ele>
      </trkpt>
      <trkpt lat="-38.13486076673659" lon="176.258585733359">
        <ele>291</ele>
      </trkpt>
      <trkpt lat="-38.13490368109861" lon="176.258599084494">
        <ele>291</ele>
      </trkpt>
      <trkpt lat="-38.13493133702079" lon="176.258591455274">
        <ele>291</ele>
      </trkpt>
      <trkpt lat="-38.13495422468052" lon="176.258573335876">
        <ele>291</ele>
      </trkpt>
      <trkpt lat="-38.13497234407782" lon="176.258545679954">
        <ele>291</ele>
      </trkpt>
      <trkpt lat="-38.13498092695021" lon="176.25851325577">
        <ele>291</ele>
      </trkpt>
      <trkpt lat="-38.1350772458516" lon="176.258586687011">
        <ele>290</ele>
      </trkpt>
      <trkpt lat="-38.135173564753" lon="176.258661071905">
        <ele>290</ele>
      </trkpt>
      <trkpt lat="-38.1352775128743" lon="176.25871256914">
        <ele>290</ele>
      </trkpt>
      <trkpt lat="-38.13537860003814" lon="176.258740225062">
        <ele>290</ele>
      </trkpt>
      <trkpt lat="-38.13543772649246" lon="176.258748807934">
        <ele>290</ele>
      </trkpt>
      <trkpt lat="-38.13551592599656" lon="176.258758344459">
        <ele>290</ele>
      </trkpt>
      <trkpt lat="-38.13561319855044" lon="176.258762159069">
        <ele>289</ele>
      </trkpt>
      <trkpt lat="-38.13564480830848" lon="176.258763398668">
        <ele>289</ele>
      </trkpt>
      <trkpt lat="-38.13561319855044" lon="176.258762159069">
        <ele>289</ele>
      </trkpt>
      <trkpt lat="-38.13551592599656" lon="176.258758344459">
        <ele>290</ele>
      </trkpt>
      <trkpt lat="-38.13543772649246" lon="176.258748807934">
        <ele>290</ele>
      </trkpt>
      <trkpt lat="-38.13537860003814" lon="176.258740225062">
        <ele>290</ele>
      </trkpt>
      <trkpt lat="-38.1352775128743" lon="176.25871256914">
        <ele>290</ele>
      </trkpt>
      <trkpt lat="-38.135173564753" lon="176.258661071905">
        <ele>290</ele>
      </trkpt>
      <trkpt lat="-38.13513404278679" lon="176.258630549991">
        <ele>290</ele>
      </trkpt>
      <trkpt lat="-38.1351125309937" lon="176.258667747473">
        <ele>290</ele>
      </trkpt>
      <trkpt lat="-38.13507343124165" lon="176.258770741942">
        <ele>290</ele>
      </trkpt>
      <trkpt lat="-38.13500667556742" lon="176.258770741942">
        <ele>290</ele>
      </trkpt>
      <trkpt lat="-38.1349389662407" lon="176.258770741942">
        <ele>290</ele>
      </trkpt>
      <trkpt lat="-38.13490447019862" lon="176.258771700165">
        <ele>290</ele>
      </trkpt>
      <trkpt lat="-38.13490749570856" lon="176.259433530422">
        <ele>289</ele>
      </trkpt>
      <trkpt lat="-38.13487411787144" lon="176.259712950601">
        <ele>288</ele>
      </trkpt>
      <trkpt lat="-38.13487411787144" lon="176.26">
        <ele>287</ele>
      </trkpt>
      <trkpt lat="-38.13487316421895" lon="176.261563036429">
        <ele>286</ele>
      </trkpt>
      <trkpt lat="-38.1348865153538" lon="176.261704176998">
        <ele>286</ele>
      </trkpt>
      <trkpt lat="-38.13492561510585" lon="176.261808125119">
        <ele>286</ele>
      </trkpt>
      <trkpt lat="-38.13498474156017" lon="176.261891092886">
        <ele>286</ele>
      </trkpt>
      <trkpt lat="-38.13510204081632" lon="176.262006484837">
        <ele>285</ele>
      </trkpt>
      <trkpt lat="-38.13516879649055" lon="176.26213045966">
        <ele>285</ele>
      </trkpt>
      <trkpt lat="-38.13535571237841" lon="176.262354567995">
        <ele>285</ele>
      </trkpt>
      <trkpt lat="-38.13540720961281" lon="176.262287812321">
        <ele>285</ele>
      </trkpt>
      <trkpt lat="-38.13545775319473" lon="176.262221056647">
        <ele>285</ele>
      </trkpt>
      <trkpt lat="-38.13552450886896" lon="176.26218004959">
        <ele>285</ele>
      </trkpt>
      <trkpt lat="-38.13559031089071" lon="176.262139996185">
        <ele>285</ele>
      </trkpt>
      <trkpt lat="-38.1356866297921" lon="176.26216860576">
        <ele>284</ele>
      </trkpt>
      <trkpt lat="-38.13594506961662" lon="176.262274461186">
        <ele>284</ele>
      </trkpt>
      <trkpt lat="-38.13601182529086" lon="176.262264924661">
        <ele>284</ele>
      </trkpt>
      <trkpt lat="-38.13604615678047" lon="176.262228685867">
        <ele>284</ele>
      </trkpt>
      <trkpt lat="-38.13606141522029" lon="176.262173374022">
        <ele>284</ele>
      </trkpt>
      <trkpt lat="-38.13605760061034" lon="176.262073240511">
        <ele>284</ele>
      </trkpt>
      <trkpt lat="-38.13605283234789" lon="176.261974060652">
        <ele>284</ele>
      </trkpt>
      <trkpt lat="-38.13606522983024" lon="176.261917795155">
        <ele>284</ele>
      </trkpt>
      <trkpt lat="-38.13609574670989" lon="176.261872973488">
        <ele>284</ele>
      </trkpt>
      <trkpt lat="-38.13616345603661" lon="176.261826244516">
        <ele>284</ele>
      </trkpt>
      <trkpt lat="-38.13622162883845" lon="176.261718481785">
        <ele>284</ele>
      </trkpt>
      <trkpt lat="-38.1362693114629" lon="176.261454320046">
        <ele>284</ele>
      </trkpt>
      <trkpt lat="-38.13632080869731" lon="176.261050925043">
        <ele>285</ele>
      </trkpt>
      <trkpt lat="-38.13631985504482" lon="176.260983215716">
        <ele>285</ele>
      </trkpt>
      <trkpt lat="-38.13631794773984" lon="176.260916460042">
        <ele>285</ele>
      </trkpt>
      <trkpt lat="-38.13630650390997" lon="176.260823002098">
        <ele>285</ele>
      </trkpt>
      <trkpt lat="-38.13629410642761" lon="176.260730497807">
        <ele>285</ele>
      </trkpt>
      <trkpt lat="-38.13632843791722" lon="176.2604596605">
        <ele>286</ele>
      </trkpt>
      <trkpt lat="-38.13634560366202" lon="176.260363341598">
        <ele>286</ele>
      </trkpt>
      <trkpt lat="-38.13636276940682" lon="176.260267976349">
        <ele>286</ele>
      </trkpt>
      <trkpt lat="-38.13645813465573" lon="176.26">
        <ele>287</ele>
      </trkpt>
      <trkpt lat="-38.136478161358" lon="176.259934197978">
        <ele>287</ele>
      </trkpt>
      <trkpt lat="-38.13649723440778" lon="176.259868395957">
        <ele>287</ele>
      </trkpt>
      <trkpt lat="-38.1365039099752" lon="176.259791150105">
        <ele>287</ele>
      </trkpt>
      <trkpt lat="-38.13648960518786" lon="176.259707228686">
        <ele>287</ele>
      </trkpt>
      <trkpt lat="-38.13642380316612" lon="176.259629029182">
        <ele>287</ele>
      </trkpt>
      <trkpt lat="-38.13632653061224" lon="176.25956704177">
        <ele>287</ele>
      </trkpt>
      <trkpt lat="-38.13627407972535" lon="176.259497425138">
        <ele>288</ele>
      </trkpt>
      <trkpt lat="-38.13625591401219" lon="176.259473744834">
        <ele>288</ele>
      </trkpt>
      <trkpt lat="-38.13627598703032" lon="176.259403967194">
        <ele>288</ele>
      </trkpt>
      <trkpt lat="-38.13634560366202" lon="176.259293343506">
        <ele>288</ele>
      </trkpt>
      <trkpt lat="-38.13641331298874" lon="176.259225634179">
        <ele>288</ele>
      </trkpt>
      <trkpt lat="-38.13648006866298" lon="176.259158878505">
        <ele>288</ele>
      </trkpt>
      <trkpt lat="-38.13653061224489" lon="176.259086400915">
        <ele>288</ele>
      </trkpt>
      <trkpt lat="-38.13655063894716" lon="176.259032042724">
        <ele>288</ele>
      </trkpt>
      <trkpt lat="-38.13656208277703" lon="176.258977684532">
        <ele>288</ele>
      </trkpt>
      <trkpt lat="-38.13660213618157" lon="176.258922372687">
        <ele>288</ele>
      </trkpt>
      <trkpt lat="-38.13665458706847" lon="176.258862292581">
        <ele>288</ele>
      </trkpt>
      <trkpt lat="-38.13676234979973" lon="176.258806980736">
        <ele>288</ele>
      </trkpt>
      <trkpt lat="-38.13681861529658" lon="176.258734503147">
        <ele>288</ele>
      </trkpt>
      <trkpt lat="-38.13688918558077" lon="176.25868205226">
        <ele>288</ele>
      </trkpt>
      <trkpt lat="-38.13693209994278" lon="176.258632462331">
        <ele>288</ele>
      </trkpt>
      <trkpt lat="-38.13693782185771" lon="176.258600991799">
        <ele>288</ele>
      </trkpt>
      <trkpt lat="-38.13689300019072" lon="176.25849036811">
        <ele>288</ele>
      </trkpt>
      <trkpt lat="-38.13684722487125" lon="176.258379744421">
        <ele>288</ele>
      </trkpt>
      <trkpt lat="-38.13683101277894" lon="176.258326339882">
        <ele>288</ele>
      </trkpt>
      <trkpt lat="-38.13684722487125" lon="176.258225252718">
        <ele>288</ele>
      </trkpt>
      <trkpt lat="-38.13689013923326" lon="176.258141331299">
        <ele>288</ele>
      </trkpt>
      <trkpt lat="-38.13690921228304" lon="176.258047873355">
        <ele>288</ele>
      </trkpt>
      <trkpt lat="-38.13692828533282" lon="176.257954415411">
        <ele>288</ele>
      </trkpt>
      <trkpt lat="-38.13696070951745" lon="176.257870493992">
        <ele>288</ele>
      </trkpt>
      <trkpt lat="-38.13699133423342" lon="176.257788828083">
        <ele>288</ele>
      </trkpt>
      <trkpt lat="-38.13753480831585" lon="176.257770360481">
        <ele>288</ele>
      </trkpt>
      <trkpt lat="-38.13773662748851" lon="176.257774271705">
        <ele>288</ele>
      </trkpt>
      <trkpt lat="-38.13773662748851" lon="176.257774271705">
        <ele>288</ele>
      </trkpt>
      <trkpt lat="-38.13778085065802" lon="176.257775128743">
        <ele>288</ele>
      </trkpt>
      <trkpt lat="-38.13778085065802" lon="176.257775128743">
        <ele>288</ele>
      </trkpt>
      <trkpt lat="-38.13779134083539" lon="176.257810413885">
        <ele>288</ele>
      </trkpt>
      <trkpt lat="-38.13781041388518" lon="176.257839977112">
        <ele>288</ele>
      </trkpt>
      <trkpt lat="-38.13783616250238" lon="176.257859050162">
        <ele>288</ele>
      </trkpt>
      <trkpt lat="-38.13786477207705" lon="176.257867633035">
        <ele>288</ele>
      </trkpt>
      <trkpt lat="-38.13789433530421" lon="176.257862864772">
        <ele>288</ele>
      </trkpt>
      <trkpt lat="-38.1379210375739" lon="176.257845699027">
        <ele>288</ele>
      </trkpt>
      <trkpt lat="-38.13794869349609" lon="176.257801831013">
        <ele>288</ele>
      </trkpt>
      <trkpt lat="-38.13795823002098" lon="176.257750333778">
        <ele>288</ele>
      </trkpt>
      <trkpt lat="-38.13795823002098" lon="176.257750333778">
        <ele>288</ele>
      </trkpt>
      <trkpt lat="-38.13795346175853" lon="176.257716955941">
        <ele>288</ele>
      </trkpt>
      <trkpt lat="-38.13794106427617" lon="176.257686439062">
        <ele>288</ele>
      </trkpt>
      <trkpt lat="-38.13792294487888" lon="176.257662597749">
        <ele>288</ele>
      </trkpt>
      <trkpt lat="-38.13789910356665" lon="176.257646385657">
        <ele>288</ele>
      </trkpt>
      <trkpt lat="-38.13787240129696" lon="176.25763971009">
        <ele>288</ele>
      </trkpt>
      <trkpt lat="-38.13787240129696" lon="176.25763971009">
        <ele>288</ele>
      </trkpt>
      <trkpt lat="-38.13788098416936" lon="176.257102803738">
        <ele>289</ele>
      </trkpt>
      <trkpt lat="-38.13787526225443" lon="176.256610719054">
        <ele>289</ele>
      </trkpt>
      <trkpt lat="-38.13787526225443" lon="176.256610719054">
        <ele>289</ele>
      </trkpt>
      <trkpt lat="-38.13790005721914" lon="176.256533473202">
        <ele>289</ele>
      </trkpt>
      <trkpt lat="-38.13790768643906" lon="176.256493419798">
        <ele>289</ele>
      </trkpt>
      <trkpt lat="-38.13790196452413" lon="176.255826816708">
        <ele>290</ele>
      </trkpt>
      <trkpt lat="-38.13790743587718" lon="176.255747482089">
        <ele>290</ele>
      </trkpt>
      <trkpt lat="-38.13790743587775" lon="176.255747482094">
        <ele>290</ele>
      </trkpt>
      <trkpt lat="-38.13780278466526" lon="176.255752431814">
        <ele>290</ele>
      </trkpt>
      <trkpt lat="-38.13780278466526" lon="176.255752431814">
        <ele>290</ele>
      </trkpt>
      <trkpt lat="-38.13775987030326" lon="176.255755292771">
        <ele>290</ele>
      </trkpt>
      <trkpt lat="-38.13775983713565" lon="176.255755295274">
        <ele>290</ele>
      </trkpt>
      <trkpt lat="-38.13775987030326" lon="176.25568949075">
        <ele>290</ele>
      </trkpt>
      <trkpt lat="-38.13769791433698" lon="176.25568949075">
        <ele>290</ele>
      </trkpt>
      <trkpt lat="-38.13769788289147" lon="176.255687583445">
        <ele>290</ele>
      </trkpt>
      <trkpt lat="-38.13769692923898" lon="176.255629410643">
        <ele>290</ele>
      </trkpt>
      <trkpt lat="-38.13769692923898" lon="176.255629410643">
        <ele>290</ele>
      </trkpt>
      <trkpt lat="-38.13769597558649" lon="176.255574098798">
        <ele>290</ele>
      </trkpt>
      <trkpt lat="-38.13769597558649" lon="176.255574098798">
        <ele>290</ele>
      </trkpt>
      <trkpt lat="-38.13769692658423" lon="176.255487558005">
        <ele>290</ele>
      </trkpt>
      <trkpt lat="-38.13769692658559" lon="176.255487557987">
        <ele>290</ele>
      </trkpt>
      <trkpt lat="-38.13762635895479" lon="176.255491131032">
        <ele>290</ele>
      </trkpt>
      <trkpt lat="-38.13757200076292" lon="176.255529277131">
        <ele>290</ele>
      </trkpt>
      <trkpt lat="-38.13757200076292" lon="176.255529277131">
        <ele>290</ele>
      </trkpt>
      <trkpt lat="-38.13690729924502" lon="176.25552784304">
        <ele>290</ele>
      </trkpt>
      <trkpt lat="-38.13690730497806" lon="176.255526416174">
        <ele>290</ele>
      </trkpt>
      <trkpt lat="-38.13691155333454" lon="176.254467867354">
        <ele>290</ele>
      </trkpt>
      <trkpt lat="-38.1369115533338" lon="176.254467867384">
        <ele>290</ele>
      </trkpt>
      <trkpt lat="-38.13691207324051" lon="176.254467861911">
        <ele>290</ele>
      </trkpt>
      <trkpt lat="-38.13691155337136" lon="176.254467858176">
        <ele>290</ele>
      </trkpt>
      <trkpt lat="-38.136913026893" lon="176.254100705703">
        <ele>290</ele>
      </trkpt>
      <trkpt lat="-38.13692351707037" lon="176.254033950029">
        <ele>290</ele>
      </trkpt>
      <trkpt lat="-38.13694926568758" lon="176.253966240702">
        <ele>290</ele>
      </trkpt>
      <trkpt lat="-38.13698741178714" lon="176.253898531375">
        <ele>290</ele>
      </trkpt>
      <trkpt lat="-38.1369883724785" lon="176.253896826397">
        <ele>290</ele>
      </trkpt>
      <trkpt lat="-38.13701021776248" lon="176.253896941524">
        <ele>290</ele>
      </trkpt>
      <trkpt lat="-38.13701021793256" lon="176.25389694152">
        <ele>290</ele>
      </trkpt>
      <trkpt lat="-38.13700839269008" lon="176.253754572608">
        <ele>290</ele>
      </trkpt>
      <trkpt lat="-38.13700839264074" lon="176.253754572605">
        <ele>290</ele>
      </trkpt>
      <trkpt lat="-38.13699122639709" lon="176.253754529849">
        <ele>291</ele>
      </trkpt>
      <trkpt lat="-38.13699122639709" lon="176.253754529849">
        <ele>291</ele>
      </trkpt>
      <trkpt lat="-38.13691970246042" lon="176.253672515735">
        <ele>291</ele>
      </trkpt>
      <trkpt lat="-38.13689872210566" lon="176.253582872401">
        <ele>291</ele>
      </trkpt>
      <trkpt lat="-38.13688727827579" lon="176.253495136372">
        <ele>291</ele>
      </trkpt>
      <trkpt lat="-38.13687488079344" lon="176.253407400343">
        <ele>291</ele>
      </trkpt>
      <trkpt lat="-38.13687488079344" lon="176.253407400343">
        <ele>291</ele>
      </trkpt>
      <trkpt lat="-38.13687396751431" lon="176.252949390862">
        <ele>291</ele>
      </trkpt>
    </trkseg>
  </trk>
</gpx>