<?xml version="1.0" encoding="UTF-8" standalone="yes"?>
<gpx
 version="1.1"
 creator="Generated by MapOut iPhone App. See https://mapout.app"
 xmlns="http://www.topografix.com/GPX/1/1"
 xmlns:xsi="http://www.w3.org/2001/XMLSchema-instance"
 xmlns:gpxx="http://www.garmin.com/xmlschemas/GpxExtensions/v3"
 xmlns:mapout="https://mapout.app/xmlschemas/MapOutExtensions"
 xsi:schemaLocation="http://www.topografix.com/GPX/1/1 https://www.topografix.com/GPX/1/1/gpx.xsd http://www.garmin.com/xmlschemas/GpxExtensions/v3 https://www8.garmin.com/xmlschemas/GpxExtensionsv3.xsd https://mapout.app/xmlschemas/MapOutExtensions https://mapout.app/xmlschemas/MapOutExtensions.xsd">
  <metadata>
    <name>Kiriwhakapapa</name>
    <author><name>iPhone</name></author>
    <time>2026-06-20T06:03:25Z</time>
    <bounds minlat="-40.81329010108717" minlon="175.538077436582" maxlat="-40.80861397349108" maxlon="175.545698684372"/>
  </metadata>
  <trk>
    <name>Kiriwhakapapa</name>
    <trkseg>
      <trkpt lat="-40.80861397349108" lon="175.545698684372">
        <ele>321</ele>
      </trkpt>
      <trkpt lat="-40.80862197215335" lon="175.54565134465">
        <ele>322</ele>
      </trkpt>
      <trkpt lat="-40.80862197215335" lon="175.54565134465">
        <ele>322</ele>
      </trkpt>
      <trkpt lat="-40.80866679382034" lon="175.545469197025">
        <ele>322</ele>
      </trkpt>
      <trkpt lat="-40.80898436009918" lon="175.545159259966">
        <ele>324</ele>
      </trkpt>
      <trkpt lat="-40.80898436009918" lon="175.545159259966">
        <ele>324</ele>
      </trkpt>
      <trkpt lat="-40.8094611863437" lon="175.54504196071">
        <ele>327</ele>
      </trkpt>
      <trkpt lat="-40.80974251382796" lon="175.544850276559">
        <ele>328</ele>
      </trkpt>
      <trkpt lat="-40.81007915315659" lon="175.544501239748">
        <ele>329</ele>
      </trkpt>
      <trkpt lat="-40.8102088498951" lon="175.544287621591">
        <ele>328</ele>
      </trkpt>
      <trkpt lat="-40.81051974060652" lon="175.543947167652">
        <ele>331</ele>
      </trkpt>
      <trkpt lat="-40.81113484646195" lon="175.543656303643">
        <ele>334</ele>
      </trkpt>
      <trkpt lat="-40.81171180621782" lon="175.543069807362">
        <ele>333</ele>
      </trkpt>
      <trkpt lat="-40.81223154682434" lon="175.542453747854">
        <ele>338</ele>
      </trkpt>
      <trkpt lat="-40.81259012016022" lon="175.54213808888">
        <ele>342</ele>
      </trkpt>
      <trkpt lat="-40.8131832920084" lon="175.541156780469">
        <ele>344</ele>
      </trkpt>
      <trkpt lat="-40.81329010108717" lon="175.541016593553">
        <ele>341</ele>
      </trkpt>
      <trkpt lat="-40.81329010108717" lon="175.541016593553">
        <ele>341</ele>
      </trkpt>
      <trkpt lat="-40.81323097463284" lon="175.540936486744">
        <ele>342</ele>
      </trkpt>
      <trkpt lat="-40.81323097463284" lon="175.540936486744">
        <ele>342</ele>
      </trkpt>
      <trkpt lat="-40.81294011062369" lon="175.540491131032">
        <ele>356</ele>
      </trkpt>
      <trkpt lat="-40.81294011062369" lon="175.540491131032">
        <ele>356</ele>
      </trkpt>
      <trkpt lat="-40.81259488842266" lon="175.54">
        <ele>382</ele>
      </trkpt>
      <trkpt lat="-40.81259488842266" lon="175.54">
        <ele>382</ele>
      </trkpt>
      <trkpt lat="-40.81218195689491" lon="175.539746328438">
        <ele>406</ele>
      </trkpt>
      <trkpt lat="-40.81180526416174" lon="175.539702460423">
        <ele>420</ele>
      </trkpt>
      <trkpt lat="-40.81151249284761" lon="175.53997711234">
        <ele>417</ele>
      </trkpt>
      <trkpt lat="-40.81132939156971" lon="175.539985695213">
        <ele>414</ele>
      </trkpt>
      <trkpt lat="-40.81122735075338" lon="175.539921800496">
        <ele>413</ele>
      </trkpt>
      <trkpt lat="-40.81108430288003" lon="175.539629029182">
        <ele>412</ele>
      </trkpt>
      <trkpt lat="-40.81128456990273" lon="175.538883272935">
        <ele>419</ele>
      </trkpt>
      <trkpt lat="-40.81134655731451" lon="175.538673469388">
        <ele>419</ele>
      </trkpt>
      <trkpt lat="-40.81136467671181" lon="175.538373068854">
        <ele>417</ele>
      </trkpt>
      <trkpt lat="-40.81132366965478" lon="175.538129887469">
        <ele>416</ele>
      </trkpt>
      <trkpt lat="-40.8111300781995" lon="175.538077436582">
        <ele>410</ele>
      </trkpt>
      <trkpt lat="-40.81089929429716" lon="175.538144192256">
        <ele>401</ele>
      </trkpt>
      <trkpt lat="-40.81064466908259" lon="175.538783139424">
        <ele>392</ele>
      </trkpt>
      <trkpt lat="-40.81033377837117" lon="175.539917985886">
        <ele>378</ele>
      </trkpt>
      <trkpt lat="-40.81031851993134" lon="175.54">
        <ele>377</ele>
      </trkpt>
      <trkpt lat="-40.81031851993134" lon="175.54">
        <ele>377</ele>
      </trkpt>
      <trkpt lat="-40.81011157734122" lon="175.541131031852">
        <ele>359</ele>
      </trkpt>
      <trkpt lat="-40.80979877932482" lon="175.541797634942">
        <ele>347</ele>
      </trkpt>
      <trkpt lat="-40.80942113293916" lon="175.542070379554">
        <ele>339</ele>
      </trkpt>
      <trkpt lat="-40.8094200363637" lon="175.542071171527">
        <ele>339</ele>
      </trkpt>
      <trkpt lat="-40.80949647148579" lon="175.54217242037">
        <ele>339</ele>
      </trkpt>
      <trkpt lat="-40.80949647148579" lon="175.54217242037">
        <ele>339</ele>
      </trkpt>
      <trkpt lat="-40.80952794201793" lon="175.542242990654">
        <ele>339</ele>
      </trkpt>
      <trkpt lat="-40.80952794201793" lon="175.542242990654">
        <ele>339</ele>
      </trkpt>
      <trkpt lat="-40.80942399389663" lon="175.542716955941">
        <ele>335</ele>
      </trkpt>
      <trkpt lat="-40.80939729162694" lon="175.543396910166">
        <ele>331</ele>
      </trkpt>
      <trkpt lat="-40.80939729162694" lon="175.543396910166">
        <ele>331</ele>
      </trkpt>
      <trkpt lat="-40.80939633797444" lon="175.543464619493">
        <ele>331</ele>
      </trkpt>
      <trkpt lat="-40.80939633797444" lon="175.543464619493">
        <ele>331</ele>
      </trkpt>
      <trkpt lat="-40.8091216860576" lon="175.544830249857">
        <ele>323</ele>
      </trkpt>
      <trkpt lat="-40.8091216860576" lon="175.544830249857">
        <ele>323</ele>
      </trkpt>
      <trkpt lat="-40.80910642761778" lon="175.544874117871">
        <ele>323</ele>
      </trkpt>
      <trkpt lat="-40.80910642761778" lon="175.544874117871">
        <ele>323</ele>
      </trkpt>
      <trkpt lat="-40.80905997077859" lon="175.544982638144">
        <ele>322</ele>
      </trkpt>
    </trkseg>
  </trk>
</gpx>