<?xml version="1.0" encoding="UTF-8" standalone="yes"?>
<gpx
 version="1.1"
 creator="Generated by MapOut iPhone App. See https://mapout.app"
 xmlns="http://www.topografix.com/GPX/1/1"
 xmlns:xsi="http://www.w3.org/2001/XMLSchema-instance"
 xmlns:gpxx="http://www.garmin.com/xmlschemas/GpxExtensions/v3"
 xmlns:mapout="https://mapout.app/xmlschemas/MapOutExtensions"
 xsi:schemaLocation="http://www.topografix.com/GPX/1/1 https://www.topografix.com/GPX/1/1/gpx.xsd http://www.garmin.com/xmlschemas/GpxExtensions/v3 https://www8.garmin.com/xmlschemas/GpxExtensionsv3.xsd https://mapout.app/xmlschemas/MapOutExtensions https://mapout.app/xmlschemas/MapOutExtensions.xsd">
  <metadata>
    <name>Zealandia</name>
    <author><name>iPhone</name></author>
    <time>2026-07-24T00:55:24Z</time>
    <bounds minlat="-41.30929906542056" minlon="174.737396528705" maxlat="-41.29126261668739" maxlon="174.75326958746"/>
  </metadata>
  <trk>
    <name>Zealandia</name>
    <trkseg>
      <trkpt lat="-41.29126261668739" lon="174.75305119001">
        <ele>159</ele>
      </trkpt>
      <trkpt lat="-41.29127694068281" lon="174.753066946405">
        <ele>160</ele>
      </trkpt>
      <trkpt lat="-41.29128743086019" lon="174.753047873355">
        <ele>160</ele>
      </trkpt>
      <trkpt lat="-41.29129887469006" lon="174.753048827007">
        <ele>160</ele>
      </trkpt>
      <trkpt lat="-41.2913913789815" lon="174.753132748426">
        <ele>163</ele>
      </trkpt>
      <trkpt lat="-41.2913913789815" lon="174.753132748426">
        <ele>163</ele>
      </trkpt>
      <trkpt lat="-41.29141045203128" lon="174.753039290483">
        <ele>162</ele>
      </trkpt>
      <trkpt lat="-41.29142952508106" lon="174.752946786191">
        <ele>160</ele>
      </trkpt>
      <trkpt lat="-41.29145432004577" lon="174.752900057219">
        <ele>160</ele>
      </trkpt>
      <trkpt lat="-41.29151916841503" lon="174.752828533282">
        <ele>160</ele>
      </trkpt>
      <trkpt lat="-41.2915649437345" lon="174.752809460233">
        <ele>160</ele>
      </trkpt>
      <trkpt lat="-41.29164218958611" lon="174.752765592218">
        <ele>160</ele>
      </trkpt>
      <trkpt lat="-41.29171943543773" lon="174.752721724204">
        <ele>160</ele>
      </trkpt>
      <trkpt lat="-41.2918262445165" lon="174.752645432005">
        <ele>161</ele>
      </trkpt>
      <trkpt lat="-41.29189490749571" lon="174.752610146862">
        <ele>161</ele>
      </trkpt>
      <trkpt lat="-41.29196357047492" lon="174.75257486172">
        <ele>162</ele>
      </trkpt>
      <trkpt lat="-41.29204939919893" lon="174.752478542819">
        <ele>161</ele>
      </trkpt>
      <trkpt lat="-41.29210375739081" lon="174.752426091932">
        <ele>162</ele>
      </trkpt>
      <trkpt lat="-41.29221152012207" lon="174.75235266069">
        <ele>164</ele>
      </trkpt>
      <trkpt lat="-41.29231832920084" lon="174.752280183101">
        <ele>164</ele>
      </trkpt>
      <trkpt lat="-41.29236028991036" lon="174.752276368491">
        <ele>165</ele>
      </trkpt>
      <trkpt lat="-41.29241941636467" lon="174.752283997711">
        <ele>165</ele>
      </trkpt>
      <trkpt lat="-41.29245756246424" lon="174.752303070761">
        <ele>166</ele>
      </trkpt>
      <trkpt lat="-41.29252717909593" lon="174.7523564753">
        <ele>168</ele>
      </trkpt>
      <trkpt lat="-41.29259679572763" lon="174.752410833492">
        <ele>170</ele>
      </trkpt>
      <trkpt lat="-41.29267594888422" lon="174.752449933244">
        <ele>172</ele>
      </trkpt>
      <trkpt lat="-41.29275414838833" lon="174.752489986649">
        <ele>174</ele>
      </trkpt>
      <trkpt lat="-41.29284474537479" lon="174.752502384131">
        <ele>177</ele>
      </trkpt>
      <trkpt lat="-41.29295346175854" lon="174.752448025939">
        <ele>178</ele>
      </trkpt>
      <trkpt lat="-41.29301354186534" lon="174.752343124166">
        <ele>176</ele>
      </trkpt>
      <trkpt lat="-41.29307362197216" lon="174.752238222392">
        <ele>175</ele>
      </trkpt>
      <trkpt lat="-41.29307648292962" lon="174.75216860576">
        <ele>173</ele>
      </trkpt>
      <trkpt lat="-41.29307934388709" lon="174.752099942781">
        <ele>172</ele>
      </trkpt>
      <trkpt lat="-41.29306980736219" lon="174.752007438489">
        <ele>169</ele>
      </trkpt>
      <trkpt lat="-41.29306027083731" lon="174.75191588785">
        <ele>167</ele>
      </trkpt>
      <trkpt lat="-41.29310127789434" lon="174.751848178524">
        <ele>166</ele>
      </trkpt>
      <trkpt lat="-41.29314133129888" lon="174.751780469197">
        <ele>164</ele>
      </trkpt>
      <trkpt lat="-41.29318996757581" lon="174.751717528133">
        <ele>163</ele>
      </trkpt>
      <trkpt lat="-41.29323765020027" lon="174.751654587068">
        <ele>162</ele>
      </trkpt>
      <trkpt lat="-41.29327102803738" lon="174.751632653061">
        <ele>162</ele>
      </trkpt>
      <trkpt lat="-41.29335685676139" lon="174.751620255579">
        <ele>163</ele>
      </trkpt>
      <trkpt lat="-41.29344268548541" lon="174.751607858097">
        <ele>166</ele>
      </trkpt>
      <trkpt lat="-41.29353232881937" lon="174.751574480259">
        <ele>169</ele>
      </trkpt>
      <trkpt lat="-41.29362101850086" lon="174.751541102422">
        <ele>172</ele>
      </trkpt>
      <trkpt lat="-41.29388041197787" lon="174.751083349228">
        <ele>173</ele>
      </trkpt>
      <trkpt lat="-41.29388041197787" lon="174.751083349228">
        <ele>173</ele>
      </trkpt>
      <trkpt lat="-41.29386706084303" lon="174.750997520504">
        <ele>171</ele>
      </trkpt>
      <trkpt lat="-41.29386706084303" lon="174.750997520504">
        <ele>171</ele>
      </trkpt>
      <trkpt lat="-41.293868968148" lon="174.750950791532">
        <ele>170</ele>
      </trkpt>
      <trkpt lat="-41.29398436009918" lon="174.750960328056">
        <ele>173</ele>
      </trkpt>
      <trkpt lat="-41.29398436009918" lon="174.750960328056">
        <ele>173</ele>
      </trkpt>
      <trkpt lat="-41.29398340644669" lon="174.750804882701">
        <ele>170</ele>
      </trkpt>
      <trkpt lat="-41.29420560747663" lon="174.750687583445">
        <ele>173</ele>
      </trkpt>
      <trkpt lat="-41.29424184627122" lon="174.750506389472">
        <ele>172</ele>
      </trkpt>
      <trkpt lat="-41.29423993896624" lon="174.750465382415">
        <ele>171</ele>
      </trkpt>
      <trkpt lat="-41.29423993896624" lon="174.750465382415">
        <ele>171</ele>
      </trkpt>
      <trkpt lat="-41.29423135609384" lon="174.750353805073">
        <ele>169</ele>
      </trkpt>
      <trkpt lat="-41.29424852183864" lon="174.750275605569">
        <ele>169</ele>
      </trkpt>
      <trkpt lat="-41.29428571428571" lon="174.75019549876">
        <ele>169</ele>
      </trkpt>
      <trkpt lat="-41.29431527751287" lon="174.750117299256">
        <ele>168</ele>
      </trkpt>
      <trkpt lat="-41.29434388708754" lon="174.750040053405">
        <ele>168</ele>
      </trkpt>
      <trkpt lat="-41.2943744039672" lon="174.750021934007">
        <ele>168</ele>
      </trkpt>
      <trkpt lat="-41.29442113293916" lon="174.749978065993">
        <ele>171</ele>
      </trkpt>
      <trkpt lat="-41.29446114027702" lon="174.749952394618">
        <ele>172</ele>
      </trkpt>
      <trkpt lat="-41.2944611863437" lon="174.749952317376">
        <ele>172</ele>
      </trkpt>
      <trkpt lat="-41.29449361052832" lon="174.749897959184">
        <ele>173</ele>
      </trkpt>
      <trkpt lat="-41.29458802212474" lon="174.749802593935">
        <ele>175</ele>
      </trkpt>
      <trkpt lat="-41.29468243372115" lon="174.749708182338">
        <ele>176</ele>
      </trkpt>
      <trkpt lat="-41.29472439443067" lon="174.749631890139">
        <ele>175</ele>
      </trkpt>
      <trkpt lat="-41.29471008964333" lon="174.749550829678">
        <ele>175</ele>
      </trkpt>
      <trkpt lat="-41.29469483120351" lon="174.749470722869">
        <ele>174</ele>
      </trkpt>
      <trkpt lat="-41.29489319092123" lon="174.749076864391">
        <ele>170</ele>
      </trkpt>
      <trkpt lat="-41.29494278085065" lon="174.749012969674">
        <ele>170</ele>
      </trkpt>
      <trkpt lat="-41.29499237078009" lon="174.74895002861">
        <ele>169</ele>
      </trkpt>
      <trkpt lat="-41.29498950982262" lon="174.748884226588">
        <ele>170</ele>
      </trkpt>
      <trkpt lat="-41.29498664886516" lon="174.748818424566">
        <ele>171</ele>
      </trkpt>
      <trkpt lat="-41.2950343314896" lon="174.7487354568">
        <ele>173</ele>
      </trkpt>
      <trkpt lat="-41.29508201411406" lon="174.748653442685">
        <ele>174</ele>
      </trkpt>
      <trkpt lat="-41.29514495517833" lon="174.748568567614">
        <ele>175</ele>
      </trkpt>
      <trkpt lat="-41.29518977684532" lon="174.748555216479">
        <ele>175</ele>
      </trkpt>
      <trkpt lat="-41.29524604234217" lon="174.748559984742">
        <ele>175</ele>
      </trkpt>
      <trkpt lat="-41.29524604234217" lon="174.748559984742">
        <ele>175</ele>
      </trkpt>
      <trkpt lat="-41.29529181766164" lon="174.748476063323">
        <ele>175</ele>
      </trkpt>
      <trkpt lat="-41.29533759298112" lon="174.748393095556">
        <ele>175</ele>
      </trkpt>
      <trkpt lat="-41.29536810986077" lon="174.748350181194">
        <ele>175</ele>
      </trkpt>
      <trkpt lat="-41.29537287812321" lon="174.748328247187">
        <ele>174</ele>
      </trkpt>
      <trkpt lat="-41.29536143429334" lon="174.748273888995">
        <ele>176</ele>
      </trkpt>
      <trkpt lat="-41.29536906351326" lon="174.748255769598">
        <ele>176</ele>
      </trkpt>
      <trkpt lat="-41.29540053404539" lon="174.748243372115">
        <ele>176</ele>
      </trkpt>
      <trkpt lat="-41.29542914362006" lon="174.748224299065">
        <ele>176</ele>
      </trkpt>
      <trkpt lat="-41.29546538241465" lon="174.748180431051">
        <ele>176</ele>
      </trkpt>
      <trkpt lat="-41.29550066755674" lon="174.748091741369">
        <ele>177</ele>
      </trkpt>
      <trkpt lat="-41.29556646957848" lon="174.748064085447">
        <ele>176</ele>
      </trkpt>
      <trkpt lat="-41.29560366202556" lon="174.748033568568">
        <ele>176</ele>
      </trkpt>
      <trkpt lat="-41.29562178142285" lon="174.748008773603">
        <ele>176</ele>
      </trkpt>
      <trkpt lat="-41.29563608621019" lon="174.747962998283">
        <ele>176</ele>
      </trkpt>
      <trkpt lat="-41.2956522983025" lon="174.747953461759">
        <ele>176</ele>
      </trkpt>
      <trkpt lat="-41.29569235170704" lon="174.74786954034">
        <ele>175</ele>
      </trkpt>
      <trkpt lat="-41.29573240511158" lon="174.74778561892">
        <ele>175</ele>
      </trkpt>
      <trkpt lat="-41.295781995041" lon="174.747710280374">
        <ele>174</ele>
      </trkpt>
      <trkpt lat="-41.29583158497044" lon="174.74763589548">
        <ele>173</ele>
      </trkpt>
      <trkpt lat="-41.29588880411978" lon="174.747537669273">
        <ele>174</ele>
      </trkpt>
      <trkpt lat="-41.29594506961663" lon="174.747439443067">
        <ele>176</ele>
      </trkpt>
      <trkpt lat="-41.29602040816327" lon="174.747332633988">
        <ele>179</ele>
      </trkpt>
      <trkpt lat="-41.29614056837688" lon="174.747283044059">
        <ele>180</ele>
      </trkpt>
      <trkpt lat="-41.2962607285905" lon="174.747234407782">
        <ele>181</ele>
      </trkpt>
      <trkpt lat="-41.2962607285905" lon="174.747234407782">
        <ele>181</ele>
      </trkpt>
      <trkpt lat="-41.29637230593172" lon="174.747266831966">
        <ele>181</ele>
      </trkpt>
      <trkpt lat="-41.29637230593172" lon="174.747266831966">
        <ele>181</ele>
      </trkpt>
      <trkpt lat="-41.29638565706657" lon="174.747254434484">
        <ele>181</ele>
      </trkpt>
      <trkpt lat="-41.29643238603852" lon="174.747235361434">
        <ele>181</ele>
      </trkpt>
      <trkpt lat="-41.29648006866298" lon="174.747189586115">
        <ele>181</ele>
      </trkpt>
      <trkpt lat="-41.29649246614534" lon="174.74713427427">
        <ele>182</ele>
      </trkpt>
      <trkpt lat="-41.29648865153538" lon="174.747119969483">
        <ele>182</ele>
      </trkpt>
      <trkpt lat="-41.29648865153538" lon="174.747119969483">
        <ele>182</ele>
      </trkpt>
      <trkpt lat="-41.29647720770551" lon="174.747061796681">
        <ele>182</ele>
      </trkpt>
      <trkpt lat="-41.29647720770551" lon="174.747061796681">
        <ele>182</ele>
      </trkpt>
      <trkpt lat="-41.29647720770551" lon="174.746977875262">
        <ele>182</ele>
      </trkpt>
      <trkpt lat="-41.29647625405302" lon="174.746894907496">
        <ele>183</ele>
      </trkpt>
      <trkpt lat="-41.29648865153538" lon="174.746857715049">
        <ele>183</ele>
      </trkpt>
      <trkpt lat="-41.29650772458516" lon="174.746851039481">
        <ele>182</ele>
      </trkpt>
      <trkpt lat="-41.29654873164219" lon="174.746810986077">
        <ele>182</ele>
      </trkpt>
      <trkpt lat="-41.29662502384131" lon="174.746797634942">
        <ele>180</ele>
      </trkpt>
      <trkpt lat="-41.29664600419607" lon="174.746782376502">
        <ele>180</ele>
      </trkpt>
      <trkpt lat="-41.29667747472821" lon="174.746687011253">
        <ele>179</ele>
      </trkpt>
      <trkpt lat="-41.29670894526035" lon="174.746592599657">
        <ele>180</ele>
      </trkpt>
      <trkpt lat="-41.29681098607667" lon="174.746556360862">
        <ele>180</ele>
      </trkpt>
      <trkpt lat="-41.29689681480068" lon="174.746464810223">
        <ele>181</ele>
      </trkpt>
      <trkpt lat="-41.29692065611291" lon="174.746405683769">
        <ele>181</ele>
      </trkpt>
      <trkpt lat="-41.29695498760252" lon="174.746381842457">
        <ele>181</ele>
      </trkpt>
      <trkpt lat="-41.2970169750143" lon="174.746397100896">
        <ele>181</ele>
      </trkpt>
      <trkpt lat="-41.29709898912836" lon="174.746342742705">
        <ele>180</ele>
      </trkpt>
      <trkpt lat="-41.29717623497997" lon="174.746266450505">
        <ele>179</ele>
      </trkpt>
      <trkpt lat="-41.29719626168225" lon="174.746286477208">
        <ele>179</ele>
      </trkpt>
      <trkpt lat="-41.29719626168225" lon="174.746286477208">
        <ele>179</ele>
      </trkpt>
      <trkpt lat="-41.29731165363341" lon="174.745974632844">
        <ele>176</ele>
      </trkpt>
      <trkpt lat="-41.29746805264162" lon="174.745513065039">
        <ele>174</ele>
      </trkpt>
      <trkpt lat="-41.29746805264162" lon="174.745513065039">
        <ele>174</ele>
      </trkpt>
      <trkpt lat="-41.29755292771314" lon="174.74539481213">
        <ele>174</ele>
      </trkpt>
      <trkpt lat="-41.29755292771314" lon="174.74539481213">
        <ele>174</ele>
      </trkpt>
      <trkpt lat="-41.29749666221629" lon="174.745329010109">
        <ele>174</ele>
      </trkpt>
      <trkpt lat="-41.29743944306694" lon="174.745264161739">
        <ele>176</ele>
      </trkpt>
      <trkpt lat="-41.29739080679001" lon="174.745188823193">
        <ele>178</ele>
      </trkpt>
      <trkpt lat="-41.29735075338547" lon="174.745145908831">
        <ele>179</ele>
      </trkpt>
      <trkpt lat="-41.29737459469769" lon="174.745108716384">
        <ele>179</ele>
      </trkpt>
      <trkpt lat="-41.29731832920084" lon="174.745070570284">
        <ele>180</ele>
      </trkpt>
      <trkpt lat="-41.29720579820713" lon="174.745102994469">
        <ele>183</ele>
      </trkpt>
      <trkpt lat="-41.29711710852565" lon="174.745097272554">
        <ele>184</ele>
      </trkpt>
      <trkpt lat="-41.29703223345413" lon="174.745162120923">
        <ele>186</ele>
      </trkpt>
      <trkpt lat="-41.29696357047492" lon="174.74522601564">
        <ele>187</ele>
      </trkpt>
      <trkpt lat="-41.29688346366584" lon="174.745290864009">
        <ele>188</ele>
      </trkpt>
      <trkpt lat="-41.29685866870113" lon="174.745354758726">
        <ele>188</ele>
      </trkpt>
      <trkpt lat="-41.29679858859431" lon="174.745317566279">
        <ele>190</ele>
      </trkpt>
      <trkpt lat="-41.29679858859431" lon="174.74522601564">
        <ele>190</ele>
      </trkpt>
      <trkpt lat="-41.29684722487126" lon="174.745164028228">
        <ele>190</ele>
      </trkpt>
      <trkpt lat="-41.29689490749571" lon="174.745102994469">
        <ele>189</ele>
      </trkpt>
      <trkpt lat="-41.29694354377265" lon="174.745000953652">
        <ele>189</ele>
      </trkpt>
      <trkpt lat="-41.29699218004959" lon="174.744898912836">
        <ele>191</ele>
      </trkpt>
      <trkpt lat="-41.2970522601564" lon="174.744855998474">
        <ele>191</ele>
      </trkpt>
      <trkpt lat="-41.29714094983787" lon="174.744829296204">
        <ele>190</ele>
      </trkpt>
      <trkpt lat="-41.29723822239176" lon="174.744839786382">
        <ele>187</ele>
      </trkpt>
      <trkpt lat="-41.29731069998093" lon="174.744861720389">
        <ele>185</ele>
      </trkpt>
      <trkpt lat="-41.29743086019455" lon="174.744925615106">
        <ele>181</ele>
      </trkpt>
      <trkpt lat="-41.29751192065611" lon="174.744915124928">
        <ele>179</ele>
      </trkpt>
      <trkpt lat="-41.29761682242991" lon="174.744872210566">
        <ele>180</ele>
      </trkpt>
      <trkpt lat="-41.2977217242037" lon="174.74480831585">
        <ele>181</ele>
      </trkpt>
      <trkpt lat="-41.29778943353042" lon="174.744716765211">
        <ele>182</ele>
      </trkpt>
      <trkpt lat="-41.29790673278657" lon="174.744465954606">
        <ele>186</ele>
      </trkpt>
      <trkpt lat="-41.29790673278657" lon="174.744465954606">
        <ele>186</ele>
      </trkpt>
      <trkpt lat="-41.29782281136754" lon="174.744568949075">
        <ele>185</ele>
      </trkpt>
      <trkpt lat="-41.29782281136754" lon="174.744568949075">
        <ele>185</ele>
      </trkpt>
      <trkpt lat="-41.29781136753767" lon="174.744471676521">
        <ele>187</ele>
      </trkpt>
      <trkpt lat="-41.29788098416937" lon="174.74438680145">
        <ele>188</ele>
      </trkpt>
      <trkpt lat="-41.29794964714858" lon="174.744301926378">
        <ele>188</ele>
      </trkpt>
      <trkpt lat="-41.29806408544727" lon="174.744218004959">
        <ele>187</ele>
      </trkpt>
      <trkpt lat="-41.29809364867442" lon="174.744124547015">
        <ele>189</ele>
      </trkpt>
      <trkpt lat="-41.29813751668892" lon="174.744063513256">
        <ele>190</ele>
      </trkpt>
      <trkpt lat="-41.29818043105092" lon="174.744002479496">
        <ele>191</ele>
      </trkpt>
      <trkpt lat="-41.29819187488079" lon="174.743939538432">
        <ele>192</ele>
      </trkpt>
      <trkpt lat="-41.29820236505817" lon="174.74387755102">
        <ele>194</ele>
      </trkpt>
      <trkpt lat="-41.29820713332062" lon="174.743813656304">
        <ele>196</ele>
      </trkpt>
      <trkpt lat="-41.29821190158306" lon="174.743749761587">
        <ele>197</ele>
      </trkpt>
      <trkpt lat="-41.29827484264734" lon="174.74370112531">
        <ele>197</ele>
      </trkpt>
      <trkpt lat="-41.29834255197406" lon="174.743806027084">
        <ele>193</ele>
      </trkpt>
      <trkpt lat="-41.298391188251" lon="174.743791722296">
        <ele>193</ele>
      </trkpt>
      <trkpt lat="-41.29843314896052" lon="174.743718291055">
        <ele>194</ele>
      </trkpt>
      <trkpt lat="-41.29885466336067" lon="174.743366393286">
        <ele>194</ele>
      </trkpt>
      <trkpt lat="-41.29909975205035" lon="174.743091741369">
        <ele>196</ele>
      </trkpt>
      <trkpt lat="-41.29910165935533" lon="174.742986839596">
        <ele>198</ele>
      </trkpt>
      <trkpt lat="-41.29910356666031" lon="174.742882891474">
        <ele>201</ele>
      </trkpt>
      <trkpt lat="-41.2990778180431" lon="174.74278561892">
        <ele>204</ele>
      </trkpt>
      <trkpt lat="-41.2990520694259" lon="174.742688346367">
        <ele>207</ele>
      </trkpt>
      <trkpt lat="-41.29905683768835" lon="174.742595842075">
        <ele>209</ele>
      </trkpt>
      <trkpt lat="-41.29906160595079" lon="174.742503337784">
        <ele>212</ele>
      </trkpt>
      <trkpt lat="-41.29910165935533" lon="174.742435628457">
        <ele>212</ele>
      </trkpt>
      <trkpt lat="-41.29916269311463" lon="174.742444211329">
        <ele>210</ele>
      </trkpt>
      <trkpt lat="-41.29921228304406" lon="174.742405111577">
        <ele>210</ele>
      </trkpt>
      <trkpt lat="-41.29928189967575" lon="174.742335494946">
        <ele>211</ele>
      </trkpt>
      <trkpt lat="-41.29935056265496" lon="174.742265878314">
        <ele>212</ele>
      </trkpt>
      <trkpt lat="-41.29981022315468" lon="174.742029372497">
        <ele>211</ele>
      </trkpt>
      <trkpt lat="-41.29990558840358" lon="174.742038909022">
        <ele>210</ele>
      </trkpt>
      <trkpt lat="-41.3" lon="174.742048445546">
        <ele>208</ele>
      </trkpt>
      <trkpt lat="-41.3" lon="174.742048445546">
        <ele>208</ele>
      </trkpt>
      <trkpt lat="-41.30002002670227" lon="174.742050352851">
        <ele>207</ele>
      </trkpt>
      <trkpt lat="-41.300304215144" lon="174.741918748808">
        <ele>208</ele>
      </trkpt>
      <trkpt lat="-41.300304215144" lon="174.741918748808">
        <ele>208</ele>
      </trkpt>
      <trkpt lat="-41.30061415220294" lon="174.741567804692">
        <ele>213</ele>
      </trkpt>
      <trkpt lat="-41.30064657638756" lon="174.741481975968">
        <ele>214</ele>
      </trkpt>
      <trkpt lat="-41.3006790005722" lon="174.741396147244">
        <ele>216</ele>
      </trkpt>
      <trkpt lat="-41.30071905397674" lon="174.741337974442">
        <ele>217</ele>
      </trkpt>
      <trkpt lat="-41.30077627312608" lon="174.741278847988">
        <ele>217</ele>
      </trkpt>
      <trkpt lat="-41.30082395575052" lon="174.741203509441">
        <ele>218</ele>
      </trkpt>
      <trkpt lat="-41.30088880411978" lon="174.741085256533">
        <ele>220</ele>
      </trkpt>
      <trkpt lat="-41.30094506961663" lon="174.741058554263">
        <ele>220</ele>
      </trkpt>
      <trkpt lat="-41.30102136181576" lon="174.741005149723">
        <ele>220</ele>
      </trkpt>
      <trkpt lat="-41.30111005149724" lon="174.740999427809">
        <ele>220</ele>
      </trkpt>
      <trkpt lat="-41.30120732405112" lon="174.74089261873">
        <ele>220</ele>
      </trkpt>
      <trkpt lat="-41.30127598703033" lon="174.740849704368">
        <ele>220</ele>
      </trkpt>
      <trkpt lat="-41.30134369635705" lon="174.740806790006">
        <ele>220</ele>
      </trkpt>
      <trkpt lat="-41.30141617394622" lon="174.740795346176">
        <ele>219</ele>
      </trkpt>
      <trkpt lat="-41.30152965859241" lon="174.740843982453">
        <ele>216</ele>
      </trkpt>
      <trkpt lat="-41.30160595079153" lon="174.740817280183">
        <ele>215</ele>
      </trkpt>
      <trkpt lat="-41.30168224299066" lon="174.740790577913">
        <ele>215</ele>
      </trkpt>
      <trkpt lat="-41.30174709135991" lon="174.740795346176">
        <ele>215</ele>
      </trkpt>
      <trkpt lat="-41.3017747472821" lon="174.740752431814">
        <ele>216</ele>
      </trkpt>
      <trkpt lat="-41.30182719816899" lon="174.740699027274">
        <ele>217</ele>
      </trkpt>
      <trkpt lat="-41.30190825863055" lon="174.740661834827">
        <ele>218</ele>
      </trkpt>
      <trkpt lat="-41.30195212664506" lon="174.740629410643">
        <ele>219</ele>
      </trkpt>
      <trkpt lat="-41.3020169750143" lon="174.740608430288">
        <ele>219</ele>
      </trkpt>
      <trkpt lat="-41.30207800877361" lon="174.740603662026">
        <ele>219</ele>
      </trkpt>
      <trkpt lat="-41.30213236696548" lon="174.740531184436">
        <ele>220</ele>
      </trkpt>
      <trkpt lat="-41.30220770551211" lon="174.74044440206">
        <ele>221</ele>
      </trkpt>
      <trkpt lat="-41.30228209040626" lon="174.740358573336">
        <ele>222</ele>
      </trkpt>
      <trkpt lat="-41.30233740225062" lon="174.740261300782">
        <ele>223</ele>
      </trkpt>
      <trkpt lat="-41.30239271409499" lon="174.740164981881">
        <ele>223</ele>
      </trkpt>
      <trkpt lat="-41.30248998664887" lon="174.740105855426">
        <ele>223</ele>
      </trkpt>
      <trkpt lat="-41.30258725920275" lon="174.74">
        <ele>224</ele>
      </trkpt>
      <trkpt lat="-41.30258725920275" lon="174.74">
        <ele>224</ele>
      </trkpt>
      <trkpt lat="-41.30267499523174" lon="174.739906542056">
        <ele>227</ele>
      </trkpt>
      <trkpt lat="-41.30276273126073" lon="174.739814037765">
        <ele>228</ele>
      </trkpt>
      <trkpt lat="-41.30279897005531" lon="174.739765401488">
        <ele>229</ele>
      </trkpt>
      <trkpt lat="-41.30286763303452" lon="174.739717718863">
        <ele>230</ele>
      </trkpt>
      <trkpt lat="-41.30291150104902" lon="174.739695784856">
        <ele>230</ele>
      </trkpt>
      <trkpt lat="-41.30295155445356" lon="174.739695784856">
        <ele>230</ele>
      </trkpt>
      <trkpt lat="-41.30299256151059" lon="174.739674804501">
        <ele>230</ele>
      </trkpt>
      <trkpt lat="-41.30299637612055" lon="174.739577531947">
        <ele>231</ele>
      </trkpt>
      <trkpt lat="-41.30303261491513" lon="174.739546061415">
        <ele>231</ele>
      </trkpt>
      <trkpt lat="-41.30303642952509" lon="174.739497425138">
        <ele>231</ele>
      </trkpt>
      <trkpt lat="-41.30312702651154" lon="174.739417318329">
        <ele>231</ele>
      </trkpt>
      <trkpt lat="-41.303217623498" lon="174.73933721152">
        <ele>230</ele>
      </trkpt>
      <trkpt lat="-41.30328247186726" lon="174.739267594888">
        <ele>229</ele>
      </trkpt>
      <trkpt lat="-41.30334732023651" lon="174.739198931909">
        <ele>229</ele>
      </trkpt>
      <trkpt lat="-41.30343600991799" lon="174.739132176235">
        <ele>231</ele>
      </trkpt>
      <trkpt lat="-41.30353232881938" lon="174.739142666412">
        <ele>231</ele>
      </trkpt>
      <trkpt lat="-41.3036353232882" lon="174.73910738127">
        <ele>233</ele>
      </trkpt>
      <trkpt lat="-41.30373831775701" lon="174.739073049781">
        <ele>234</ele>
      </trkpt>
      <trkpt lat="-41.30398436009918" lon="174.738976730879">
        <ele>237</ele>
      </trkpt>
      <trkpt lat="-41.30404730116346" lon="174.73891188251">
        <ele>237</ele>
      </trkpt>
      <trkpt lat="-41.30410928857525" lon="174.738847987793">
        <ele>238</ele>
      </trkpt>
      <trkpt lat="-41.30418939538433" lon="174.738740225062">
        <ele>239</ele>
      </trkpt>
      <trkpt lat="-41.30427999237078" lon="174.738643906161">
        <ele>240</ele>
      </trkpt>
      <trkpt lat="-41.30437058935724" lon="174.738547587259">
        <ele>241</ele>
      </trkpt>
      <trkpt lat="-41.30446786191112" lon="174.73846748045">
        <ele>241</ele>
      </trkpt>
      <trkpt lat="-41.30456036620256" lon="174.738402632081">
        <ele>240</ele>
      </trkpt>
      <trkpt lat="-41.30466717528133" lon="174.738308220484">
        <ele>240</ele>
      </trkpt>
      <trkpt lat="-41.3047739843601" lon="174.738214762541">
        <ele>241</ele>
      </trkpt>
      <trkpt lat="-41.30484264733931" lon="174.738096509632">
        <ele>243</ele>
      </trkpt>
      <trkpt lat="-41.30491131031852" lon="174.737979210376">
        <ele>244</ele>
      </trkpt>
      <trkpt lat="-41.30498378790769" lon="174.737924852184">
        <ele>244</ele>
      </trkpt>
      <trkpt lat="-41.30505626549686" lon="174.737871447644">
        <ele>245</ele>
      </trkpt>
      <trkpt lat="-41.30514114056838" lon="174.73783902346">
        <ele>245</ele>
      </trkpt>
      <trkpt lat="-41.30522506198741" lon="174.737807552928">
        <ele>246</ele>
      </trkpt>
      <trkpt lat="-41.30525367156208" lon="174.737732214381">
        <ele>247</ele>
      </trkpt>
      <trkpt lat="-41.30528132748427" lon="174.737656875834">
        <ele>247</ele>
      </trkpt>
      <trkpt lat="-41.30535380507343" lon="174.737592981118">
        <ele>248</ele>
      </trkpt>
      <trkpt lat="-41.30545107762732" lon="174.737581537288">
        <ele>247</ele>
      </trkpt>
      <trkpt lat="-41.30555597940111" lon="174.737496662216">
        <ele>247</ele>
      </trkpt>
      <trkpt lat="-41.30561987411787" lon="174.737399389662">
        <ele>249</ele>
      </trkpt>
      <trkpt lat="-41.30561987411787" lon="174.737399389662">
        <ele>249</ele>
      </trkpt>
      <trkpt lat="-41.30561510585543" lon="174.737408926187">
        <ele>249</ele>
      </trkpt>
      <trkpt lat="-41.30588880411978" lon="174.737396528705">
        <ele>248</ele>
      </trkpt>
      <trkpt lat="-41.30586591646004" lon="174.737625405302">
        <ele>246</ele>
      </trkpt>
      <trkpt lat="-41.30576673660119" lon="174.737930574099">
        <ele>246</ele>
      </trkpt>
      <trkpt lat="-41.30582014114057" lon="174.738067900057">
        <ele>247</ele>
      </trkpt>
      <trkpt lat="-41.30588880411978" lon="174.738113675377">
        <ele>248</ele>
      </trkpt>
      <trkpt lat="-41.30615964142667" lon="174.738189967576">
        <ele>252</ele>
      </trkpt>
      <trkpt lat="-41.30641140568377" lon="174.738128933817">
        <ele>255</ele>
      </trkpt>
      <trkpt lat="-41.30681575433912" lon="174.738205226016">
        <ele>261</ele>
      </trkpt>
      <trkpt lat="-41.307174327675" lon="174.738144192256">
        <ele>268</ele>
      </trkpt>
      <trkpt lat="-41.30739557505245" lon="174.738251001335">
        <ele>272</ele>
      </trkpt>
      <trkpt lat="-41.30765496852947" lon="174.738251001335">
        <ele>277</ele>
      </trkpt>
      <trkpt lat="-41.30786477207706" lon="174.738357810414">
        <ele>282</ele>
      </trkpt>
      <trkpt lat="-41.30798683959566" lon="174.738281518215">
        <ele>284</ele>
      </trkpt>
      <trkpt lat="-41.30835304215145" lon="174.738754529849">
        <ele>295</ele>
      </trkpt>
      <trkpt lat="-41.30862006484837" lon="174.73866297921">
        <ele>301</ele>
      </trkpt>
      <trkpt lat="-41.30873831775701" lon="174.738754529849">
        <ele>304</ele>
      </trkpt>
      <trkpt lat="-41.30880698073622" lon="174.738571428571">
        <ele>304</ele>
      </trkpt>
      <trkpt lat="-41.30909689109289" lon="174.73869349609">
        <ele>312</ele>
      </trkpt>
      <trkpt lat="-41.30917699790196" lon="174.739029181766">
        <ele>320</ele>
      </trkpt>
      <trkpt lat="-41.30929906542056" lon="174.739090215525">
        <ele>322</ele>
      </trkpt>
      <trkpt lat="-41.30907400343315" lon="174.739395384322">
        <ele>322</ele>
      </trkpt>
      <trkpt lat="-41.30901678428381" lon="174.73960900248">
        <ele>322</ele>
      </trkpt>
      <trkpt lat="-41.30900534045394" lon="174.739883654396">
        <ele>325</ele>
      </trkpt>
      <trkpt lat="-41.30905302307839" lon="174.74">
        <ele>327</ele>
      </trkpt>
      <trkpt lat="-41.30905302307839" lon="174.74">
        <ele>327</ele>
      </trkpt>
      <trkpt lat="-41.30907400343315" lon="174.740051497234">
        <ele>328</ele>
      </trkpt>
      <trkpt lat="-41.30909307648293" lon="174.740143047873">
        <ele>328</ele>
      </trkpt>
      <trkpt lat="-41.30911214953272" lon="174.740356666031">
        <ele>328</ele>
      </trkpt>
      <trkpt lat="-41.30907018882319" lon="174.740493991989">
        <ele>327</ele>
      </trkpt>
      <trkpt lat="-41.30890234598512" lon="174.740783902346">
        <ele>323</ele>
      </trkpt>
      <trkpt lat="-41.30870017165745" lon="174.740936486744">
        <ele>319</ele>
      </trkpt>
      <trkpt lat="-41.30874213236697" lon="174.741058554263">
        <ele>319</ele>
      </trkpt>
      <trkpt lat="-41.30872687392714" lon="174.741195880221">
        <ele>319</ele>
      </trkpt>
      <trkpt lat="-41.30878409307648" lon="174.741165363342">
        <ele>320</ele>
      </trkpt>
      <trkpt lat="-41.30895956513447" lon="174.7413026893">
        <ele>326</ele>
      </trkpt>
      <trkpt lat="-41.3089481213046" lon="174.741409498379">
        <ele>326</ele>
      </trkpt>
      <trkpt lat="-41.30857047491894" lon="174.74217242037">
        <ele>308</ele>
      </trkpt>
      <trkpt lat="-41.30858191874881" lon="174.742279229449">
        <ele>307</ele>
      </trkpt>
      <trkpt lat="-41.308391188251" lon="174.742798016403">
        <ele>292</ele>
      </trkpt>
      <trkpt lat="-41.30844745374786" lon="174.743075529277">
        <ele>291</ele>
      </trkpt>
      <trkpt lat="-41.30844745374786" lon="174.743075529277">
        <ele>291</ele>
      </trkpt>
      <trkpt lat="-41.30841598321572" lon="174.743001144383">
        <ele>291</ele>
      </trkpt>
      <trkpt lat="-41.30838355903109" lon="174.742927713141">
        <ele>290</ele>
      </trkpt>
      <trkpt lat="-41.3083740225062" lon="174.74281232119">
        <ele>290</ele>
      </trkpt>
      <trkpt lat="-41.30836448598131" lon="174.742697882891">
        <ele>291</ele>
      </trkpt>
      <trkpt lat="-41.30833301544917" lon="174.742621590692">
        <ele>290</ele>
      </trkpt>
      <trkpt lat="-41.30830154491704" lon="174.742546252146">
        <ele>290</ele>
      </trkpt>
      <trkpt lat="-41.30833683005913" lon="174.742208659165">
        <ele>295</ele>
      </trkpt>
      <trkpt lat="-41.30831012778943" lon="174.741870112531">
        <ele>298</ele>
      </trkpt>
      <trkpt lat="-41.30827102803739" lon="174.74178142285">
        <ele>297</ele>
      </trkpt>
      <trkpt lat="-41.30819092122831" lon="174.741717528133">
        <ele>296</ele>
      </trkpt>
      <trkpt lat="-41.30781518214763" lon="174.741636467671">
        <ele>285</ele>
      </trkpt>
      <trkpt lat="-41.30787812321191" lon="174.741003242418">
        <ele>298</ele>
      </trkpt>
      <trkpt lat="-41.30780755292771" lon="174.740925996567">
        <ele>298</ele>
      </trkpt>
      <trkpt lat="-41.30773126072859" lon="174.740908830822">
        <ele>297</ele>
      </trkpt>
      <trkpt lat="-41.30765401487698" lon="174.74089261873">
        <ele>295</ele>
      </trkpt>
      <trkpt lat="-41.30733835590311" lon="174.740969864581">
        <ele>289</ele>
      </trkpt>
      <trkpt lat="-41.30722391760442" lon="174.740932672134">
        <ele>288</ele>
      </trkpt>
      <trkpt lat="-41.30710566469579" lon="174.740841121495">
        <ele>289</ele>
      </trkpt>
      <trkpt lat="-41.30708563799352" lon="174.740763875644">
        <ele>290</ele>
      </trkpt>
      <trkpt lat="-41.30706561129125" lon="174.740687583445">
        <ele>290</ele>
      </trkpt>
      <trkpt lat="-41.30699599465955" lon="174.740642761778">
        <ele>290</ele>
      </trkpt>
      <trkpt lat="-41.30693400724776" lon="174.740527369826">
        <ele>290</ele>
      </trkpt>
      <trkpt lat="-41.30687106618348" lon="174.740412931528">
        <ele>290</ele>
      </trkpt>
      <trkpt lat="-41.30679286667939" lon="174.740384321953">
        <ele>289</ele>
      </trkpt>
      <trkpt lat="-41.30671466717529" lon="174.740356666031">
        <ele>288</ele>
      </trkpt>
      <trkpt lat="-41.30666030898341" lon="174.740375739081">
        <ele>287</ele>
      </trkpt>
      <trkpt lat="-41.30661453366393" lon="174.740288003052">
        <ele>287</ele>
      </trkpt>
      <trkpt lat="-41.30656780469197" lon="174.740200267023">
        <ele>286</ele>
      </trkpt>
      <trkpt lat="-41.30649341979782" lon="174.740127789434">
        <ele>284</ele>
      </trkpt>
      <trkpt lat="-41.30641903490368" lon="174.740055311844">
        <ele>283</ele>
      </trkpt>
      <trkpt lat="-41.30638374976159" lon="174.74">
        <ele>282</ele>
      </trkpt>
      <trkpt lat="-41.30638374976159" lon="174.74">
        <ele>282</ele>
      </trkpt>
      <trkpt lat="-41.30637039862674" lon="174.739979973298">
        <ele>281</ele>
      </trkpt>
      <trkpt lat="-41.30636181575434" lon="174.739870303262">
        <ele>279</ele>
      </trkpt>
      <trkpt lat="-41.30630841121496" lon="174.739787335495">
        <ele>276</ele>
      </trkpt>
      <trkpt lat="-41.30625500667557" lon="174.739705321381">
        <ele>273</ele>
      </trkpt>
      <trkpt lat="-41.30616631699409" lon="174.739692923899">
        <ele>271</ele>
      </trkpt>
      <trkpt lat="-41.30608811748999" lon="174.739696738509">
        <ele>269</ele>
      </trkpt>
      <trkpt lat="-41.30601850085829" lon="174.739668128934">
        <ele>268</ele>
      </trkpt>
      <trkpt lat="-41.3059479305741" lon="174.739640473012">
        <ele>266</ele>
      </trkpt>
      <trkpt lat="-41.30590406255961" lon="174.73960137326">
        <ele>264</ele>
      </trkpt>
      <trkpt lat="-41.30584779706275" lon="174.739505054358">
        <ele>262</ele>
      </trkpt>
      <trkpt lat="-41.30578008773603" lon="174.739435437727">
        <ele>260</ele>
      </trkpt>
      <trkpt lat="-41.30570188823193" lon="174.739419225634">
        <ele>259</ele>
      </trkpt>
      <trkpt lat="-41.30562273507534" lon="174.739403967194">
        <ele>258</ele>
      </trkpt>
      <trkpt lat="-41.30552260156399" lon="174.739484074003">
        <ele>257</ele>
      </trkpt>
      <trkpt lat="-41.30544821666984" lon="174.739575624642">
        <ele>256</ele>
      </trkpt>
      <trkpt lat="-41.30537287812322" lon="174.739668128934">
        <ele>256</ele>
      </trkpt>
      <trkpt lat="-41.30529181766165" lon="174.739649055884">
        <ele>254</ele>
      </trkpt>
      <trkpt lat="-41.30521075720008" lon="174.739629982834">
        <ele>253</ele>
      </trkpt>
      <trkpt lat="-41.3051220675186" lon="174.739557505245">
        <ele>251</ele>
      </trkpt>
      <trkpt lat="-41.30503337783712" lon="174.739485981308">
        <ele>250</ele>
      </trkpt>
      <trkpt lat="-41.30497043677284" lon="174.739408735457">
        <ele>249</ele>
      </trkpt>
      <trkpt lat="-41.304652870494" lon="174.739393477017">
        <ele>244</ele>
      </trkpt>
      <trkpt lat="-41.30432290673279" lon="174.739458325386">
        <ele>239</ele>
      </trkpt>
      <trkpt lat="-41.30399389662407" lon="174.739657638756">
        <ele>236</ele>
      </trkpt>
      <trkpt lat="-41.30392618729735" lon="174.739670989891">
        <ele>235</ele>
      </trkpt>
      <trkpt lat="-41.30385752431814" lon="174.739684341026">
        <ele>234</ele>
      </trkpt>
      <trkpt lat="-41.30378027846653" lon="174.739741560176">
        <ele>233</ele>
      </trkpt>
      <trkpt lat="-41.30370207896243" lon="174.739799732977">
        <ele>232</ele>
      </trkpt>
      <trkpt lat="-41.30364676711807" lon="174.739884608049">
        <ele>232</ele>
      </trkpt>
      <trkpt lat="-41.30359050162121" lon="174.73996948312">
        <ele>231</ele>
      </trkpt>
      <trkpt lat="-41.30355617013161" lon="174.74">
        <ele>231</ele>
      </trkpt>
      <trkpt lat="-41.30355617013161" lon="174.74">
        <ele>231</ele>
      </trkpt>
      <trkpt lat="-41.30338069807362" lon="174.740157352661">
        <ele>227</ele>
      </trkpt>
      <trkpt lat="-41.30312511920656" lon="174.74040625596">
        <ele>223</ele>
      </trkpt>
      <trkpt lat="-41.30301163456037" lon="174.740494945642">
        <ele>221</ele>
      </trkpt>
      <trkpt lat="-41.30285332824719" lon="174.740486362769">
        <ele>220</ele>
      </trkpt>
      <trkpt lat="-41.30269788289148" lon="174.740569330536">
        <ele>218</ele>
      </trkpt>
      <trkpt lat="-41.30268167079916" lon="174.740702841884">
        <ele>217</ele>
      </trkpt>
      <trkpt lat="-41.30268167079916" lon="174.740702841884">
        <ele>217</ele>
      </trkpt>
      <trkpt lat="-41.30298970055312" lon="174.741053786">
        <ele>217</ele>
      </trkpt>
      <trkpt lat="-41.30318996757582" lon="174.741116727065">
        <ele>219</ele>
      </trkpt>
      <trkpt lat="-41.30340930764829" lon="174.741070951745">
        <ele>221</ele>
      </trkpt>
      <trkpt lat="-41.30336639328629" lon="174.741209231356">
        <ele>221</ele>
      </trkpt>
      <trkpt lat="-41.30336639328629" lon="174.741209231356">
        <ele>221</ele>
      </trkpt>
      <trkpt lat="-41.30335971771886" lon="174.741237840931">
        <ele>220</ele>
      </trkpt>
      <trkpt lat="-41.30335971771886" lon="174.741237840931">
        <ele>220</ele>
      </trkpt>
      <trkpt lat="-41.30332920083922" lon="174.741312225825">
        <ele>220</ele>
      </trkpt>
      <trkpt lat="-41.30316803356857" lon="174.741399961854">
        <ele>219</ele>
      </trkpt>
      <trkpt lat="-41.30309650963189" lon="174.741621209231">
        <ele>218</ele>
      </trkpt>
      <trkpt lat="-41.30265878313943" lon="174.741399008201">
        <ele>214</ele>
      </trkpt>
      <trkpt lat="-41.30231737554836" lon="174.741384703414">
        <ele>213</ele>
      </trkpt>
      <trkpt lat="-41.3021047110433" lon="174.741504863628">
        <ele>212</ele>
      </trkpt>
      <trkpt lat="-41.30185294678619" lon="174.741599275224">
        <ele>211</ele>
      </trkpt>
      <trkpt lat="-41.30153728781232" lon="174.741745184055">
        <ele>209</ele>
      </trkpt>
      <trkpt lat="-41.30133129887469" lon="174.741994087355">
        <ele>205</ele>
      </trkpt>
      <trkpt lat="-41.30133129887469" lon="174.742079916079">
        <ele>204</ele>
      </trkpt>
      <trkpt lat="-41.3015048636277" lon="174.742114247568">
        <ele>205</ele>
      </trkpt>
      <trkpt lat="-41.30180144955179" lon="174.742037001717">
        <ele>208</ele>
      </trkpt>
      <trkpt lat="-41.30198836543963" lon="174.74215716193">
        <ele>210</ele>
      </trkpt>
      <trkpt lat="-41.30214953271028" lon="174.742328819378">
        <ele>212</ele>
      </trkpt>
      <trkpt lat="-41.30224012969674" lon="174.742457562464">
        <ele>214</ele>
      </trkpt>
      <trkpt lat="-41.30221438107954" lon="174.742534808316">
        <ele>213</ele>
      </trkpt>
      <trkpt lat="-41.30211138661072" lon="174.742509059699">
        <ele>211</ele>
      </trkpt>
      <trkpt lat="-41.30193686820523" lon="174.74237173374">
        <ele>208</ele>
      </trkpt>
      <trkpt lat="-41.3019568949075" lon="174.742526225443">
        <ele>209</ele>
      </trkpt>
      <trkpt lat="-41.30200171657448" lon="174.74262063704">
        <ele>210</ele>
      </trkpt>
      <trkpt lat="-41.30206656494374" lon="174.742663551402">
        <ele>212</ele>
      </trkpt>
      <trkpt lat="-41.30217528132749" lon="174.742834255197">
        <ele>214</ele>
      </trkpt>
      <trkpt lat="-41.30206275033378" lon="174.742852374595">
        <ele>213</ele>
      </trkpt>
      <trkpt lat="-41.30189109288575" lon="174.742774175091">
        <ele>210</ele>
      </trkpt>
      <trkpt lat="-41.30201411405684" lon="174.74301544917">
        <ele>214</ele>
      </trkpt>
      <trkpt lat="-41.30184054930383" lon="174.742972534808">
        <ele>213</ele>
      </trkpt>
      <trkpt lat="-41.30146671752814" lon="174.742946786191">
        <ele>208</ele>
      </trkpt>
      <trkpt lat="-41.30120637039863" lon="174.743044058745">
        <ele>206</ele>
      </trkpt>
      <trkpt lat="-41.30079534617585" lon="174.743162311654">
        <ele>201</ele>
      </trkpt>
      <trkpt lat="-41.3005826816708" lon="174.743187106618">
        <ele>198</ele>
      </trkpt>
      <trkpt lat="-41.30040244135037" lon="174.743272935342">
        <ele>194</ele>
      </trkpt>
      <trkpt lat="-41.30016402822812" lon="174.743504672897">
        <ele>192</ele>
      </trkpt>
      <trkpt lat="-41.3" lon="174.743768834637">
        <ele>192</ele>
      </trkpt>
      <trkpt lat="-41.3" lon="174.743768834637">
        <ele>192</ele>
      </trkpt>
      <trkpt lat="-41.2998607667366" lon="174.743968148007">
        <ele>192</ele>
      </trkpt>
      <trkpt lat="-41.29965477779897" lon="174.744328628648">
        <ele>191</ele>
      </trkpt>
      <trkpt lat="-41.29955750524509" lon="174.744654777799">
        <ele>193</ele>
      </trkpt>
      <trkpt lat="-41.29964810223154" lon="174.744826435247">
        <ele>197</ele>
      </trkpt>
      <trkpt lat="-41.29977684531757" lon="174.745041007057">
        <ele>203</ele>
      </trkpt>
      <trkpt lat="-41.29991226397101" lon="174.745221247377">
        <ele>208</ele>
      </trkpt>
      <trkpt lat="-41.3" lon="174.745291817662">
        <ele>211</ele>
      </trkpt>
      <trkpt lat="-41.3" lon="174.745291817662">
        <ele>211</ele>
      </trkpt>
      <trkpt lat="-41.30007343124166" lon="174.745349990463">
        <ele>213</ele>
      </trkpt>
      <trkpt lat="-41.30021552546253" lon="174.745427236315">
        <ele>217</ele>
      </trkpt>
      <trkpt lat="-41.30044726301736" lon="174.745607476636">
        <ele>224</ele>
      </trkpt>
      <trkpt lat="-41.30025462521457" lon="174.745607476636">
        <ele>220</ele>
      </trkpt>
      <trkpt lat="-41.30014495517833" lon="174.745487316422">
        <ele>216</ele>
      </trkpt>
      <trkpt lat="-41.3" lon="174.745468243372">
        <ele>213</ele>
      </trkpt>
      <trkpt lat="-41.3" lon="174.745468243372">
        <ele>213</ele>
      </trkpt>
      <trkpt lat="-41.29973202365058" lon="174.74544440206">
        <ele>209</ele>
      </trkpt>
      <trkpt lat="-41.29939633797444" lon="174.745358573336">
        <ele>202</ele>
      </trkpt>
      <trkpt lat="-41.29920942208659" lon="174.745238413122">
        <ele>195</ele>
      </trkpt>
      <trkpt lat="-41.29898436009918" lon="174.745289910357">
        <ele>192</ele>
      </trkpt>
      <trkpt lat="-41.29871352279229" lon="174.74544440206">
        <ele>190</ele>
      </trkpt>
      <trkpt lat="-41.29849418271981" lon="174.745633225253">
        <ele>188</ele>
      </trkpt>
      <trkpt lat="-41.29833873736411" lon="174.745787716956">
        <ele>186</ele>
      </trkpt>
      <trkpt lat="-41.29827674995231" lon="174.745683768835">
        <ele>183</ele>
      </trkpt>
      <trkpt lat="-41.29827674995231" lon="174.745683768835">
        <ele>183</ele>
      </trkpt>
      <trkpt lat="-41.29823955750524" lon="174.745713332062">
        <ele>183</ele>
      </trkpt>
      <trkpt lat="-41.29818329200839" lon="174.745823955751">
        <ele>183</ele>
      </trkpt>
      <trkpt lat="-41.29816231165363" lon="174.745908830822">
        <ele>184</ele>
      </trkpt>
      <trkpt lat="-41.2981651726111" lon="174.745992752241">
        <ele>185</ele>
      </trkpt>
      <trkpt lat="-41.29815754339118" lon="174.746092885752">
        <ele>186</ele>
      </trkpt>
      <trkpt lat="-41.29808601945451" lon="174.746178714476">
        <ele>186</ele>
      </trkpt>
      <trkpt lat="-41.29801354186534" lon="174.746265496853">
        <ele>185</ele>
      </trkpt>
      <trkpt lat="-41.29795536906352" lon="174.746294106428">
        <ele>185</ele>
      </trkpt>
      <trkpt lat="-41.29787144764448" lon="174.74629887469">
        <ele>183</ele>
      </trkpt>
      <trkpt lat="-41.29780373831775" lon="174.746358001144">
        <ele>183</ele>
      </trkpt>
      <trkpt lat="-41.29775796299828" lon="174.746435246996">
        <ele>183</ele>
      </trkpt>
      <trkpt lat="-41.29774175090597" lon="174.746506770933">
        <ele>184</ele>
      </trkpt>
      <trkpt lat="-41.29773839489823" lon="174.746520940743">
        <ele>184</ele>
      </trkpt>
      <trkpt lat="-41.29773698264352" lon="174.746518214763">
        <ele>184</ele>
      </trkpt>
      <trkpt lat="-41.29769597558649" lon="174.746439061606">
        <ele>182</ele>
      </trkpt>
      <trkpt lat="-41.297652107572" lon="174.746546824337">
        <ele>183</ele>
      </trkpt>
      <trkpt lat="-41.29759679572764" lon="174.746454320046">
        <ele>181</ele>
      </trkpt>
      <trkpt lat="-41.29752431813847" lon="174.746439061606">
        <ele>179</ele>
      </trkpt>
      <trkpt lat="-41.29750333778371" lon="174.74654396338">
        <ele>181</ele>
      </trkpt>
      <trkpt lat="-41.29750333778371" lon="174.746597367919">
        <ele>181</ele>
      </trkpt>
      <trkpt lat="-41.29744516498188" lon="174.746636467671">
        <ele>182</ele>
      </trkpt>
      <trkpt lat="-41.29736982643524" lon="174.746574480259">
        <ele>181</ele>
      </trkpt>
      <trkpt lat="-41.29729353423613" lon="174.746512492848">
        <ele>180</ele>
      </trkpt>
      <trkpt lat="-41.29719244707228" lon="174.746544917032">
        <ele>181</ele>
      </trkpt>
      <trkpt lat="-41.29719244707228" lon="174.746544917032">
        <ele>181</ele>
      </trkpt>
      <trkpt lat="-41.29712473774556" lon="174.74650581728">
        <ele>180</ele>
      </trkpt>
      <trkpt lat="-41.29705711417132" lon="174.746466767047">
        <ele>180</ele>
      </trkpt>
      <trkpt lat="-41.29705711418971" lon="174.746466767058">
        <ele>180</ele>
      </trkpt>
      <trkpt lat="-41.29684531756628" lon="174.746740415792">
        <ele>180</ele>
      </trkpt>
      <trkpt lat="-41.29673850848751" lon="174.746864390616">
        <ele>180</ele>
      </trkpt>
      <trkpt lat="-41.29664981880602" lon="174.747111386611">
        <ele>181</ele>
      </trkpt>
      <trkpt lat="-41.29657734121686" lon="174.747401296967">
        <ele>181</ele>
      </trkpt>
      <trkpt lat="-41.29647625405302" lon="174.747577722678">
        <ele>181</ele>
      </trkpt>
      <trkpt lat="-41.29634178905207" lon="174.74760919321">
        <ele>180</ele>
      </trkpt>
      <trkpt lat="-41.29634178905207" lon="174.74760919321">
        <ele>180</ele>
      </trkpt>
      <trkpt lat="-41.29624547015067" lon="174.747709326721">
        <ele>180</ele>
      </trkpt>
      <trkpt lat="-41.29614819759679" lon="174.747809460233">
        <ele>179</ele>
      </trkpt>
      <trkpt lat="-41.2960518786954" lon="174.747894335304">
        <ele>177</ele>
      </trkpt>
      <trkpt lat="-41.29595460614152" lon="174.747979210376">
        <ele>175</ele>
      </trkpt>
      <trkpt lat="-41.29588975777227" lon="174.748056456227">
        <ele>173</ele>
      </trkpt>
      <trkpt lat="-41.29582395575052" lon="174.748134655731">
        <ele>171</ele>
      </trkpt>
      <trkpt lat="-41.29576006103376" lon="174.74823383559">
        <ele>172</ele>
      </trkpt>
      <trkpt lat="-41.29573145145909" lon="174.748295823002">
        <ele>171</ele>
      </trkpt>
      <trkpt lat="-41.29570284188441" lon="174.748357810414">
        <ele>172</ele>
      </trkpt>
      <trkpt lat="-41.29567900057219" lon="174.748422658783">
        <ele>174</ele>
      </trkpt>
      <trkpt lat="-41.29565420560748" lon="174.748488460805">
        <ele>175</ele>
      </trkpt>
      <trkpt lat="-41.29561892046538" lon="174.748567613961">
        <ele>177</ele>
      </trkpt>
      <trkpt lat="-41.29558363532329" lon="174.748646767118">
        <ele>178</ele>
      </trkpt>
      <trkpt lat="-41.29552260156399" lon="174.748751668892">
        <ele>179</ele>
      </trkpt>
      <trkpt lat="-41.29546156780469" lon="174.748857524318">
        <ele>179</ele>
      </trkpt>
      <trkpt lat="-41.29516688918558" lon="174.749259965669">
        <ele>174</ele>
      </trkpt>
      <trkpt lat="-41.29511634560366" lon="174.749334350563">
        <ele>174</ele>
      </trkpt>
      <trkpt lat="-41.29506580202174" lon="174.749409689109">
        <ele>174</ele>
      </trkpt>
      <trkpt lat="-41.29498664886516" lon="174.749527942018">
        <ele>175</ele>
      </trkpt>
      <trkpt lat="-41.29494564180813" lon="174.749617585352">
        <ele>177</ele>
      </trkpt>
      <trkpt lat="-41.29489795918367" lon="174.749697692161">
        <ele>178</ele>
      </trkpt>
      <trkpt lat="-41.29484550829677" lon="174.749760633225">
        <ele>178</ele>
      </trkpt>
      <trkpt lat="-41.29479210375739" lon="174.74982357429">
        <ele>178</ele>
      </trkpt>
      <trkpt lat="-41.29470627503338" lon="174.749906542056">
        <ele>178</ele>
      </trkpt>
      <trkpt lat="-41.29462044630937" lon="174.749990463475">
        <ele>176</ele>
      </trkpt>
      <trkpt lat="-41.29453652489033" lon="174.750080106809">
        <ele>174</ele>
      </trkpt>
      <trkpt lat="-41.29450600801068" lon="174.750150677093">
        <ele>174</ele>
      </trkpt>
      <trkpt lat="-41.29447453747854" lon="174.750221247377">
        <ele>175</ele>
      </trkpt>
      <trkpt lat="-41.29447453747854" lon="174.750221247377">
        <ele>175</ele>
      </trkpt>
      <trkpt lat="-41.29444592790387" lon="174.750336639329">
        <ele>176</ele>
      </trkpt>
      <trkpt lat="-41.29443358605221" lon="174.750386829525">
        <ele>176</ele>
      </trkpt>
      <trkpt lat="-41.29443358604795" lon="174.750386829543">
        <ele>176</ele>
      </trkpt>
      <trkpt lat="-41.29444497425138" lon="174.750479687202">
        <ele>178</ele>
      </trkpt>
      <trkpt lat="-41.29444497425138" lon="174.750479687202">
        <ele>178</ele>
      </trkpt>
      <trkpt lat="-41.29454701506771" lon="174.750646576388">
        <ele>185</ele>
      </trkpt>
      <trkpt lat="-41.29467003623879" lon="174.750775319474">
        <ele>193</ele>
      </trkpt>
      <trkpt lat="-41.29485027655922" lon="174.750895479687">
        <ele>202</ele>
      </trkpt>
      <trkpt lat="-41.29501144382986" lon="174.750809650963">
        <ele>207</ele>
      </trkpt>
      <trkpt lat="-41.29501144382986" lon="174.750809650963">
        <ele>207</ele>
      </trkpt>
      <trkpt lat="-41.29501907304978" lon="174.750878313942">
        <ele>208</ele>
      </trkpt>
      <trkpt lat="-41.29502670226969" lon="174.750946976922">
        <ele>209</ele>
      </trkpt>
      <trkpt lat="-41.29507915315659" lon="174.751021361816">
        <ele>209</ele>
      </trkpt>
      <trkpt lat="-41.29513160404348" lon="174.751096700362">
        <ele>210</ele>
      </trkpt>
      <trkpt lat="-41.29524413503719" lon="174.75111863437">
        <ele>211</ele>
      </trkpt>
      <trkpt lat="-41.29531661262636" lon="174.751161548732">
        <ele>212</ele>
      </trkpt>
      <trkpt lat="-41.2953566660309" lon="174.751247377456">
        <ele>213</ele>
      </trkpt>
      <trkpt lat="-41.29542914362006" lon="174.751172038909">
        <ele>214</ele>
      </trkpt>
      <trkpt lat="-41.29547968720198" lon="174.751212092314">
        <ele>214</ele>
      </trkpt>
      <trkpt lat="-41.29547968720198" lon="174.751212092314">
        <ele>214</ele>
      </trkpt>
      <trkpt lat="-41.29552641617394" lon="174.751243562846">
        <ele>215</ele>
      </trkpt>
      <trkpt lat="-41.29553213808888" lon="174.751275033378">
        <ele>215</ele>
      </trkpt>
      <trkpt lat="-41.29548540911691" lon="174.751326530612">
        <ele>215</ele>
      </trkpt>
      <trkpt lat="-41.29538336830059" lon="174.751380888804">
        <ele>214</ele>
      </trkpt>
      <trkpt lat="-41.29528132748426" lon="174.751436200648">
        <ele>213</ele>
      </trkpt>
      <trkpt lat="-41.29520789624261" lon="174.751487697883">
        <ele>213</ele>
      </trkpt>
      <trkpt lat="-41.29513446500096" lon="174.751539195117">
        <ele>212</ele>
      </trkpt>
      <trkpt lat="-41.2950438680145" lon="174.751526797635">
        <ele>211</ele>
      </trkpt>
      <trkpt lat="-41.29496280755293" lon="174.751552546252">
        <ele>209</ele>
      </trkpt>
      <trkpt lat="-41.29491607858096" lon="174.751548731642">
        <ele>208</ele>
      </trkpt>
      <trkpt lat="-41.29482166698455" lon="174.751475300401">
        <ele>205</ele>
      </trkpt>
      <trkpt lat="-41.29475491131032" lon="174.7515134465">
        <ele>204</ele>
      </trkpt>
      <trkpt lat="-41.2946872019836" lon="174.7515515926">
        <ele>203</ele>
      </trkpt>
      <trkpt lat="-41.29466145336639" lon="174.751599275224">
        <ele>203</ele>
      </trkpt>
      <trkpt lat="-41.2946519168415" lon="174.751645050544">
        <ele>203</ele>
      </trkpt>
      <trkpt lat="-41.29465668510394" lon="174.751714667175">
        <ele>204</ele>
      </trkpt>
      <trkpt lat="-41.29466145336639" lon="174.751784283807">
        <ele>204</ele>
      </trkpt>
      <trkpt lat="-41.29457085637993" lon="174.751814800687">
        <ele>202</ele>
      </trkpt>
      <trkpt lat="-41.29453080297539" lon="174.751794773984">
        <ele>201</ele>
      </trkpt>
      <trkpt lat="-41.29448502765592" lon="174.751740415792">
        <ele>200</ele>
      </trkpt>
      <trkpt lat="-41.29441922563418" lon="174.75170513065">
        <ele>199</ele>
      </trkpt>
      <trkpt lat="-41.29410165935533" lon="174.751779515545">
        <ele>192</ele>
      </trkpt>
      <trkpt lat="-41.2940520694259" lon="174.751749952317">
        <ele>190</ele>
      </trkpt>
      <trkpt lat="-41.29401678428381" lon="174.751707991608">
        <ele>188</ele>
      </trkpt>
      <trkpt lat="-41.29398340644669" lon="174.75170513065">
        <ele>187</ele>
      </trkpt>
      <trkpt lat="-41.29394335304215" lon="174.751732786573">
        <ele>186</ele>
      </trkpt>
      <trkpt lat="-41.29388899485028" lon="174.751824337212">
        <ele>186</ele>
      </trkpt>
      <trkpt lat="-41.29385275605569" lon="174.751856761396">
        <ele>185</ele>
      </trkpt>
      <trkpt lat="-41.29380984169369" lon="174.751879649056">
        <ele>184</ele>
      </trkpt>
      <trkpt lat="-41.2938174709136" lon="174.751895861148">
        <ele>185</ele>
      </trkpt>
      <trkpt lat="-41.29390520694259" lon="174.751874880793">
        <ele>187</ele>
      </trkpt>
      <trkpt lat="-41.29393381651726" lon="174.751941636468">
        <ele>189</ele>
      </trkpt>
      <trkpt lat="-41.29398054548922" lon="174.752016975014">
        <ele>191</ele>
      </trkpt>
      <trkpt lat="-41.29399008201411" lon="174.752086591646">
        <ele>193</ele>
      </trkpt>
      <trkpt lat="-41.29399866488652" lon="174.752156208278">
        <ele>194</ele>
      </trkpt>
      <trkpt lat="-41.29403585733359" lon="174.75219912264">
        <ele>195</ele>
      </trkpt>
      <trkpt lat="-41.2941131031852" lon="174.752256341789">
        <ele>198</ele>
      </trkpt>
      <trkpt lat="-41.29419034903681" lon="174.752313560938">
        <ele>200</ele>
      </trkpt>
      <trkpt lat="-41.29420179286668" lon="174.752289719626">
        <ele>200</ele>
      </trkpt>
      <trkpt lat="-41.29422563417891" lon="174.752296395194">
        <ele>200</ele>
      </trkpt>
      <trkpt lat="-41.29420370017166" lon="174.752227732214">
        <ele>199</ele>
      </trkpt>
      <trkpt lat="-41.29431527751287" lon="174.752276368491">
        <ele>201</ele>
      </trkpt>
      <trkpt lat="-41.29423230974633" lon="174.75259393477">
        <ele>202</ele>
      </trkpt>
      <trkpt lat="-41.2941827198169" lon="174.7526053786">
        <ele>202</ele>
      </trkpt>
      <trkpt lat="-41.29409879839786" lon="174.752549113103">
        <ele>200</ele>
      </trkpt>
      <trkpt lat="-41.29407972534808" lon="174.752507152394">
        <ele>200</ele>
      </trkpt>
      <trkpt lat="-41.29400629410642" lon="174.752495708564">
        <ele>198</ele>
      </trkpt>
      <trkpt lat="-41.29393286286477" lon="174.752484264734">
        <ele>197</ele>
      </trkpt>
      <trkpt lat="-41.2938956704177" lon="174.752454701507">
        <ele>196</ele>
      </trkpt>
      <trkpt lat="-41.29385847797062" lon="174.752454701507">
        <ele>195</ele>
      </trkpt>
      <trkpt lat="-41.29383940492085" lon="174.752478542819">
        <ele>195</ele>
      </trkpt>
      <trkpt lat="-41.29379362960137" lon="174.752565325195">
        <ele>195</ele>
      </trkpt>
      <trkpt lat="-41.29371256913981" lon="174.752533854663">
        <ele>194</ele>
      </trkpt>
      <trkpt lat="-41.2936343696357" lon="174.752803738318">
        <ele>196</ele>
      </trkpt>
      <trkpt lat="-41.2936086210185" lon="174.752821857715">
        <ele>195</ele>
      </trkpt>
      <trkpt lat="-41.29357047491894" lon="174.752818996758">
        <ele>195</ele>
      </trkpt>
      <trkpt lat="-41.29332252527179" lon="174.752709326721">
        <ele>190</ele>
      </trkpt>
      <trkpt lat="-41.29327102803738" lon="174.752710280374">
        <ele>189</ele>
      </trkpt>
      <trkpt lat="-41.29319664314324" lon="174.752730307076">
        <ele>188</ele>
      </trkpt>
      <trkpt lat="-41.29316231165363" lon="174.752774175091">
        <ele>189</ele>
      </trkpt>
      <trkpt lat="-41.29314896051878" lon="174.752833301545">
        <ele>190</ele>
      </trkpt>
      <trkpt lat="-41.29314514590883" lon="174.753100324242">
        <ele>195</ele>
      </trkpt>
      <trkpt lat="-41.29310986076673" lon="174.753174709136">
        <ele>196</ele>
      </trkpt>
      <trkpt lat="-41.29306217814229" lon="174.75323002098">
        <ele>197</ele>
      </trkpt>
      <trkpt lat="-41.29302784665268" lon="174.75325290864">
        <ele>197</ele>
      </trkpt>
      <trkpt lat="-41.29299828342552" lon="174.753243372115">
        <ele>197</ele>
      </trkpt>
      <trkpt lat="-41.29293534236124" lon="174.753178523746">
        <ele>194</ele>
      </trkpt>
      <trkpt lat="-41.29266450505435" lon="174.753031661263">
        <ele>188</ele>
      </trkpt>
      <trkpt lat="-41.29264447835209" lon="174.752954415411">
        <ele>185</ele>
      </trkpt>
      <trkpt lat="-41.29250047682624" lon="174.752710280374">
        <ele>176</ele>
      </trkpt>
      <trkpt lat="-41.29243372115201" lon="174.752659736792">
        <ele>173</ele>
      </trkpt>
      <trkpt lat="-41.29234312416555" lon="174.752649246615">
        <ele>171</ele>
      </trkpt>
      <trkpt lat="-41.29223154682434" lon="174.752698836544">
        <ele>170</ele>
      </trkpt>
      <trkpt lat="-41.29211901583063" lon="174.752748426473">
        <ele>169</ele>
      </trkpt>
      <trkpt lat="-41.29209898912836" lon="174.752855235552">
        <ele>171</ele>
      </trkpt>
      <trkpt lat="-41.29179286667938" lon="174.752857142857">
        <ele>165</ele>
      </trkpt>
      <trkpt lat="-41.2917566278848" lon="174.75278943353">
        <ele>163</ele>
      </trkpt>
      <trkpt lat="-41.29171943543773" lon="174.752721724204">
        <ele>160</ele>
      </trkpt>
      <trkpt lat="-41.29171943543773" lon="174.752721724204">
        <ele>160</ele>
      </trkpt>
      <trkpt lat="-41.29164218958611" lon="174.752765592218">
        <ele>160</ele>
      </trkpt>
      <trkpt lat="-41.2915649437345" lon="174.752809460233">
        <ele>160</ele>
      </trkpt>
      <trkpt lat="-41.29151916841503" lon="174.752828533282">
        <ele>160</ele>
      </trkpt>
      <trkpt lat="-41.29145432004577" lon="174.752900057219">
        <ele>160</ele>
      </trkpt>
      <trkpt lat="-41.29142952508106" lon="174.752946786191">
        <ele>160</ele>
      </trkpt>
      <trkpt lat="-41.29141045203128" lon="174.753039290483">
        <ele>162</ele>
      </trkpt>
      <trkpt lat="-41.2913913789815" lon="174.753132748426">
        <ele>163</ele>
      </trkpt>
      <trkpt lat="-41.29134846461949" lon="174.753250047683">
        <ele>164</ele>
      </trkpt>
      <trkpt lat="-41.29133014607834" lon="174.75326958746">
        <ele>164</ele>
      </trkpt>
    </trkseg>
  </trk>
</gpx>