<?xml version="1.0" encoding="UTF-8" standalone="yes"?>
<gpx
 version="1.1"
 creator="Generated by MapOut iPhone App. See https://mapout.app"
 xmlns="http://www.topografix.com/GPX/1/1"
 xmlns:xsi="http://www.w3.org/2001/XMLSchema-instance"
 xmlns:gpxx="http://www.garmin.com/xmlschemas/GpxExtensions/v3"
 xmlns:mapout="https://mapout.app/xmlschemas/MapOutExtensions"
 xsi:schemaLocation="http://www.topografix.com/GPX/1/1 https://www.topografix.com/GPX/1/1/gpx.xsd http://www.garmin.com/xmlschemas/GpxExtensions/v3 https://www8.garmin.com/xmlschemas/GpxExtensionsv3.xsd https://mapout.app/xmlschemas/MapOutExtensions https://mapout.app/xmlschemas/MapOutExtensions.xsd">
  <metadata>
    <name>Cavestream</name>
    <time>2026-09-20T23:55:12Z</time>
    <bounds minlat="-43.19824080987261" minlon="171.741582395989" maxlat="-43.1950512950005" maxlon="171.744478352088"/>
  </metadata>
  <trk>
    <name>Cavestream</name>
    <trkseg>
      <trkpt lat="-43.19625701073038" lon="171.741662785027">
        <ele>678</ele>
      </trkpt>
      <trkpt lat="-43.1963999618539" lon="171.741798588594">
        <ele>676</ele>
      </trkpt>
      <trkpt lat="-43.1963999618539" lon="171.741798588594">
        <ele>676</ele>
      </trkpt>
      <trkpt lat="-43.19635895479687" lon="171.741873927141">
        <ele>676</ele>
      </trkpt>
      <trkpt lat="-43.19633797444211" lon="171.741974060652">
        <ele>676</ele>
      </trkpt>
      <trkpt lat="-43.19633415983215" lon="171.742041769979">
        <ele>676</ele>
      </trkpt>
      <trkpt lat="-43.19635895479687" lon="171.742128552356">
        <ele>676</ele>
      </trkpt>
      <trkpt lat="-43.19638374976159" lon="171.742215334732">
        <ele>675</ele>
      </trkpt>
      <trkpt lat="-43.19637993515163" lon="171.742290673279">
        <ele>675</ele>
      </trkpt>
      <trkpt lat="-43.19636658401678" lon="171.742385084875">
        <ele>675</ele>
      </trkpt>
      <trkpt lat="-43.19635323288193" lon="171.742479496471">
        <ele>674</ele>
      </trkpt>
      <trkpt lat="-43.19637421323669" lon="171.742581537288">
        <ele>674</ele>
      </trkpt>
      <trkpt lat="-43.19654682433721" lon="171.743094602327">
        <ele>670</ele>
      </trkpt>
      <trkpt lat="-43.19655349990463" lon="171.743129887469">
        <ele>670</ele>
      </trkpt>
      <trkpt lat="-43.19654396337974" lon="171.743139423994">
        <ele>670</ele>
      </trkpt>
      <trkpt lat="-43.19652679763494" lon="171.743132748426">
        <ele>670</ele>
      </trkpt>
      <trkpt lat="-43.19643715430097" lon="171.743024985695">
        <ele>670</ele>
      </trkpt>
      <trkpt lat="-43.19642857142857" lon="171.743027846653">
        <ele>670</ele>
      </trkpt>
      <trkpt lat="-43.19643238603852" lon="171.743137516689">
        <ele>669</ele>
      </trkpt>
      <trkpt lat="-43.19643620064848" lon="171.743247186725">
        <ele>668</ele>
      </trkpt>
      <trkpt lat="-43.19641522029372" lon="171.743308220484">
        <ele>668</ele>
      </trkpt>
      <trkpt lat="-43.19636849132176" lon="171.74330249857">
        <ele>667</ele>
      </trkpt>
      <trkpt lat="-43.19632843791722" lon="171.743312988747">
        <ele>667</ele>
      </trkpt>
      <trkpt lat="-43.19624737745566" lon="171.743370207896">
        <ele>666</ele>
      </trkpt>
      <trkpt lat="-43.19614056837688" lon="171.743386419989">
        <ele>665</ele>
      </trkpt>
      <trkpt lat="-43.19614056837688" lon="171.743386419989">
        <ele>665</ele>
      </trkpt>
      <trkpt lat="-43.19604424947549" lon="171.743396910166">
        <ele>664</ele>
      </trkpt>
      <trkpt lat="-43.19598512302117" lon="171.743377837116">
        <ele>664</ele>
      </trkpt>
      <trkpt lat="-43.19591169177951" lon="171.743385466336">
        <ele>663</ele>
      </trkpt>
      <trkpt lat="-43.19585828724013" lon="171.743359717719">
        <ele>663</ele>
      </trkpt>
      <trkpt lat="-43.19578867060843" lon="171.74330249857">
        <ele>664</ele>
      </trkpt>
      <trkpt lat="-43.19571905397673" lon="171.74324527942">
        <ele>665</ele>
      </trkpt>
      <trkpt lat="-43.19559698645813" lon="171.743134655731">
        <ele>666</ele>
      </trkpt>
      <trkpt lat="-43.19552069425901" lon="171.743108907114">
        <ele>666</ele>
      </trkpt>
      <trkpt lat="-43.19548540911691" lon="171.743108907114">
        <ele>666</ele>
      </trkpt>
      <trkpt lat="-43.19543772649246" lon="171.743119397292">
        <ele>666</ele>
      </trkpt>
      <trkpt lat="-43.19541007057028" lon="171.743110814419">
        <ele>667</ele>
      </trkpt>
      <trkpt lat="-43.19536334159832" lon="171.74308029754">
        <ele>667</ele>
      </trkpt>
      <trkpt lat="-43.19528132748426" lon="171.743051687965">
        <ele>667</ele>
      </trkpt>
      <trkpt lat="-43.1952431813847" lon="171.74304978066">
        <ele>667</ele>
      </trkpt>
      <trkpt lat="-43.19519263780278" lon="171.743060270837">
        <ele>667</ele>
      </trkpt>
      <trkpt lat="-43.19516402822811" lon="171.743046919702">
        <ele>667</ele>
      </trkpt>
      <trkpt lat="-43.19508201411406" lon="171.742942017929">
        <ele>666</ele>
      </trkpt>
      <trkpt lat="-43.1950512950005" lon="171.742903083238">
        <ele>666</ele>
      </trkpt>
      <trkpt lat="-43.1950512950005" lon="171.742903083238">
        <ele>666</ele>
      </trkpt>
      <trkpt lat="-43.19508201411406" lon="171.742942017929">
        <ele>666</ele>
      </trkpt>
      <trkpt lat="-43.19516402822811" lon="171.743046919702">
        <ele>667</ele>
      </trkpt>
      <trkpt lat="-43.19519263780278" lon="171.743060270837">
        <ele>667</ele>
      </trkpt>
      <trkpt lat="-43.1952431813847" lon="171.74304978066">
        <ele>667</ele>
      </trkpt>
      <trkpt lat="-43.19528132748426" lon="171.743051687965">
        <ele>667</ele>
      </trkpt>
      <trkpt lat="-43.19536334159832" lon="171.74308029754">
        <ele>667</ele>
      </trkpt>
      <trkpt lat="-43.19541007057028" lon="171.743110814419">
        <ele>667</ele>
      </trkpt>
      <trkpt lat="-43.19543772649246" lon="171.743119397292">
        <ele>666</ele>
      </trkpt>
      <trkpt lat="-43.19548540911691" lon="171.743108907114">
        <ele>666</ele>
      </trkpt>
      <trkpt lat="-43.19552069425901" lon="171.743108907114">
        <ele>666</ele>
      </trkpt>
      <trkpt lat="-43.19559698645813" lon="171.743134655731">
        <ele>666</ele>
      </trkpt>
      <trkpt lat="-43.19571905397673" lon="171.74324527942">
        <ele>665</ele>
      </trkpt>
      <trkpt lat="-43.19578867060843" lon="171.74330249857">
        <ele>664</ele>
      </trkpt>
      <trkpt lat="-43.19585828724013" lon="171.743359717719">
        <ele>663</ele>
      </trkpt>
      <trkpt lat="-43.19591169177951" lon="171.743385466336">
        <ele>663</ele>
      </trkpt>
      <trkpt lat="-43.19598512302117" lon="171.743377837116">
        <ele>664</ele>
      </trkpt>
      <trkpt lat="-43.19604424947549" lon="171.743396910166">
        <ele>664</ele>
      </trkpt>
      <trkpt lat="-43.19614056837688" lon="171.743386419989">
        <ele>665</ele>
      </trkpt>
      <trkpt lat="-43.19614056837688" lon="171.743386419989">
        <ele>665</ele>
      </trkpt>
      <trkpt lat="-43.19616154873164" lon="171.743473202365">
        <ele>665</ele>
      </trkpt>
      <trkpt lat="-43.1961825290864" lon="171.743559984742">
        <ele>664</ele>
      </trkpt>
      <trkpt lat="-43.19621495327102" lon="171.743596223536">
        <ele>664</ele>
      </trkpt>
      <trkpt lat="-43.19632748426474" lon="171.743675376693">
        <ele>664</ele>
      </trkpt>
      <trkpt lat="-43.19644001525844" lon="171.743754529849">
        <ele>663</ele>
      </trkpt>
      <trkpt lat="-43.19648102231547" lon="171.743764066374">
        <ele>663</ele>
      </trkpt>
      <trkpt lat="-43.19651058554263" lon="171.743789814991">
        <ele>663</ele>
      </trkpt>
      <trkpt lat="-43.19660308983406" lon="171.743903299638">
        <ele>661</ele>
      </trkpt>
      <trkpt lat="-43.19669464047301" lon="171.744017737936">
        <ele>659</ele>
      </trkpt>
      <trkpt lat="-43.19680144955178" lon="171.744102613008">
        <ele>657</ele>
      </trkpt>
      <trkpt lat="-43.19690730497806" lon="171.744188441732">
        <ele>655</ele>
      </trkpt>
      <trkpt lat="-43.19696643143239" lon="171.744281899676">
        <ele>655</ele>
      </trkpt>
      <trkpt lat="-43.19702841884417" lon="171.744400152584">
        <ele>655</ele>
      </trkpt>
      <trkpt lat="-43.1970694259012" lon="171.744459279039">
        <ele>654</ele>
      </trkpt>
      <trkpt lat="-43.19709135990845" lon="171.744478352088">
        <ele>654</ele>
      </trkpt>
      <trkpt lat="-43.19712473774556" lon="171.744476444784">
        <ele>654</ele>
      </trkpt>
      <trkpt lat="-43.19719435437726" lon="171.744461186344">
        <ele>652</ele>
      </trkpt>
      <trkpt lat="-43.19726397100897" lon="171.744446881556">
        <ele>651</ele>
      </trkpt>
      <trkpt lat="-43.19731546824337" lon="171.744449742514">
        <ele>651</ele>
      </trkpt>
      <trkpt lat="-43.19738508487507" lon="171.744467861911">
        <ele>650</ele>
      </trkpt>
      <trkpt lat="-43.19741178714476" lon="171.744452603471">
        <ele>649</ele>
      </trkpt>
      <trkpt lat="-43.19742323097463" lon="171.744435437726">
        <ele>649</ele>
      </trkpt>
      <trkpt lat="-43.19742323097463" lon="171.744435437726">
        <ele>649</ele>
      </trkpt>
      <trkpt lat="-43.19745565515926" lon="171.744366774747">
        <ele>649</ele>
      </trkpt>
      <trkpt lat="-43.19748807934388" lon="171.744299065421">
        <ele>649</ele>
      </trkpt>
      <trkpt lat="-43.19751668891855" lon="171.744277131413">
        <ele>649</ele>
      </trkpt>
      <trkpt lat="-43.19755674232309" lon="171.744258058364">
        <ele>649</ele>
      </trkpt>
      <trkpt lat="-43.19755674232309" lon="171.744258058364">
        <ele>649</ele>
      </trkpt>
      <trkpt lat="-43.19759012016021" lon="171.744231356094">
        <ele>649</ele>
      </trkpt>
      <trkpt lat="-43.19765020026702" lon="171.744198931909">
        <ele>649</ele>
      </trkpt>
      <trkpt lat="-43.19765020026702" lon="171.744198931909">
        <ele>649</ele>
      </trkpt>
      <trkpt lat="-43.19768167079916" lon="171.744232309746">
        <ele>648</ele>
      </trkpt>
      <trkpt lat="-43.19770646576387" lon="171.744235170704">
        <ele>648</ele>
      </trkpt>
      <trkpt lat="-43.19772744611863" lon="171.744218004959">
        <ele>648</ele>
      </trkpt>
      <trkpt lat="-43.19776177760824" lon="171.74416460042">
        <ele>648</ele>
      </trkpt>
      <trkpt lat="-43.19777417509059" lon="171.744101659355">
        <ele>649</ele>
      </trkpt>
      <trkpt lat="-43.19778847987793" lon="171.743753576197">
        <ele>649</ele>
      </trkpt>
      <trkpt lat="-43.19774556551592" lon="171.74366679382">
        <ele>649</ele>
      </trkpt>
      <trkpt lat="-43.19772744611863" lon="171.743600038146">
        <ele>650</ele>
      </trkpt>
      <trkpt lat="-43.19772458516117" lon="171.743565706656">
        <ele>650</ele>
      </trkpt>
      <trkpt lat="-43.19774461186343" lon="171.74351707038">
        <ele>650</ele>
      </trkpt>
      <trkpt lat="-43.19776940682815" lon="171.743421705131">
        <ele>649</ele>
      </trkpt>
      <trkpt lat="-43.19777989700553" lon="171.743323478924">
        <ele>649</ele>
      </trkpt>
      <trkpt lat="-43.19779038718291" lon="171.743225252718">
        <ele>650</ele>
      </trkpt>
      <trkpt lat="-43.19785332824718" lon="171.743144192256">
        <ele>649</ele>
      </trkpt>
      <trkpt lat="-43.19791626931146" lon="171.743064085447">
        <ele>648</ele>
      </trkpt>
      <trkpt lat="-43.1979305740988" lon="171.743054548922">
        <ele>648</ele>
      </trkpt>
      <trkpt lat="-43.19794583253862" lon="171.743058363532">
        <ele>648</ele>
      </trkpt>
      <trkpt lat="-43.19794583253862" lon="171.743143238604">
        <ele>648</ele>
      </trkpt>
      <trkpt lat="-43.19794583253862" lon="171.743229067328">
        <ele>647</ele>
      </trkpt>
      <trkpt lat="-43.19796681289338" lon="171.743235742895">
        <ele>647</ele>
      </trkpt>
      <trkpt lat="-43.19801354186534" lon="171.743154682434">
        <ele>647</ele>
      </trkpt>
      <trkpt lat="-43.19802784665268" lon="171.743095555979">
        <ele>646</ele>
      </trkpt>
      <trkpt lat="-43.19803547587259" lon="171.743014495518">
        <ele>646</ele>
      </trkpt>
      <trkpt lat="-43.19805836353233" lon="171.742939156971">
        <ele>646</ele>
      </trkpt>
      <trkpt lat="-43.19810795346176" lon="171.742868586687">
        <ele>645</ele>
      </trkpt>
      <trkpt lat="-43.19815658973869" lon="171.742798970055">
        <ele>644</ele>
      </trkpt>
      <trkpt lat="-43.19819950410071" lon="171.742750333778">
        <ele>643</ele>
      </trkpt>
      <trkpt lat="-43.19821666984551" lon="171.742664505054">
        <ele>643</ele>
      </trkpt>
      <trkpt lat="-43.19824080987261" lon="171.742622762924">
        <ele>642</ele>
      </trkpt>
      <trkpt lat="-43.19824080987261" lon="171.742622762924">
        <ele>642</ele>
      </trkpt>
      <trkpt lat="-43.19821666984551" lon="171.742664505054">
        <ele>643</ele>
      </trkpt>
      <trkpt lat="-43.19819950410071" lon="171.742750333778">
        <ele>643</ele>
      </trkpt>
      <trkpt lat="-43.19815658973869" lon="171.742798970055">
        <ele>644</ele>
      </trkpt>
      <trkpt lat="-43.19810795346176" lon="171.742868586687">
        <ele>645</ele>
      </trkpt>
      <trkpt lat="-43.19805836353233" lon="171.742939156971">
        <ele>646</ele>
      </trkpt>
      <trkpt lat="-43.19803547587259" lon="171.743014495518">
        <ele>646</ele>
      </trkpt>
      <trkpt lat="-43.19802784665268" lon="171.743095555979">
        <ele>646</ele>
      </trkpt>
      <trkpt lat="-43.19801354186534" lon="171.743154682434">
        <ele>647</ele>
      </trkpt>
      <trkpt lat="-43.19796681289338" lon="171.743235742895">
        <ele>647</ele>
      </trkpt>
      <trkpt lat="-43.19794583253862" lon="171.743229067328">
        <ele>647</ele>
      </trkpt>
      <trkpt lat="-43.19794583253862" lon="171.743143238604">
        <ele>648</ele>
      </trkpt>
      <trkpt lat="-43.19794583253862" lon="171.743058363532">
        <ele>648</ele>
      </trkpt>
      <trkpt lat="-43.1979305740988" lon="171.743054548922">
        <ele>648</ele>
      </trkpt>
      <trkpt lat="-43.19791626931146" lon="171.743064085447">
        <ele>648</ele>
      </trkpt>
      <trkpt lat="-43.19785332824718" lon="171.743144192256">
        <ele>649</ele>
      </trkpt>
      <trkpt lat="-43.19779038718291" lon="171.743225252718">
        <ele>650</ele>
      </trkpt>
      <trkpt lat="-43.19777989700553" lon="171.743323478924">
        <ele>649</ele>
      </trkpt>
      <trkpt lat="-43.19776940682815" lon="171.743421705131">
        <ele>649</ele>
      </trkpt>
      <trkpt lat="-43.19774461186343" lon="171.74351707038">
        <ele>650</ele>
      </trkpt>
      <trkpt lat="-43.19772458516117" lon="171.743565706656">
        <ele>650</ele>
      </trkpt>
      <trkpt lat="-43.19772744611863" lon="171.743600038146">
        <ele>650</ele>
      </trkpt>
      <trkpt lat="-43.19774556551592" lon="171.74366679382">
        <ele>649</ele>
      </trkpt>
      <trkpt lat="-43.19778847987793" lon="171.743753576197">
        <ele>649</ele>
      </trkpt>
      <trkpt lat="-43.19777417509059" lon="171.744101659355">
        <ele>649</ele>
      </trkpt>
      <trkpt lat="-43.19776177760824" lon="171.74416460042">
        <ele>648</ele>
      </trkpt>
      <trkpt lat="-43.19772744611863" lon="171.744218004959">
        <ele>648</ele>
      </trkpt>
      <trkpt lat="-43.19770646576387" lon="171.744235170704">
        <ele>648</ele>
      </trkpt>
      <trkpt lat="-43.19768167079916" lon="171.744232309746">
        <ele>648</ele>
      </trkpt>
      <trkpt lat="-43.19765020026702" lon="171.744198931909">
        <ele>649</ele>
      </trkpt>
      <trkpt lat="-43.19765020026702" lon="171.744198931909">
        <ele>649</ele>
      </trkpt>
      <trkpt lat="-43.19766736601182" lon="171.744176997902">
        <ele>649</ele>
      </trkpt>
      <trkpt lat="-43.19757772267786" lon="171.743826053786">
        <ele>650</ele>
      </trkpt>
      <trkpt lat="-43.19752336448598" lon="171.743479877932">
        <ele>652</ele>
      </trkpt>
      <trkpt lat="-43.19751668891855" lon="171.743466526798">
        <ele>652</ele>
      </trkpt>
      <trkpt lat="-43.19749189395384" lon="171.743499904635">
        <ele>652</ele>
      </trkpt>
      <trkpt lat="-43.19745470150677" lon="171.743601945451">
        <ele>652</ele>
      </trkpt>
      <trkpt lat="-43.19743276749952" lon="171.743633415983">
        <ele>653</ele>
      </trkpt>
      <trkpt lat="-43.19741274079725" lon="171.743630555026">
        <ele>653</ele>
      </trkpt>
      <trkpt lat="-43.19738699218005" lon="171.743538050734">
        <ele>654</ele>
      </trkpt>
      <trkpt lat="-43.19738317757009" lon="171.74345985123">
        <ele>655</ele>
      </trkpt>
      <trkpt lat="-43.19737840930765" lon="171.743381651726">
        <ele>655</ele>
      </trkpt>
      <trkpt lat="-43.19733454129315" lon="171.743429334351">
        <ele>656</ele>
      </trkpt>
      <trkpt lat="-43.19730211710852" lon="171.74349036811">
        <ele>656</ele>
      </trkpt>
      <trkpt lat="-43.1972696929239" lon="171.743552355522">
        <ele>656</ele>
      </trkpt>
      <trkpt lat="-43.19725157352661" lon="171.743572382224">
        <ele>656</ele>
      </trkpt>
      <trkpt lat="-43.19725157352661" lon="171.743572382224">
        <ele>656</ele>
      </trkpt>
      <trkpt lat="-43.19721438107953" lon="171.743591455274">
        <ele>657</ele>
      </trkpt>
      <trkpt lat="-43.19721438107953" lon="171.743591455274">
        <ele>657</ele>
      </trkpt>
      <trkpt lat="-43.19722296395194" lon="171.74349036811">
        <ele>657</ele>
      </trkpt>
      <trkpt lat="-43.19723726873927" lon="171.743417890521">
        <ele>657</ele>
      </trkpt>
      <trkpt lat="-43.19723631508678" lon="171.743352088499">
        <ele>658</ele>
      </trkpt>
      <trkpt lat="-43.19720198359718" lon="171.743251954988">
        <ele>659</ele>
      </trkpt>
      <trkpt lat="-43.19717146671753" lon="171.743196643143">
        <ele>660</ele>
      </trkpt>
      <trkpt lat="-43.19708373068853" lon="171.743086019455">
        <ele>663</ele>
      </trkpt>
      <trkpt lat="-43.19695880221247" lon="171.742805645623">
        <ele>667</ele>
      </trkpt>
      <trkpt lat="-43.19694068281518" lon="171.742738889948">
        <ele>668</ele>
      </trkpt>
      <trkpt lat="-43.19692256341789" lon="171.742673087927">
        <ele>669</ele>
      </trkpt>
      <trkpt lat="-43.19688155636086" lon="171.742595842075">
        <ele>670</ele>
      </trkpt>
      <trkpt lat="-43.1968348273889" lon="171.742536715621">
        <ele>671</ele>
      </trkpt>
      <trkpt lat="-43.19675948884226" lon="171.742456608812">
        <ele>673</ele>
      </trkpt>
      <trkpt lat="-43.19671466717528" lon="171.742387945833">
        <ele>674</ele>
      </trkpt>
      <trkpt lat="-43.19666698455083" lon="171.742275414839">
        <ele>675</ele>
      </trkpt>
      <trkpt lat="-43.19663742132366" lon="171.742177188632">
        <ele>675</ele>
      </trkpt>
      <trkpt lat="-43.19658687774175" lon="171.742063703986">
        <ele>675</ele>
      </trkpt>
      <trkpt lat="-43.19653633415983" lon="171.741951172993">
        <ele>675</ele>
      </trkpt>
      <trkpt lat="-43.19650963189014" lon="171.741914934198">
        <ele>676</ele>
      </trkpt>
      <trkpt lat="-43.1963999618539" lon="171.741798588594">
        <ele>676</ele>
      </trkpt>
      <trkpt lat="-43.1963999618539" lon="171.741798588594">
        <ele>676</ele>
      </trkpt>
      <trkpt lat="-43.19624737745566" lon="171.741653633416">
        <ele>678</ele>
      </trkpt>
      <trkpt lat="-43.19624737745566" lon="171.741653633416">
        <ele>678</ele>
      </trkpt>
      <trkpt lat="-43.19626611331072" lon="171.741582395989">
        <ele>678</ele>
      </trkpt>
    </trkseg>
  </trk>
</gpx>