<?xml version="1.0" encoding="UTF-8" standalone="yes"?>
<gpx
 version="1.1"
 creator="Generated by MapOut iPhone App. See https://mapout.app"
 xmlns="http://www.topografix.com/GPX/1/1"
 xmlns:xsi="http://www.w3.org/2001/XMLSchema-instance"
 xmlns:gpxx="http://www.garmin.com/xmlschemas/GpxExtensions/v3"
 xmlns:mapout="https://mapout.app/xmlschemas/MapOutExtensions"
 xsi:schemaLocation="http://www.topografix.com/GPX/1/1 https://www.topografix.com/GPX/1/1/gpx.xsd http://www.garmin.com/xmlschemas/GpxExtensions/v3 https://www8.garmin.com/xmlschemas/GpxExtensionsv3.xsd https://mapout.app/xmlschemas/MapOutExtensions https://mapout.app/xmlschemas/MapOutExtensions.xsd">
  <metadata>
    <name>Manurewa to Manukau through Auckland Botanical Garden and Forest</name>
    <author><name>iPhone</name></author>
    <time>2026-02-28T08:01:14Z</time>
    <bounds minlat="-37.02336108690405" minlon="174.886847041182" maxlat="-36.98249174286922" maxlon="174.912542437536"/>
  </metadata>
  <wpt lat="-37.00518327149594" lon="174.906815385431">
    <ele>67</ele>
    <name>Lookout Track</name>
    <sym>Scenic Area</sym>
    <extensions>
      <mapout:extension>
        <mapout:color>FF6A00</mapout:color>
      </mapout:extension>
    </extensions>
  </wpt>
  <wpt lat="-37.00515450212431" lon="174.905655859997">
    <ele>61</ele>
    <name>Puhinui Forest</name>
    <sym>Waypoint</sym>
    <extensions>
      <mapout:extension>
        <mapout:color>FF2E1B</mapout:color>
      </mapout:extension>
    </extensions>
  </wpt>
  <wpt lat="-36.98249174286922" lon="174.886847041182">
    <ele>31</ele>
    <name>Manukau Sports Bowl</name>
    <sym>Flag, Green</sym>
  </wpt>
  <wpt lat="-37.02336108690405" lon="174.896129564483">
    <ele>35</ele>
    <name>Manurewa</name>
    <sym>Railway</sym>
    <extensions>
      <mapout:extension>
        <mapout:color>0592F6</mapout:color>
      </mapout:extension>
    </extensions>
  </wpt>
  <wpt lat="-36.9968753072411" lon="174.912126265243">
    <ele>79</ele>
    <name>Tōtara Park</name>
    <sym>Waypoint</sym>
    <extensions>
      <mapout:extension>
        <mapout:color>FF2E1B</mapout:color>
      </mapout:extension>
    </extensions>
  </wpt>
  <wpt lat="-37.00841717913793" lon="174.905962089106">
    <ele>51</ele>
    <name>Auckland Botanic Gardens</name>
    <sym>Waypoint</sym>
    <extensions>
      <mapout:extension>
        <mapout:color>FF2E1B</mapout:color>
      </mapout:extension>
    </extensions>
  </wpt>
  <trk>
    <desc>Manurewa - Howick - Ōtara-Papatoetoe</desc>
    <trkseg>
      <trkpt lat="-37.02325553067513" lon="174.895989382939">
        <ele>35</ele>
      </trkpt>
      <trkpt lat="-37.02324623307267" lon="174.895975586496">
        <ele>35</ele>
      </trkpt>
      <trkpt lat="-37.02324623307267" lon="174.895975586496">
        <ele>35</ele>
      </trkpt>
      <trkpt lat="-37.02321380888804" lon="174.895926950219">
        <ele>35</ele>
      </trkpt>
      <trkpt lat="-37.02321380888804" lon="174.895926950219">
        <ele>35</ele>
      </trkpt>
      <trkpt lat="-37.02330535952699" lon="174.89583158497">
        <ele>35</ele>
      </trkpt>
      <trkpt lat="-37.02330535952699" lon="174.89583158497">
        <ele>35</ele>
      </trkpt>
      <trkpt lat="-37.02332633988175" lon="174.895811558268">
        <ele>35</ele>
      </trkpt>
      <trkpt lat="-37.02332633988175" lon="174.895811558268">
        <ele>35</ele>
      </trkpt>
      <trkpt lat="-37.02330059126454" lon="174.895769597559">
        <ele>35</ele>
      </trkpt>
      <trkpt lat="-37.02329997976909" lon="174.895768601048">
        <ele>35</ele>
      </trkpt>
      <trkpt lat="-37.02317757009346" lon="174.895898340645">
        <ele>35</ele>
      </trkpt>
      <trkpt lat="-37.02317757009346" lon="174.895898340645">
        <ele>35</ele>
      </trkpt>
      <trkpt lat="-37.02311176807171" lon="174.895967003624">
        <ele>35</ele>
      </trkpt>
      <trkpt lat="-37.02304501239748" lon="174.896035666603">
        <ele>35</ele>
      </trkpt>
      <trkpt lat="-37.02304501239748" lon="174.896035666603">
        <ele>35</ele>
      </trkpt>
      <trkpt lat="-37.02297062750334" lon="174.89611100515">
        <ele>36</ele>
      </trkpt>
      <trkpt lat="-37.02289624260919" lon="174.896187297349">
        <ele>36</ele>
      </trkpt>
      <trkpt lat="-37.02289624260919" lon="174.896187297349">
        <ele>36</ele>
      </trkpt>
      <trkpt lat="-37.0228615077279" lon="174.896224513293">
        <ele>36</ele>
      </trkpt>
      <trkpt lat="-37.02286150772427" lon="174.896224513291">
        <ele>36</ele>
      </trkpt>
      <trkpt lat="-37.02284474537478" lon="174.896198741179">
        <ele>36</ele>
      </trkpt>
      <trkpt lat="-37.02276845317567" lon="174.896082395575">
        <ele>36</ele>
      </trkpt>
      <trkpt lat="-37.02271886324623" lon="174.896029944688">
        <ele>36</ele>
      </trkpt>
      <trkpt lat="-37.02271886324623" lon="174.896029944688">
        <ele>36</ele>
      </trkpt>
      <trkpt lat="-37.0227217242037" lon="174.895998474156">
        <ele>36</ele>
      </trkpt>
      <trkpt lat="-37.0227131413313" lon="174.895964142666">
        <ele>36</ele>
      </trkpt>
      <trkpt lat="-37.02269120732405" lon="174.895922181957">
        <ele>36</ele>
      </trkpt>
      <trkpt lat="-37.02269120732405" lon="174.895922181957">
        <ele>36</ele>
      </trkpt>
      <trkpt lat="-37.02269025367156" lon="174.895883082205">
        <ele>36</ele>
      </trkpt>
      <trkpt lat="-37.02268357810414" lon="174.895863055503">
        <ele>36</ele>
      </trkpt>
      <trkpt lat="-37.02267213427427" lon="174.89584684341">
        <ele>36</ele>
      </trkpt>
      <trkpt lat="-37.02264066374213" lon="174.895828724013">
        <ele>36</ele>
      </trkpt>
      <trkpt lat="-37.02262063703986" lon="174.895829677665">
        <ele>36</ele>
      </trkpt>
      <trkpt lat="-37.02262063703986" lon="174.895829677665">
        <ele>36</ele>
      </trkpt>
      <trkpt lat="-37.02258058363532" lon="174.895810604616">
        <ele>36</ele>
      </trkpt>
      <trkpt lat="-37.02250238413122" lon="174.895737173374">
        <ele>37</ele>
      </trkpt>
      <trkpt lat="-37.02250238413122" lon="174.895737173374">
        <ele>37</ele>
      </trkpt>
      <trkpt lat="-37.02225061987412" lon="174.895315658974">
        <ele>37</ele>
      </trkpt>
      <trkpt lat="-37.02219244707229" lon="174.895230783902">
        <ele>37</ele>
      </trkpt>
      <trkpt lat="-37.02219244707229" lon="174.895230783902">
        <ele>37</ele>
      </trkpt>
      <trkpt lat="-37.02214667175281" lon="174.895106809079">
        <ele>37</ele>
      </trkpt>
      <trkpt lat="-37.0220713932169" lon="174.89500842525">
        <ele>37</ele>
      </trkpt>
      <trkpt lat="-37.0220713932185" lon="174.895008425253">
        <ele>37</ele>
      </trkpt>
      <trkpt lat="-37.02199218004959" lon="174.895102040816">
        <ele>37</ele>
      </trkpt>
      <trkpt lat="-37.02199218004959" lon="174.895102040816">
        <ele>37</ele>
      </trkpt>
      <trkpt lat="-37.02196452412741" lon="174.895134465001">
        <ele>37</ele>
      </trkpt>
      <trkpt lat="-37.02196452412741" lon="174.895134465001">
        <ele>37</ele>
      </trkpt>
      <trkpt lat="-37.02192733168034" lon="174.895123021171">
        <ele>37</ele>
      </trkpt>
      <trkpt lat="-37.02189204653824" lon="174.895159259966">
        <ele>38</ele>
      </trkpt>
      <trkpt lat="-37.02182420882018" lon="174.895240749237">
        <ele>38</ele>
      </trkpt>
      <trkpt lat="-37.02182420881382" lon="174.895240749262">
        <ele>38</ele>
      </trkpt>
      <trkpt lat="-37.02176887223722" lon="174.895172642707">
        <ele>38</ele>
      </trkpt>
      <trkpt lat="-37.02176887223682" lon="174.895172642706">
        <ele>38</ele>
      </trkpt>
      <trkpt lat="-37.02130268930002" lon="174.895726683197">
        <ele>40</ele>
      </trkpt>
      <trkpt lat="-37.02116631699409" lon="174.895840167843">
        <ele>40</ele>
      </trkpt>
      <trkpt lat="-37.02116631699409" lon="174.895840167843">
        <ele>40</ele>
      </trkpt>
      <trkpt lat="-37.02096450989901" lon="174.8956760817">
        <ele>40</ele>
      </trkpt>
      <trkpt lat="-37.02096414266641" lon="174.895677093267">
        <ele>40</ele>
      </trkpt>
      <trkpt lat="-37.02026416173946" lon="174.8976053786">
        <ele>45</ele>
      </trkpt>
      <trkpt lat="-37.02" lon="174.898353995804">
        <ele>46</ele>
      </trkpt>
      <trkpt lat="-37.02" lon="174.898353995804">
        <ele>46</ele>
      </trkpt>
      <trkpt lat="-37.01986458134655" lon="174.898738317757">
        <ele>47</ele>
      </trkpt>
      <trkpt lat="-37.0197911501049" lon="174.898840358573">
        <ele>47</ele>
      </trkpt>
      <trkpt lat="-37.01971008964333" lon="174.898882319283">
        <ele>48</ele>
      </trkpt>
      <trkpt lat="-37.01960995613199" lon="174.898902345985">
        <ele>48</ele>
      </trkpt>
      <trkpt lat="-37.01952603471295" lon="174.898874690063">
        <ele>49</ele>
      </trkpt>
      <trkpt lat="-37.01907686439061" lon="174.898622925806">
        <ele>51</ele>
      </trkpt>
      <trkpt lat="-37.01892046538241" lon="174.898586687011">
        <ele>52</ele>
      </trkpt>
      <trkpt lat="-37.01892046538241" lon="174.898586687011">
        <ele>52</ele>
      </trkpt>
      <trkpt lat="-37.01891569711997" lon="174.898533282472">
        <ele>52</ele>
      </trkpt>
      <trkpt lat="-37.01890329963761" lon="174.898510394812">
        <ele>52</ele>
      </trkpt>
      <trkpt lat="-37.01888613389281" lon="174.89849418272">
        <ele>52</ele>
      </trkpt>
      <trkpt lat="-37.01886515353805" lon="174.898485599847">
        <ele>52</ele>
      </trkpt>
      <trkpt lat="-37.0188432195308" lon="174.898485599847">
        <ele>52</ele>
      </trkpt>
      <trkpt lat="-37.01882223917604" lon="174.898495136372">
        <ele>53</ele>
      </trkpt>
      <trkpt lat="-37.01880507343124" lon="174.898511348465">
        <ele>53</ele>
      </trkpt>
      <trkpt lat="-37.01878790768644" lon="174.898560938394">
        <ele>53</ele>
      </trkpt>
      <trkpt lat="-37.01878790768644" lon="174.898560938394">
        <ele>53</ele>
      </trkpt>
      <trkpt lat="-37.01879839786382" lon="174.898614342933">
        <ele>53</ele>
      </trkpt>
      <trkpt lat="-37.01881270265115" lon="174.898634369636">
        <ele>53</ele>
      </trkpt>
      <trkpt lat="-37.01881270265115" lon="174.898634369636">
        <ele>53</ele>
      </trkpt>
      <trkpt lat="-37.01792675948884" lon="174.9">
        <ele>59</ele>
      </trkpt>
      <trkpt lat="-37.01792675948884" lon="174.9">
        <ele>59</ele>
      </trkpt>
      <trkpt lat="-37.01714094983787" lon="174.901210185009">
        <ele>65</ele>
      </trkpt>
      <trkpt lat="-37.01694926568758" lon="174.901515353805">
        <ele>67</ele>
      </trkpt>
      <trkpt lat="-37.01682529086401" lon="174.901737554835">
        <ele>69</ele>
      </trkpt>
      <trkpt lat="-37.01669273316803" lon="174.901901583063">
        <ele>70</ele>
      </trkpt>
      <trkpt lat="-37.01622258249094" lon="174.90236410452">
        <ele>74</ele>
      </trkpt>
      <trkpt lat="-37.01600896433339" lon="174.902600610338">
        <ele>75</ele>
      </trkpt>
      <trkpt lat="-37.01594030135418" lon="174.902702651154">
        <ele>76</ele>
      </trkpt>
      <trkpt lat="-37.01590978447454" lon="174.902773221438">
        <ele>77</ele>
      </trkpt>
      <trkpt lat="-37.01587449933244" lon="174.902881937822">
        <ele>77</ele>
      </trkpt>
      <trkpt lat="-37.01575433911882" lon="174.903506580202">
        <ele>79</ele>
      </trkpt>
      <trkpt lat="-37.015739080679" lon="174.903575243181">
        <ele>79</ele>
      </trkpt>
      <trkpt lat="-37.01569616631699" lon="174.90370493992">
        <ele>79</ele>
      </trkpt>
      <trkpt lat="-37.01565039099752" lon="174.903794583254">
        <ele>79</ele>
      </trkpt>
      <trkpt lat="-37.01538909021552" lon="174.904080679001">
        <ele>79</ele>
      </trkpt>
      <trkpt lat="-37.01533568567613" lon="174.904170322335">
        <ele>79</ele>
      </trkpt>
      <trkpt lat="-37.01504005340454" lon="174.905029563227">
        <ele>76</ele>
      </trkpt>
      <trkpt lat="-37.01491226397101" lon="174.905377646386">
        <ele>75</ele>
      </trkpt>
      <trkpt lat="-37.01468910928858" lon="174.906019454511">
        <ele>73</ele>
      </trkpt>
      <trkpt lat="-37.01468910928858" lon="174.906019454511">
        <ele>73</ele>
      </trkpt>
      <trkpt lat="-37.01455273698264" lon="174.906419988556">
        <ele>73</ele>
      </trkpt>
      <trkpt lat="-37.01455273698264" lon="174.906419988556">
        <ele>73</ele>
      </trkpt>
      <trkpt lat="-37.01447453747854" lon="174.906670799161">
        <ele>72</ele>
      </trkpt>
      <trkpt lat="-37.01445739934582" lon="174.906717209725">
        <ele>72</ele>
      </trkpt>
      <trkpt lat="-37.01445739935219" lon="174.906717209705">
        <ele>72</ele>
      </trkpt>
      <trkpt lat="-37.01446023269121" lon="174.906782376502">
        <ele>72</ele>
      </trkpt>
      <trkpt lat="-37.01446471357264" lon="174.90680702135">
        <ele>72</ele>
      </trkpt>
      <trkpt lat="-37.01446471357264" lon="174.90680702135">
        <ele>72</ele>
      </trkpt>
      <trkpt lat="-37.01446023269121" lon="174.906782376502">
        <ele>72</ele>
      </trkpt>
      <trkpt lat="-37.01445739935219" lon="174.906717209705">
        <ele>72</ele>
      </trkpt>
      <trkpt lat="-37.01445739934582" lon="174.906717209725">
        <ele>72</ele>
      </trkpt>
      <trkpt lat="-37.01434388708754" lon="174.907024604234">
        <ele>72</ele>
      </trkpt>
      <trkpt lat="-37.01381029522057" lon="174.908596560634">
        <ele>72</ele>
      </trkpt>
      <trkpt lat="-37.01381029525786" lon="174.908596560492">
        <ele>72</ele>
      </trkpt>
      <trkpt lat="-37.01380793438871" lon="174.908595269884">
        <ele>72</ele>
      </trkpt>
      <trkpt lat="-37.01380793438871" lon="174.908595269884">
        <ele>72</ele>
      </trkpt>
      <trkpt lat="-37.01372592027465" lon="174.908555216479">
        <ele>72</ele>
      </trkpt>
      <trkpt lat="-37.01368407804764" lon="174.908535016783">
        <ele>72</ele>
      </trkpt>
      <trkpt lat="-37.01368407804991" lon="174.908535016784">
        <ele>72</ele>
      </trkpt>
      <trkpt lat="-37.01365821094793" lon="174.908624833111">
        <ele>72</ele>
      </trkpt>
      <trkpt lat="-37.01365821094793" lon="174.908624833111">
        <ele>72</ele>
      </trkpt>
      <trkpt lat="-37.01365439633797" lon="174.908637230593">
        <ele>72</ele>
      </trkpt>
      <trkpt lat="-37.01356856761396" lon="174.908570474919">
        <ele>71</ele>
      </trkpt>
      <trkpt lat="-37.01349036810986" lon="174.908521838642">
        <ele>71</ele>
      </trkpt>
      <trkpt lat="-37.01341026130078" lon="174.908492275415">
        <ele>71</ele>
      </trkpt>
      <trkpt lat="-37.01335781041389" lon="174.90851707038">
        <ele>70</ele>
      </trkpt>
      <trkpt lat="-37.01329105473965" lon="174.90850944116">
        <ele>70</ele>
      </trkpt>
      <trkpt lat="-37.01323454395496" lon="174.908452018911">
        <ele>70</ele>
      </trkpt>
      <trkpt lat="-37.01323454395701" lon="174.908452018908">
        <ele>70</ele>
      </trkpt>
      <trkpt lat="-37.01324146481022" lon="174.908391188251">
        <ele>70</ele>
      </trkpt>
      <trkpt lat="-37.01324146481022" lon="174.908391188251">
        <ele>70</ele>
      </trkpt>
      <trkpt lat="-37.01318424566088" lon="174.908345412932">
        <ele>69</ele>
      </trkpt>
      <trkpt lat="-37.01311939729163" lon="174.908324432577">
        <ele>69</ele>
      </trkpt>
      <trkpt lat="-37.01305359526988" lon="174.908303452222">
        <ele>69</ele>
      </trkpt>
      <trkpt lat="-37.01304215144001" lon="174.90829486935">
        <ele>68</ele>
      </trkpt>
      <trkpt lat="-37.01304215144001" lon="174.90829486935">
        <ele>68</ele>
      </trkpt>
      <trkpt lat="-37.01303243367056" lon="174.908246852136">
        <ele>68</ele>
      </trkpt>
      <trkpt lat="-37.01303243368245" lon="174.908246852133">
        <ele>68</ele>
      </trkpt>
      <trkpt lat="-37.01293534236124" lon="174.908251001335">
        <ele>68</ele>
      </trkpt>
      <trkpt lat="-37.01282281136753" lon="174.90825672325">
        <ele>67</ele>
      </trkpt>
      <trkpt lat="-37.01271981689872" lon="174.908284379172">
        <ele>67</ele>
      </trkpt>
      <trkpt lat="-37.01260442494755" lon="174.908360671371">
        <ele>66</ele>
      </trkpt>
      <trkpt lat="-37.012555095732" lon="174.908403423358">
        <ele>66</ele>
      </trkpt>
      <trkpt lat="-37.012555095732" lon="174.908403423358">
        <ele>66</ele>
      </trkpt>
      <trkpt lat="-37.01262399779313" lon="174.908226165578">
        <ele>66</ele>
      </trkpt>
      <trkpt lat="-37.01262399779313" lon="174.908226165578">
        <ele>66</ele>
      </trkpt>
      <trkpt lat="-37.01249284760633" lon="174.908024032043">
        <ele>65</ele>
      </trkpt>
      <trkpt lat="-37.01244230402441" lon="174.907899103567">
        <ele>65</ele>
      </trkpt>
      <trkpt lat="-37.01241655540721" lon="174.907734121686">
        <ele>65</ele>
      </trkpt>
      <trkpt lat="-37.01242418462712" lon="174.907522410834">
        <ele>64</ele>
      </trkpt>
      <trkpt lat="-37.01245374785428" lon="174.907463284379">
        <ele>64</ele>
      </trkpt>
      <trkpt lat="-37.01245374785428" lon="174.907463284379">
        <ele>64</ele>
      </trkpt>
      <trkpt lat="-37.01229830249856" lon="174.907261110052">
        <ele>63</ele>
      </trkpt>
      <trkpt lat="-37.01198073621972" lon="174.906872973488">
        <ele>61</ele>
      </trkpt>
      <trkpt lat="-37.01196261682243" lon="174.906803356857">
        <ele>61</ele>
      </trkpt>
      <trkpt lat="-37.01195408845753" lon="174.906544881797">
        <ele>61</ele>
      </trkpt>
      <trkpt lat="-37.01195408845604" lon="174.906544881764">
        <ele>61</ele>
      </trkpt>
      <trkpt lat="-37.01195403395003" lon="174.906544917032">
        <ele>61</ele>
      </trkpt>
      <trkpt lat="-37.01194848283428" lon="174.906547906095">
        <ele>61</ele>
      </trkpt>
      <trkpt lat="-37.01194848324901" lon="174.90654790584">
        <ele>61</ele>
      </trkpt>
      <trkpt lat="-37.01194193823616" lon="174.906551929811">
        <ele>61</ele>
      </trkpt>
      <trkpt lat="-37.01194193823616" lon="174.906551929811">
        <ele>61</ele>
      </trkpt>
      <trkpt lat="-37.0119966764521" lon="174.906518275945">
        <ele>61</ele>
      </trkpt>
      <trkpt lat="-37.0119966764521" lon="174.906518275945">
        <ele>61</ele>
      </trkpt>
      <trkpt lat="-37.01218291054739" lon="174.906403776464">
        <ele>62</ele>
      </trkpt>
      <trkpt lat="-37.01226683196643" lon="174.906357047492">
        <ele>62</ele>
      </trkpt>
      <trkpt lat="-37.01234979973297" lon="174.90631031852">
        <ele>62</ele>
      </trkpt>
      <trkpt lat="-37.0124432576769" lon="174.906275033378">
        <ele>62</ele>
      </trkpt>
      <trkpt lat="-37.01250810604616" lon="174.906271218768">
        <ele>63</ele>
      </trkpt>
      <trkpt lat="-37.01257295441541" lon="174.906267404158">
        <ele>63</ele>
      </trkpt>
      <trkpt lat="-37.01264530639532" lon="174.906274773341">
        <ele>63</ele>
      </trkpt>
      <trkpt lat="-37.01264530639351" lon="174.906274773341">
        <ele>63</ele>
      </trkpt>
      <trkpt lat="-37.0125910738127" lon="174.906162502384">
        <ele>63</ele>
      </trkpt>
      <trkpt lat="-37.01254434484074" lon="174.90607667366">
        <ele>63</ele>
      </trkpt>
      <trkpt lat="-37.01249761586877" lon="174.905991798589">
        <ele>62</ele>
      </trkpt>
      <trkpt lat="-37.0124690062941" lon="174.90589261873">
        <ele>62</ele>
      </trkpt>
      <trkpt lat="-37.01244039671943" lon="174.905794392523">
        <ele>62</ele>
      </trkpt>
      <trkpt lat="-37.01242513827961" lon="174.905759107381">
        <ele>62</ele>
      </trkpt>
      <trkpt lat="-37.01236028991035" lon="174.905713332062">
        <ele>61</ele>
      </trkpt>
      <trkpt lat="-37.01229448788861" lon="174.905668510395">
        <ele>61</ele>
      </trkpt>
      <trkpt lat="-37.01226492466145" lon="174.90561319855">
        <ele>61</ele>
      </trkpt>
      <trkpt lat="-37.01225729544154" lon="174.905569330536">
        <ele>61</ele>
      </trkpt>
      <trkpt lat="-37.01218577150486" lon="174.905549303834">
        <ele>60</ele>
      </trkpt>
      <trkpt lat="-37.01211424756819" lon="174.905530230784">
        <ele>60</ele>
      </trkpt>
      <trkpt lat="-37.01203127980164" lon="174.905493991989">
        <ele>60</ele>
      </trkpt>
      <trkpt lat="-37.01194735838261" lon="174.905458706847">
        <ele>59</ele>
      </trkpt>
      <trkpt lat="-37.01192351707038" lon="174.905442494755">
        <ele>59</ele>
      </trkpt>
      <trkpt lat="-37.0118958611482" lon="174.905435819188">
        <ele>59</ele>
      </trkpt>
      <trkpt lat="-37.01177474728209" lon="174.905443448407">
        <ele>58</ele>
      </trkpt>
      <trkpt lat="-37.01166126263589" lon="174.905442494755">
        <ele>58</ele>
      </trkpt>
      <trkpt lat="-37.01166126263589" lon="174.905442494755">
        <ele>58</ele>
      </trkpt>
      <trkpt lat="-37.01158687774175" lon="174.905529277131">
        <ele>58</ele>
      </trkpt>
      <trkpt lat="-37.01155349990464" lon="174.905554072096">
        <ele>58</ele>
      </trkpt>
      <trkpt lat="-37.01155349990464" lon="174.905554072096">
        <ele>58</ele>
      </trkpt>
      <trkpt lat="-37.01150677093267" lon="174.905555979401">
        <ele>57</ele>
      </trkpt>
      <trkpt lat="-37.01145622735075" lon="174.905521647912">
        <ele>57</ele>
      </trkpt>
      <trkpt lat="-37.01142952508106" lon="174.905490177379">
        <ele>57</ele>
      </trkpt>
      <trkpt lat="-37.01136276940682" lon="174.905453938585">
        <ele>57</ele>
      </trkpt>
      <trkpt lat="-37.01132939156971" lon="174.90545584589">
        <ele>57</ele>
      </trkpt>
      <trkpt lat="-37.01129792103757" lon="174.905470150677">
        <ele>57</ele>
      </trkpt>
      <trkpt lat="-37.01129792103757" lon="174.905470150677">
        <ele>57</ele>
      </trkpt>
      <trkpt lat="-37.01131604043486" lon="174.905547396529">
        <ele>57</ele>
      </trkpt>
      <trkpt lat="-37.01135323288194" lon="174.905612244898">
        <ele>57</ele>
      </trkpt>
      <trkpt lat="-37.01134274270456" lon="174.905614152203">
        <ele>57</ele>
      </trkpt>
      <trkpt lat="-37.01132557695976" lon="174.905602708373">
        <ele>57</ele>
      </trkpt>
      <trkpt lat="-37.01129696738509" lon="174.905597940111">
        <ele>57</ele>
      </trkpt>
      <trkpt lat="-37.01128456990273" lon="174.905601754721">
        <ele>57</ele>
      </trkpt>
      <trkpt lat="-37.01125500667557" lon="174.9056322716">
        <ele>57</ele>
      </trkpt>
      <trkpt lat="-37.01126263589548" lon="174.905669464047">
        <ele>57</ele>
      </trkpt>
      <trkpt lat="-37.01124759689351" lon="174.905674633704">
        <ele>57</ele>
      </trkpt>
      <trkpt lat="-37.01124759689351" lon="174.905674633704">
        <ele>57</ele>
      </trkpt>
      <trkpt lat="-37.01123211901583" lon="174.905679954225">
        <ele>57</ele>
      </trkpt>
      <trkpt lat="-37.01119015830631" lon="174.905622735075">
        <ele>57</ele>
      </trkpt>
      <trkpt lat="-37.0111767813133" lon="174.905615843897">
        <ele>56</ele>
      </trkpt>
      <trkpt lat="-37.01117678136946" lon="174.905615843926">
        <ele>56</ele>
      </trkpt>
      <trkpt lat="-37.01118825100134" lon="174.905597940111">
        <ele>56</ele>
      </trkpt>
      <trkpt lat="-37.01118856407953" lon="174.905597451407">
        <ele>56</ele>
      </trkpt>
      <trkpt lat="-37.01117966812893" lon="174.905595079153">
        <ele>56</ele>
      </trkpt>
      <trkpt lat="-37.01107667366011" lon="174.905539767309">
        <ele>56</ele>
      </trkpt>
      <trkpt lat="-37.0110518786954" lon="174.905518786954">
        <ele>56</ele>
      </trkpt>
      <trkpt lat="-37.0110518786954" lon="174.905518786954">
        <ele>56</ele>
      </trkpt>
      <trkpt lat="-37.01098607667366" lon="174.905537860004">
        <ele>56</ele>
      </trkpt>
      <trkpt lat="-37.01092408926187" lon="174.905571237841">
        <ele>56</ele>
      </trkpt>
      <trkpt lat="-37.01086210185009" lon="174.905604615678">
        <ele>55</ele>
      </trkpt>
      <trkpt lat="-37.01084684341026" lon="174.905638947168">
        <ele>55</ele>
      </trkpt>
      <trkpt lat="-37.01083444592791" lon="174.905743848941">
        <ele>56</ele>
      </trkpt>
      <trkpt lat="-37.01082967766546" lon="174.905807743658">
        <ele>56</ele>
      </trkpt>
      <trkpt lat="-37.01082851455522" lon="174.905823329335">
        <ele>56</ele>
      </trkpt>
      <trkpt lat="-37.01082851455522" lon="174.905823329335">
        <ele>56</ele>
      </trkpt>
      <trkpt lat="-37.01076955598113" lon="174.90587939558">
        <ele>56</ele>
      </trkpt>
      <trkpt lat="-37.01076955598113" lon="174.90587939558">
        <ele>56</ele>
      </trkpt>
      <trkpt lat="-37.01076387564371" lon="174.90587354568">
        <ele>56</ele>
      </trkpt>
      <trkpt lat="-37.01071714667175" lon="174.905806790006">
        <ele>55</ele>
      </trkpt>
      <trkpt lat="-37.01058935723822" lon="174.905556933054">
        <ele>55</ele>
      </trkpt>
      <trkpt lat="-37.01047491893954" lon="174.905307076102">
        <ele>54</ele>
      </trkpt>
      <trkpt lat="-37.01047491893954" lon="174.905307076102">
        <ele>54</ele>
      </trkpt>
      <trkpt lat="-37.01031470532138" lon="174.905505435819">
        <ele>54</ele>
      </trkpt>
      <trkpt lat="-37.01031470532138" lon="174.905505435819">
        <ele>54</ele>
      </trkpt>
      <trkpt lat="-37.0102698836544" lon="174.905562654969">
        <ele>54</ele>
      </trkpt>
      <trkpt lat="-37.0102698836544" lon="174.905562654969">
        <ele>54</ele>
      </trkpt>
      <trkpt lat="-37.01023841312226" lon="174.905600801068">
        <ele>54</ele>
      </trkpt>
      <trkpt lat="-37.01023841312226" lon="174.905600801068">
        <ele>54</ele>
      </trkpt>
      <trkpt lat="-37.0102002670227" lon="174.905633225253">
        <ele>54</ele>
      </trkpt>
      <trkpt lat="-37.01013160404349" lon="174.905640854473">
        <ele>54</ele>
      </trkpt>
      <trkpt lat="-37.01006198741179" lon="174.905649437345">
        <ele>53</ele>
      </trkpt>
      <trkpt lat="-37.01000762921991" lon="174.90568567614">
        <ele>53</ele>
      </trkpt>
      <trkpt lat="-37.00994564180812" lon="174.905791531566">
        <ele>54</ele>
      </trkpt>
      <trkpt lat="-37.00988270074384" lon="174.905898340645">
        <ele>54</ele>
      </trkpt>
      <trkpt lat="-37.00983311081442" lon="174.905944115964">
        <ele>54</ele>
      </trkpt>
      <trkpt lat="-37.00971199694831" lon="174.905958420752">
        <ele>54</ele>
      </trkpt>
      <trkpt lat="-37.00959565134465" lon="174.905884035857">
        <ele>53</ele>
      </trkpt>
      <trkpt lat="-37.00949837879077" lon="174.905856379935">
        <ele>53</ele>
      </trkpt>
      <trkpt lat="-37.00938107953461" lon="174.905860194545">
        <ele>53</ele>
      </trkpt>
      <trkpt lat="-37.00938107953461" lon="174.905860194545">
        <ele>53</ele>
      </trkpt>
      <trkpt lat="-37.00928952889567" lon="174.905594125501">
        <ele>52</ele>
      </trkpt>
      <trkpt lat="-37.00895479687202" lon="174.905207896243">
        <ele>50</ele>
      </trkpt>
      <trkpt lat="-37.00870303261491" lon="174.905035285142">
        <ele>49</ele>
      </trkpt>
      <trkpt lat="-37.00870303261491" lon="174.905035285142">
        <ele>49</ele>
      </trkpt>
      <trkpt lat="-37.00829296204463" lon="174.90475491131">
        <ele>48</ele>
      </trkpt>
      <trkpt lat="-37.00819848784246" lon="174.904728458534">
        <ele>48</ele>
      </trkpt>
      <trkpt lat="-37.0081984878364" lon="174.904728458478">
        <ele>48</ele>
      </trkpt>
      <trkpt lat="-37.00820045775319" lon="174.904746328438">
        <ele>48</ele>
      </trkpt>
      <trkpt lat="-37.00821285523555" lon="174.904867442304">
        <ele>48</ele>
      </trkpt>
      <trkpt lat="-37.00820141140568" lon="174.904927522411">
        <ele>48</ele>
      </trkpt>
      <trkpt lat="-37.00817566278847" lon="174.904976158688">
        <ele>48</ele>
      </trkpt>
      <trkpt lat="-37.00814889114775" lon="174.904993274983">
        <ele>48</ele>
      </trkpt>
      <trkpt lat="-37.00814991417128" lon="174.90499618539">
        <ele>48</ele>
      </trkpt>
      <trkpt lat="-37.00828533282472" lon="174.905381460996">
        <ele>49</ele>
      </trkpt>
      <trkpt lat="-37.00860957467098" lon="174.905554072096">
        <ele>51</ele>
      </trkpt>
      <trkpt lat="-37.008652489033" lon="174.905610337593">
        <ele>51</ele>
      </trkpt>
      <trkpt lat="-37.00870589357238" lon="174.905737173374">
        <ele>51</ele>
      </trkpt>
      <trkpt lat="-37.00881079534617" lon="174.906054739653">
        <ele>52</ele>
      </trkpt>
      <trkpt lat="-37.00888422658783" lon="174.906253099371">
        <ele>52</ele>
      </trkpt>
      <trkpt lat="-37.0088915877385" lon="174.906266906727">
        <ele>52</ele>
      </trkpt>
      <trkpt lat="-37.00889158775718" lon="174.906266906762">
        <ele>52</ele>
      </trkpt>
      <trkpt lat="-37.00884703414076" lon="174.906342742705">
        <ele>52</ele>
      </trkpt>
      <trkpt lat="-37.00878886133893" lon="174.906442876216">
        <ele>52</ele>
      </trkpt>
      <trkpt lat="-37.0087297348846" lon="174.906546824337">
        <ele>52</ele>
      </trkpt>
      <trkpt lat="-37.0087297348846" lon="174.906546824337">
        <ele>52</ele>
      </trkpt>
      <trkpt lat="-37.00871638374976" lon="174.906570665649">
        <ele>52</ele>
      </trkpt>
      <trkpt lat="-37.00871638374976" lon="174.906570665649">
        <ele>52</ele>
      </trkpt>
      <trkpt lat="-37.00879172229639" lon="174.906634560366">
        <ele>52</ele>
      </trkpt>
      <trkpt lat="-37.00886706084302" lon="174.906699408735">
        <ele>52</ele>
      </trkpt>
      <trkpt lat="-37.0089128361625" lon="174.90674709136">
        <ele>52</ele>
      </trkpt>
      <trkpt lat="-37.00893190921228" lon="174.906783330155">
        <ele>52</ele>
      </trkpt>
      <trkpt lat="-37.00893095555979" lon="174.906817661644">
        <ele>52</ele>
      </trkpt>
      <trkpt lat="-37.00890806790005" lon="174.906836734694">
        <ele>52</ele>
      </trkpt>
      <trkpt lat="-37.00885943162312" lon="174.906849132176">
        <ele>52</ele>
      </trkpt>
      <trkpt lat="-37.00881460995613" lon="174.906852946786">
        <ele>52</ele>
      </trkpt>
      <trkpt lat="-37.008695403395" lon="174.906811939729">
        <ele>52</ele>
      </trkpt>
      <trkpt lat="-37.00865821094793" lon="174.906810032424">
        <ele>52</ele>
      </trkpt>
      <trkpt lat="-37.0086000381461" lon="174.906812893382">
        <ele>51</ele>
      </trkpt>
      <trkpt lat="-37.00852279229449" lon="174.906843410261">
        <ele>51</ele>
      </trkpt>
      <trkpt lat="-37.00852279229449" lon="174.906843410261">
        <ele>51</ele>
      </trkpt>
      <trkpt lat="-37.00873545679954" lon="174.907327865726">
        <ele>52</ele>
      </trkpt>
      <trkpt lat="-37.00894430669464" lon="174.907774175091">
        <ele>54</ele>
      </trkpt>
      <trkpt lat="-37.00894430669464" lon="174.907774175091">
        <ele>54</ele>
      </trkpt>
      <trkpt lat="-37.0089214190349" lon="174.907871447645">
        <ele>54</ele>
      </trkpt>
      <trkpt lat="-37.00889853137517" lon="174.907969673851">
        <ele>54</ele>
      </trkpt>
      <trkpt lat="-37.0088870875453" lon="174.908067900057">
        <ele>54</ele>
      </trkpt>
      <trkpt lat="-37.00887564371543" lon="174.908167079916">
        <ele>54</ele>
      </trkpt>
      <trkpt lat="-37.00887564371543" lon="174.908167079916">
        <ele>54</ele>
      </trkpt>
      <trkpt lat="-37.00871924470723" lon="174.908514209422">
        <ele>55</ele>
      </trkpt>
      <trkpt lat="-37.00867060843029" lon="174.908600991799">
        <ele>55</ele>
      </trkpt>
      <trkpt lat="-37.00867060843029" lon="174.908600991799">
        <ele>55</ele>
      </trkpt>
      <trkpt lat="-37.00875071523937" lon="174.908587640664">
        <ele>55</ele>
      </trkpt>
      <trkpt lat="-37.0088603852756" lon="174.908598130841">
        <ele>55</ele>
      </trkpt>
      <trkpt lat="-37.0088603852756" lon="174.908598130841">
        <ele>55</ele>
      </trkpt>
      <trkpt lat="-37.00889853137517" lon="174.908684913218">
        <ele>56</ele>
      </trkpt>
      <trkpt lat="-37.00890804659381" lon="174.908699088952">
        <ele>56</ele>
      </trkpt>
      <trkpt lat="-37.00890804659381" lon="174.908699088952">
        <ele>56</ele>
      </trkpt>
      <trkpt lat="-37.00891403513375" lon="174.908708010654">
        <ele>56</ele>
      </trkpt>
      <trkpt lat="-37.00891403513375" lon="174.908708010654">
        <ele>56</ele>
      </trkpt>
      <trkpt lat="-37.00889853137517" lon="174.908684913218">
        <ele>56</ele>
      </trkpt>
      <trkpt lat="-37.0088603852756" lon="174.908598130841">
        <ele>55</ele>
      </trkpt>
      <trkpt lat="-37.0088603852756" lon="174.908598130841">
        <ele>55</ele>
      </trkpt>
      <trkpt lat="-37.00875071523937" lon="174.908587640664">
        <ele>55</ele>
      </trkpt>
      <trkpt lat="-37.00867060843029" lon="174.908600991799">
        <ele>55</ele>
      </trkpt>
      <trkpt lat="-37.00861338928095" lon="174.908610528323">
        <ele>55</ele>
      </trkpt>
      <trkpt lat="-37.00861338928095" lon="174.908610528323">
        <ele>55</ele>
      </trkpt>
      <trkpt lat="-37.00852088498951" lon="174.908636276941">
        <ele>54</ele>
      </trkpt>
      <trkpt lat="-37.00852088498951" lon="174.908636276941">
        <ele>54</ele>
      </trkpt>
      <trkpt lat="-37.00850607146431" lon="174.908642124385">
        <ele>54</ele>
      </trkpt>
      <trkpt lat="-37.00850607146431" lon="174.908642124385">
        <ele>54</ele>
      </trkpt>
      <trkpt lat="-37.008444648854" lon="174.908596095955">
        <ele>54</ele>
      </trkpt>
      <trkpt lat="-37.008444648854" lon="174.908596095955">
        <ele>54</ele>
      </trkpt>
      <trkpt lat="-37.0083826053786" lon="174.908563799352">
        <ele>54</ele>
      </trkpt>
      <trkpt lat="-37.00834445927904" lon="174.908451268358">
        <ele>53</ele>
      </trkpt>
      <trkpt lat="-37.00830631317947" lon="174.908338737364">
        <ele>53</ele>
      </trkpt>
      <trkpt lat="-37.00831489605188" lon="174.908005912645">
        <ele>52</ele>
      </trkpt>
      <trkpt lat="-37.00828056456227" lon="174.907909593744">
        <ele>51</ele>
      </trkpt>
      <trkpt lat="-37.00821571619301" lon="174.907856189205">
        <ele>51</ele>
      </trkpt>
      <trkpt lat="-37.00814800686629" lon="174.907788479878">
        <ele>51</ele>
      </trkpt>
      <trkpt lat="-37.00804787335495" lon="174.90778561892">
        <ele>50</ele>
      </trkpt>
      <trkpt lat="-37.00797730307076" lon="174.907821857715">
        <ele>50</ele>
      </trkpt>
      <trkpt lat="-37.00790673278657" lon="174.90785809651">
        <ele>50</ele>
      </trkpt>
      <trkpt lat="-37.00782376502003" lon="174.907862864772">
        <ele>50</ele>
      </trkpt>
      <trkpt lat="-37.00774079725348" lon="174.907868586687">
        <ele>50</ele>
      </trkpt>
      <trkpt lat="-37.00766831966431" lon="174.907825672325">
        <ele>49</ele>
      </trkpt>
      <trkpt lat="-37.00766831966431" lon="174.907825672325">
        <ele>49</ele>
      </trkpt>
      <trkpt lat="-37.00767880984169" lon="174.907872401297">
        <ele>50</ele>
      </trkpt>
      <trkpt lat="-37.00773793629601" lon="174.907966812893">
        <ele>50</ele>
      </trkpt>
      <trkpt lat="-37.00779610909785" lon="174.908062178142">
        <ele>50</ele>
      </trkpt>
      <trkpt lat="-37.00786477207706" lon="174.908152775129">
        <ele>51</ele>
      </trkpt>
      <trkpt lat="-37.00804978065992" lon="174.908457943925">
        <ele>52</ele>
      </trkpt>
      <trkpt lat="-37.00812535863283" lon="174.908701068248">
        <ele>53</ele>
      </trkpt>
      <trkpt lat="-37.00812535863283" lon="174.908701068248">
        <ele>53</ele>
      </trkpt>
      <trkpt lat="-37.00811442256587" lon="174.908732174766">
        <ele>53</ele>
      </trkpt>
      <trkpt lat="-37.00811442256587" lon="174.908732174766">
        <ele>53</ele>
      </trkpt>
      <trkpt lat="-37.00803929048254" lon="174.908833683006">
        <ele>54</ele>
      </trkpt>
      <trkpt lat="-37.00803929048254" lon="174.908833683006">
        <ele>54</ele>
      </trkpt>
      <trkpt lat="-37.00797253480832" lon="174.908871829105">
        <ele>53</ele>
      </trkpt>
      <trkpt lat="-37.00797253480832" lon="174.908871829105">
        <ele>53</ele>
      </trkpt>
      <trkpt lat="-37.00793534236124" lon="174.908910928858">
        <ele>53</ele>
      </trkpt>
      <trkpt lat="-37.00744516498188" lon="174.90891569712">
        <ele>52</ele>
      </trkpt>
      <trkpt lat="-37.00744516498188" lon="174.90891569712">
        <ele>52</ele>
      </trkpt>
      <trkpt lat="-37.00733644859813" lon="174.90893858478">
        <ele>52</ele>
      </trkpt>
      <trkpt lat="-37.00722677856189" lon="174.908962426092">
        <ele>51</ele>
      </trkpt>
      <trkpt lat="-37.0071562082777" lon="174.908971962617">
        <ele>51</ele>
      </trkpt>
      <trkpt lat="-37.007086591646" lon="174.908971962617">
        <ele>51</ele>
      </trkpt>
      <trkpt lat="-37.00701888231928" lon="174.908956704177">
        <ele>50</ele>
      </trkpt>
      <trkpt lat="-37.0061567804692" lon="174.908415029563">
        <ele>49</ele>
      </trkpt>
      <trkpt lat="-37.00606236887278" lon="174.908345412932">
        <ele>50</ele>
      </trkpt>
      <trkpt lat="-37.00596700362388" lon="174.9082757963">
        <ele>50</ele>
      </trkpt>
      <trkpt lat="-37.00596700362388" lon="174.9082757963">
        <ele>50</ele>
      </trkpt>
      <trkpt lat="-37.00585575064834" lon="174.908197507169">
        <ele>51</ele>
      </trkpt>
      <trkpt lat="-37.00585575064834" lon="174.908197507169">
        <ele>51</ele>
      </trkpt>
      <trkpt lat="-37.00594001063904" lon="174.908018159564">
        <ele>51</ele>
      </trkpt>
      <trkpt lat="-37.00594001063904" lon="174.908018159564">
        <ele>51</ele>
      </trkpt>
      <trkpt lat="-37.00595269883654" lon="174.907997329773">
        <ele>51</ele>
      </trkpt>
      <trkpt lat="-37.0060261300782" lon="174.907860003815">
        <ele>51</ele>
      </trkpt>
      <trkpt lat="-37.00599275224108" lon="174.907668319664">
        <ele>51</ele>
      </trkpt>
      <trkpt lat="-37.00598321571619" lon="174.907541483883">
        <ele>51</ele>
      </trkpt>
      <trkpt lat="-37.00605378600038" lon="174.907229639519">
        <ele>52</ele>
      </trkpt>
      <trkpt lat="-37.0060871638375" lon="174.90696929239">
        <ele>52</ele>
      </trkpt>
      <trkpt lat="-37.00611863436963" lon="174.906607858097">
        <ele>52</ele>
      </trkpt>
      <trkpt lat="-37.00618443639138" lon="174.9063026893">
        <ele>50</ele>
      </trkpt>
      <trkpt lat="-37.00625309937059" lon="174.906070951745">
        <ele>49</ele>
      </trkpt>
      <trkpt lat="-37.0062607285905" lon="174.905925996567">
        <ele>49</ele>
      </trkpt>
      <trkpt lat="-37.0062607285905" lon="174.905925996567">
        <ele>49</ele>
      </trkpt>
      <trkpt lat="-37.00612244897959" lon="174.905938394049">
        <ele>50</ele>
      </trkpt>
      <trkpt lat="-37.00612244897959" lon="174.905938394049">
        <ele>50</ele>
      </trkpt>
      <trkpt lat="-37.00606141522029" lon="174.905946023269">
        <ele>51</ele>
      </trkpt>
      <trkpt lat="-37.0059994278085" lon="174.905954606142">
        <ele>51</ele>
      </trkpt>
      <trkpt lat="-37.0059994278085" lon="174.905954606142">
        <ele>51</ele>
      </trkpt>
      <trkpt lat="-37.00595460614152" lon="174.905962235361">
        <ele>52</ele>
      </trkpt>
      <trkpt lat="-37.00595460614152" lon="174.905962235361">
        <ele>52</ele>
      </trkpt>
      <trkpt lat="-37.00595842075148" lon="174.905999427809">
        <ele>52</ele>
      </trkpt>
      <trkpt lat="-37.00595842075148" lon="174.905999427809">
        <ele>52</ele>
      </trkpt>
      <trkpt lat="-37.00595460614152" lon="174.905962235361">
        <ele>52</ele>
      </trkpt>
      <trkpt lat="-37.00587449933244" lon="174.905899294297">
        <ele>52</ele>
      </trkpt>
      <trkpt lat="-37.00575338546633" lon="174.905853518978">
        <ele>54</ele>
      </trkpt>
      <trkpt lat="-37.0056866297921" lon="174.905814419226">
        <ele>54</ele>
      </trkpt>
      <trkpt lat="-37.00561987411787" lon="174.905776273126">
        <ele>55</ele>
      </trkpt>
      <trkpt lat="-37.00557123784093" lon="174.905700934579">
        <ele>56</ele>
      </trkpt>
      <trkpt lat="-37.00552260156399" lon="174.905626549685">
        <ele>56</ele>
      </trkpt>
      <trkpt lat="-37.0055216479115" lon="174.905547396529">
        <ele>56</ele>
      </trkpt>
      <trkpt lat="-37.00560461567805" lon="174.905049589929">
        <ele>53</ele>
      </trkpt>
      <trkpt lat="-37.00559603280564" lon="174.904937058936">
        <ele>53</ele>
      </trkpt>
      <trkpt lat="-37.00557600610338" lon="174.904880793439">
        <ele>53</ele>
      </trkpt>
      <trkpt lat="-37.00553213808888" lon="174.904616631699">
        <ele>53</ele>
      </trkpt>
      <trkpt lat="-37.0055044821667" lon="174.904311462903">
        <ele>52</ele>
      </trkpt>
      <trkpt lat="-37.00550638947168" lon="174.904214190349">
        <ele>52</ele>
      </trkpt>
      <trkpt lat="-37.00550734312417" lon="174.904117871448">
        <ele>52</ele>
      </trkpt>
      <trkpt lat="-37.0055216479115" lon="174.904023459851">
        <ele>51</ele>
      </trkpt>
      <trkpt lat="-37.00553499904635" lon="174.903929048255">
        <ele>51</ele>
      </trkpt>
      <trkpt lat="-37.00553499904635" lon="174.903929048255">
        <ele>51</ele>
      </trkpt>
      <trkpt lat="-37.0055473965287" lon="174.903867060843">
        <ele>51</ele>
      </trkpt>
      <trkpt lat="-37.0055473965287" lon="174.903867060843">
        <ele>51</ele>
      </trkpt>
      <trkpt lat="-37.0055473965287" lon="174.903842265878">
        <ele>51</ele>
      </trkpt>
      <trkpt lat="-37.0055035285142" lon="174.903758344459">
        <ele>51</ele>
      </trkpt>
      <trkpt lat="-37.00545107762731" lon="174.903738317757">
        <ele>52</ele>
      </trkpt>
      <trkpt lat="-37.00540625596032" lon="174.903774556552">
        <ele>52</ele>
      </trkpt>
      <trkpt lat="-37.00540625596032" lon="174.903774556552">
        <ele>52</ele>
      </trkpt>
      <trkpt lat="-37.00540053404539" lon="174.903849895098">
        <ele>53</ele>
      </trkpt>
      <trkpt lat="-37.00540053404539" lon="174.903849895098">
        <ele>53</ele>
      </trkpt>
      <trkpt lat="-37.00540339500286" lon="174.903901392333">
        <ele>53</ele>
      </trkpt>
      <trkpt lat="-37.00540339500286" lon="174.903901392333">
        <ele>53</ele>
      </trkpt>
      <trkpt lat="-37.00536906351326" lon="174.903909975205">
        <ele>53</ele>
      </trkpt>
      <trkpt lat="-37.00533568567614" lon="174.903990082014">
        <ele>53</ele>
      </trkpt>
      <trkpt lat="-37.0052956322716" lon="174.904065420561">
        <ele>54</ele>
      </trkpt>
      <trkpt lat="-37.00525462521457" lon="174.90414171276">
        <ele>55</ele>
      </trkpt>
      <trkpt lat="-37.00517547205798" lon="174.904238031661">
        <ele>56</ele>
      </trkpt>
      <trkpt lat="-37.00511157734122" lon="174.904281899676">
        <ele>57</ele>
      </trkpt>
      <trkpt lat="-37.00509822620637" lon="174.904345794393">
        <ele>57</ele>
      </trkpt>
      <trkpt lat="-37.00508487507152" lon="174.904410642762">
        <ele>57</ele>
      </trkpt>
      <trkpt lat="-37.00503242418463" lon="174.904523173756">
        <ele>58</ele>
      </trkpt>
      <trkpt lat="-37.00497997329773" lon="174.904635704749">
        <ele>59</ele>
      </trkpt>
      <trkpt lat="-37.00497997329773" lon="174.904635704749">
        <ele>59</ele>
      </trkpt>
      <trkpt lat="-37.0050438680145" lon="174.90480450124">
        <ele>59</ele>
      </trkpt>
      <trkpt lat="-37.005" lon="174.905057219149">
        <ele>60</ele>
      </trkpt>
      <trkpt lat="-37.00504482166698" lon="174.905227922945">
        <ele>61</ele>
      </trkpt>
      <trkpt lat="-37.00504768262445" lon="174.905295632272">
        <ele>61</ele>
      </trkpt>
      <trkpt lat="-37.00502002670227" lon="174.905362387946">
        <ele>61</ele>
      </trkpt>
      <trkpt lat="-37.0049389662407" lon="174.905487316422">
        <ele>63</ele>
      </trkpt>
      <trkpt lat="-37.00495327102804" lon="174.905664695785">
        <ele>64</ele>
      </trkpt>
      <trkpt lat="-37.00489128361625" lon="174.90608811749">
        <ele>67</ele>
      </trkpt>
      <trkpt lat="-37.00485313751669" lon="174.906407591074">
        <ele>69</ele>
      </trkpt>
      <trkpt lat="-37.00487221056647" lon="174.906633606714">
        <ele>71</ele>
      </trkpt>
      <trkpt lat="-37.00487221056647" lon="174.906633606714">
        <ele>71</ele>
      </trkpt>
      <trkpt lat="-37.00490082014114" lon="174.906782376502">
        <ele>71</ele>
      </trkpt>
      <trkpt lat="-37.00494253892514" lon="174.906921136805">
        <ele>71</ele>
      </trkpt>
      <trkpt lat="-37.00494253892514" lon="174.906921136805">
        <ele>71</ele>
      </trkpt>
      <trkpt lat="-37.00510341319696" lon="174.906823447502">
        <ele>68</ele>
      </trkpt>
      <trkpt lat="-37.00501014274744" lon="174.906873627375">
        <ele>70</ele>
      </trkpt>
      <trkpt lat="-37.00494468815563" lon="174.906928285333">
        <ele>71</ele>
      </trkpt>
      <trkpt lat="-37.00494468815563" lon="174.906928285333">
        <ele>71</ele>
      </trkpt>
      <trkpt lat="-37.00494468815563" lon="174.906959755865">
        <ele>71</ele>
      </trkpt>
      <trkpt lat="-37.00494468815563" lon="174.906959755865">
        <ele>71</ele>
      </trkpt>
      <trkpt lat="-37.00493991989319" lon="174.90717623498">
        <ele>72</ele>
      </trkpt>
      <trkpt lat="-37.00484074003433" lon="174.907539576578">
        <ele>75</ele>
      </trkpt>
      <trkpt lat="-37.00474632843792" lon="174.907928666794">
        <ele>73</ele>
      </trkpt>
      <trkpt lat="-37.00468910928857" lon="174.908060270837">
        <ele>72</ele>
      </trkpt>
      <trkpt lat="-37.00463825993971" lon="174.908153494644">
        <ele>72</ele>
      </trkpt>
      <trkpt lat="-37.00463825993971" lon="174.908153494644">
        <ele>72</ele>
      </trkpt>
      <trkpt lat="-37.00463189013923" lon="174.908165172611">
        <ele>72</ele>
      </trkpt>
      <trkpt lat="-37.00445641808125" lon="174.908437917223">
        <ele>72</ele>
      </trkpt>
      <trkpt lat="-37.00438584779706" lon="174.908575243181">
        <ele>71</ele>
      </trkpt>
      <trkpt lat="-37.0042780850658" lon="174.908726873927">
        <ele>71</ele>
      </trkpt>
      <trkpt lat="-37.0042780850658" lon="174.908726873927">
        <ele>71</ele>
      </trkpt>
      <trkpt lat="-37.00412645432004" lon="174.908969101659">
        <ele>69</ele>
      </trkpt>
      <trkpt lat="-37.00401201602136" lon="174.909117871448">
        <ele>68</ele>
      </trkpt>
      <trkpt lat="-37.00394144573717" lon="174.909195117299">
        <ele>68</ele>
      </trkpt>
      <trkpt lat="-37.00394144573717" lon="174.909195117299">
        <ele>68</ele>
      </trkpt>
      <trkpt lat="-37.00364676711806" lon="174.909332443258">
        <ele>69</ele>
      </trkpt>
      <trkpt lat="-37.00364676711806" lon="174.909332443258">
        <ele>69</ele>
      </trkpt>
      <trkpt lat="-37.00349322906732" lon="174.90937154301">
        <ele>70</ele>
      </trkpt>
      <trkpt lat="-37.00349322906732" lon="174.90937154301">
        <ele>70</ele>
      </trkpt>
      <trkpt lat="-37.00338680419579" lon="174.909367742121">
        <ele>71</ele>
      </trkpt>
      <trkpt lat="-37.0033868041938" lon="174.909367742122">
        <ele>71</ele>
      </trkpt>
      <trkpt lat="-37.00336830059126" lon="174.909393477017">
        <ele>70</ele>
      </trkpt>
      <trkpt lat="-37.00336830059126" lon="174.909393477017">
        <ele>70</ele>
      </trkpt>
      <trkpt lat="-37.00327484264734" lon="174.909452603471">
        <ele>70</ele>
      </trkpt>
      <trkpt lat="-37.00321380888804" lon="174.909483120351">
        <ele>70</ele>
      </trkpt>
      <trkpt lat="-37.00315277512874" lon="174.909513637231">
        <ele>70</ele>
      </trkpt>
      <trkpt lat="-37.00307076101468" lon="174.909546061415">
        <ele>70</ele>
      </trkpt>
      <trkpt lat="-37.00295060080106" lon="174.909629982834">
        <ele>70</ele>
      </trkpt>
      <trkpt lat="-37.00286000381461" lon="174.909721533473">
        <ele>69</ele>
      </trkpt>
      <trkpt lat="-37.00276463856571" lon="174.909799732977">
        <ele>68</ele>
      </trkpt>
      <trkpt lat="-37.00272649246615" lon="174.909843600992">
        <ele>68</ele>
      </trkpt>
      <trkpt lat="-37.00267976349418" lon="174.909927522411">
        <ele>67</ele>
      </trkpt>
      <trkpt lat="-37.00267880984169" lon="174.909982834255">
        <ele>66</ele>
      </trkpt>
      <trkpt lat="-37.00262063703986" lon="174.910083921419">
        <ele>66</ele>
      </trkpt>
      <trkpt lat="-37.0025042914362" lon="174.910126835781">
        <ele>66</ele>
      </trkpt>
      <trkpt lat="-37.00242990654205" lon="174.910177379363">
        <ele>66</ele>
      </trkpt>
      <trkpt lat="-37.00236696547778" lon="174.910170703796">
        <ele>66</ele>
      </trkpt>
      <trkpt lat="-37.00232786572573" lon="174.910219340073">
        <ele>66</ele>
      </trkpt>
      <trkpt lat="-37.00224203700171" lon="174.910246995995">
        <ele>66</ele>
      </trkpt>
      <trkpt lat="-37.00224203700171" lon="174.910246995995">
        <ele>66</ele>
      </trkpt>
      <trkpt lat="-37.00220484455464" lon="174.910264161739">
        <ele>66</ele>
      </trkpt>
      <trkpt lat="-37.00219912263971" lon="174.910377646386">
        <ele>65</ele>
      </trkpt>
      <trkpt lat="-37.00219244707228" lon="174.910491131032">
        <ele>64</ele>
      </trkpt>
      <trkpt lat="-37.00224012969674" lon="174.910510204082">
        <ele>64</ele>
      </trkpt>
      <trkpt lat="-37.00224966622163" lon="174.910626549685">
        <ele>62</ele>
      </trkpt>
      <trkpt lat="-37.00224966622163" lon="174.910626549685">
        <ele>62</ele>
      </trkpt>
      <trkpt lat="-37.00224108334923" lon="174.910691398055">
        <ele>62</ele>
      </trkpt>
      <trkpt lat="-37.00214381079535" lon="174.910775319474">
        <ele>62</ele>
      </trkpt>
      <trkpt lat="-37.00204653824147" lon="174.910860194545">
        <ele>61</ele>
      </trkpt>
      <trkpt lat="-37.00205798207133" lon="174.910926950219">
        <ele>61</ele>
      </trkpt>
      <trkpt lat="-37.00205798207133" lon="174.910926950219">
        <ele>61</ele>
      </trkpt>
      <trkpt lat="-37.00208754529849" lon="174.911048064085">
        <ele>61</ele>
      </trkpt>
      <trkpt lat="-37.00208754529849" lon="174.911048064085">
        <ele>61</ele>
      </trkpt>
      <trkpt lat="-37.00207228685867" lon="174.911075720008">
        <ele>61</ele>
      </trkpt>
      <trkpt lat="-37.00186666326761" lon="174.911140764205">
        <ele>62</ele>
      </trkpt>
      <trkpt lat="-37.00186666326761" lon="174.911140764205">
        <ele>62</ele>
      </trkpt>
      <trkpt lat="-37.00185162177369" lon="174.911145522228">
        <ele>62</ele>
      </trkpt>
      <trkpt lat="-37.00185162177369" lon="174.911145522228">
        <ele>62</ele>
      </trkpt>
      <trkpt lat="-37.00179191302689" lon="174.911164409689">
        <ele>62</ele>
      </trkpt>
      <trkpt lat="-37.00173755483502" lon="174.911240701888">
        <ele>62</ele>
      </trkpt>
      <trkpt lat="-37.0016698455083" lon="174.91127980164">
        <ele>63</ele>
      </trkpt>
      <trkpt lat="-37.00163837497616" lon="174.911347510967">
        <ele>63</ele>
      </trkpt>
      <trkpt lat="-37.00163360671371" lon="174.911416173946">
        <ele>63</ele>
      </trkpt>
      <trkpt lat="-37.00161262635896" lon="174.911440968911">
        <ele>63</ele>
      </trkpt>
      <trkpt lat="-37.00156875834445" lon="174.911463856571">
        <ele>63</ele>
      </trkpt>
      <trkpt lat="-37.00156875834445" lon="174.911463856571">
        <ele>63</ele>
      </trkpt>
      <trkpt lat="-37.00149628075529" lon="174.911539195117">
        <ele>63</ele>
      </trkpt>
      <trkpt lat="-37.00142380316613" lon="174.911615487316">
        <ele>63</ele>
      </trkpt>
      <trkpt lat="-37.00142380316613" lon="174.911615487316">
        <ele>63</ele>
      </trkpt>
      <trkpt lat="-37.00121590692351" lon="174.911844363914">
        <ele>64</ele>
      </trkpt>
      <trkpt lat="-37.00121590692351" lon="174.911844363914">
        <ele>64</ele>
      </trkpt>
      <trkpt lat="-37.00115678046919" lon="174.912287812321">
        <ele>65</ele>
      </trkpt>
      <trkpt lat="-37.00111768071714" lon="174.912418462712">
        <ele>66</ele>
      </trkpt>
      <trkpt lat="-37.00098798397864" lon="174.912542437536">
        <ele>67</ele>
      </trkpt>
      <trkpt lat="-37.00098798397864" lon="174.912542437536">
        <ele>67</ele>
      </trkpt>
      <trkpt lat="-37.00098876816509" lon="174.912541687946">
        <ele>67</ele>
      </trkpt>
      <trkpt lat="-37.00098876822479" lon="174.912541688023">
        <ele>67</ele>
      </trkpt>
      <trkpt lat="-37.00082872401297" lon="174.912333587641">
        <ele>67</ele>
      </trkpt>
      <trkpt lat="-37.00040625596033" lon="174.912095174518">
        <ele>67</ele>
      </trkpt>
      <trkpt lat="-37.00028514209422" lon="174.912072286859">
        <ele>67</ele>
      </trkpt>
      <trkpt lat="-37.00010204081632" lon="174.912001716575">
        <ele>67</ele>
      </trkpt>
      <trkpt lat="-37.00003202808146" lon="174.911967037369">
        <ele>67</ele>
      </trkpt>
      <trkpt lat="-37.00003202808146" lon="174.911967037369">
        <ele>67</ele>
      </trkpt>
      <trkpt lat="-36.99999101222619" lon="174.911946756587">
        <ele>67</ele>
      </trkpt>
      <trkpt lat="-36.99999101222619" lon="174.911946756587">
        <ele>67</ele>
      </trkpt>
      <trkpt lat="-36.99988937631127" lon="174.911896814801">
        <ele>67</ele>
      </trkpt>
      <trkpt lat="-36.99981689872211" lon="174.911851039481">
        <ele>67</ele>
      </trkpt>
      <trkpt lat="-36.99974442113294" lon="174.911805264162">
        <ele>67</ele>
      </trkpt>
      <trkpt lat="-36.99974442113294" lon="174.911805264162">
        <ele>67</ele>
      </trkpt>
      <trkpt lat="-36.99971771886324" lon="174.911788098417">
        <ele>67</ele>
      </trkpt>
      <trkpt lat="-36.99947072286859" lon="174.911449551783">
        <ele>66</ele>
      </trkpt>
      <trkpt lat="-36.99933816517261" lon="174.911254053023">
        <ele>65</ele>
      </trkpt>
      <trkpt lat="-36.9993087546061" lon="174.91114415038">
        <ele>65</ele>
      </trkpt>
      <trkpt lat="-36.9993087546061" lon="174.91114415038">
        <ele>65</ele>
      </trkpt>
      <trkpt lat="-36.99930457517798" lon="174.911128532517">
        <ele>65</ele>
      </trkpt>
      <trkpt lat="-36.99930457517798" lon="174.911128532517">
        <ele>65</ele>
      </trkpt>
      <trkpt lat="-36.99930192637803" lon="174.91111863437">
        <ele>65</ele>
      </trkpt>
      <trkpt lat="-36.99929238985314" lon="174.910994659546">
        <ele>64</ele>
      </trkpt>
      <trkpt lat="-36.99930574098799" lon="174.910861148198">
        <ele>64</ele>
      </trkpt>
      <trkpt lat="-36.99932099942781" lon="174.910774365821">
        <ele>64</ele>
      </trkpt>
      <trkpt lat="-36.99926568758345" lon="174.910695212665">
        <ele>64</ele>
      </trkpt>
      <trkpt lat="-36.99926568758345" lon="174.910695212665">
        <ele>64</ele>
      </trkpt>
      <trkpt lat="-36.99923993896624" lon="174.9106704177">
        <ele>64</ele>
      </trkpt>
      <trkpt lat="-36.99923993896624" lon="174.9106704177">
        <ele>64</ele>
      </trkpt>
      <trkpt lat="-36.99920465382415" lon="174.91061701316">
        <ele>64</ele>
      </trkpt>
      <trkpt lat="-36.99889280946024" lon="174.909814037765">
        <ele>70</ele>
      </trkpt>
      <trkpt lat="-36.99886324623307" lon="174.909742513828">
        <ele>71</ele>
      </trkpt>
      <trkpt lat="-36.99883272935342" lon="174.909671943544">
        <ele>72</ele>
      </trkpt>
      <trkpt lat="-36.9987917222964" lon="174.909595651345">
        <ele>73</ele>
      </trkpt>
      <trkpt lat="-36.99875071523937" lon="174.909519359146">
        <ele>74</ele>
      </trkpt>
      <trkpt lat="-36.99870589357239" lon="174.909452603471">
        <ele>75</ele>
      </trkpt>
      <trkpt lat="-36.9986610719054" lon="174.909385847797">
        <ele>76</ele>
      </trkpt>
      <trkpt lat="-36.99859908449361" lon="174.909300972726">
        <ele>77</ele>
      </trkpt>
      <trkpt lat="-36.99853614342933" lon="174.909217051307">
        <ele>79</ele>
      </trkpt>
      <trkpt lat="-36.99846557314515" lon="174.909136944497">
        <ele>80</ele>
      </trkpt>
      <trkpt lat="-36.99839500286096" lon="174.909057791341">
        <ele>81</ele>
      </trkpt>
      <trkpt lat="-36.99829200839214" lon="174.908961472439">
        <ele>83</ele>
      </trkpt>
      <trkpt lat="-36.99818806027084" lon="174.908865153538">
        <ele>84</ele>
      </trkpt>
      <trkpt lat="-36.99815182147626" lon="174.908802212474">
        <ele>85</ele>
      </trkpt>
      <trkpt lat="-36.99812130459661" lon="174.908724966622">
        <ele>86</ele>
      </trkpt>
      <trkpt lat="-36.99811558268167" lon="174.9086591646">
        <ele>87</ele>
      </trkpt>
      <trkpt lat="-36.99810890711425" lon="174.908594316231">
        <ele>88</ele>
      </trkpt>
      <trkpt lat="-36.99814514590884" lon="174.90850181194">
        <ele>89</ele>
      </trkpt>
      <trkpt lat="-36.99822239176044" lon="174.908426473393">
        <ele>90</ele>
      </trkpt>
      <trkpt lat="-36.9982872401297" lon="174.908379744421">
        <ele>91</ele>
      </trkpt>
      <trkpt lat="-36.99835113484647" lon="174.908333015449">
        <ele>91</ele>
      </trkpt>
      <trkpt lat="-36.99846843410261" lon="174.908216669846">
        <ele>93</ele>
      </trkpt>
      <trkpt lat="-36.99851420942209" lon="174.908127980164">
        <ele>94</ele>
      </trkpt>
      <trkpt lat="-36.99853805073431" lon="174.90800781995">
        <ele>96</ele>
      </trkpt>
      <trkpt lat="-36.99853423612436" lon="174.907942971581">
        <ele>97</ele>
      </trkpt>
      <trkpt lat="-36.99852946786191" lon="174.907878123212">
        <ele>98</ele>
      </trkpt>
      <trkpt lat="-36.99849990463476" lon="174.907625405302">
        <ele>101</ele>
      </trkpt>
      <trkpt lat="-36.99849704367728" lon="174.907511920656">
        <ele>103</ele>
      </trkpt>
      <trkpt lat="-36.99849418271982" lon="174.90739843601">
        <ele>104</ele>
      </trkpt>
      <trkpt lat="-36.99848273888995" lon="174.907301163456">
        <ele>104</ele>
      </trkpt>
      <trkpt lat="-36.99846557314515" lon="174.90721056647">
        <ele>105</ele>
      </trkpt>
      <trkpt lat="-36.99841216860576" lon="174.907110432958">
        <ele>105</ele>
      </trkpt>
      <trkpt lat="-36.99834064466909" lon="174.907031279802">
        <ele>106</ele>
      </trkpt>
      <trkpt lat="-36.9982262063704" lon="174.906955941255">
        <ele>107</ele>
      </trkpt>
      <trkpt lat="-36.99811081441923" lon="174.906881556361">
        <ele>108</ele>
      </trkpt>
      <trkpt lat="-36.99749380125883" lon="174.906527751287">
        <ele>112</ele>
      </trkpt>
      <trkpt lat="-36.99693686820522" lon="174.906225443448">
        <ele>111</ele>
      </trkpt>
      <trkpt lat="-36.99684722487126" lon="174.906202555789">
        <ele>111</ele>
      </trkpt>
      <trkpt lat="-36.99676616440969" lon="174.906201602136">
        <ele>111</ele>
      </trkpt>
      <trkpt lat="-36.99673755483502" lon="174.906213045966">
        <ele>111</ele>
      </trkpt>
      <trkpt lat="-36.99665458706848" lon="174.906334159832">
        <ele>111</ele>
      </trkpt>
      <trkpt lat="-36.99661453366394" lon="174.906351325577">
        <ele>111</ele>
      </trkpt>
      <trkpt lat="-36.99661453366394" lon="174.906351325577">
        <ele>111</ele>
      </trkpt>
      <trkpt lat="-36.99662502384131" lon="174.906401869159">
        <ele>111</ele>
      </trkpt>
      <trkpt lat="-36.99660690444402" lon="174.906458134656">
        <ele>110</ele>
      </trkpt>
      <trkpt lat="-36.99656303642953" lon="174.906531565897">
        <ele>110</ele>
      </trkpt>
      <trkpt lat="-36.99651916841503" lon="174.906605950792">
        <ele>110</ele>
      </trkpt>
      <trkpt lat="-36.99648579057791" lon="174.906630745756">
        <ele>110</ele>
      </trkpt>
      <trkpt lat="-36.99644478352089" lon="174.906648865154">
        <ele>109</ele>
      </trkpt>
      <trkpt lat="-36.99635132557696" lon="174.906648865154">
        <ele>109</ele>
      </trkpt>
      <trkpt lat="-36.99625786763303" lon="174.906649818806">
        <ele>108</ele>
      </trkpt>
      <trkpt lat="-36.99618729734885" lon="174.906642189586">
        <ele>108</ele>
      </trkpt>
      <trkpt lat="-36.99610814419226" lon="174.906653633416">
        <ele>108</ele>
      </trkpt>
      <trkpt lat="-36.99602326912073" lon="174.906684150296">
        <ele>107</ele>
      </trkpt>
      <trkpt lat="-36.99593744039672" lon="174.906714667175">
        <ele>106</ele>
      </trkpt>
      <trkpt lat="-36.99582395575052" lon="174.906737554835">
        <ele>105</ele>
      </trkpt>
      <trkpt lat="-36.99571047110433" lon="174.906761396147">
        <ele>105</ele>
      </trkpt>
      <trkpt lat="-36.9956265496853" lon="174.90676997902">
        <ele>104</ele>
      </trkpt>
      <trkpt lat="-36.99554167461378" lon="174.906779515545">
        <ele>104</ele>
      </trkpt>
      <trkpt lat="-36.99543581918749" lon="174.90678523746">
        <ele>103</ele>
      </trkpt>
      <trkpt lat="-36.99532901010872" lon="174.906791913027">
        <ele>103</ele>
      </trkpt>
      <trkpt lat="-36.99526702269693" lon="174.906772839977">
        <ele>103</ele>
      </trkpt>
      <trkpt lat="-36.99516593553309" lon="174.906707037955">
        <ele>103</ele>
      </trkpt>
      <trkpt lat="-36.99509727255388" lon="174.906643143239">
        <ele>103</ele>
      </trkpt>
      <trkpt lat="-36.99502860957467" lon="174.906580202174">
        <ele>104</ele>
      </trkpt>
      <trkpt lat="-36.99472534808316" lon="174.906266450505">
        <ele>106</ele>
      </trkpt>
      <trkpt lat="-36.99465477779897" lon="174.906211138661">
        <ele>106</ele>
      </trkpt>
      <trkpt lat="-36.99458420751478" lon="174.906155826817">
        <ele>107</ele>
      </trkpt>
      <trkpt lat="-36.99450696166317" lon="174.906110051497">
        <ele>107</ele>
      </trkpt>
      <trkpt lat="-36.99442876215907" lon="174.90606522983">
        <ele>107</ele>
      </trkpt>
      <trkpt lat="-36.99411977875263" lon="174.905925996567">
        <ele>107</ele>
      </trkpt>
      <trkpt lat="-36.99310032424185" lon="174.905185962235">
        <ele>106</ele>
      </trkpt>
      <trkpt lat="-36.99275319473584" lon="174.904887469006">
        <ele>106</ele>
      </trkpt>
      <trkpt lat="-36.99267404157925" lon="174.904835971772">
        <ele>106</ele>
      </trkpt>
      <trkpt lat="-36.99260919320999" lon="174.904833110814">
        <ele>106</ele>
      </trkpt>
      <trkpt lat="-36.99254339118826" lon="174.904831203509">
        <ele>106</ele>
      </trkpt>
      <trkpt lat="-36.99221533473202" lon="174.904843600992">
        <ele>106</ele>
      </trkpt>
      <trkpt lat="-36.99209994278085" lon="174.904826435247">
        <ele>106</ele>
      </trkpt>
      <trkpt lat="-36.99198455082968" lon="174.904810223155">
        <ele>106</ele>
      </trkpt>
      <trkpt lat="-36.9914953271028" lon="174.904764447835">
        <ele>107</ele>
      </trkpt>
      <trkpt lat="-36.99137802784666" lon="174.904746328438">
        <ele>107</ele>
      </trkpt>
      <trkpt lat="-36.99125977493802" lon="174.904729162693">
        <ele>107</ele>
      </trkpt>
      <trkpt lat="-36.9907047491894" lon="174.904598512302">
        <ele>110</ele>
      </trkpt>
      <trkpt lat="-36.99059698645814" lon="174.904577531947">
        <ele>110</ele>
      </trkpt>
      <trkpt lat="-36.99048827007439" lon="174.904557505245">
        <ele>110</ele>
      </trkpt>
      <trkpt lat="-36.99044154110243" lon="174.904522220103">
        <ele>111</ele>
      </trkpt>
      <trkpt lat="-36.99044154110243" lon="174.904522220103">
        <ele>111</ele>
      </trkpt>
      <trkpt lat="-36.99043772649247" lon="174.904500286096">
        <ele>111</ele>
      </trkpt>
      <trkpt lat="-36.99041674613771" lon="174.904478352089">
        <ele>111</ele>
      </trkpt>
      <trkpt lat="-36.99032519549876" lon="174.904417318329">
        <ele>111</ele>
      </trkpt>
      <trkpt lat="-36.99023841312226" lon="174.904403013542">
        <ele>112</ele>
      </trkpt>
      <trkpt lat="-36.99015067709327" lon="174.904388708755">
        <ele>112</ele>
      </trkpt>
      <trkpt lat="-36.99015067709327" lon="174.904388708755">
        <ele>112</ele>
      </trkpt>
      <trkpt lat="-36.99007724585162" lon="174.904305740988">
        <ele>112</ele>
      </trkpt>
      <trkpt lat="-36.98998569521267" lon="174.904257104711">
        <ele>113</ele>
      </trkpt>
      <trkpt lat="-36.98986839595651" lon="174.904281899676">
        <ele>113</ele>
      </trkpt>
      <trkpt lat="-36.98983978638184" lon="174.904338165173">
        <ele>112</ele>
      </trkpt>
      <trkpt lat="-36.98983406446691" lon="174.904423993897">
        <ele>112</ele>
      </trkpt>
      <trkpt lat="-36.98982834255197" lon="174.904510776273">
        <ele>112</ele>
      </trkpt>
      <trkpt lat="-36.98971104329583" lon="174.904517451841">
        <ele>112</ele>
      </trkpt>
      <trkpt lat="-36.9896004196071" lon="174.904484074003">
        <ele>112</ele>
      </trkpt>
      <trkpt lat="-36.98907209612818" lon="174.904362960137">
        <ele>112</ele>
      </trkpt>
      <trkpt lat="-36.98897482357429" lon="174.904357238222">
        <ele>111</ele>
      </trkpt>
      <trkpt lat="-36.98897482357429" lon="174.904357238222">
        <ele>111</ele>
      </trkpt>
      <trkpt lat="-36.98897673087927" lon="174.904284760633">
        <ele>111</ele>
      </trkpt>
      <trkpt lat="-36.98896624070189" lon="174.904127407973">
        <ele>112</ele>
      </trkpt>
      <trkpt lat="-36.98857524318139" lon="174.902051306504">
        <ele>109</ele>
      </trkpt>
      <trkpt lat="-36.98854854091169" lon="174.901832920084">
        <ele>108</ele>
      </trkpt>
      <trkpt lat="-36.98854091169178" lon="174.90171657448">
        <ele>108</ele>
      </trkpt>
      <trkpt lat="-36.98854758725921" lon="174.901553499905">
        <ele>107</ele>
      </trkpt>
      <trkpt lat="-36.98858191874881" lon="174.901356093839">
        <ele>106</ele>
      </trkpt>
      <trkpt lat="-36.98893412994872" lon="174.900169258943">
        <ele>97</ele>
      </trkpt>
      <trkpt lat="-36.98893412994872" lon="174.900169258943">
        <ele>97</ele>
      </trkpt>
      <trkpt lat="-36.98882891474347" lon="174.9">
        <ele>97</ele>
      </trkpt>
      <trkpt lat="-36.98882891474347" lon="174.9">
        <ele>97</ele>
      </trkpt>
      <trkpt lat="-36.98896525368478" lon="174.900064382278">
        <ele>97</ele>
      </trkpt>
      <trkpt lat="-36.98896525368525" lon="174.900064382276">
        <ele>97</ele>
      </trkpt>
      <trkpt lat="-36.98898436009918" lon="174.9">
        <ele>96</ele>
      </trkpt>
      <trkpt lat="-36.98898436009918" lon="174.9">
        <ele>96</ele>
      </trkpt>
      <trkpt lat="-36.98966240701888" lon="174.897618729735">
        <ele>83</ele>
      </trkpt>
      <trkpt lat="-36.98976349418272" lon="174.897359336258">
        <ele>82</ele>
      </trkpt>
      <trkpt lat="-36.98989414457372" lon="174.897109479306">
        <ele>81</ele>
      </trkpt>
      <trkpt lat="-36.98992370780088" lon="174.897037001717">
        <ele>81</ele>
      </trkpt>
      <trkpt lat="-36.98994564180813" lon="174.896960709517">
        <ele>80</ele>
      </trkpt>
      <trkpt lat="-36.99004291436201" lon="174.896497234408">
        <ele>79</ele>
      </trkpt>
      <trkpt lat="-36.99008487507152" lon="174.896243562846">
        <ele>78</ele>
      </trkpt>
      <trkpt lat="-36.99008487507152" lon="174.896243562846">
        <ele>78</ele>
      </trkpt>
      <trkpt lat="-36.98997679313243" lon="174.896213134372">
        <ele>79</ele>
      </trkpt>
      <trkpt lat="-36.98997679312875" lon="174.89621313437">
        <ele>79</ele>
      </trkpt>
      <trkpt lat="-36.99" lon="174.896130078199">
        <ele>78</ele>
      </trkpt>
      <trkpt lat="-36.99" lon="174.896130078199">
        <ele>78</ele>
      </trkpt>
      <trkpt lat="-36.99002316484683" lon="174.896113328233">
        <ele>78</ele>
      </trkpt>
      <trkpt lat="-36.99002288765974" lon="174.896112912455">
        <ele>78</ele>
      </trkpt>
      <trkpt lat="-36.99000762921992" lon="174.896090024795">
        <ele>78</ele>
      </trkpt>
      <trkpt lat="-36.99000762921992" lon="174.896090024795">
        <ele>78</ele>
      </trkpt>
      <trkpt lat="-36.98997806599275" lon="174.896044249475">
        <ele>78</ele>
      </trkpt>
      <trkpt lat="-36.98997806599275" lon="174.896044249475">
        <ele>78</ele>
      </trkpt>
      <trkpt lat="-36.98994945641808" lon="174.895986076674">
        <ele>78</ele>
      </trkpt>
      <trkpt lat="-36.9899697477677" lon="174.895934683009">
        <ele>78</ele>
      </trkpt>
      <trkpt lat="-36.98996948312035" lon="174.895934579439">
        <ele>78</ele>
      </trkpt>
      <trkpt lat="-36.98992561510586" lon="174.895917413694">
        <ele>78</ele>
      </trkpt>
      <trkpt lat="-36.98952031279802" lon="174.89589261873">
        <ele>78</ele>
      </trkpt>
      <trkpt lat="-36.98913599084494" lon="174.895912645432">
        <ele>77</ele>
      </trkpt>
      <trkpt lat="-36.98892618729735" lon="174.895962235361">
        <ele>77</ele>
      </trkpt>
      <trkpt lat="-36.98812607285905" lon="174.896308411215">
        <ele>75</ele>
      </trkpt>
      <trkpt lat="-36.98784569902728" lon="174.896399961854">
        <ele>75</ele>
      </trkpt>
      <trkpt lat="-36.9877045584589" lon="174.896438107953">
        <ele>74</ele>
      </trkpt>
      <trkpt lat="-36.98733549494565" lon="174.896481975968">
        <ele>73</ele>
      </trkpt>
      <trkpt lat="-36.98705607476636" lon="174.89648674423">
        <ele>71</ele>
      </trkpt>
      <trkpt lat="-36.98688537097082" lon="174.896472439443">
        <ele>70</ele>
      </trkpt>
      <trkpt lat="-36.98665649437345" lon="174.896443829868">
        <ele>68</ele>
      </trkpt>
      <trkpt lat="-36.98632748426473" lon="174.896357047492">
        <ele>66</ele>
      </trkpt>
      <trkpt lat="-36.98594602326912" lon="174.896237840931">
        <ele>62</ele>
      </trkpt>
      <trkpt lat="-36.98594602326912" lon="174.896237840931">
        <ele>62</ele>
      </trkpt>
      <trkpt lat="-36.98594030135419" lon="174.89627217242">
        <ele>63</ele>
      </trkpt>
      <trkpt lat="-36.98594030135419" lon="174.89627217242">
        <ele>63</ele>
      </trkpt>
      <trkpt lat="-36.98594602326912" lon="174.896237840931">
        <ele>62</ele>
      </trkpt>
      <trkpt lat="-36.98594602326912" lon="174.896237840931">
        <ele>62</ele>
      </trkpt>
      <trkpt lat="-36.98561892046538" lon="174.89612244898">
        <ele>60</ele>
      </trkpt>
      <trkpt lat="-36.98539195117299" lon="174.896022315468">
        <ele>58</ele>
      </trkpt>
      <trkpt lat="-36.98430955559794" lon="174.89543677284">
        <ele>51</ele>
      </trkpt>
      <trkpt lat="-36.98371161548732" lon="174.895105855426">
        <ele>47</ele>
      </trkpt>
      <trkpt lat="-36.98350944115964" lon="174.895013351135">
        <ele>45</ele>
      </trkpt>
      <trkpt lat="-36.9834522220103" lon="174.894955178333">
        <ele>45</ele>
      </trkpt>
      <trkpt lat="-36.98341312225825" lon="174.894893190921">
        <ele>45</ele>
      </trkpt>
      <trkpt lat="-36.98334159832157" lon="174.89496566851">
        <ele>44</ele>
      </trkpt>
      <trkpt lat="-36.98334159832157" lon="174.89496566851">
        <ele>44</ele>
      </trkpt>
      <trkpt lat="-36.98333396910166" lon="174.89495803929">
        <ele>44</ele>
      </trkpt>
      <trkpt lat="-36.98333396910166" lon="174.89495803929">
        <ele>44</ele>
      </trkpt>
      <trkpt lat="-36.9832700743849" lon="174.894820713332">
        <ele>44</ele>
      </trkpt>
      <trkpt lat="-36.9832700743849" lon="174.894820713332">
        <ele>44</ele>
      </trkpt>
      <trkpt lat="-36.98330822048446" lon="174.894575624642">
        <ele>43</ele>
      </trkpt>
      <trkpt lat="-36.98332443257677" lon="174.894366774747">
        <ele>43</ele>
      </trkpt>
      <trkpt lat="-36.98332729353424" lon="174.894094983788">
        <ele>42</ele>
      </trkpt>
      <trkpt lat="-36.98331680335686" lon="174.89395384322">
        <ele>42</ele>
      </trkpt>
      <trkpt lat="-36.98327770360481" lon="174.893744993324">
        <ele>41</ele>
      </trkpt>
      <trkpt lat="-36.98313274842648" lon="174.893133702079">
        <ele>39</ele>
      </trkpt>
      <trkpt lat="-36.98311176807172" lon="174.892944878886">
        <ele>39</ele>
      </trkpt>
      <trkpt lat="-36.9831050925043" lon="174.892631127217">
        <ele>38</ele>
      </trkpt>
      <trkpt lat="-36.98311653633416" lon="174.892460423422">
        <ele>38</ele>
      </trkpt>
      <trkpt lat="-36.98314133129887" lon="174.892236315087">
        <ele>37</ele>
      </trkpt>
      <trkpt lat="-36.98317089452604" lon="174.892080869731">
        <ele>37</ele>
      </trkpt>
      <trkpt lat="-36.98317089452604" lon="174.892080869731">
        <ele>37</ele>
      </trkpt>
      <trkpt lat="-36.98329773030708" lon="174.891646004196">
        <ele>36</ele>
      </trkpt>
      <trkpt lat="-36.98329773030708" lon="174.891646004196">
        <ele>36</ele>
      </trkpt>
      <trkpt lat="-36.98367060843029" lon="174.890550257486">
        <ele>35</ele>
      </trkpt>
      <trkpt lat="-36.98367060843029" lon="174.890550257486">
        <ele>35</ele>
      </trkpt>
      <trkpt lat="-36.98405874499333" lon="174.889400152584">
        <ele>33</ele>
      </trkpt>
      <trkpt lat="-36.98405874499333" lon="174.889400152584">
        <ele>33</ele>
      </trkpt>
      <trkpt lat="-36.98437535761968" lon="174.888455082968">
        <ele>33</ele>
      </trkpt>
      <trkpt lat="-36.98437535761968" lon="174.888455082968">
        <ele>33</ele>
      </trkpt>
      <trkpt lat="-36.98429715811559" lon="174.888391188251">
        <ele>33</ele>
      </trkpt>
      <trkpt lat="-36.98429715811559" lon="174.888391188251">
        <ele>33</ele>
      </trkpt>
      <trkpt lat="-36.98422928179252" lon="174.888355408484">
        <ele>33</ele>
      </trkpt>
      <trkpt lat="-36.98422928179252" lon="174.888355408484">
        <ele>33</ele>
      </trkpt>
      <trkpt lat="-36.9841741369445" lon="174.888326339882">
        <ele>33</ele>
      </trkpt>
      <trkpt lat="-36.98401106236887" lon="174.88826435247">
        <ele>33</ele>
      </trkpt>
      <trkpt lat="-36.98401106236887" lon="174.88826435247">
        <ele>33</ele>
      </trkpt>
      <trkpt lat="-36.98392332633988" lon="174.888203318711">
        <ele>33</ele>
      </trkpt>
      <trkpt lat="-36.98385180240321" lon="174.888107953462">
        <ele>33</ele>
      </trkpt>
      <trkpt lat="-36.98380125882129" lon="174.887997329773">
        <ele>33</ele>
      </trkpt>
      <trkpt lat="-36.98378504672898" lon="174.887922944879">
        <ele>33</ele>
      </trkpt>
      <trkpt lat="-36.98376883463666" lon="174.887848559985">
        <ele>33</ele>
      </trkpt>
      <trkpt lat="-36.98376215906924" lon="174.887746519168">
        <ele>33</ele>
      </trkpt>
      <trkpt lat="-36.98375452984933" lon="174.887644478352">
        <ele>33</ele>
      </trkpt>
      <trkpt lat="-36.98375357619683" lon="174.887543391188">
        <ele>33</ele>
      </trkpt>
      <trkpt lat="-36.98375166889186" lon="174.887443257677">
        <ele>33</ele>
      </trkpt>
      <trkpt lat="-36.98375166889186" lon="174.887443257677">
        <ele>33</ele>
      </trkpt>
      <trkpt lat="-36.98372687392714" lon="174.887442304024">
        <ele>33</ele>
      </trkpt>
      <trkpt lat="-36.98370398626741" lon="174.8874327675">
        <ele>33</ele>
      </trkpt>
      <trkpt lat="-36.98368395956513" lon="174.887414648102">
        <ele>33</ele>
      </trkpt>
      <trkpt lat="-36.9836696547778" lon="174.887389853138">
        <ele>33</ele>
      </trkpt>
      <trkpt lat="-36.9836610719054" lon="174.887361243563">
        <ele>33</ele>
      </trkpt>
      <trkpt lat="-36.98366068039099" lon="174.887347932073">
        <ele>33</ele>
      </trkpt>
      <trkpt lat="-36.98366068039106" lon="174.887347932075">
        <ele>33</ele>
      </trkpt>
      <trkpt lat="-36.98358573335877" lon="174.887355521648">
        <ele>33</ele>
      </trkpt>
      <trkpt lat="-36.98351039481214" lon="174.887363150868">
        <ele>33</ele>
      </trkpt>
      <trkpt lat="-36.98340835399581" lon="174.887345985123">
        <ele>33</ele>
      </trkpt>
      <trkpt lat="-36.98330631317948" lon="174.887329773031">
        <ele>33</ele>
      </trkpt>
      <trkpt lat="-36.98319092122831" lon="174.887272553881">
        <ele>33</ele>
      </trkpt>
      <trkpt lat="-36.98308888041198" lon="174.887218195689">
        <ele>33</ele>
      </trkpt>
      <trkpt lat="-36.98305024159584" lon="174.887187799821">
        <ele>32</ele>
      </trkpt>
      <trkpt lat="-36.98305024159584" lon="174.887187799821">
        <ele>32</ele>
      </trkpt>
      <trkpt lat="-36.9830173564753" lon="174.887161930193">
        <ele>32</ele>
      </trkpt>
      <trkpt lat="-36.98294583253863" lon="174.887106618348">
        <ele>32</ele>
      </trkpt>
      <trkpt lat="-36.98284188441732" lon="174.886995041007">
        <ele>32</ele>
      </trkpt>
      <trkpt lat="-36.98283280698848" lon="174.886981147853">
        <ele>32</ele>
      </trkpt>
    </trkseg>
  </trk>
</gpx>