<?xml version="1.0" encoding="UTF-8" standalone="yes"?>
<gpx
 version="1.1"
 creator="Generated by MapOut iPhone App. See https://mapout.app"
 xmlns="http://www.topografix.com/GPX/1/1"
 xmlns:xsi="http://www.w3.org/2001/XMLSchema-instance"
 xmlns:gpxx="http://www.garmin.com/xmlschemas/GpxExtensions/v3"
 xmlns:mapout="https://mapout.app/xmlschemas/MapOutExtensions"
 xsi:schemaLocation="http://www.topografix.com/GPX/1/1 https://www.topografix.com/GPX/1/1/gpx.xsd http://www.garmin.com/xmlschemas/GpxExtensions/v3 https://www8.garmin.com/xmlschemas/GpxExtensionsv3.xsd https://mapout.app/xmlschemas/MapOutExtensions https://mapout.app/xmlschemas/MapOutExtensions.xsd">
  <metadata>
    <name>Mount Sunday</name>
    <author><name>iPhone</name></author>
    <time>2026-09-28T21:24:19Z</time>
    <bounds minlat="-43.54965668510395" minlon="170.892000999312" maxlat="-43.54579534617585" maxlon="170.908095660103"/>
  </metadata>
  <trk>
    <name>Mount Sunday</name>
    <trkseg>
      <trkpt lat="-43.54730790163892" lon="170.908095660103">
        <ele>521</ele>
      </trkpt>
      <trkpt lat="-43.54721342742705" lon="170.907969673851">
        <ele>522</ele>
      </trkpt>
      <trkpt lat="-43.54721342742705" lon="170.907969673851">
        <ele>522</ele>
      </trkpt>
      <trkpt lat="-43.54732595842075" lon="170.907799923708">
        <ele>521</ele>
      </trkpt>
      <trkpt lat="-43.54744802593935" lon="170.907584398245">
        <ele>520</ele>
      </trkpt>
      <trkpt lat="-43.54747472820904" lon="170.907504291436">
        <ele>519</ele>
      </trkpt>
      <trkpt lat="-43.54749666221628" lon="170.907405111577">
        <ele>520</ele>
      </trkpt>
      <trkpt lat="-43.54750810604615" lon="170.907319282853">
        <ele>520</ele>
      </trkpt>
      <trkpt lat="-43.54750047682624" lon="170.907108525653">
        <ele>520</ele>
      </trkpt>
      <trkpt lat="-43.54748331108144" lon="170.90696547778">
        <ele>520</ele>
      </trkpt>
      <trkpt lat="-43.54742011046696" lon="170.90663648828">
        <ele>521</ele>
      </trkpt>
      <trkpt lat="-43.54742011046696" lon="170.90663648828">
        <ele>521</ele>
      </trkpt>
      <trkpt lat="-43.54744397731539" lon="170.906760726669">
        <ele>521</ele>
      </trkpt>
      <trkpt lat="-43.54744421132939" lon="170.906759488842">
        <ele>521</ele>
      </trkpt>
      <trkpt lat="-43.5474871256914" lon="170.90653251955">
        <ele>521</ele>
      </trkpt>
      <trkpt lat="-43.54773984360099" lon="170.905838260538">
        <ele>519</ele>
      </trkpt>
      <trkpt lat="-43.54785905016212" lon="170.905598893763">
        <ele>519</ele>
      </trkpt>
      <trkpt lat="-43.54788765973679" lon="170.905166889186">
        <ele>518</ele>
      </trkpt>
      <trkpt lat="-43.54796776654587" lon="170.905021934007">
        <ele>518</ele>
      </trkpt>
      <trkpt lat="-43.54793629601373" lon="170.904786381842">
        <ele>518</ele>
      </trkpt>
      <trkpt lat="-43.54799637612054" lon="170.904397291627">
        <ele>517</ele>
      </trkpt>
      <trkpt lat="-43.54796585924089" lon="170.904268548541">
        <ele>517</ele>
      </trkpt>
      <trkpt lat="-43.54797158115582" lon="170.903638184246">
        <ele>518</ele>
      </trkpt>
      <trkpt lat="-43.54798493229067" lon="170.903498950982">
        <ele>518</ele>
      </trkpt>
      <trkpt lat="-43.54783520884989" lon="170.90324909403">
        <ele>519</ele>
      </trkpt>
      <trkpt lat="-43.54771123402632" lon="170.903086019455">
        <ele>519</ele>
      </trkpt>
      <trkpt lat="-43.54745374785428" lon="170.902844745375">
        <ele>519</ele>
      </trkpt>
      <trkpt lat="-43.54725443448407" lon="170.902541483883">
        <ele>519</ele>
      </trkpt>
      <trkpt lat="-43.5471123402632" lon="170.902227732214">
        <ele>519</ele>
      </trkpt>
      <trkpt lat="-43.54702460423422" lon="170.902098989128">
        <ele>520</ele>
      </trkpt>
      <trkpt lat="-43.54680144955178" lon="170.901889185581">
        <ele>520</ele>
      </trkpt>
      <trkpt lat="-43.54658497043677" lon="170.901570665649">
        <ele>520</ele>
      </trkpt>
      <trkpt lat="-43.54636563036429" lon="170.901171085257">
        <ele>520</ele>
      </trkpt>
      <trkpt lat="-43.5460347129506" lon="170.9">
        <ele>522</ele>
      </trkpt>
      <trkpt lat="-43.5460347129506" lon="170.9">
        <ele>522</ele>
      </trkpt>
      <trkpt lat="-43.54598989128361" lon="170.899840740034">
        <ele>522</ele>
      </trkpt>
      <trkpt lat="-43.54593648674422" lon="170.899558458898">
        <ele>523</ele>
      </trkpt>
      <trkpt lat="-43.54593648674422" lon="170.899558458898">
        <ele>523</ele>
      </trkpt>
      <trkpt lat="-43.54587449933244" lon="170.899590883082">
        <ele>523</ele>
      </trkpt>
      <trkpt lat="-43.54587449933244" lon="170.899590883082">
        <ele>523</ele>
      </trkpt>
      <trkpt lat="-43.54590512021225" lon="170.899541549443">
        <ele>523</ele>
      </trkpt>
      <trkpt lat="-43.54590512021225" lon="170.899541549443">
        <ele>523</ele>
      </trkpt>
      <trkpt lat="-43.54608048827007" lon="170.899259012016">
        <ele>523</ele>
      </trkpt>
      <trkpt lat="-43.54608430288003" lon="170.899178905207">
        <ele>523</ele>
      </trkpt>
      <trkpt lat="-43.54608811748999" lon="170.89909975205">
        <ele>523</ele>
      </trkpt>
      <trkpt lat="-43.546086210185" lon="170.899022506199">
        <ele>523</ele>
      </trkpt>
      <trkpt lat="-43.54608334922754" lon="170.898946214">
        <ele>524</ele>
      </trkpt>
      <trkpt lat="-43.54606999809269" lon="170.898856570666">
        <ele>524</ele>
      </trkpt>
      <trkpt lat="-43.54605664695784" lon="170.898766927332">
        <ele>524</ele>
      </trkpt>
      <trkpt lat="-43.54602326912073" lon="170.898672515735">
        <ele>524</ele>
      </trkpt>
      <trkpt lat="-43.54598893763112" lon="170.898579057791">
        <ele>524</ele>
      </trkpt>
      <trkpt lat="-43.54592599656685" lon="170.898462712188">
        <ele>524</ele>
      </trkpt>
      <trkpt lat="-43.54586210185008" lon="170.898347320236">
        <ele>525</ele>
      </trkpt>
      <trkpt lat="-43.54581060461567" lon="170.898227160023">
        <ele>524</ele>
      </trkpt>
      <trkpt lat="-43.54579534617585" lon="170.898138470341">
        <ele>524</ele>
      </trkpt>
      <trkpt lat="-43.5457991607858" lon="170.898047873355">
        <ele>524</ele>
      </trkpt>
      <trkpt lat="-43.5457991607858" lon="170.898047873355">
        <ele>524</ele>
      </trkpt>
      <trkpt lat="-43.54581632653061" lon="170.897980164028">
        <ele>523</ele>
      </trkpt>
      <trkpt lat="-43.54581632653061" lon="170.897980164028">
        <ele>523</ele>
      </trkpt>
      <trkpt lat="-43.54588403585733" lon="170.897718863246">
        <ele>522</ele>
      </trkpt>
      <trkpt lat="-43.54588403585733" lon="170.897718863246">
        <ele>522</ele>
      </trkpt>
      <trkpt lat="-43.54591073812703" lon="170.897613961472">
        <ele>522</ele>
      </trkpt>
      <trkpt lat="-43.54593744039671" lon="170.897510013351">
        <ele>521</ele>
      </trkpt>
      <trkpt lat="-43.54593744039671" lon="170.897510013351">
        <ele>521</ele>
      </trkpt>
      <trkpt lat="-43.54594602326912" lon="170.897477589166">
        <ele>521</ele>
      </trkpt>
      <trkpt lat="-43.5459565134465" lon="170.897462330727">
        <ele>521</ele>
      </trkpt>
      <trkpt lat="-43.54599465954606" lon="170.897480450124">
        <ele>521</ele>
      </trkpt>
      <trkpt lat="-43.54602040816327" lon="170.897476635514">
        <ele>521</ele>
      </trkpt>
      <trkpt lat="-43.54606141522029" lon="170.897437535762">
        <ele>521</ele>
      </trkpt>
      <trkpt lat="-43.54613103185199" lon="170.89716860576">
        <ele>521</ele>
      </trkpt>
      <trkpt lat="-43.54615868777417" lon="170.897099942781">
        <ele>521</ele>
      </trkpt>
      <trkpt lat="-43.54624451649818" lon="170.897008392142">
        <ele>521</ele>
      </trkpt>
      <trkpt lat="-43.54632939156971" lon="170.896916841503">
        <ele>521</ele>
      </trkpt>
      <trkpt lat="-43.5464085447263" lon="170.896798588594">
        <ele>521</ele>
      </trkpt>
      <trkpt lat="-43.5464867442304" lon="170.896680335686">
        <ele>521</ele>
      </trkpt>
      <trkpt lat="-43.54659736791913" lon="170.896558268167">
        <ele>521</ele>
      </trkpt>
      <trkpt lat="-43.54670799160785" lon="170.896436200648">
        <ele>521</ele>
      </trkpt>
      <trkpt lat="-43.54670799160785" lon="170.896436200648">
        <ele>521</ele>
      </trkpt>
      <trkpt lat="-43.54679668128934" lon="170.896316994087">
        <ele>521</ele>
      </trkpt>
      <trkpt lat="-43.54692828533283" lon="170.896164409689">
        <ele>521</ele>
      </trkpt>
      <trkpt lat="-43.54703986267404" lon="170.896130078199">
        <ele>522</ele>
      </trkpt>
      <trkpt lat="-43.54721819568949" lon="170.896041388518">
        <ele>522</ele>
      </trkpt>
      <trkpt lat="-43.54721819568949" lon="170.896041388518">
        <ele>522</ele>
      </trkpt>
      <trkpt lat="-43.54741560175471" lon="170.895727636849">
        <ele>523</ele>
      </trkpt>
      <trkpt lat="-43.54746709898912" lon="170.895680907877">
        <ele>523</ele>
      </trkpt>
      <trkpt lat="-43.54750619874117" lon="170.895665649437">
        <ele>523</ele>
      </trkpt>
      <trkpt lat="-43.54757676902536" lon="170.895664695785">
        <ele>524</ele>
      </trkpt>
      <trkpt lat="-43.54764638565706" lon="170.895664695785">
        <ele>525</ele>
      </trkpt>
      <trkpt lat="-43.54771886324623" lon="170.89565134465">
        <ele>525</ele>
      </trkpt>
      <trkpt lat="-43.54782471867252" lon="170.895606522983">
        <ele>527</ele>
      </trkpt>
      <trkpt lat="-43.54791340835399" lon="170.895576959756">
        <ele>528</ele>
      </trkpt>
      <trkpt lat="-43.54800114438299" lon="170.895547396529">
        <ele>529</ele>
      </trkpt>
      <trkpt lat="-43.54807552927713" lon="170.895484455464">
        <ele>530</ele>
      </trkpt>
      <trkpt lat="-43.54814991417128" lon="170.8954215144">
        <ele>531</ele>
      </trkpt>
      <trkpt lat="-43.54822906732786" lon="170.895409116918">
        <ele>532</ele>
      </trkpt>
      <trkpt lat="-43.54829582300209" lon="170.89542914362">
        <ele>533</ele>
      </trkpt>
      <trkpt lat="-43.54836543963379" lon="170.895477779897">
        <ele>533</ele>
      </trkpt>
      <trkpt lat="-43.54841312225825" lon="170.895488270074">
        <ele>534</ele>
      </trkpt>
      <trkpt lat="-43.54846271218768" lon="170.895454892237">
        <ele>534</ele>
      </trkpt>
      <trkpt lat="-43.54854186534426" lon="170.895371924471">
        <ele>536</ele>
      </trkpt>
      <trkpt lat="-43.54862006484836" lon="170.895288956704">
        <ele>537</ele>
      </trkpt>
      <trkpt lat="-43.5486868205226" lon="170.895278466527">
        <ele>538</ele>
      </trkpt>
      <trkpt lat="-43.54876406637421" lon="170.895238413122">
        <ele>539</ele>
      </trkpt>
      <trkpt lat="-43.54881556360862" lon="170.895170703796">
        <ele>540</ele>
      </trkpt>
      <trkpt lat="-43.54891855807743" lon="170.895080106809">
        <ele>542</ele>
      </trkpt>
      <trkpt lat="-43.54926282662598" lon="170.894947549113">
        <ele>547</ele>
      </trkpt>
      <trkpt lat="-43.54935151630745" lon="170.894920846843">
        <ele>548</ele>
      </trkpt>
      <trkpt lat="-43.54943925233645" lon="170.894894144574">
        <ele>548</ele>
      </trkpt>
      <trkpt lat="-43.54950314705321" lon="170.894865534999">
        <ele>548</ele>
      </trkpt>
      <trkpt lat="-43.54956704176998" lon="170.894837879077">
        <ele>548</ele>
      </trkpt>
      <trkpt lat="-43.54960328056456" lon="170.894799732977">
        <ele>549</ele>
      </trkpt>
      <trkpt lat="-43.54964619492657" lon="170.894729162693">
        <ele>549</ele>
      </trkpt>
      <trkpt lat="-43.54965668510395" lon="170.894668128934">
        <ele>550</ele>
      </trkpt>
      <trkpt lat="-43.54965668510395" lon="170.894668128934">
        <ele>550</ele>
      </trkpt>
      <trkpt lat="-43.54965477779897" lon="170.89458611482">
        <ele>551</ele>
      </trkpt>
      <trkpt lat="-43.54964142666412" lon="170.894511729926">
        <ele>552</ele>
      </trkpt>
      <trkpt lat="-43.54960518786954" lon="170.894441159641">
        <ele>553</ele>
      </trkpt>
      <trkpt lat="-43.54955941255007" lon="170.894369635705">
        <ele>555</ele>
      </trkpt>
      <trkpt lat="-43.54951363723059" lon="170.894298111768">
        <ele>556</ele>
      </trkpt>
      <trkpt lat="-43.54945641808125" lon="170.894224680526">
        <ele>558</ele>
      </trkpt>
      <trkpt lat="-43.54945641808125" lon="170.894224680526">
        <ele>558</ele>
      </trkpt>
      <trkpt lat="-43.54939919893191" lon="170.894152202937">
        <ele>560</ele>
      </trkpt>
      <trkpt lat="-43.54929811176807" lon="170.894055884036">
        <ele>563</ele>
      </trkpt>
      <trkpt lat="-43.54919607095174" lon="170.893959565134">
        <ele>565</ele>
      </trkpt>
      <trkpt lat="-43.54911024222773" lon="170.893857524318">
        <ele>567</ele>
      </trkpt>
      <trkpt lat="-43.54902345985123" lon="170.893756437154">
        <ele>568</ele>
      </trkpt>
      <trkpt lat="-43.54891474346748" lon="170.893639137898">
        <ele>571</ele>
      </trkpt>
      <trkpt lat="-43.54884035857334" lon="170.893527560557">
        <ele>573</ele>
      </trkpt>
      <trkpt lat="-43.54880888804119" lon="170.893469387755">
        <ele>575</ele>
      </trkpt>
      <trkpt lat="-43.54878600038145" lon="170.893468434103">
        <ele>575</ele>
      </trkpt>
      <trkpt lat="-43.54876597367919" lon="170.893484646195">
        <ele>575</ele>
      </trkpt>
      <trkpt lat="-43.54873450314705" lon="170.893524699599">
        <ele>575</ele>
      </trkpt>
      <trkpt lat="-43.54869921800496" lon="170.893532328819">
        <ele>575</ele>
      </trkpt>
      <trkpt lat="-43.5486782376502" lon="170.893527560557">
        <ele>576</ele>
      </trkpt>
      <trkpt lat="-43.54841407591073" lon="170.893164218959">
        <ele>587</ele>
      </trkpt>
      <trkpt lat="-43.54816612626359" lon="170.892884798779">
        <ele>588</ele>
      </trkpt>
      <trkpt lat="-43.54807362197215" lon="170.892771314133">
        <ele>589</ele>
      </trkpt>
      <trkpt lat="-43.54798111768071" lon="170.892657829487">
        <ele>590</ele>
      </trkpt>
      <trkpt lat="-43.54798111768071" lon="170.892657829487">
        <ele>590</ele>
      </trkpt>
      <trkpt lat="-43.54781327484265" lon="170.892474728209">
        <ele>593</ele>
      </trkpt>
      <trkpt lat="-43.54772267785619" lon="170.892340263208">
        <ele>591</ele>
      </trkpt>
      <trkpt lat="-43.5475472057982" lon="170.892046538241">
        <ele>590</ele>
      </trkpt>
      <trkpt lat="-43.54749420147098" lon="170.892000999312">
        <ele>590</ele>
      </trkpt>
    </trkseg>
  </trk>
</gpx>