<?xml version="1.0" encoding="UTF-8" standalone="yes"?>
<gpx
 version="1.1"
 creator="Generated by MapOut iPhone App. See https://mapout.app"
 xmlns="http://www.topografix.com/GPX/1/1"
 xmlns:xsi="http://www.w3.org/2001/XMLSchema-instance"
 xmlns:gpxx="http://www.garmin.com/xmlschemas/GpxExtensions/v3"
 xmlns:mapout="https://mapout.app/xmlschemas/MapOutExtensions"
 xsi:schemaLocation="http://www.topografix.com/GPX/1/1 https://www.topografix.com/GPX/1/1/gpx.xsd http://www.garmin.com/xmlschemas/GpxExtensions/v3 https://www8.garmin.com/xmlschemas/GpxExtensionsv3.xsd https://mapout.app/xmlschemas/MapOutExtensions https://mapout.app/xmlschemas/MapOutExtensions.xsd">
  <metadata>
    <name>Wharariki Beach Track</name>
    <author><name>iPhone</name></author>
    <time>2026-09-19T04:51:27Z</time>
    <bounds minlat="-40.50915887850467" minlon="172.678139423994" maxlat="-40.50306885370971" maxlon="172.6847510967"/>
  </metadata>
  <trk>
    <name>Wharariki Beach Track</name>
    <trkseg>
      <trkpt lat="-40.50306885370971" lon="172.678139423994">
        <ele>12</ele>
      </trkpt>
      <trkpt lat="-40.50319282853328" lon="172.678783139424">
        <ele>13</ele>
      </trkpt>
      <trkpt lat="-40.5032519549876" lon="172.679272363151">
        <ele>13</ele>
      </trkpt>
      <trkpt lat="-40.50330440587449" lon="172.679624260919">
        <ele>14</ele>
      </trkpt>
      <trkpt lat="-40.50339595651344" lon="172.679847415602">
        <ele>14</ele>
      </trkpt>
      <trkpt lat="-40.50341598321572" lon="172.679877932481">
        <ele>14</ele>
      </trkpt>
      <trkpt lat="-40.50357905779134" lon="172.679955178333">
        <ele>15</ele>
      </trkpt>
      <trkpt lat="-40.50365916460042" lon="172.679929429716">
        <ele>16</ele>
      </trkpt>
      <trkpt lat="-40.50368491321762" lon="172.68">
        <ele>16</ele>
      </trkpt>
      <trkpt lat="-40.50368491321762" lon="172.68">
        <ele>16</ele>
      </trkpt>
      <trkpt lat="-40.50371829105474" lon="172.680088689681">
        <ele>16</ele>
      </trkpt>
      <trkpt lat="-40.50379172229639" lon="172.680141140568">
        <ele>16</ele>
      </trkpt>
      <trkpt lat="-40.50388613389281" lon="172.680153538051">
        <ele>16</ele>
      </trkpt>
      <trkpt lat="-40.50398054548922" lon="172.680165935533">
        <ele>16</ele>
      </trkpt>
      <trkpt lat="-40.50405588403586" lon="172.68019168415">
        <ele>17</ele>
      </trkpt>
      <trkpt lat="-40.50411119588022" lon="172.6802489033">
        <ele>17</ele>
      </trkpt>
      <trkpt lat="-40.50417222963952" lon="172.680250810605">
        <ele>17</ele>
      </trkpt>
      <trkpt lat="-40.50425042914362" lon="172.680293724967">
        <ele>18</ele>
      </trkpt>
      <trkpt lat="-40.50424947549113" lon="172.680367156208">
        <ele>17</ele>
      </trkpt>
      <trkpt lat="-40.5042780850658" lon="172.680442494755">
        <ele>17</ele>
      </trkpt>
      <trkpt lat="-40.50435533091741" lon="172.680525462521">
        <ele>18</ele>
      </trkpt>
      <trkpt lat="-40.50444783520885" lon="172.680551211139">
        <ele>20</ele>
      </trkpt>
      <trkpt lat="-40.50452222010299" lon="172.680605569331">
        <ele>20</ele>
      </trkpt>
      <trkpt lat="-40.50454701506771" lon="172.680722868587">
        <ele>20</ele>
      </trkpt>
      <trkpt lat="-40.50457562464238" lon="172.680754339119">
        <ele>20</ele>
      </trkpt>
      <trkpt lat="-40.50461663169941" lon="172.680763875644">
        <ele>21</ele>
      </trkpt>
      <trkpt lat="-40.50472725538813" lon="172.680731451459">
        <ele>23</ele>
      </trkpt>
      <trkpt lat="-40.50480926950219" lon="172.680740034331">
        <ele>24</ele>
      </trkpt>
      <trkpt lat="-40.50489032996376" lon="172.680748617204">
        <ele>26</ele>
      </trkpt>
      <trkpt lat="-40.50499427808506" lon="172.680825863056">
        <ele>27</ele>
      </trkpt>
      <trkpt lat="-40.50505054358192" lon="172.680894526035">
        <ele>27</ele>
      </trkpt>
      <trkpt lat="-40.50510585542628" lon="172.680963189014">
        <ele>28</ele>
      </trkpt>
      <trkpt lat="-40.50514495517833" lon="172.681032805646">
        <ele>28</ele>
      </trkpt>
      <trkpt lat="-40.50518405493038" lon="172.681102422277">
        <ele>28</ele>
      </trkpt>
      <trkpt lat="-40.50521552546252" lon="172.681119588022">
        <ele>28</ele>
      </trkpt>
      <trkpt lat="-40.50528323478924" lon="172.681203509441">
        <ele>29</ele>
      </trkpt>
      <trkpt lat="-40.50535094411596" lon="172.681288384513">
        <ele>29</ele>
      </trkpt>
      <trkpt lat="-40.50565325195499" lon="172.68155540721">
        <ele>32</ele>
      </trkpt>
      <trkpt lat="-40.50569235170703" lon="172.681624070189">
        <ele>32</ele>
      </trkpt>
      <trkpt lat="-40.50573145145908" lon="172.681692733168">
        <ele>32</ele>
      </trkpt>
      <trkpt lat="-40.50581060461568" lon="172.68173564753">
        <ele>32</ele>
      </trkpt>
      <trkpt lat="-40.50587545298493" lon="172.681730879268">
        <ele>32</ele>
      </trkpt>
      <trkpt lat="-40.50594030135419" lon="172.681727064658">
        <ele>32</ele>
      </trkpt>
      <trkpt lat="-40.50604234217051" lon="172.681649818806">
        <ele>32</ele>
      </trkpt>
      <trkpt lat="-40.50614342933435" lon="172.681572572954">
        <ele>32</ele>
      </trkpt>
      <trkpt lat="-40.50618062178142" lon="172.681501049018">
        <ele>32</ele>
      </trkpt>
      <trkpt lat="-40.50645813465573" lon="172.681320808697">
        <ele>32</ele>
      </trkpt>
      <trkpt lat="-40.50657829486935" lon="172.681323669655">
        <ele>31</ele>
      </trkpt>
      <trkpt lat="-40.50664123593362" lon="172.681309364867">
        <ele>31</ele>
      </trkpt>
      <trkpt lat="-40.5067041769979" lon="172.68129506008">
        <ele>31</ele>
      </trkpt>
      <trkpt lat="-40.50678523745947" lon="172.681320808697">
        <ele>30</ele>
      </trkpt>
      <trkpt lat="-40.50688918558077" lon="172.68130650391">
        <ele>29</ele>
      </trkpt>
      <trkpt lat="-40.50699313370207" lon="172.681293152775">
        <ele>29</ele>
      </trkpt>
      <trkpt lat="-40.50703890902155" lon="172.681294106428">
        <ele>28</ele>
      </trkpt>
      <trkpt lat="-40.50710852565325" lon="172.681364676712">
        <ele>27</ele>
      </trkpt>
      <trkpt lat="-40.50713522792294" lon="172.681459088308">
        <ele>27</ele>
      </trkpt>
      <trkpt lat="-40.50718100324242" lon="172.681512492848">
        <ele>26</ele>
      </trkpt>
      <trkpt lat="-40.5072696929239" lon="172.681568758344">
        <ele>26</ele>
      </trkpt>
      <trkpt lat="-40.50732405111577" lon="172.681667938203">
        <ele>25</ele>
      </trkpt>
      <trkpt lat="-40.5073650581728" lon="172.68175853519">
        <ele>25</ele>
      </trkpt>
      <trkpt lat="-40.50740511157734" lon="172.681850085829">
        <ele>25</ele>
      </trkpt>
      <trkpt lat="-40.50745470150677" lon="172.682096128171">
        <ele>26</ele>
      </trkpt>
      <trkpt lat="-40.50746423803166" lon="172.682188632462">
        <ele>27</ele>
      </trkpt>
      <trkpt lat="-40.50749856952127" lon="172.682269692924">
        <ele>28</ele>
      </trkpt>
      <trkpt lat="-40.50750047682624" lon="172.682351707038">
        <ele>28</ele>
      </trkpt>
      <trkpt lat="-40.50750238413122" lon="172.682433721152">
        <ele>28</ele>
      </trkpt>
      <trkpt lat="-40.507564371543" lon="172.682687392714">
        <ele>27</ele>
      </trkpt>
      <trkpt lat="-40.50757104711043" lon="172.682777989701">
        <ele>27</ele>
      </trkpt>
      <trkpt lat="-40.50757676902536" lon="172.682868586687">
        <ele>26</ele>
      </trkpt>
      <trkpt lat="-40.50759774938012" lon="172.682945832539">
        <ele>25</ele>
      </trkpt>
      <trkpt lat="-40.50761777608239" lon="172.683024032043">
        <ele>25</ele>
      </trkpt>
      <trkpt lat="-40.50760442494754" lon="172.683134655731">
        <ele>24</ele>
      </trkpt>
      <trkpt lat="-40.50764447835208" lon="172.683227160023">
        <ele>23</ele>
      </trkpt>
      <trkpt lat="-40.50768357810414" lon="172.683319664314">
        <ele>23</ele>
      </trkpt>
      <trkpt lat="-40.50788003051688" lon="172.683609574671">
        <ele>24</ele>
      </trkpt>
      <trkpt lat="-40.50815945069616" lon="172.683889948503">
        <ele>24</ele>
      </trkpt>
      <trkpt lat="-40.50825767690254" lon="172.683947167652">
        <ele>24</ele>
      </trkpt>
      <trkpt lat="-40.50853137516689" lon="172.683941445737">
        <ele>23</ele>
      </trkpt>
      <trkpt lat="-40.5086429525081" lon="172.683898531375">
        <ele>22</ele>
      </trkpt>
      <trkpt lat="-40.50873354949456" lon="172.683786954034">
        <ele>22</ele>
      </trkpt>
      <trkpt lat="-40.50878123211901" lon="172.683668701125">
        <ele>22</ele>
      </trkpt>
      <trkpt lat="-40.50886419988556" lon="172.683615296586">
        <ele>21</ele>
      </trkpt>
      <trkpt lat="-40.50897291626931" lon="172.683575243181">
        <ele>20</ele>
      </trkpt>
      <trkpt lat="-40.50903395002861" lon="172.683589547969">
        <ele>19</ele>
      </trkpt>
      <trkpt lat="-40.5090606522983" lon="172.683686820523">
        <ele>19</ele>
      </trkpt>
      <trkpt lat="-40.50908640091551" lon="172.683785046729">
        <ele>18</ele>
      </trkpt>
      <trkpt lat="-40.50910642761777" lon="172.683886133893">
        <ele>17</ele>
      </trkpt>
      <trkpt lat="-40.50912645432005" lon="172.683988174709">
        <ele>17</ele>
      </trkpt>
      <trkpt lat="-40.50913599084493" lon="172.684084493611">
        <ele>16</ele>
      </trkpt>
      <trkpt lat="-40.50914457371734" lon="172.684181766164">
        <ele>16</ele>
      </trkpt>
      <trkpt lat="-40.50911214953271" lon="172.684259012016">
        <ele>16</ele>
      </trkpt>
      <trkpt lat="-40.50907972534808" lon="172.684336257868">
        <ele>16</ele>
      </trkpt>
      <trkpt lat="-40.50908449361053" lon="172.684409689109">
        <ele>15</ele>
      </trkpt>
      <trkpt lat="-40.50908926187297" lon="172.684483120351">
        <ele>15</ele>
      </trkpt>
      <trkpt lat="-40.50912454701506" lon="172.684561319855">
        <ele>14</ele>
      </trkpt>
      <trkpt lat="-40.50915887850467" lon="172.684640473012">
        <ele>14</ele>
      </trkpt>
      <trkpt lat="-40.50915029563227" lon="172.6847510967">
        <ele>14</ele>
      </trkpt>
    </trkseg>
  </trk>
</gpx>