<?xml version="1.0" encoding="UTF-8" standalone="yes"?>
<gpx
 version="1.1"
 creator="Generated by MapOut iPhone App. See https://mapout.app"
 xmlns="http://www.topografix.com/GPX/1/1"
 xmlns:xsi="http://www.w3.org/2001/XMLSchema-instance"
 xmlns:gpxx="http://www.garmin.com/xmlschemas/GpxExtensions/v3"
 xmlns:mapout="https://mapout.app/xmlschemas/MapOutExtensions"
 xsi:schemaLocation="http://www.topografix.com/GPX/1/1 https://www.topografix.com/GPX/1/1/gpx.xsd http://www.garmin.com/xmlschemas/GpxExtensions/v3 https://www8.garmin.com/xmlschemas/GpxExtensionsv3.xsd https://mapout.app/xmlschemas/MapOutExtensions https://mapout.app/xmlschemas/MapOutExtensions.xsd">
  <metadata>
    <name>Rivendell</name>
    <author><name>iPhone</name></author>
    <time>2026-06-23T00:13:07Z</time>
    <bounds minlat="-41.05933721152012" minlon="175.186059507915" maxlat="-41.05643696713034" maxlon="175.194396337974"/>
  </metadata>
  <trk>
    <name>Rivendell</name>
    <trkseg>
      <trkpt lat="-41.05643696713034" lon="175.193587056129">
        <ele>202</ele>
      </trkpt>
      <trkpt lat="-41.05649437345031" lon="175.193538050734">
        <ele>202</ele>
      </trkpt>
      <trkpt lat="-41.05656112912455" lon="175.193462712188">
        <ele>201</ele>
      </trkpt>
      <trkpt lat="-41.05656875834445" lon="175.193387373641">
        <ele>200</ele>
      </trkpt>
      <trkpt lat="-41.05652870493991" lon="175.193333969102">
        <ele>200</ele>
      </trkpt>
      <trkpt lat="-41.0565124928476" lon="175.193258630555">
        <ele>201</ele>
      </trkpt>
      <trkpt lat="-41.05651630745756" lon="175.193193782186">
        <ele>202</ele>
      </trkpt>
      <trkpt lat="-41.05652012206752" lon="175.193129887469">
        <ele>203</ele>
      </trkpt>
      <trkpt lat="-41.05652012206752" lon="175.192883845127">
        <ele>205</ele>
      </trkpt>
      <trkpt lat="-41.05652012206752" lon="175.192883845127">
        <ele>205</ele>
      </trkpt>
      <trkpt lat="-41.05657257295442" lon="175.192322143811">
        <ele>210</ele>
      </trkpt>
      <trkpt lat="-41.05657257295442" lon="175.192322143811">
        <ele>210</ele>
      </trkpt>
      <trkpt lat="-41.05659164600419" lon="175.192253480832">
        <ele>210</ele>
      </trkpt>
      <trkpt lat="-41.05660976540148" lon="175.192185771505">
        <ele>210</ele>
      </trkpt>
      <trkpt lat="-41.0566173946214" lon="175.192068472249">
        <ele>211</ele>
      </trkpt>
      <trkpt lat="-41.05668224299065" lon="175.191971199695">
        <ele>211</ele>
      </trkpt>
      <trkpt lat="-41.05668987221056" lon="175.191864390616">
        <ele>211</ele>
      </trkpt>
      <trkpt lat="-41.05670608430287" lon="175.191799542247">
        <ele>211</ele>
      </trkpt>
      <trkpt lat="-41.05670608430287" lon="175.191703223345">
        <ele>212</ele>
      </trkpt>
      <trkpt lat="-41.05666603089833" lon="175.191639328629">
        <ele>213</ele>
      </trkpt>
      <trkpt lat="-41.05662502384131" lon="175.191531565897">
        <ele>214</ele>
      </trkpt>
      <trkpt lat="-41.0566173946214" lon="175.191467671181">
        <ele>214</ele>
      </trkpt>
      <trkpt lat="-41.05664123593363" lon="175.191359908449">
        <ele>214</ele>
      </trkpt>
      <trkpt lat="-41.05667366011825" lon="175.191274079725">
        <ele>213</ele>
      </trkpt>
      <trkpt lat="-41.05665744802594" lon="175.191209231356">
        <ele>213</ele>
      </trkpt>
      <trkpt lat="-41.0566173946214" lon="175.191124356285">
        <ele>214</ele>
      </trkpt>
      <trkpt lat="-41.05663360671371" lon="175.191059507915">
        <ele>214</ele>
      </trkpt>
      <trkpt lat="-41.05664123593363" lon="175.190995613199">
        <ele>214</ele>
      </trkpt>
      <trkpt lat="-41.05670608430287" lon="175.191006103376">
        <ele>213</ele>
      </trkpt>
      <trkpt lat="-41.05681956894907" lon="175.1910919321">
        <ele>211</ele>
      </trkpt>
      <trkpt lat="-41.05691684150295" lon="175.191102422277">
        <ele>209</ele>
      </trkpt>
      <trkpt lat="-41.05699027274461" lon="175.191037573908">
        <ele>208</ele>
      </trkpt>
      <trkpt lat="-41.05706275033378" lon="175.190973679191">
        <ele>207</ele>
      </trkpt>
      <trkpt lat="-41.05714285714286" lon="175.190930764829">
        <ele>205</ele>
      </trkpt>
      <trkpt lat="-41.05720770551211" lon="175.19087736029">
        <ele>204</ele>
      </trkpt>
      <trkpt lat="-41.05720770551211" lon="175.190791531566">
        <ele>205</ele>
      </trkpt>
      <trkpt lat="-41.05714285714286" lon="175.190769597559">
        <ele>206</ele>
      </trkpt>
      <trkpt lat="-41.05707896242609" lon="175.190791531566">
        <ele>207</ele>
      </trkpt>
      <trkpt lat="-41.05703795536906" lon="175.190759107381">
        <ele>208</ele>
      </trkpt>
      <trkpt lat="-41.05701411405683" lon="175.19066278848">
        <ele>209</ele>
      </trkpt>
      <trkpt lat="-41.0569654777799" lon="175.190640854473">
        <ele>210</ele>
      </trkpt>
      <trkpt lat="-41.05690825863055" lon="175.19066278848">
        <ele>211</ele>
      </trkpt>
      <trkpt lat="-41.05687583444593" lon="175.190555025749">
        <ele>212</ele>
      </trkpt>
      <trkpt lat="-41.05694545107762" lon="175.190528323479">
        <ele>211</ele>
      </trkpt>
      <trkpt lat="-41.05701411405683" lon="175.190501621209">
        <ele>210</ele>
      </trkpt>
      <trkpt lat="-41.05711901583063" lon="175.190415792485">
        <ele>209</ele>
      </trkpt>
      <trkpt lat="-41.0572000762922" lon="175.190362387946">
        <ele>208</ele>
      </trkpt>
      <trkpt lat="-41.0572000762922" lon="175.190266069044">
        <ele>208</ele>
      </trkpt>
      <trkpt lat="-41.05718386419989" lon="175.190190730498">
        <ele>209</ele>
      </trkpt>
      <trkpt lat="-41.05720770551211" lon="175.190104901774">
        <ele>209</ele>
      </trkpt>
      <trkpt lat="-41.05728113675377" lon="175.19001907305">
        <ele>209</ele>
      </trkpt>
      <trkpt lat="-41.05725634178905" lon="175.18996566851">
        <ele>210</ele>
      </trkpt>
      <trkpt lat="-41.05721628838451" lon="175.189943734503">
        <ele>211</ele>
      </trkpt>
      <trkpt lat="-41.05717528132748" lon="175.189879839786">
        <ele>212</ele>
      </trkpt>
      <trkpt lat="-41.0570951745184" lon="175.189772077055">
        <ele>215</ele>
      </trkpt>
      <trkpt lat="-41.05712759870303" lon="175.189707228686">
        <ele>216</ele>
      </trkpt>
      <trkpt lat="-41.05715906923517" lon="175.189643333969">
        <ele>216</ele>
      </trkpt>
      <trkpt lat="-41.05724012969674" lon="175.189535571238">
        <ele>216</ele>
      </trkpt>
      <trkpt lat="-41.05727255388136" lon="175.189439252336">
        <ele>216</ele>
      </trkpt>
      <trkpt lat="-41.05730497806599" lon="175.189342933435">
        <ele>217</ele>
      </trkpt>
      <trkpt lat="-41.05728876597367" lon="175.189267594888">
        <ele>218</ele>
      </trkpt>
      <trkpt lat="-41.05727255388136" lon="175.189192256342">
        <ele>220</ele>
      </trkpt>
      <trkpt lat="-41.05729734884608" lon="175.189128361625">
        <ele>219</ele>
      </trkpt>
      <trkpt lat="-41.05732119015831" lon="175.189064466908">
        <ele>219</ele>
      </trkpt>
      <trkpt lat="-41.05736982643524" lon="175.188999618539">
        <ele>218</ele>
      </trkpt>
      <trkpt lat="-41.05741846271219" lon="175.18893477017">
        <ele>217</ele>
      </trkpt>
      <trkpt lat="-41.05741846271219" lon="175.188848941446">
        <ele>217</ele>
      </trkpt>
      <trkpt lat="-41.05741846271219" lon="175.188764066374">
        <ele>218</ele>
      </trkpt>
      <trkpt lat="-41.05741083349227" lon="175.188645813466">
        <ele>219</ele>
      </trkpt>
      <trkpt lat="-41.05740225061987" lon="175.188527560557">
        <ele>220</ele>
      </trkpt>
      <trkpt lat="-41.05738603852756" lon="175.188430288003">
        <ele>221</ele>
      </trkpt>
      <trkpt lat="-41.05736982643524" lon="175.188333969102">
        <ele>222</ele>
      </trkpt>
      <trkpt lat="-41.05740225061987" lon="175.188258630555">
        <ele>220</ele>
      </trkpt>
      <trkpt lat="-41.0574346748045" lon="175.188184245661">
        <ele>218</ele>
      </trkpt>
      <trkpt lat="-41.0575481594507" lon="175.188141331299">
        <ele>213</ele>
      </trkpt>
      <trkpt lat="-41.05759584207514" lon="175.188033568568">
        <ele>211</ele>
      </trkpt>
      <trkpt lat="-41.05748331108144" lon="175.187947739844">
        <ele>213</ele>
      </trkpt>
      <trkpt lat="-41.05738603852756" lon="175.187883845127">
        <ele>217</ele>
      </trkpt>
      <trkpt lat="-41.05740225061987" lon="175.18780850658">
        <ele>216</ele>
      </trkpt>
      <trkpt lat="-41.05741846271219" lon="175.187733168034">
        <ele>214</ele>
      </trkpt>
      <trkpt lat="-41.05749952317375" lon="175.187711234026">
        <ele>210</ele>
      </trkpt>
      <trkpt lat="-41.05757962998283" lon="175.187690253672">
        <ele>209</ele>
      </trkpt>
      <trkpt lat="-41.05762063703986" lon="175.187625405302">
        <ele>207</ele>
      </trkpt>
      <trkpt lat="-41.0576606904444" lon="175.187561510586">
        <ele>206</ele>
      </trkpt>
      <trkpt lat="-41.0576692733168" lon="175.187496662216">
        <ele>206</ele>
      </trkpt>
      <trkpt lat="-41.05767690253671" lon="175.1874327675">
        <ele>204</ele>
      </trkpt>
      <trkpt lat="-41.05756437154301" lon="175.187389853138">
        <ele>205</ele>
      </trkpt>
      <trkpt lat="-41.05752431813847" lon="175.187325004768">
        <ele>204</ele>
      </trkpt>
      <trkpt lat="-41.05748331108144" lon="175.187261110052">
        <ele>204</ele>
      </trkpt>
      <trkpt lat="-41.05745088689681" lon="175.18716479115">
        <ele>203</ele>
      </trkpt>
      <trkpt lat="-41.05741846271219" lon="175.187068472249">
        <ele>202</ele>
      </trkpt>
      <trkpt lat="-41.05733740225062" lon="175.186960709517">
        <ele>202</ele>
      </trkpt>
      <trkpt lat="-41.05722391760442" lon="175.186939729163">
        <ele>206</ele>
      </trkpt>
      <trkpt lat="-41.05711043295823" lon="175.186960709517">
        <ele>210</ele>
      </trkpt>
      <trkpt lat="-41.05704653824147" lon="175.18695021934">
        <ele>212</ele>
      </trkpt>
      <trkpt lat="-41.05698168987221" lon="175.186939729163">
        <ele>213</ele>
      </trkpt>
      <trkpt lat="-41.05692447072287" lon="175.186870112531">
        <ele>213</ele>
      </trkpt>
      <trkpt lat="-41.05686629792103" lon="175.186800495899">
        <ele>212</ele>
      </trkpt>
      <trkpt lat="-41.05692637802785" lon="175.186706084303">
        <ele>207</ele>
      </trkpt>
      <trkpt lat="-41.05692637802785" lon="175.186706084303">
        <ele>207</ele>
      </trkpt>
      <trkpt lat="-41.05732119015831" lon="175.186316994087">
        <ele>203</ele>
      </trkpt>
      <trkpt lat="-41.05732119015831" lon="175.186316994087">
        <ele>203</ele>
      </trkpt>
      <trkpt lat="-41.05748331108144" lon="175.186296013733">
        <ele>201</ele>
      </trkpt>
      <trkpt lat="-41.05795250810604" lon="175.186081441923">
        <ele>200</ele>
      </trkpt>
      <trkpt lat="-41.05809746328438" lon="175.186059507915">
        <ele>199</ele>
      </trkpt>
      <trkpt lat="-41.0582433721152" lon="175.186102422277">
        <ele>196</ele>
      </trkpt>
      <trkpt lat="-41.05843791722296" lon="175.186124356285">
        <ele>197</ele>
      </trkpt>
      <trkpt lat="-41.05859908449361" lon="175.186167270647">
        <ele>200</ele>
      </trkpt>
      <trkpt lat="-41.05874499332443" lon="175.186102422277">
        <ele>204</ele>
      </trkpt>
      <trkpt lat="-41.05889090215526" lon="175.186102422277">
        <ele>207</ele>
      </trkpt>
      <trkpt lat="-41.05903585733358" lon="175.186124356285">
        <ele>210</ele>
      </trkpt>
      <trkpt lat="-41.0591655540721" lon="175.186210185009">
        <ele>211</ele>
      </trkpt>
      <trkpt lat="-41.05926282662598" lon="175.186338928095">
        <ele>213</ele>
      </trkpt>
      <trkpt lat="-41.05927903871829" lon="175.186531565897">
        <ele>210</ele>
      </trkpt>
      <trkpt lat="-41.05932767499523" lon="175.186725157353">
        <ele>209</ele>
      </trkpt>
      <trkpt lat="-41.05933721152012" lon="175.186930192638">
        <ele>209</ele>
      </trkpt>
      <trkpt lat="-41.05929620446309" lon="175.187099942781">
        <ele>208</ele>
      </trkpt>
      <trkpt lat="-41.05926282662598" lon="175.187368872783">
        <ele>208</ele>
      </trkpt>
      <trkpt lat="-41.05921419034903" lon="175.187626358955">
        <ele>207</ele>
      </trkpt>
      <trkpt lat="-41.05908163265306" lon="175.188056456227">
        <ele>205</ele>
      </trkpt>
      <trkpt lat="-41.05903585733358" lon="175.188484646195">
        <ele>205</ele>
      </trkpt>
      <trkpt lat="-41.05905588403586" lon="175.188769788289">
        <ele>205</ele>
      </trkpt>
      <trkpt lat="-41.05903013541865" lon="175.188984360099">
        <ele>206</ele>
      </trkpt>
      <trkpt lat="-41.05903013541865" lon="175.188984360099">
        <ele>206</ele>
      </trkpt>
      <trkpt lat="-41.05903699436215" lon="175.188992407926">
        <ele>206</ele>
      </trkpt>
      <trkpt lat="-41.05903699436215" lon="175.188992407926">
        <ele>206</ele>
      </trkpt>
      <trkpt lat="-41.05901087738916" lon="175.189099470594">
        <ele>206</ele>
      </trkpt>
      <trkpt lat="-41.0589907191988" lon="175.189260297539">
        <ele>206</ele>
      </trkpt>
      <trkpt lat="-41.05899615590272" lon="175.18931398499">
        <ele>206</ele>
      </trkpt>
      <trkpt lat="-41.05899615590272" lon="175.18931398499">
        <ele>206</ele>
      </trkpt>
      <trkpt lat="-41.05900343314896" lon="175.189385847797">
        <ele>206</ele>
      </trkpt>
      <trkpt lat="-41.05899995588469" lon="175.189402391145">
        <ele>206</ele>
      </trkpt>
      <trkpt lat="-41.05899995588469" lon="175.189402391145">
        <ele>206</ele>
      </trkpt>
      <trkpt lat="-41.05897196261682" lon="175.189535571238">
        <ele>205</ele>
      </trkpt>
      <trkpt lat="-41.05880984169369" lon="175.189643333969">
        <ele>204</ele>
      </trkpt>
      <trkpt lat="-41.05874499332443" lon="175.18979305741">
        <ele>204</ele>
      </trkpt>
      <trkpt lat="-41.05863150867823" lon="175.189879839786">
        <ele>204</ele>
      </trkpt>
      <trkpt lat="-41.05851802403204" lon="175.190136372306">
        <ele>203</ele>
      </trkpt>
      <trkpt lat="-41.05851802403204" lon="175.190608430288">
        <ele>201</ele>
      </trkpt>
      <trkpt lat="-41.05855044821666" lon="175.190823955751">
        <ele>200</ele>
      </trkpt>
      <trkpt lat="-41.05864772077055" lon="175.190951745184">
        <ele>200</ele>
      </trkpt>
      <trkpt lat="-41.05877741750906" lon="175.191167270647">
        <ele>201</ele>
      </trkpt>
      <trkpt lat="-41.05880984169369" lon="175.191381842457">
        <ele>201</ele>
      </trkpt>
      <trkpt lat="-41.058826053786" lon="175.191682242991">
        <ele>201</ele>
      </trkpt>
      <trkpt lat="-41.05880602708373" lon="175.191872973488">
        <ele>202</ele>
      </trkpt>
      <trkpt lat="-41.05874499332443" lon="175.192046538241">
        <ele>203</ele>
      </trkpt>
      <trkpt lat="-41.05868822273889" lon="175.192136198059">
        <ele>202</ele>
      </trkpt>
      <trkpt lat="-41.05868822273889" lon="175.192136198059">
        <ele>202</ele>
      </trkpt>
      <trkpt lat="-41.05863825074821" lon="175.192215120613">
        <ele>202</ele>
      </trkpt>
      <trkpt lat="-41.05863825074821" lon="175.192215120613">
        <ele>202</ele>
      </trkpt>
      <trkpt lat="-41.05854294302808" lon="175.192365643507">
        <ele>202</ele>
      </trkpt>
      <trkpt lat="-41.05854294302808" lon="175.192365643507">
        <ele>202</ele>
      </trkpt>
      <trkpt lat="-41.05851418742445" lon="175.192411058261">
        <ele>202</ele>
      </trkpt>
      <trkpt lat="-41.05851418742445" lon="175.192411058261">
        <ele>202</ele>
      </trkpt>
      <trkpt lat="-41.0584865534999" lon="175.192454701507">
        <ele>201</ele>
      </trkpt>
      <trkpt lat="-41.05816231165363" lon="175.192840930765">
        <ele>204</ele>
      </trkpt>
      <trkpt lat="-41.05798493229067" lon="175.193012588213">
        <ele>204</ele>
      </trkpt>
      <trkpt lat="-41.05785523555216" lon="175.193119397292">
        <ele>204</ele>
      </trkpt>
      <trkpt lat="-41.05777417509059" lon="175.193162311654">
        <ele>203</ele>
      </trkpt>
      <trkpt lat="-41.05761205416746" lon="175.193205226016">
        <ele>201</ele>
      </trkpt>
      <trkpt lat="-41.05733740225062" lon="175.193248140378">
        <ele>200</ele>
      </trkpt>
      <trkpt lat="-41.05733740225062" lon="175.193248140378">
        <ele>200</ele>
      </trkpt>
      <trkpt lat="-41.05737650200267" lon="175.193584779706">
        <ele>203</ele>
      </trkpt>
      <trkpt lat="-41.05737459469769" lon="175.1936973107">
        <ele>204</ele>
      </trkpt>
      <trkpt lat="-41.0573564753004" lon="175.193751668892">
        <ele>204</ele>
      </trkpt>
      <trkpt lat="-41.0573564753004" lon="175.193751668892">
        <ele>204</ele>
      </trkpt>
      <trkpt lat="-41.05733740225062" lon="175.193825100134">
        <ele>205</ele>
      </trkpt>
      <trkpt lat="-41.05731832920084" lon="175.193899485028">
        <ele>205</ele>
      </trkpt>
      <trkpt lat="-41.0573040244135" lon="175.193971008964">
        <ele>206</ele>
      </trkpt>
      <trkpt lat="-41.05728876597367" lon="175.194042532901">
        <ele>206</ele>
      </trkpt>
      <trkpt lat="-41.05728113675377" lon="175.194302880031">
        <ele>208</ele>
      </trkpt>
      <trkpt lat="-41.05726206370398" lon="175.194387755102">
        <ele>208</ele>
      </trkpt>
      <trkpt lat="-41.05722773221438" lon="175.194396337974">
        <ele>208</ele>
      </trkpt>
      <trkpt lat="-41.05717432767499" lon="175.194364867442">
        <ele>208</ele>
      </trkpt>
      <trkpt lat="-41.05711901583063" lon="175.194299065421">
        <ele>208</ele>
      </trkpt>
      <trkpt lat="-41.05705798207133" lon="175.194178905207">
        <ele>207</ele>
      </trkpt>
      <trkpt lat="-41.05703032614915" lon="175.194102613008">
        <ele>206</ele>
      </trkpt>
      <trkpt lat="-41.05704939919893" lon="175.194032042724">
        <ele>205</ele>
      </trkpt>
      <trkpt lat="-41.05709803547587" lon="175.193969101659">
        <ele>205</ele>
      </trkpt>
      <trkpt lat="-41.05714667175281" lon="175.193907114248">
        <ele>205</ele>
      </trkpt>
      <trkpt lat="-41.05721342742704" lon="175.193867060843">
        <ele>205</ele>
      </trkpt>
      <trkpt lat="-41.05726683196643" lon="175.193803166126">
        <ele>204</ele>
      </trkpt>
      <trkpt lat="-41.05731546824337" lon="175.193785046729">
        <ele>204</ele>
      </trkpt>
      <trkpt lat="-41.0573564753004" lon="175.193751668892">
        <ele>204</ele>
      </trkpt>
      <trkpt lat="-41.0573564753004" lon="175.193751668892">
        <ele>204</ele>
      </trkpt>
      <trkpt lat="-41.05737459469769" lon="175.1936973107">
        <ele>204</ele>
      </trkpt>
      <trkpt lat="-41.05737650200267" lon="175.193584779706">
        <ele>203</ele>
      </trkpt>
      <trkpt lat="-41.05733740225062" lon="175.193248140378">
        <ele>200</ele>
      </trkpt>
      <trkpt lat="-41.05733740225062" lon="175.193248140378">
        <ele>200</ele>
      </trkpt>
      <trkpt lat="-41.05719149341979" lon="175.193333969102">
        <ele>200</ele>
      </trkpt>
      <trkpt lat="-41.05704653824147" lon="175.193398817471">
        <ele>200</ele>
      </trkpt>
      <trkpt lat="-41.05693305359527" lon="175.193484646195">
        <ele>201</ele>
      </trkpt>
      <trkpt lat="-41.05685485409116" lon="175.193533282472">
        <ele>201</ele>
      </trkpt>
      <trkpt lat="-41.05685485409116" lon="175.193533282472">
        <ele>201</ele>
      </trkpt>
      <trkpt lat="-41.05670629882503" lon="175.19361993971">
        <ele>201</ele>
      </trkpt>
    </trkseg>
  </trk>
</gpx>