<?xml version="1.0" encoding="UTF-8" standalone="yes"?>
<gpx
 version="1.1"
 creator="Generated by MapOut iPhone App. See https://mapout.app"
 xmlns="http://www.topografix.com/GPX/1/1"
 xmlns:xsi="http://www.w3.org/2001/XMLSchema-instance"
 xmlns:gpxx="http://www.garmin.com/xmlschemas/GpxExtensions/v3"
 xmlns:mapout="https://mapout.app/xmlschemas/MapOutExtensions"
 xsi:schemaLocation="http://www.topografix.com/GPX/1/1 https://www.topografix.com/GPX/1/1/gpx.xsd http://www.garmin.com/xmlschemas/GpxExtensions/v3 https://www8.garmin.com/xmlschemas/GpxExtensionsv3.xsd https://mapout.app/xmlschemas/MapOutExtensions https://mapout.app/xmlschemas/MapOutExtensions.xsd">
  <metadata>
    <name>Sanctuary Mountain North</name>
    <author><name>iPhone</name></author>
    <time>2026-09-07T01:15:00Z</time>
    <bounds minlat="-38.00458134655731" minlon="175.567117851602" maxlat="-37.9904222556623" maxlon="175.579505054358"/>
  </metadata>
  <trk>
    <name>Sanctuary Mountain North</name>
    <trkseg>
      <trkpt lat="-37.9904222556623" lon="175.575661890149">
        <ele>219</ele>
      </trkpt>
      <trkpt lat="-37.99066260668606" lon="175.575685399387">
        <ele>220</ele>
      </trkpt>
      <trkpt lat="-37.99066260668606" lon="175.575685399387">
        <ele>220</ele>
      </trkpt>
      <trkpt lat="-37.99067518596224" lon="175.575686629792">
        <ele>220</ele>
      </trkpt>
      <trkpt lat="-37.99099465954606" lon="175.575795346176">
        <ele>222</ele>
      </trkpt>
      <trkpt lat="-37.99115201220675" lon="175.575964142666">
        <ele>222</ele>
      </trkpt>
      <trkpt lat="-37.99142857142857" lon="175.576330345222">
        <ele>222</ele>
      </trkpt>
      <trkpt lat="-37.9916526797635" lon="175.576534426855">
        <ele>222</ele>
      </trkpt>
      <trkpt lat="-37.99182338355903" lon="175.576607858097">
        <ele>223</ele>
      </trkpt>
      <trkpt lat="-37.99242418462713" lon="175.576793820332">
        <ele>229</ele>
      </trkpt>
      <trkpt lat="-37.99254720579821" lon="175.576882510013">
        <ele>230</ele>
      </trkpt>
      <trkpt lat="-37.99266736601183" lon="175.577051306504">
        <ele>231</ele>
      </trkpt>
      <trkpt lat="-37.99287907686439" lon="175.577818043105">
        <ele>232</ele>
      </trkpt>
      <trkpt lat="-37.99295441541103" lon="175.577954415411">
        <ele>233</ele>
      </trkpt>
      <trkpt lat="-37.99308983406447" lon="175.578095555979">
        <ele>235</ele>
      </trkpt>
      <trkpt lat="-37.99324909403014" lon="175.578202365058">
        <ele>237</ele>
      </trkpt>
      <trkpt lat="-37.99343600991799" lon="175.578322525272">
        <ele>239</ele>
      </trkpt>
      <trkpt lat="-37.99402441350372" lon="175.578671562083">
        <ele>246</ele>
      </trkpt>
      <trkpt lat="-37.99402441350372" lon="175.578671562083">
        <ele>246</ele>
      </trkpt>
      <trkpt lat="-37.99407686439062" lon="175.578607667366">
        <ele>247</ele>
      </trkpt>
      <trkpt lat="-37.9943305359527" lon="175.578454129315">
        <ele>250</ele>
      </trkpt>
      <trkpt lat="-37.9947139042533" lon="175.578236696548">
        <ele>256</ele>
      </trkpt>
      <trkpt lat="-37.99526606904444" lon="175.577912454702">
        <ele>263</ele>
      </trkpt>
      <trkpt lat="-37.99533663932863" lon="175.57785809651">
        <ele>264</ele>
      </trkpt>
      <trkpt lat="-37.9955483501812" lon="175.577771314133">
        <ele>267</ele>
      </trkpt>
      <trkpt lat="-37.99592408926188" lon="175.577587259203">
        <ele>271</ele>
      </trkpt>
      <trkpt lat="-37.99635037192447" lon="175.577363150868">
        <ele>276</ele>
      </trkpt>
      <trkpt lat="-37.99634178905207" lon="175.579195117299">
        <ele>267</ele>
      </trkpt>
      <trkpt lat="-37.99648865153538" lon="175.57936009918">
        <ele>267</ele>
      </trkpt>
      <trkpt lat="-37.99674995231738" lon="175.579505054358">
        <ele>268</ele>
      </trkpt>
      <trkpt lat="-37.99685103948121" lon="175.579495517833">
        <ele>270</ele>
      </trkpt>
      <trkpt lat="-37.99698645813466" lon="175.579346748045">
        <ele>272</ele>
      </trkpt>
      <trkpt lat="-37.9971390425329" lon="175.578828914743">
        <ele>277</ele>
      </trkpt>
      <trkpt lat="-37.99715239366775" lon="175.578497043677">
        <ele>279</ele>
      </trkpt>
      <trkpt lat="-37.997174327675" lon="175.578410261301">
        <ele>280</ele>
      </trkpt>
      <trkpt lat="-37.99734598512303" lon="175.578528514209">
        <ele>281</ele>
      </trkpt>
      <trkpt lat="-37.99754339118825" lon="175.578474156018">
        <ele>283</ele>
      </trkpt>
      <trkpt lat="-37.99770265115392" lon="175.578346366584">
        <ele>286</ele>
      </trkpt>
      <trkpt lat="-37.99781136753767" lon="175.578394049208">
        <ele>287</ele>
      </trkpt>
      <trkpt lat="-37.99799446881556" lon="175.57849418272">
        <ele>289</ele>
      </trkpt>
      <trkpt lat="-37.99822429906542" lon="175.578333969102">
        <ele>293</ele>
      </trkpt>
      <trkpt lat="-37.998521838642" lon="175.578335876407">
        <ele>297</ele>
      </trkpt>
      <trkpt lat="-37.9986696547778" lon="175.578362578676">
        <ele>300</ele>
      </trkpt>
      <trkpt lat="-37.99886801449552" lon="175.578507533855">
        <ele>304</ele>
      </trkpt>
      <trkpt lat="-37.99909689109289" lon="175.578464619493">
        <ele>309</ele>
      </trkpt>
      <trkpt lat="-37.999260919321" lon="175.578378790769">
        <ele>311</ele>
      </trkpt>
      <trkpt lat="-37.99946404730117" lon="175.578136563036">
        <ele>315</ele>
      </trkpt>
      <trkpt lat="-37.99965000953652" lon="175.578174709136">
        <ele>319</ele>
      </trkpt>
      <trkpt lat="-38" lon="175.578052641617">
        <ele>325</ele>
      </trkpt>
      <trkpt lat="-38" lon="175.578052641617">
        <ele>325</ele>
      </trkpt>
      <trkpt lat="-38.00025081060461" lon="175.577965859241">
        <ele>331</ele>
      </trkpt>
      <trkpt lat="-38.00052355521647" lon="175.577976349418">
        <ele>337</ele>
      </trkpt>
      <trkpt lat="-38.00059317184817" lon="175.577719816899">
        <ele>338</ele>
      </trkpt>
      <trkpt lat="-38.00064753004005" lon="175.577363150868">
        <ele>338</ele>
      </trkpt>
      <trkpt lat="-38.00064753004005" lon="175.577363150868">
        <ele>338</ele>
      </trkpt>
      <trkpt lat="-38.00083635323288" lon="175.577218195689">
        <ele>342</ele>
      </trkpt>
      <trkpt lat="-38.00083635323288" lon="175.577218195689">
        <ele>342</ele>
      </trkpt>
      <trkpt lat="-38.00093171848178" lon="175.577237268739">
        <ele>344</ele>
      </trkpt>
      <trkpt lat="-38.00102708373068" lon="175.577257295442">
        <ele>346</ele>
      </trkpt>
      <trkpt lat="-38.00103662025558" lon="175.577341216861">
        <ele>347</ele>
      </trkpt>
      <trkpt lat="-38.00104520312798" lon="175.577426091932">
        <ele>347</ele>
      </trkpt>
      <trkpt lat="-38.00112054167461" lon="175.577504291436">
        <ele>349</ele>
      </trkpt>
      <trkpt lat="-38.00119588022125" lon="175.577583444593">
        <ele>351</ele>
      </trkpt>
      <trkpt lat="-38.00150581728018" lon="175.577761777608">
        <ele>358</ele>
      </trkpt>
      <trkpt lat="-38.00161071905397" lon="175.577776082396">
        <ele>361</ele>
      </trkpt>
      <trkpt lat="-38.00171562082777" lon="175.577791340835">
        <ele>363</ele>
      </trkpt>
      <trkpt lat="-38.00178142284951" lon="175.577753194736">
        <ele>364</ele>
      </trkpt>
      <trkpt lat="-38.00184627121877" lon="175.577716002289">
        <ele>365</ele>
      </trkpt>
      <trkpt lat="-38.00189967575815" lon="175.577644478352">
        <ele>365</ele>
      </trkpt>
      <trkpt lat="-38.00195212664505" lon="175.577573908068">
        <ele>366</ele>
      </trkpt>
      <trkpt lat="-38.00198741178714" lon="175.577488079344">
        <ele>366</ele>
      </trkpt>
      <trkpt lat="-38.00202174327675" lon="175.57740225062">
        <ele>367</ele>
      </trkpt>
      <trkpt lat="-38.0020780087736" lon="175.577329773031">
        <ele>367</ele>
      </trkpt>
      <trkpt lat="-38.00213332061796" lon="175.577257295442">
        <ele>368</ele>
      </trkpt>
      <trkpt lat="-38.00224394430669" lon="175.577273507534">
        <ele>370</ele>
      </trkpt>
      <trkpt lat="-38.00234884608049" lon="175.577391760442">
        <ele>373</ele>
      </trkpt>
      <trkpt lat="-38.00242513827961" lon="175.57742895289">
        <ele>374</ele>
      </trkpt>
      <trkpt lat="-38.00250238413122" lon="175.577426091932">
        <ele>376</ele>
      </trkpt>
      <trkpt lat="-38.00257962998283" lon="175.577423230975">
        <ele>377</ele>
      </trkpt>
      <trkpt lat="-38.00265115391951" lon="175.577466145337">
        <ele>379</ele>
      </trkpt>
      <trkpt lat="-38.0027131413313" lon="175.577473774557">
        <ele>380</ele>
      </trkpt>
      <trkpt lat="-38.00277417509059" lon="175.577482357429">
        <ele>381</ele>
      </trkpt>
      <trkpt lat="-38.00284569902728" lon="175.577458516117">
        <ele>382</ele>
      </trkpt>
      <trkpt lat="-38.00293343505626" lon="175.577466145337">
        <ele>384</ele>
      </trkpt>
      <trkpt lat="-38.00302117108525" lon="175.577474728209">
        <ele>385</ele>
      </trkpt>
      <trkpt lat="-38.0033301544917" lon="175.577686439062">
        <ele>392</ele>
      </trkpt>
      <trkpt lat="-38.00343791722296" lon="175.577801831013">
        <ele>394</ele>
      </trkpt>
      <trkpt lat="-38.00353518977684" lon="175.577877169559">
        <ele>396</ele>
      </trkpt>
      <trkpt lat="-38.0036429525081" lon="175.577895288957">
        <ele>398</ele>
      </trkpt>
      <trkpt lat="-38.00372210566469" lon="175.577871447644">
        <ele>399</ele>
      </trkpt>
      <trkpt lat="-38.00380125882128" lon="175.577847606332">
        <ele>400</ele>
      </trkpt>
      <trkpt lat="-38.00378886133893" lon="175.577765592218">
        <ele>400</ele>
      </trkpt>
      <trkpt lat="-38.00377551020408" lon="175.577683578104">
        <ele>399</ele>
      </trkpt>
      <trkpt lat="-38.0037039862674" lon="175.577418462712">
        <ele>398</ele>
      </trkpt>
      <trkpt lat="-38.00366011825291" lon="175.577136181575">
        <ele>397</ele>
      </trkpt>
      <trkpt lat="-38.00366393286286" lon="175.576436200648">
        <ele>397</ele>
      </trkpt>
      <trkpt lat="-38.00365439633797" lon="175.576337974442">
        <ele>397</ele>
      </trkpt>
      <trkpt lat="-38.00364485981308" lon="175.576240701888">
        <ele>397</ele>
      </trkpt>
      <trkpt lat="-38.00352469959947" lon="175.575962235361">
        <ele>395</ele>
      </trkpt>
      <trkpt lat="-38.00343124165554" lon="175.575851611673">
        <ele>393</ele>
      </trkpt>
      <trkpt lat="-38.0033387373641" lon="175.57583539958">
        <ele>392</ele>
      </trkpt>
      <trkpt lat="-38.0032347892428" lon="175.575932672134">
        <ele>390</ele>
      </trkpt>
      <trkpt lat="-38.00322239176044" lon="175.576039481213">
        <ele>389</ele>
      </trkpt>
      <trkpt lat="-38.00322239176044" lon="175.576115773412">
        <ele>389</ele>
      </trkpt>
      <trkpt lat="-38.00322239176044" lon="175.576192065611">
        <ele>389</ele>
      </trkpt>
      <trkpt lat="-38.0031823383559" lon="175.576292199123">
        <ele>388</ele>
      </trkpt>
      <trkpt lat="-38.00314133129887" lon="175.576393286286">
        <ele>387</ele>
      </trkpt>
      <trkpt lat="-38.00306122448979" lon="175.576436200648">
        <ele>385</ele>
      </trkpt>
      <trkpt lat="-38.00296204463093" lon="175.576419988556">
        <ele>383</ele>
      </trkpt>
      <trkpt lat="-38.00289052069426" lon="175.576396147244">
        <ele>382</ele>
      </trkpt>
      <trkpt lat="-38.00281804310509" lon="175.576372305932">
        <ele>380</ele>
      </trkpt>
      <trkpt lat="-38.00272649246615" lon="175.576304596605">
        <ele>378</ele>
      </trkpt>
      <trkpt lat="-38.0026349418272" lon="175.576237840931">
        <ele>376</ele>
      </trkpt>
      <trkpt lat="-38.00256818615296" lon="175.576235933626">
        <ele>375</ele>
      </trkpt>
      <trkpt lat="-38.00250143047873" lon="175.576234979973">
        <ele>373</ele>
      </trkpt>
      <trkpt lat="-38.00217146671753" lon="175.576548731642">
        <ele>367</ele>
      </trkpt>
      <trkpt lat="-38.00207896242609" lon="175.576603089834">
        <ele>365</ele>
      </trkpt>
      <trkpt lat="-38.0019998092695" lon="175.576623116536">
        <ele>364</ele>
      </trkpt>
      <trkpt lat="-38.00192065611291" lon="175.576643143239">
        <ele>362</ele>
      </trkpt>
      <trkpt lat="-38.00182338355903" lon="175.576684150296">
        <ele>360</ele>
      </trkpt>
      <trkpt lat="-38.00172611100515" lon="175.576726111005">
        <ele>359</ele>
      </trkpt>
      <trkpt lat="-38.00163742132366" lon="175.576792866679">
        <ele>357</ele>
      </trkpt>
      <trkpt lat="-38.00154014876978" lon="175.576841502956">
        <ele>355</ele>
      </trkpt>
      <trkpt lat="-38.00144192256342" lon="175.576787144764">
        <ele>353</ele>
      </trkpt>
      <trkpt lat="-38.00134274270456" lon="175.576733740225">
        <ele>351</ele>
      </trkpt>
      <trkpt lat="-38.00126835781041" lon="175.576710852565">
        <ele>350</ele>
      </trkpt>
      <trkpt lat="-38.00125864850003" lon="175.576708025804">
        <ele>350</ele>
      </trkpt>
      <trkpt lat="-38.00125864850003" lon="175.576708025804">
        <ele>350</ele>
      </trkpt>
      <trkpt lat="-38.00119301926378" lon="175.576688918558">
        <ele>348</ele>
      </trkpt>
      <trkpt lat="-38.00112435628457" lon="175.576683196643">
        <ele>347</ele>
      </trkpt>
      <trkpt lat="-38.00105569330536" lon="175.576677474728">
        <ele>346</ele>
      </trkpt>
      <trkpt lat="-38.00098989128362" lon="175.576752813275">
        <ele>345</ele>
      </trkpt>
      <trkpt lat="-38.00092218195689" lon="175.577020789624">
        <ele>344</ele>
      </trkpt>
      <trkpt lat="-38.00087926759489" lon="175.577119015831">
        <ele>343</ele>
      </trkpt>
      <trkpt lat="-38.00083635323288" lon="175.577218195689">
        <ele>342</ele>
      </trkpt>
      <trkpt lat="-38.00083635323288" lon="175.577218195689">
        <ele>342</ele>
      </trkpt>
      <trkpt lat="-38.00064753004005" lon="175.577363150868">
        <ele>338</ele>
      </trkpt>
      <trkpt lat="-38.00064753004005" lon="175.577363150868">
        <ele>338</ele>
      </trkpt>
      <trkpt lat="-38.00070379553691" lon="175.576477207705">
        <ele>339</ele>
      </trkpt>
      <trkpt lat="-38.00081155826817" lon="175.576419034904">
        <ele>341</ele>
      </trkpt>
      <trkpt lat="-38.00081155826817" lon="175.576419034904">
        <ele>341</ele>
      </trkpt>
      <trkpt lat="-38.0009736791913" lon="175.576350371924">
        <ele>344</ele>
      </trkpt>
      <trkpt lat="-38.00125309937059" lon="175.57628743086">
        <ele>350</ele>
      </trkpt>
      <trkpt lat="-38.00148579057791" lon="175.576273126073">
        <ele>354</ele>
      </trkpt>
      <trkpt lat="-38.00166316994087" lon="175.576277894335">
        <ele>357</ele>
      </trkpt>
      <trkpt lat="-38.00166316994087" lon="175.576277894335">
        <ele>357</ele>
      </trkpt>
      <trkpt lat="-38.00178333015449" lon="175.576194926569">
        <ele>360</ele>
      </trkpt>
      <trkpt lat="-38.00193114629029" lon="175.575942208659">
        <ele>362</ele>
      </trkpt>
      <trkpt lat="-38.00214667175281" lon="175.575749570856">
        <ele>367</ele>
      </trkpt>
      <trkpt lat="-38.00238794583254" lon="175.575577913408">
        <ele>372</ele>
      </trkpt>
      <trkpt lat="-38.00239366774747" lon="175.575309937059">
        <ele>372</ele>
      </trkpt>
      <trkpt lat="-38.0023297730307" lon="175.57521838642">
        <ele>371</ele>
      </trkpt>
      <trkpt lat="-38.0022696929239" lon="175.574928476063">
        <ele>371</ele>
      </trkpt>
      <trkpt lat="-38.00238794583254" lon="175.574638565707">
        <ele>375</ele>
      </trkpt>
      <trkpt lat="-38.00263684913217" lon="175.574477398436">
        <ele>380</ele>
      </trkpt>
      <trkpt lat="-38.00286572572954" lon="175.574241846271">
        <ele>386</ele>
      </trkpt>
      <trkpt lat="-38.00324718672515" lon="175.573828914743">
        <ele>395</ele>
      </trkpt>
      <trkpt lat="-38.00334922754148" lon="175.573395002861">
        <ele>399</ele>
      </trkpt>
      <trkpt lat="-38.00337688346367" lon="175.572991607858">
        <ele>403</ele>
      </trkpt>
      <trkpt lat="-38.00344459279039" lon="175.572734121686">
        <ele>407</ele>
      </trkpt>
      <trkpt lat="-38.00368586687011" lon="175.572283997711">
        <ele>416</ele>
      </trkpt>
      <trkpt lat="-38.00379935151631" lon="175.571806217814">
        <ele>425</ele>
      </trkpt>
      <trkpt lat="-38.00367442304024" lon="175.571576387564">
        <ele>430</ele>
      </trkpt>
      <trkpt lat="-38.00342933435056" lon="175.57154396338">
        <ele>431</ele>
      </trkpt>
      <trkpt lat="-38.0032519549876" lon="175.571662216288">
        <ele>429</ele>
      </trkpt>
      <trkpt lat="-38.00307266831966" lon="175.571945451078">
        <ele>423</ele>
      </trkpt>
      <trkpt lat="-38.00271790959374" lon="175.572010299447">
        <ele>424</ele>
      </trkpt>
      <trkpt lat="-38.00219816898722" lon="175.572273507534">
        <ele>418</ele>
      </trkpt>
      <trkpt lat="-38.00202841884417" lon="175.572171466718">
        <ele>419</ele>
      </trkpt>
      <trkpt lat="-38.00203318710662" lon="175.571178714476">
        <ele>426</ele>
      </trkpt>
      <trkpt lat="-38.00213808888041" lon="175.571039481213">
        <ele>429</ele>
      </trkpt>
      <trkpt lat="-38.00234121686057" lon="175.570964142666">
        <ele>435</ele>
      </trkpt>
      <trkpt lat="-38.00248903299637" lon="175.570808697311">
        <ele>440</ele>
      </trkpt>
      <trkpt lat="-38.00261205416746" lon="175.570604615678">
        <ele>438</ele>
      </trkpt>
      <trkpt lat="-38.00292485218386" lon="175.57024508869">
        <ele>440</ele>
      </trkpt>
      <trkpt lat="-38.00328437917223" lon="175.570095365249">
        <ele>451</ele>
      </trkpt>
      <trkpt lat="-38.00360957467099" lon="175.569897005531">
        <ele>461</ele>
      </trkpt>
      <trkpt lat="-38.00362197215335" lon="175.569676711806">
        <ele>462</ele>
      </trkpt>
      <trkpt lat="-38.00402822811368" lon="175.569188441732">
        <ele>485</ele>
      </trkpt>
      <trkpt lat="-38.00416364676712" lon="175.568469387755">
        <ele>495</ele>
      </trkpt>
      <trkpt lat="-38.00458134655731" lon="175.567960137326">
        <ele>512</ele>
      </trkpt>
      <trkpt lat="-38.00451840549304" lon="175.567450886897">
        <ele>512</ele>
      </trkpt>
      <trkpt lat="-38.00434256933992" lon="175.567117851602">
        <ele>512</ele>
      </trkpt>
      <trkpt lat="-38.00434256933992" lon="175.567117851602">
        <ele>512</ele>
      </trkpt>
      <trkpt lat="-38.00451840549304" lon="175.567450886897">
        <ele>512</ele>
      </trkpt>
      <trkpt lat="-38.00458134655731" lon="175.567960137326">
        <ele>512</ele>
      </trkpt>
      <trkpt lat="-38.00416364676712" lon="175.568469387755">
        <ele>495</ele>
      </trkpt>
      <trkpt lat="-38.00402822811368" lon="175.569188441732">
        <ele>485</ele>
      </trkpt>
      <trkpt lat="-38.00362197215335" lon="175.569676711806">
        <ele>462</ele>
      </trkpt>
      <trkpt lat="-38.00360957467099" lon="175.569897005531">
        <ele>461</ele>
      </trkpt>
      <trkpt lat="-38.00328437917223" lon="175.570095365249">
        <ele>451</ele>
      </trkpt>
      <trkpt lat="-38.00292485218386" lon="175.57024508869">
        <ele>440</ele>
      </trkpt>
      <trkpt lat="-38.00261205416746" lon="175.570604615678">
        <ele>438</ele>
      </trkpt>
      <trkpt lat="-38.00248903299637" lon="175.570808697311">
        <ele>440</ele>
      </trkpt>
      <trkpt lat="-38.00234121686057" lon="175.570964142666">
        <ele>435</ele>
      </trkpt>
      <trkpt lat="-38.00213808888041" lon="175.571039481213">
        <ele>429</ele>
      </trkpt>
      <trkpt lat="-38.00203318710662" lon="175.571178714476">
        <ele>426</ele>
      </trkpt>
      <trkpt lat="-38.00202841884417" lon="175.572171466718">
        <ele>419</ele>
      </trkpt>
      <trkpt lat="-38.00219816898722" lon="175.572273507534">
        <ele>418</ele>
      </trkpt>
      <trkpt lat="-38.00271790959374" lon="175.572010299447">
        <ele>424</ele>
      </trkpt>
      <trkpt lat="-38.00307266831966" lon="175.571945451078">
        <ele>423</ele>
      </trkpt>
      <trkpt lat="-38.0032519549876" lon="175.571662216288">
        <ele>429</ele>
      </trkpt>
      <trkpt lat="-38.00342933435056" lon="175.57154396338">
        <ele>431</ele>
      </trkpt>
      <trkpt lat="-38.00367442304024" lon="175.571576387564">
        <ele>430</ele>
      </trkpt>
      <trkpt lat="-38.00379935151631" lon="175.571806217814">
        <ele>425</ele>
      </trkpt>
      <trkpt lat="-38.00368586687011" lon="175.572283997711">
        <ele>416</ele>
      </trkpt>
      <trkpt lat="-38.00344459279039" lon="175.572734121686">
        <ele>407</ele>
      </trkpt>
      <trkpt lat="-38.00337688346367" lon="175.572991607858">
        <ele>403</ele>
      </trkpt>
      <trkpt lat="-38.00334922754148" lon="175.573395002861">
        <ele>399</ele>
      </trkpt>
      <trkpt lat="-38.00324718672515" lon="175.573828914743">
        <ele>395</ele>
      </trkpt>
      <trkpt lat="-38.00286572572954" lon="175.574241846271">
        <ele>386</ele>
      </trkpt>
      <trkpt lat="-38.00263684913217" lon="175.574477398436">
        <ele>380</ele>
      </trkpt>
      <trkpt lat="-38.00238794583254" lon="175.574638565707">
        <ele>375</ele>
      </trkpt>
      <trkpt lat="-38.0022696929239" lon="175.574928476063">
        <ele>371</ele>
      </trkpt>
      <trkpt lat="-38.0023297730307" lon="175.57521838642">
        <ele>371</ele>
      </trkpt>
      <trkpt lat="-38.00239366774747" lon="175.575309937059">
        <ele>372</ele>
      </trkpt>
      <trkpt lat="-38.00238794583254" lon="175.575577913408">
        <ele>372</ele>
      </trkpt>
      <trkpt lat="-38.00214667175281" lon="175.575749570856">
        <ele>367</ele>
      </trkpt>
      <trkpt lat="-38.00193114629029" lon="175.575942208659">
        <ele>362</ele>
      </trkpt>
      <trkpt lat="-38.00178333015449" lon="175.576194926569">
        <ele>360</ele>
      </trkpt>
      <trkpt lat="-38.00166316994087" lon="175.576277894335">
        <ele>357</ele>
      </trkpt>
      <trkpt lat="-38.00166316994087" lon="175.576277894335">
        <ele>357</ele>
      </trkpt>
      <trkpt lat="-38.00148579057791" lon="175.576273126073">
        <ele>354</ele>
      </trkpt>
      <trkpt lat="-38.00125309937059" lon="175.57628743086">
        <ele>350</ele>
      </trkpt>
      <trkpt lat="-38.0009736791913" lon="175.576350371924">
        <ele>344</ele>
      </trkpt>
      <trkpt lat="-38.00081155826817" lon="175.576419034904">
        <ele>341</ele>
      </trkpt>
      <trkpt lat="-38.00081155826817" lon="175.576419034904">
        <ele>341</ele>
      </trkpt>
      <trkpt lat="-38.00070379553691" lon="175.576477207705">
        <ele>339</ele>
      </trkpt>
      <trkpt lat="-38.00064753004005" lon="175.577363150868">
        <ele>338</ele>
      </trkpt>
      <trkpt lat="-38.00059317184817" lon="175.577719816899">
        <ele>338</ele>
      </trkpt>
      <trkpt lat="-38.00052355521647" lon="175.577976349418">
        <ele>337</ele>
      </trkpt>
      <trkpt lat="-38.00025081060461" lon="175.577965859241">
        <ele>331</ele>
      </trkpt>
      <trkpt lat="-38" lon="175.578052641617">
        <ele>325</ele>
      </trkpt>
      <trkpt lat="-38" lon="175.578052641617">
        <ele>325</ele>
      </trkpt>
      <trkpt lat="-37.99965000953652" lon="175.578174709136">
        <ele>319</ele>
      </trkpt>
      <trkpt lat="-37.99946404730117" lon="175.578136563036">
        <ele>315</ele>
      </trkpt>
      <trkpt lat="-37.999260919321" lon="175.578378790769">
        <ele>311</ele>
      </trkpt>
      <trkpt lat="-37.99909689109289" lon="175.578464619493">
        <ele>309</ele>
      </trkpt>
      <trkpt lat="-37.99886801449552" lon="175.578507533855">
        <ele>304</ele>
      </trkpt>
      <trkpt lat="-37.9986696547778" lon="175.578362578676">
        <ele>300</ele>
      </trkpt>
      <trkpt lat="-37.998521838642" lon="175.578335876407">
        <ele>297</ele>
      </trkpt>
      <trkpt lat="-37.99822429906542" lon="175.578333969102">
        <ele>293</ele>
      </trkpt>
      <trkpt lat="-37.99799446881556" lon="175.57849418272">
        <ele>289</ele>
      </trkpt>
      <trkpt lat="-37.99781136753767" lon="175.578394049208">
        <ele>287</ele>
      </trkpt>
      <trkpt lat="-37.99770265115392" lon="175.578346366584">
        <ele>286</ele>
      </trkpt>
      <trkpt lat="-37.99754339118825" lon="175.578474156018">
        <ele>283</ele>
      </trkpt>
      <trkpt lat="-37.99734598512303" lon="175.578528514209">
        <ele>281</ele>
      </trkpt>
      <trkpt lat="-37.997174327675" lon="175.578410261301">
        <ele>280</ele>
      </trkpt>
      <trkpt lat="-37.99715239366775" lon="175.578497043677">
        <ele>279</ele>
      </trkpt>
      <trkpt lat="-37.9971390425329" lon="175.578828914743">
        <ele>277</ele>
      </trkpt>
      <trkpt lat="-37.99698645813466" lon="175.579346748045">
        <ele>272</ele>
      </trkpt>
      <trkpt lat="-37.99685103948121" lon="175.579495517833">
        <ele>270</ele>
      </trkpt>
      <trkpt lat="-37.99674995231738" lon="175.579505054358">
        <ele>268</ele>
      </trkpt>
      <trkpt lat="-37.99648865153538" lon="175.57936009918">
        <ele>267</ele>
      </trkpt>
      <trkpt lat="-37.99634178905207" lon="175.579195117299">
        <ele>267</ele>
      </trkpt>
      <trkpt lat="-37.99635037192447" lon="175.577363150868">
        <ele>276</ele>
      </trkpt>
      <trkpt lat="-37.99592408926188" lon="175.577587259203">
        <ele>271</ele>
      </trkpt>
      <trkpt lat="-37.9955483501812" lon="175.577771314133">
        <ele>267</ele>
      </trkpt>
      <trkpt lat="-37.99533663932863" lon="175.57785809651">
        <ele>264</ele>
      </trkpt>
      <trkpt lat="-37.99526606904444" lon="175.577912454702">
        <ele>263</ele>
      </trkpt>
      <trkpt lat="-37.9947139042533" lon="175.578236696548">
        <ele>256</ele>
      </trkpt>
      <trkpt lat="-37.9943305359527" lon="175.578454129315">
        <ele>250</ele>
      </trkpt>
      <trkpt lat="-37.99407686439062" lon="175.578607667366">
        <ele>247</ele>
      </trkpt>
      <trkpt lat="-37.99402441350372" lon="175.578671562083">
        <ele>246</ele>
      </trkpt>
      <trkpt lat="-37.99402441350372" lon="175.578671562083">
        <ele>246</ele>
      </trkpt>
      <trkpt lat="-37.99343600991799" lon="175.578322525272">
        <ele>239</ele>
      </trkpt>
      <trkpt lat="-37.99324909403014" lon="175.578202365058">
        <ele>237</ele>
      </trkpt>
      <trkpt lat="-37.99308983406447" lon="175.578095555979">
        <ele>235</ele>
      </trkpt>
      <trkpt lat="-37.99295441541103" lon="175.577954415411">
        <ele>233</ele>
      </trkpt>
      <trkpt lat="-37.99287907686439" lon="175.577818043105">
        <ele>232</ele>
      </trkpt>
      <trkpt lat="-37.99266736601183" lon="175.577051306504">
        <ele>231</ele>
      </trkpt>
      <trkpt lat="-37.99254720579821" lon="175.576882510013">
        <ele>230</ele>
      </trkpt>
      <trkpt lat="-37.99242418462713" lon="175.576793820332">
        <ele>229</ele>
      </trkpt>
      <trkpt lat="-37.99182338355903" lon="175.576607858097">
        <ele>223</ele>
      </trkpt>
      <trkpt lat="-37.9916526797635" lon="175.576534426855">
        <ele>222</ele>
      </trkpt>
      <trkpt lat="-37.99142857142857" lon="175.576330345222">
        <ele>222</ele>
      </trkpt>
      <trkpt lat="-37.99115201220675" lon="175.575964142666">
        <ele>222</ele>
      </trkpt>
      <trkpt lat="-37.99099465954606" lon="175.575795346176">
        <ele>222</ele>
      </trkpt>
      <trkpt lat="-37.99067518596224" lon="175.575686629792">
        <ele>220</ele>
      </trkpt>
      <trkpt lat="-37.99067518596224" lon="175.575686629792">
        <ele>220</ele>
      </trkpt>
      <trkpt lat="-37.99068853709709" lon="175.575837306885">
        <ele>220</ele>
      </trkpt>
      <trkpt lat="-37.99070665649437" lon="175.57590787717">
        <ele>219</ele>
      </trkpt>
      <trkpt lat="-37.99066298636139" lon="175.576180665945">
        <ele>218</ele>
      </trkpt>
    </trkseg>
  </trk>
</gpx>