<?xml version="1.0" encoding="UTF-8" standalone="yes"?>
<gpx
 version="1.1"
 creator="Generated by MapOut iPhone App. See https://mapout.app"
 xmlns="http://www.topografix.com/GPX/1/1"
 xmlns:xsi="http://www.w3.org/2001/XMLSchema-instance"
 xmlns:gpxx="http://www.garmin.com/xmlschemas/GpxExtensions/v3"
 xmlns:mapout="https://mapout.app/xmlschemas/MapOutExtensions"
 xsi:schemaLocation="http://www.topografix.com/GPX/1/1 https://www.topografix.com/GPX/1/1/gpx.xsd http://www.garmin.com/xmlschemas/GpxExtensions/v3 https://www8.garmin.com/xmlschemas/GpxExtensionsv3.xsd https://mapout.app/xmlschemas/MapOutExtensions https://mapout.app/xmlschemas/MapOutExtensions.xsd">
  <metadata>
    <name>Somes Island</name>
    <author><name>iPhone</name></author>
    <time>2026-07-22T01:02:56Z</time>
    <bounds minlat="-41.26106332252527" minlon="174.862876999533" maxlat="-41.25402345985123" maxlon="174.867613961472"/>
  </metadata>
  <trk>
    <name>Somes Island</name>
    <trkseg>
      <trkpt lat="-41.25559221819569" lon="174.867142857143">
        <ele>13</ele>
      </trkpt>
      <trkpt lat="-41.255608430288" lon="174.867064657639">
        <ele>14</ele>
      </trkpt>
      <trkpt lat="-41.255608430288" lon="174.867064657639">
        <ele>14</ele>
      </trkpt>
      <trkpt lat="-41.25570570284189" lon="174.867084684341">
        <ele>16</ele>
      </trkpt>
      <trkpt lat="-41.25574098798398" lon="174.867057982071">
        <ele>17</ele>
      </trkpt>
      <trkpt lat="-41.25580488270074" lon="174.867058935724">
        <ele>18</ele>
      </trkpt>
      <trkpt lat="-41.25586782376502" lon="174.867059889376">
        <ele>19</ele>
      </trkpt>
      <trkpt lat="-41.25577913408354" lon="174.866990272745">
        <ele>19</ele>
      </trkpt>
      <trkpt lat="-41.25575910738127" lon="174.86693114629">
        <ele>20</ele>
      </trkpt>
      <trkpt lat="-41.25585924089262" lon="174.866608811749">
        <ele>30</ele>
      </trkpt>
      <trkpt lat="-41.25591455273698" lon="174.866542056075">
        <ele>31</ele>
      </trkpt>
      <trkpt lat="-41.25596891092886" lon="174.866475300401">
        <ele>33</ele>
      </trkpt>
      <trkpt lat="-41.25608907114248" lon="174.866410452031">
        <ele>35</ele>
      </trkpt>
      <trkpt lat="-41.25610528323479" lon="174.866308411215">
        <ele>36</ele>
      </trkpt>
      <trkpt lat="-41.25609383940492" lon="174.866222582491">
        <ele>38</ele>
      </trkpt>
      <trkpt lat="-41.2560957467099" lon="174.866139614724">
        <ele>39</ele>
      </trkpt>
      <trkpt lat="-41.25609765401488" lon="174.866056646958">
        <ele>40</ele>
      </trkpt>
      <trkpt lat="-41.25616059507915" lon="174.866032805646">
        <ele>41</ele>
      </trkpt>
      <trkpt lat="-41.25616059507915" lon="174.866032805646">
        <ele>41</ele>
      </trkpt>
      <trkpt lat="-41.25612817089453" lon="174.865964142666">
        <ele>42</ele>
      </trkpt>
      <trkpt lat="-41.25611577341217" lon="174.865878313942">
        <ele>43</ele>
      </trkpt>
      <trkpt lat="-41.25606332252527" lon="174.865801068091">
        <ele>43</ele>
      </trkpt>
      <trkpt lat="-41.25598607667366" lon="174.865818233836">
        <ele>42</ele>
      </trkpt>
      <trkpt lat="-41.25590883082205" lon="174.86583539958">
        <ele>42</ele>
      </trkpt>
      <trkpt lat="-41.25590883082205" lon="174.86583539958">
        <ele>42</ele>
      </trkpt>
      <trkpt lat="-41.25590787716956" lon="174.865761014686">
        <ele>41</ele>
      </trkpt>
      <trkpt lat="-41.25598893763113" lon="174.865697119969">
        <ele>42</ele>
      </trkpt>
      <trkpt lat="-41.2560699980927" lon="174.865633225253">
        <ele>42</ele>
      </trkpt>
      <trkpt lat="-41.25615964142666" lon="174.865591264543">
        <ele>43</ele>
      </trkpt>
      <trkpt lat="-41.25624833110815" lon="174.865549303834">
        <ele>43</ele>
      </trkpt>
      <trkpt lat="-41.2563131794774" lon="174.865497806599">
        <ele>44</ele>
      </trkpt>
      <trkpt lat="-41.2563131794774" lon="174.865497806599">
        <ele>44</ele>
      </trkpt>
      <trkpt lat="-41.25636944497425" lon="174.865644669083">
        <ele>45</ele>
      </trkpt>
      <trkpt lat="-41.25651916841503" lon="174.865744802594">
        <ele>46</ele>
      </trkpt>
      <trkpt lat="-41.25659736791913" lon="174.865823955751">
        <ele>47</ele>
      </trkpt>
      <trkpt lat="-41.25664600419607" lon="174.865833492275">
        <ele>47</ele>
      </trkpt>
      <trkpt lat="-41.25681575433912" lon="174.86590787717">
        <ele>48</ele>
      </trkpt>
      <trkpt lat="-41.25681575433912" lon="174.86590787717">
        <ele>48</ele>
      </trkpt>
      <trkpt lat="-41.25684150295632" lon="174.865946023269">
        <ele>47</ele>
      </trkpt>
      <trkpt lat="-41.25688251001335" lon="174.865982262064">
        <ele>47</ele>
      </trkpt>
      <trkpt lat="-41.25697978256724" lon="174.866028991036">
        <ele>47</ele>
      </trkpt>
      <trkpt lat="-41.25702078962426" lon="174.866034712951">
        <ele>47</ele>
      </trkpt>
      <trkpt lat="-41.25702078962426" lon="174.866034712951">
        <ele>47</ele>
      </trkpt>
      <trkpt lat="-41.25750143047873" lon="174.866376120542">
        <ele>44</ele>
      </trkpt>
      <trkpt lat="-41.25751573526607" lon="174.866436200648">
        <ele>43</ele>
      </trkpt>
      <trkpt lat="-41.25751573526607" lon="174.866436200648">
        <ele>43</ele>
      </trkpt>
      <trkpt lat="-41.2575739080679" lon="174.866444783521">
        <ele>43</ele>
      </trkpt>
      <trkpt lat="-41.25763780278466" lon="174.86647911501">
        <ele>43</ele>
      </trkpt>
      <trkpt lat="-41.25769597558649" lon="174.86647911501">
        <ele>43</ele>
      </trkpt>
      <trkpt lat="-41.25774175090597" lon="174.866583063132">
        <ele>42</ele>
      </trkpt>
      <trkpt lat="-41.2577741750906" lon="174.866641235934">
        <ele>42</ele>
      </trkpt>
      <trkpt lat="-41.25780755292772" lon="174.866674613771">
        <ele>41</ele>
      </trkpt>
      <trkpt lat="-41.2578781232119" lon="174.866698455083">
        <ele>41</ele>
      </trkpt>
      <trkpt lat="-41.25796204463094" lon="174.866703223345">
        <ele>41</ele>
      </trkpt>
      <trkpt lat="-41.25807266831966" lon="174.866696547778">
        <ele>43</ele>
      </trkpt>
      <trkpt lat="-41.2581823383559" lon="174.866666984551">
        <ele>45</ele>
      </trkpt>
      <trkpt lat="-41.25828819378219" lon="174.866663169941">
        <ele>46</ele>
      </trkpt>
      <trkpt lat="-41.25837020789624" lon="174.866639328629">
        <ele>46</ele>
      </trkpt>
      <trkpt lat="-41.25845126835781" lon="174.866616440969">
        <ele>47</ele>
      </trkpt>
      <trkpt lat="-41.25850276559222" lon="174.866659355331">
        <ele>47</ele>
      </trkpt>
      <trkpt lat="-41.25856093839405" lon="174.866693686821">
        <ele>46</ele>
      </trkpt>
      <trkpt lat="-41.25859336257868" lon="174.866702269693">
        <ele>46</ele>
      </trkpt>
      <trkpt lat="-41.25865725729544" lon="174.866736601183">
        <ele>45</ele>
      </trkpt>
      <trkpt lat="-41.25870303261492" lon="174.866779515545">
        <ele>43</ele>
      </trkpt>
      <trkpt lat="-41.25876406637421" lon="174.866824337212">
        <ele>42</ele>
      </trkpt>
      <trkpt lat="-41.25882891474347" lon="174.866835781041">
        <ele>41</ele>
      </trkpt>
      <trkpt lat="-41.25889280946024" lon="174.866847224871">
        <ele>41</ele>
      </trkpt>
      <trkpt lat="-41.25896051878696" lon="174.866805264162">
        <ele>43</ele>
      </trkpt>
      <trkpt lat="-41.25907400343315" lon="174.866807171467">
        <ele>44</ele>
      </trkpt>
      <trkpt lat="-41.25914552736982" lon="174.866789052069">
        <ele>45</ele>
      </trkpt>
      <trkpt lat="-41.25923326339882" lon="174.866831012779">
        <ele>44</ele>
      </trkpt>
      <trkpt lat="-41.25929906542056" lon="174.866874880793">
        <ele>42</ele>
      </trkpt>
      <trkpt lat="-41.2593648674423" lon="174.866918748808">
        <ele>41</ele>
      </trkpt>
      <trkpt lat="-41.25943639137898" lon="174.866948312035">
        <ele>40</ele>
      </trkpt>
      <trkpt lat="-41.25950696166317" lon="174.866978828915">
        <ele>39</ele>
      </trkpt>
      <trkpt lat="-41.25962902918177" lon="174.866978828915">
        <ele>39</ele>
      </trkpt>
      <trkpt lat="-41.25968529467862" lon="174.86696929239">
        <ele>40</ele>
      </trkpt>
      <trkpt lat="-41.25976063322526" lon="174.866995041007">
        <ele>39</ele>
      </trkpt>
      <trkpt lat="-41.25983024985695" lon="174.867058935724">
        <ele>37</ele>
      </trkpt>
      <trkpt lat="-41.25991512492848" lon="174.867098989128">
        <ele>36</ele>
      </trkpt>
      <trkpt lat="-41.26" lon="174.867083730689">
        <ele>37</ele>
      </trkpt>
      <trkpt lat="-41.26" lon="174.867083730689">
        <ele>37</ele>
      </trkpt>
      <trkpt lat="-41.26009822620637" lon="174.867052260156">
        <ele>35</ele>
      </trkpt>
      <trkpt lat="-41.26015735266068" lon="174.866996948312">
        <ele>36</ele>
      </trkpt>
      <trkpt lat="-41.26022220102994" lon="174.866973107">
        <ele>35</ele>
      </trkpt>
      <trkpt lat="-41.26030040053404" lon="174.86699218005">
        <ele>32</ele>
      </trkpt>
      <trkpt lat="-41.2603213808888" lon="174.866977875262">
        <ele>32</ele>
      </trkpt>
      <trkpt lat="-41.26034045393858" lon="174.86694640473">
        <ele>32</ele>
      </trkpt>
      <trkpt lat="-41.26036048064085" lon="174.866893953843">
        <ele>33</ele>
      </trkpt>
      <trkpt lat="-41.26038813656303" lon="174.866852946786">
        <ele>34</ele>
      </trkpt>
      <trkpt lat="-41.26041197787526" lon="174.866826244517">
        <ele>34</ele>
      </trkpt>
      <trkpt lat="-41.26044058744993" lon="174.866808125119">
        <ele>34</ele>
      </trkpt>
      <trkpt lat="-41.26053976730879" lon="174.86670513065">
        <ele>34</ele>
      </trkpt>
      <trkpt lat="-41.26060270837306" lon="174.866661262636">
        <ele>33</ele>
      </trkpt>
      <trkpt lat="-41.26067709326721" lon="174.866620255579">
        <ele>31</ele>
      </trkpt>
      <trkpt lat="-41.26075052450886" lon="174.866580202174">
        <ele>29</ele>
      </trkpt>
      <trkpt lat="-41.26077531947358" lon="174.866554453557">
        <ele>28</ele>
      </trkpt>
      <trkpt lat="-41.26080106809079" lon="174.866485790578">
        <ele>28</ele>
      </trkpt>
      <trkpt lat="-41.2608258630555" lon="174.866417127599">
        <ele>28</ele>
      </trkpt>
      <trkpt lat="-41.26102613007819" lon="174.866147243944">
        <ele>26</ele>
      </trkpt>
      <trkpt lat="-41.26105855426282" lon="174.866030898341">
        <ele>27</ele>
      </trkpt>
      <trkpt lat="-41.26106332252527" lon="174.865982262064">
        <ele>27</ele>
      </trkpt>
      <trkpt lat="-41.26105855426282" lon="174.865908830822">
        <ele>28</ele>
      </trkpt>
      <trkpt lat="-41.26104997139042" lon="174.865885943162">
        <ele>29</ele>
      </trkpt>
      <trkpt lat="-41.26100991798588" lon="174.865851611673">
        <ele>31</ele>
      </trkpt>
      <trkpt lat="-41.26100991798588" lon="174.865851611673">
        <ele>31</ele>
      </trkpt>
      <trkpt lat="-41.26099752050352" lon="174.86589643334">
        <ele>30</ele>
      </trkpt>
      <trkpt lat="-41.26095555979401" lon="174.86589261873">
        <ele>32</ele>
      </trkpt>
      <trkpt lat="-41.26086591646004" lon="174.865957467099">
        <ele>34</ele>
      </trkpt>
      <trkpt lat="-41.26085542628266" lon="174.865970818234">
        <ele>34</ele>
      </trkpt>
      <trkpt lat="-41.26083063131794" lon="174.866044249475">
        <ele>33</ele>
      </trkpt>
      <trkpt lat="-41.26072668319664" lon="174.866070951745">
        <ele>36</ele>
      </trkpt>
      <trkpt lat="-41.26067995422468" lon="174.866109097845">
        <ele>37</ele>
      </trkpt>
      <trkpt lat="-41.2605826816708" lon="174.866104329582">
        <ele>40</ele>
      </trkpt>
      <trkpt lat="-41.26053786000381" lon="174.866128170895">
        <ele>42</ele>
      </trkpt>
      <trkpt lat="-41.26042342170513" lon="174.866225443448">
        <ele>44</ele>
      </trkpt>
      <trkpt lat="-41.2603995803929" lon="174.866238794583">
        <ele>45</ele>
      </trkpt>
      <trkpt lat="-41.26028323478924" lon="174.866259774938">
        <ele>48</ele>
      </trkpt>
      <trkpt lat="-41.26016688918558" lon="174.866280755293">
        <ele>52</ele>
      </trkpt>
      <trkpt lat="-41.26016688918558" lon="174.866280755293">
        <ele>52</ele>
      </trkpt>
      <trkpt lat="-41.2600772458516" lon="174.866260728591">
        <ele>55</ele>
      </trkpt>
      <trkpt lat="-41.26" lon="174.866187297349">
        <ele>58</ele>
      </trkpt>
      <trkpt lat="-41.26" lon="174.866187297349">
        <ele>58</ele>
      </trkpt>
      <trkpt lat="-41.25991989319092" lon="174.86612626359">
        <ele>58</ele>
      </trkpt>
      <trkpt lat="-41.25975154036355" lon="174.86611268011">
        <ele>58</ele>
      </trkpt>
      <trkpt lat="-41.25975205035285" lon="174.86611481976">
        <ele>58</ele>
      </trkpt>
      <trkpt lat="-41.25978155286546" lon="174.866238730313">
        <ele>57</ele>
      </trkpt>
      <trkpt lat="-41.25978155286546" lon="174.866238730313">
        <ele>57</ele>
      </trkpt>
      <trkpt lat="-41.25975205035285" lon="174.86611481976">
        <ele>58</ele>
      </trkpt>
      <trkpt lat="-41.25975154036355" lon="174.86611268011">
        <ele>58</ele>
      </trkpt>
      <trkpt lat="-41.25991989319092" lon="174.86612626359">
        <ele>58</ele>
      </trkpt>
      <trkpt lat="-41.26" lon="174.866187297349">
        <ele>58</ele>
      </trkpt>
      <trkpt lat="-41.26" lon="174.866187297349">
        <ele>58</ele>
      </trkpt>
      <trkpt lat="-41.2600772458516" lon="174.866260728591">
        <ele>55</ele>
      </trkpt>
      <trkpt lat="-41.26016688918558" lon="174.866280755293">
        <ele>52</ele>
      </trkpt>
      <trkpt lat="-41.26016688918558" lon="174.866280755293">
        <ele>52</ele>
      </trkpt>
      <trkpt lat="-41.26028323478924" lon="174.866259774938">
        <ele>48</ele>
      </trkpt>
      <trkpt lat="-41.2603995803929" lon="174.866238794583">
        <ele>45</ele>
      </trkpt>
      <trkpt lat="-41.26042342170513" lon="174.866225443448">
        <ele>44</ele>
      </trkpt>
      <trkpt lat="-41.26053786000381" lon="174.866128170895">
        <ele>42</ele>
      </trkpt>
      <trkpt lat="-41.2605826816708" lon="174.866104329582">
        <ele>40</ele>
      </trkpt>
      <trkpt lat="-41.26067995422468" lon="174.866109097845">
        <ele>37</ele>
      </trkpt>
      <trkpt lat="-41.26072668319664" lon="174.866070951745">
        <ele>36</ele>
      </trkpt>
      <trkpt lat="-41.26083063131794" lon="174.866044249475">
        <ele>33</ele>
      </trkpt>
      <trkpt lat="-41.26085542628266" lon="174.865970818234">
        <ele>34</ele>
      </trkpt>
      <trkpt lat="-41.26086591646004" lon="174.865957467099">
        <ele>34</ele>
      </trkpt>
      <trkpt lat="-41.26095555979401" lon="174.86589261873">
        <ele>32</ele>
      </trkpt>
      <trkpt lat="-41.26099752050352" lon="174.86589643334">
        <ele>30</ele>
      </trkpt>
      <trkpt lat="-41.26100991798588" lon="174.865851611673">
        <ele>31</ele>
      </trkpt>
      <trkpt lat="-41.26100991798588" lon="174.865851611673">
        <ele>31</ele>
      </trkpt>
      <trkpt lat="-41.26091073812702" lon="174.865771504864">
        <ele>33</ele>
      </trkpt>
      <trkpt lat="-41.26081918748807" lon="174.865737173374">
        <ele>35</ele>
      </trkpt>
      <trkpt lat="-41.26044344840739" lon="174.865633225253">
        <ele>43</ele>
      </trkpt>
      <trkpt lat="-41.26036906351325" lon="174.86562845699">
        <ele>45</ele>
      </trkpt>
      <trkpt lat="-41.2602946786191" lon="174.86562464238">
        <ele>47</ele>
      </trkpt>
      <trkpt lat="-41.26024413503719" lon="174.865600801068">
        <ele>48</ele>
      </trkpt>
      <trkpt lat="-41.26021934007247" lon="174.865575052451">
        <ele>48</ele>
      </trkpt>
      <trkpt lat="-41.26019168415029" lon="174.865505435819">
        <ele>47</ele>
      </trkpt>
      <trkpt lat="-41.26017928666793" lon="174.865441541102">
        <ele>45</ele>
      </trkpt>
      <trkpt lat="-41.2601821476254" lon="174.865388136563">
        <ele>44</ele>
      </trkpt>
      <trkpt lat="-41.26019454510776" lon="174.865310890711">
        <ele>41</ele>
      </trkpt>
      <trkpt lat="-41.26020598893763" lon="174.86523364486">
        <ele>39</ele>
      </trkpt>
      <trkpt lat="-41.2602345985123" lon="174.865118252909">
        <ele>35</ele>
      </trkpt>
      <trkpt lat="-41.26026320808697" lon="174.86500381461">
        <ele>31</ele>
      </trkpt>
      <trkpt lat="-41.26026130078199" lon="174.864983787908">
        <ele>31</ele>
      </trkpt>
      <trkpt lat="-41.26023936677474" lon="174.864957085638">
        <ele>31</ele>
      </trkpt>
      <trkpt lat="-41.26020408163265" lon="174.864930383368">
        <ele>31</ele>
      </trkpt>
      <trkpt lat="-41.26014400152584" lon="174.864917985886">
        <ele>32</ele>
      </trkpt>
      <trkpt lat="-41.26007247758916" lon="174.864910356666">
        <ele>33</ele>
      </trkpt>
      <trkpt lat="-41.26" lon="174.864903681099">
        <ele>35</ele>
      </trkpt>
      <trkpt lat="-41.26" lon="174.864903681099">
        <ele>35</ele>
      </trkpt>
      <trkpt lat="-41.25992561510586" lon="174.864896051879">
        <ele>36</ele>
      </trkpt>
      <trkpt lat="-41.25987697882891" lon="174.864897005531">
        <ele>36</ele>
      </trkpt>
      <trkpt lat="-41.25981499141713" lon="174.864917032233">
        <ele>38</ele>
      </trkpt>
      <trkpt lat="-41.25975205035285" lon="174.864937058936">
        <ele>39</ele>
      </trkpt>
      <trkpt lat="-41.25970150677093" lon="174.864947549113">
        <ele>40</ele>
      </trkpt>
      <trkpt lat="-41.25958134655731" lon="174.864953271028">
        <ele>42</ele>
      </trkpt>
      <trkpt lat="-41.25954033950028" lon="174.864947549113">
        <ele>42</ele>
      </trkpt>
      <trkpt lat="-41.25949265687584" lon="174.864917032233">
        <ele>42</ele>
      </trkpt>
      <trkpt lat="-41.25944974251383" lon="174.864864581347">
        <ele>41</ele>
      </trkpt>
      <trkpt lat="-41.25942685485409" lon="174.864795918367">
        <ele>40</ele>
      </trkpt>
      <trkpt lat="-41.25937535761968" lon="174.86473965287">
        <ele>40</ele>
      </trkpt>
      <trkpt lat="-41.25933435056265" lon="174.864734884608">
        <ele>41</ele>
      </trkpt>
      <trkpt lat="-41.2592695021934" lon="174.864742513828">
        <ele>42</ele>
      </trkpt>
      <trkpt lat="-41.25920370017166" lon="174.864750143048">
        <ele>43</ele>
      </trkpt>
      <trkpt lat="-41.25915983215716" lon="174.864746328438">
        <ele>44</ele>
      </trkpt>
      <trkpt lat="-41.25910070570284" lon="174.864726301736">
        <ele>43</ele>
      </trkpt>
      <trkpt lat="-41.25902250619874" lon="174.864676711806">
        <ele>42</ele>
      </trkpt>
      <trkpt lat="-41.25894430669464" lon="174.864627121877">
        <ele>42</ele>
      </trkpt>
      <trkpt lat="-41.25891474346748" lon="174.864588022125">
        <ele>41</ele>
      </trkpt>
      <trkpt lat="-41.25888804119779" lon="174.86453652489">
        <ele>40</ele>
      </trkpt>
      <trkpt lat="-41.25888804119779" lon="174.86453652489">
        <ele>40</ele>
      </trkpt>
      <trkpt lat="-41.25886229258058" lon="174.864444020599">
        <ele>39</ele>
      </trkpt>
      <trkpt lat="-41.25886419988556" lon="174.86438680145">
        <ele>38</ele>
      </trkpt>
      <trkpt lat="-41.25887755102041" lon="174.864330535953">
        <ele>38</ele>
      </trkpt>
      <trkpt lat="-41.25889948502765" lon="174.864296204463">
        <ele>37</ele>
      </trkpt>
      <trkpt lat="-41.25892618729735" lon="174.864271409498">
        <ele>37</ele>
      </trkpt>
      <trkpt lat="-41.25902822811368" lon="174.864231356094">
        <ele>36</ele>
      </trkpt>
      <trkpt lat="-41.25913026893" lon="174.864192256342">
        <ele>36</ele>
      </trkpt>
      <trkpt lat="-41.25916650772459" lon="174.864167461377">
        <ele>35</ele>
      </trkpt>
      <trkpt lat="-41.2592437535762" lon="174.86409212283">
        <ele>33</ele>
      </trkpt>
      <trkpt lat="-41.25934960900248" lon="174.864013923326">
        <ele>30</ele>
      </trkpt>
      <trkpt lat="-41.25936772839977" lon="174.863988174709">
        <ele>30</ele>
      </trkpt>
      <trkpt lat="-41.25936772839977" lon="174.863988174709">
        <ele>30</ele>
      </trkpt>
      <trkpt lat="-41.25941445737173" lon="174.86395002861">
        <ele>28</ele>
      </trkpt>
      <trkpt lat="-41.25947644478352" lon="174.863876597368">
        <ele>26</ele>
      </trkpt>
      <trkpt lat="-41.25950028609574" lon="174.863856570666">
        <ele>26</ele>
      </trkpt>
      <trkpt lat="-41.25950028609574" lon="174.863856570666">
        <ele>26</ele>
      </trkpt>
      <trkpt lat="-41.2595565515926" lon="174.863832729353">
        <ele>24</ele>
      </trkpt>
      <trkpt lat="-41.2595565515926" lon="174.863832729353">
        <ele>24</ele>
      </trkpt>
      <trkpt lat="-41.25962139996185" lon="174.863809841694">
        <ele>22</ele>
      </trkpt>
      <trkpt lat="-41.25968624833111" lon="174.863786954034">
        <ele>20</ele>
      </trkpt>
      <trkpt lat="-41.25970913599085" lon="174.863793629601">
        <ele>19</ele>
      </trkpt>
      <trkpt lat="-41.25970913599085" lon="174.863793629601">
        <ele>19</ele>
      </trkpt>
      <trkpt lat="-41.25968624833111" lon="174.863786954034">
        <ele>20</ele>
      </trkpt>
      <trkpt lat="-41.25962139996185" lon="174.863809841694">
        <ele>22</ele>
      </trkpt>
      <trkpt lat="-41.2595565515926" lon="174.863832729353">
        <ele>24</ele>
      </trkpt>
      <trkpt lat="-41.2595565515926" lon="174.863832729353">
        <ele>24</ele>
      </trkpt>
      <trkpt lat="-41.25950028609574" lon="174.863856570666">
        <ele>26</ele>
      </trkpt>
      <trkpt lat="-41.25950028609574" lon="174.863856570666">
        <ele>26</ele>
      </trkpt>
      <trkpt lat="-41.25947644478352" lon="174.863876597368">
        <ele>26</ele>
      </trkpt>
      <trkpt lat="-41.25941445737173" lon="174.86395002861">
        <ele>28</ele>
      </trkpt>
      <trkpt lat="-41.25936772839977" lon="174.863988174709">
        <ele>30</ele>
      </trkpt>
      <trkpt lat="-41.25936772839977" lon="174.863988174709">
        <ele>30</ele>
      </trkpt>
      <trkpt lat="-41.25938966240702" lon="174.863889948503">
        <ele>29</ele>
      </trkpt>
      <trkpt lat="-41.25941159641427" lon="174.863791722296">
        <ele>28</ele>
      </trkpt>
      <trkpt lat="-41.25942208659165" lon="174.863672515735">
        <ele>27</ele>
      </trkpt>
      <trkpt lat="-41.25941064276178" lon="174.863589547969">
        <ele>27</ele>
      </trkpt>
      <trkpt lat="-41.25939347701698" lon="174.863514209422">
        <ele>28</ele>
      </trkpt>
      <trkpt lat="-41.25937535761968" lon="174.863438870875">
        <ele>28</ele>
      </trkpt>
      <trkpt lat="-41.25928762159069" lon="174.863144192256">
        <ele>26</ele>
      </trkpt>
      <trkpt lat="-41.25924566088118" lon="174.863041197788">
        <ele>24</ele>
      </trkpt>
      <trkpt lat="-41.25921419034903" lon="174.863008773603">
        <ele>24</ele>
      </trkpt>
      <trkpt lat="-41.25921419034903" lon="174.863008773603">
        <ele>24</ele>
      </trkpt>
      <trkpt lat="-41.25924184627122" lon="174.862960137326">
        <ele>22</ele>
      </trkpt>
      <trkpt lat="-41.25925615105855" lon="174.862905779134">
        <ele>21</ele>
      </trkpt>
      <trkpt lat="-41.25925334329258" lon="174.862876999533">
        <ele>20</ele>
      </trkpt>
      <trkpt lat="-41.25925334329258" lon="174.862876999533">
        <ele>20</ele>
      </trkpt>
      <trkpt lat="-41.25925615105855" lon="174.862905779134">
        <ele>21</ele>
      </trkpt>
      <trkpt lat="-41.25924184627122" lon="174.862960137326">
        <ele>22</ele>
      </trkpt>
      <trkpt lat="-41.25921419034903" lon="174.863008773603">
        <ele>24</ele>
      </trkpt>
      <trkpt lat="-41.25921419034903" lon="174.863008773603">
        <ele>24</ele>
      </trkpt>
      <trkpt lat="-41.25913980545489" lon="174.863031661263">
        <ele>26</ele>
      </trkpt>
      <trkpt lat="-41.25907591073813" lon="174.862969673851">
        <ele>23</ele>
      </trkpt>
      <trkpt lat="-41.25903585733359" lon="174.862960137326">
        <ele>23</ele>
      </trkpt>
      <trkpt lat="-41.25896242609193" lon="174.862964905588">
        <ele>22</ele>
      </trkpt>
      <trkpt lat="-41.25889757772268" lon="174.862950600801">
        <ele>21</ele>
      </trkpt>
      <trkpt lat="-41.25883272935342" lon="174.862937249666">
        <ele>20</ele>
      </trkpt>
      <trkpt lat="-41.25879935151631" lon="174.862939156971">
        <ele>20</ele>
      </trkpt>
      <trkpt lat="-41.25876406637421" lon="174.862969673851">
        <ele>20</ele>
      </trkpt>
      <trkpt lat="-41.25874117871447" lon="174.862997329773">
        <ele>21</ele>
      </trkpt>
      <trkpt lat="-41.25871638374976" lon="174.863048827007">
        <ele>22</ele>
      </trkpt>
      <trkpt lat="-41.25866774747282" lon="174.863103185199">
        <ele>23</ele>
      </trkpt>
      <trkpt lat="-41.25859336257868" lon="174.863138470341">
        <ele>24</ele>
      </trkpt>
      <trkpt lat="-41.25848846080488" lon="174.863161358001">
        <ele>23</ele>
      </trkpt>
      <trkpt lat="-41.25845603662025" lon="174.863176616441">
        <ele>23</ele>
      </trkpt>
      <trkpt lat="-41.25837020789624" lon="174.863284379172">
        <ele>26</ele>
      </trkpt>
      <trkpt lat="-41.25831584970437" lon="174.863334922754">
        <ele>26</ele>
      </trkpt>
      <trkpt lat="-41.25824051115774" lon="174.863389280946">
        <ele>25</ele>
      </trkpt>
      <trkpt lat="-41.25816421895861" lon="174.863443639138">
        <ele>25</ele>
      </trkpt>
      <trkpt lat="-41.25809937058936" lon="174.863518977685">
        <ele>25</ele>
      </trkpt>
      <trkpt lat="-41.25803356856761" lon="174.863595269884">
        <ele>25</ele>
      </trkpt>
      <trkpt lat="-41.25797539576578" lon="174.863645813466">
        <ele>25</ele>
      </trkpt>
      <trkpt lat="-41.25789242799924" lon="174.86368968148">
        <ele>24</ele>
      </trkpt>
      <trkpt lat="-41.2578085065802" lon="174.863733549495">
        <ele>24</ele>
      </trkpt>
      <trkpt lat="-41.2577474728209" lon="174.863758344459">
        <ele>24</ele>
      </trkpt>
      <trkpt lat="-41.25768643906161" lon="174.863783139424">
        <ele>23</ele>
      </trkpt>
      <trkpt lat="-41.2576177760824" lon="174.863847987793">
        <ele>24</ele>
      </trkpt>
      <trkpt lat="-41.25755960328056" lon="174.863891855808">
        <ele>25</ele>
      </trkpt>
      <trkpt lat="-41.25751764257105" lon="174.86391951173">
        <ele>25</ele>
      </trkpt>
      <trkpt lat="-41.25744993324432" lon="174.863950982262">
        <ele>25</ele>
      </trkpt>
      <trkpt lat="-41.25738127026511" lon="174.863982452794">
        <ele>25</ele>
      </trkpt>
      <trkpt lat="-41.25730783902346" lon="174.864033950029">
        <ele>26</ele>
      </trkpt>
      <trkpt lat="-41.25723631508679" lon="174.864146481022">
        <ele>28</ele>
      </trkpt>
      <trkpt lat="-41.257174327675" lon="174.864210375739">
        <ele>29</ele>
      </trkpt>
      <trkpt lat="-41.25711234026321" lon="174.864274270456">
        <ele>30</ele>
      </trkpt>
      <trkpt lat="-41.25707419416365" lon="174.864274270456">
        <ele>30</ele>
      </trkpt>
      <trkpt lat="-41.25700267022697" lon="174.864222773221">
        <ele>28</ele>
      </trkpt>
      <trkpt lat="-41.25695117299256" lon="174.864274270456">
        <ele>29</ele>
      </trkpt>
      <trkpt lat="-41.25690635132558" lon="174.864274270456">
        <ele>28</ele>
      </trkpt>
      <trkpt lat="-41.25681384703414" lon="174.864241846271">
        <ele>26</ele>
      </trkpt>
      <trkpt lat="-41.25675948884226" lon="174.864274270456">
        <ele>27</ele>
      </trkpt>
      <trkpt lat="-41.25670036238795" lon="174.864300972726">
        <ele>27</ele>
      </trkpt>
      <trkpt lat="-41.25664409689109" lon="174.864316231165">
        <ele>27</ele>
      </trkpt>
      <trkpt lat="-41.25659355330917" lon="174.864341979783">
        <ele>27</ele>
      </trkpt>
      <trkpt lat="-41.25651440015258" lon="174.864355330917">
        <ele>27</ele>
      </trkpt>
      <trkpt lat="-41.25651440015258" lon="174.864355330917">
        <ele>27</ele>
      </trkpt>
      <trkpt lat="-41.25644669082586" lon="174.86435246996">
        <ele>26</ele>
      </trkpt>
      <trkpt lat="-41.25644669082586" lon="174.86435246996">
        <ele>26</ele>
      </trkpt>
      <trkpt lat="-41.25637230593172" lon="174.864402059889">
        <ele>27</ele>
      </trkpt>
      <trkpt lat="-41.25634560366203" lon="174.864408735457">
        <ele>27</ele>
      </trkpt>
      <trkpt lat="-41.25631413312989" lon="174.864397291627">
        <ele>26</ele>
      </trkpt>
      <trkpt lat="-41.2562607285905" lon="174.864397291627">
        <ele>26</ele>
      </trkpt>
      <trkpt lat="-41.25622353614343" lon="174.864410642762">
        <ele>26</ele>
      </trkpt>
      <trkpt lat="-41.25620255578867" lon="174.864437345031">
        <ele>27</ele>
      </trkpt>
      <trkpt lat="-41.2561653633416" lon="174.864512683578">
        <ele>28</ele>
      </trkpt>
      <trkpt lat="-41.25614533663933" lon="174.864576578295">
        <ele>29</ele>
      </trkpt>
      <trkpt lat="-41.25612435628457" lon="174.864640473012">
        <ele>31</ele>
      </trkpt>
      <trkpt lat="-41.25612054167461" lon="174.864675758154">
        <ele>32</ele>
      </trkpt>
      <trkpt lat="-41.25613389280946" lon="174.864783520885">
        <ele>34</ele>
      </trkpt>
      <trkpt lat="-41.25612530993706" lon="174.86481594507">
        <ele>35</ele>
      </trkpt>
      <trkpt lat="-41.25610719053977" lon="174.864841693687">
        <ele>36</ele>
      </trkpt>
      <trkpt lat="-41.25603566660309" lon="174.864857905779">
        <ele>35</ele>
      </trkpt>
      <trkpt lat="-41.25596414266641" lon="174.864875071524">
        <ele>35</ele>
      </trkpt>
      <trkpt lat="-41.25589929429716" lon="174.864901773794">
        <ele>35</ele>
      </trkpt>
      <trkpt lat="-41.25583539958039" lon="174.864917985886">
        <ele>34</ele>
      </trkpt>
      <trkpt lat="-41.25577055121114" lon="174.864935151631">
        <ele>34</ele>
      </trkpt>
      <trkpt lat="-41.25569044440206" lon="174.864947549113">
        <ele>33</ele>
      </trkpt>
      <trkpt lat="-41.2556093839405" lon="174.864960900248">
        <ele>32</ele>
      </trkpt>
      <trkpt lat="-41.25552546252145" lon="174.865029563227">
        <ele>32</ele>
      </trkpt>
      <trkpt lat="-41.255434865535" lon="174.865046728972">
        <ele>31</ele>
      </trkpt>
      <trkpt lat="-41.25532519549876" lon="174.865020980355">
        <ele>30</ele>
      </trkpt>
      <trkpt lat="-41.255261300782" lon="174.865106809079">
        <ele>29</ele>
      </trkpt>
      <trkpt lat="-41.25520312798017" lon="174.865149723441">
        <ele>28</ele>
      </trkpt>
      <trkpt lat="-41.2550867823765" lon="174.865190730498">
        <ele>27</ele>
      </trkpt>
      <trkpt lat="-41.2550867823765" lon="174.865190730498">
        <ele>27</ele>
      </trkpt>
      <trkpt lat="-41.25505640830725" lon="174.865193988616">
        <ele>26</ele>
      </trkpt>
      <trkpt lat="-41.25505640830725" lon="174.865193988616">
        <ele>26</ele>
      </trkpt>
      <trkpt lat="-41.25501173346456" lon="174.865135915968">
        <ele>26</ele>
      </trkpt>
      <trkpt lat="-41.25501173346456" lon="174.865135915968">
        <ele>26</ele>
      </trkpt>
      <trkpt lat="-41.25500572191493" lon="174.865133511348">
        <ele>26</ele>
      </trkpt>
      <trkpt lat="-41.25495422468052" lon="174.865123021171">
        <ele>25</ele>
      </trkpt>
      <trkpt lat="-41.25490368109861" lon="174.865096318901">
        <ele>23</ele>
      </trkpt>
      <trkpt lat="-41.25490368109861" lon="174.865096318901">
        <ele>23</ele>
      </trkpt>
      <trkpt lat="-41.25489509822621" lon="174.865061033759">
        <ele>23</ele>
      </trkpt>
      <trkpt lat="-41.25482262063704" lon="174.864970436773">
        <ele>21</ele>
      </trkpt>
      <trkpt lat="-41.25480736219721" lon="174.864933244326">
        <ele>20</ele>
      </trkpt>
      <trkpt lat="-41.25479401106237" lon="174.864865534999">
        <ele>19</ele>
      </trkpt>
      <trkpt lat="-41.25478343567047" lon="174.864811902654">
        <ele>18</ele>
      </trkpt>
      <trkpt lat="-41.25478343567047" lon="174.864811902654">
        <ele>18</ele>
      </trkpt>
      <trkpt lat="-41.25479401106237" lon="174.864865534999">
        <ele>19</ele>
      </trkpt>
      <trkpt lat="-41.25480736219721" lon="174.864933244326">
        <ele>20</ele>
      </trkpt>
      <trkpt lat="-41.25482262063704" lon="174.864970436773">
        <ele>21</ele>
      </trkpt>
      <trkpt lat="-41.25489509822621" lon="174.865061033759">
        <ele>23</ele>
      </trkpt>
      <trkpt lat="-41.25490368109861" lon="174.865096318901">
        <ele>23</ele>
      </trkpt>
      <trkpt lat="-41.25490368109861" lon="174.865096318901">
        <ele>23</ele>
      </trkpt>
      <trkpt lat="-41.25489795918367" lon="174.865111577341">
        <ele>23</ele>
      </trkpt>
      <trkpt lat="-41.25489510233521" lon="174.86511467226">
        <ele>23</ele>
      </trkpt>
      <trkpt lat="-41.25489510233521" lon="174.86511467226">
        <ele>23</ele>
      </trkpt>
      <trkpt lat="-41.25487507152393" lon="174.865136372306">
        <ele>23</ele>
      </trkpt>
      <trkpt lat="-41.25484741560175" lon="174.865149723441">
        <ele>22</ele>
      </trkpt>
      <trkpt lat="-41.25479496471486" lon="174.865140186916">
        <ele>21</ele>
      </trkpt>
      <trkpt lat="-41.25471676521076" lon="174.865136372306">
        <ele>20</ele>
      </trkpt>
      <trkpt lat="-41.25467098989128" lon="174.865144955178">
        <ele>19</ele>
      </trkpt>
      <trkpt lat="-41.25464142666412" lon="174.865168796491">
        <ele>18</ele>
      </trkpt>
      <trkpt lat="-41.25463189013923" lon="174.865194545108">
        <ele>18</ele>
      </trkpt>
      <trkpt lat="-41.25463093648674" lon="174.865224108335">
        <ele>18</ele>
      </trkpt>
      <trkpt lat="-41.25463093648674" lon="174.865224108335">
        <ele>18</ele>
      </trkpt>
      <trkpt lat="-41.25455707223104" lon="174.865222185322">
        <ele>17</ele>
      </trkpt>
      <trkpt lat="-41.25455707223104" lon="174.865222185322">
        <ele>17</ele>
      </trkpt>
      <trkpt lat="-41.25442685485409" lon="174.865223154682">
        <ele>14</ele>
      </trkpt>
      <trkpt lat="-41.25431527751287" lon="174.865230783902">
        <ele>12</ele>
      </trkpt>
      <trkpt lat="-41.25421419034904" lon="174.865265115392">
        <ele>10</ele>
      </trkpt>
      <trkpt lat="-41.25411214953271" lon="174.865300400534">
        <ele>8</ele>
      </trkpt>
      <trkpt lat="-41.25407400343315" lon="174.865316612626">
        <ele>8</ele>
      </trkpt>
      <trkpt lat="-41.25404920846844" lon="174.865334732024">
        <ele>8</ele>
      </trkpt>
      <trkpt lat="-41.25403395002861" lon="174.865353805073">
        <ele>7</ele>
      </trkpt>
      <trkpt lat="-41.25402345985123" lon="174.865380507343">
        <ele>7</ele>
      </trkpt>
      <trkpt lat="-41.2540263208087" lon="174.865441541102">
        <ele>7</ele>
      </trkpt>
      <trkpt lat="-41.25403681098608" lon="174.865468243372">
        <ele>7</ele>
      </trkpt>
      <trkpt lat="-41.25405302307839" lon="174.865486362769">
        <ele>7</ele>
      </trkpt>
      <trkpt lat="-41.25407304978066" lon="174.865494945642">
        <ele>8</ele>
      </trkpt>
      <trkpt lat="-41.25414362006485" lon="174.865492084684">
        <ele>8</ele>
      </trkpt>
      <trkpt lat="-41.2544173183292" lon="174.865456799542">
        <ele>14</ele>
      </trkpt>
      <trkpt lat="-41.25452603471295" lon="174.86545203128">
        <ele>16</ele>
      </trkpt>
      <trkpt lat="-41.25459279038719" lon="174.865456799542">
        <ele>17</ele>
      </trkpt>
      <trkpt lat="-41.25465954606142" lon="174.865481594507">
        <ele>19</ele>
      </trkpt>
      <trkpt lat="-41.25469673850849" lon="174.865506389472">
        <ele>19</ele>
      </trkpt>
      <trkpt lat="-41.2547739843601" lon="174.865584588976">
        <ele>21</ele>
      </trkpt>
      <trkpt lat="-41.25536810986077" lon="174.866375166889">
        <ele>22</ele>
      </trkpt>
      <trkpt lat="-41.25544726301736" lon="174.866493419798">
        <ele>22</ele>
      </trkpt>
      <trkpt lat="-41.25547396528705" lon="174.866553499905">
        <ele>21</ele>
      </trkpt>
      <trkpt lat="-41.25550066755675" lon="174.866643143239">
        <ele>20</ele>
      </trkpt>
      <trkpt lat="-41.25552069425901" lon="174.866727064658">
        <ele>19</ele>
      </trkpt>
      <trkpt lat="-41.25554072096129" lon="174.866810986077">
        <ele>18</ele>
      </trkpt>
      <trkpt lat="-41.25555884035857" lon="174.866910165936">
        <ele>17</ele>
      </trkpt>
      <trkpt lat="-41.25557600610338" lon="174.867010299447">
        <ele>15</ele>
      </trkpt>
      <trkpt lat="-41.255608430288" lon="174.867064657639">
        <ele>14</ele>
      </trkpt>
      <trkpt lat="-41.255608430288" lon="174.867064657639">
        <ele>14</ele>
      </trkpt>
      <trkpt lat="-41.25570570284189" lon="174.867084684341">
        <ele>16</ele>
      </trkpt>
      <trkpt lat="-41.25570570284189" lon="174.867084684341">
        <ele>16</ele>
      </trkpt>
      <trkpt lat="-41.25581155826816" lon="174.867135227923">
        <ele>16</ele>
      </trkpt>
      <trkpt lat="-41.25584684341026" lon="174.867160022888">
        <ele>16</ele>
      </trkpt>
      <trkpt lat="-41.2558954796872" lon="174.867216288385">
        <ele>15</ele>
      </trkpt>
      <trkpt lat="-41.25593362578676" lon="174.867294487889">
        <ele>13</ele>
      </trkpt>
      <trkpt lat="-41.25595842075148" lon="174.867370780088">
        <ele>11</ele>
      </trkpt>
      <trkpt lat="-41.25595842075148" lon="174.867370780088">
        <ele>11</ele>
      </trkpt>
      <trkpt lat="-41.25601373259584" lon="174.867459469769">
        <ele>8</ele>
      </trkpt>
      <trkpt lat="-41.25601373259584" lon="174.867459469769">
        <ele>8</ele>
      </trkpt>
      <trkpt lat="-41.25605664695785" lon="174.867539576578">
        <ele>7</ele>
      </trkpt>
      <trkpt lat="-41.25614819759679" lon="174.86759774938">
        <ele>7</ele>
      </trkpt>
      <trkpt lat="-41.25621590692352" lon="174.867613961472">
        <ele>7</ele>
      </trkpt>
      <trkpt lat="-41.25624642380317" lon="174.867610146862">
        <ele>7</ele>
      </trkpt>
      <trkpt lat="-41.25631985504482" lon="174.867575815373">
        <ele>7</ele>
      </trkpt>
      <trkpt lat="-41.25639328628647" lon="174.867541483883">
        <ele>7</ele>
      </trkpt>
      <trkpt lat="-41.25646194926568" lon="174.867520503529">
        <ele>7</ele>
      </trkpt>
      <trkpt lat="-41.25653156589739" lon="174.867513827961">
        <ele>7</ele>
      </trkpt>
      <trkpt lat="-41.25662788479878" lon="174.867525271791">
        <ele>7</ele>
      </trkpt>
      <trkpt lat="-41.25672420370017" lon="174.867537669273">
        <ele>7</ele>
      </trkpt>
      <trkpt lat="-41.25676997901964" lon="174.867529086401">
        <ele>7</ele>
      </trkpt>
      <trkpt lat="-41.25684627121877" lon="174.867492847606">
        <ele>8</ele>
      </trkpt>
      <trkpt lat="-41.2569216097654" lon="174.867456608812">
        <ele>10</ele>
      </trkpt>
    </trkseg>
  </trk>
</gpx>