<?xml version="1.0" encoding="UTF-8" standalone="yes"?>
<gpx
 version="1.1"
 creator="Generated by MapOut iPhone App. See https://mapout.app"
 xmlns="http://www.topografix.com/GPX/1/1"
 xmlns:xsi="http://www.w3.org/2001/XMLSchema-instance"
 xmlns:gpxx="http://www.garmin.com/xmlschemas/GpxExtensions/v3"
 xmlns:mapout="https://mapout.app/xmlschemas/MapOutExtensions"
 xsi:schemaLocation="http://www.topografix.com/GPX/1/1 https://www.topografix.com/GPX/1/1/gpx.xsd http://www.garmin.com/xmlschemas/GpxExtensions/v3 https://www8.garmin.com/xmlschemas/GpxExtensionsv3.xsd https://mapout.app/xmlschemas/MapOutExtensions https://mapout.app/xmlschemas/MapOutExtensions.xsd">
  <metadata>
    <name>The Grove</name>
    <author><name>iPhone</name></author>
    <time>2026-09-17T23:03:58Z</time>
    <bounds minlat="-40.84874690062941" minlon="172.868393824059" maxlat="-40.84725798766485" maxlon="172.87126268917"/>
  </metadata>
  <trk>
    <name>The Grove</name>
    <trkseg>
      <trkpt lat="-40.847396939467" lon="172.87114022142">
        <ele>43</ele>
      </trkpt>
      <trkpt lat="-40.84732786572573" lon="172.871182529086">
        <ele>42</ele>
      </trkpt>
      <trkpt lat="-40.84732786572573" lon="172.871182529086">
        <ele>42</ele>
      </trkpt>
      <trkpt lat="-40.84731546824337" lon="172.871068090788">
        <ele>43</ele>
      </trkpt>
      <trkpt lat="-40.8474518405493" lon="172.870891665077">
        <ele>45</ele>
      </trkpt>
      <trkpt lat="-40.84758344459279" lon="172.870789624261">
        <ele>47</ele>
      </trkpt>
      <trkpt lat="-40.84773602899104" lon="172.870725729544">
        <ele>48</ele>
      </trkpt>
      <trkpt lat="-40.84790005721915" lon="172.870607476636">
        <ele>50</ele>
      </trkpt>
      <trkpt lat="-40.84800114438299" lon="172.870622735075">
        <ele>50</ele>
      </trkpt>
      <trkpt lat="-40.84806599275224" lon="172.870348083158">
        <ele>53</ele>
      </trkpt>
      <trkpt lat="-40.84817852374595" lon="172.870197406065">
        <ele>56</ele>
      </trkpt>
      <trkpt lat="-40.84833206179668" lon="172.870151630746">
        <ele>57</ele>
      </trkpt>
      <trkpt lat="-40.84853995803929" lon="172.869955178333">
        <ele>58</ele>
      </trkpt>
      <trkpt lat="-40.84874690062941" lon="172.86982357429">
        <ele>58</ele>
      </trkpt>
      <trkpt lat="-40.84868872782758" lon="172.869549876025">
        <ele>62</ele>
      </trkpt>
      <trkpt lat="-40.84860480640855" lon="172.869246614534">
        <ele>66</ele>
      </trkpt>
      <trkpt lat="-40.84864772077055" lon="172.869021552546">
        <ele>65</ele>
      </trkpt>
      <trkpt lat="-40.84861529658593" lon="172.868986267404">
        <ele>65</ele>
      </trkpt>
      <trkpt lat="-40.84846271218768" lon="172.869089261873">
        <ele>67</ele>
      </trkpt>
      <trkpt lat="-40.84828628647721" lon="172.868814609956">
        <ele>61</ele>
      </trkpt>
      <trkpt lat="-40.84821571619302" lon="172.868603852756">
        <ele>55</ele>
      </trkpt>
      <trkpt lat="-40.8481315632806" lon="172.868393824059">
        <ele>49</ele>
      </trkpt>
      <trkpt lat="-40.8481315632806" lon="172.868393824059">
        <ele>49</ele>
      </trkpt>
      <trkpt lat="-40.84821571619302" lon="172.868603852756">
        <ele>55</ele>
      </trkpt>
      <trkpt lat="-40.84828628647721" lon="172.868814609956">
        <ele>61</ele>
      </trkpt>
      <trkpt lat="-40.84828628647721" lon="172.868814609956">
        <ele>61</ele>
      </trkpt>
      <trkpt lat="-40.84807552927713" lon="172.869175090597">
        <ele>63</ele>
      </trkpt>
      <trkpt lat="-40.84810032424185" lon="172.869342933435">
        <ele>62</ele>
      </trkpt>
      <trkpt lat="-40.84795250810605" lon="172.869753957658">
        <ele>58</ele>
      </trkpt>
      <trkpt lat="-40.84768071714667" lon="172.87000762922">
        <ele>55</ele>
      </trkpt>
      <trkpt lat="-40.84755769597559" lon="172.870352851421">
        <ele>51</ele>
      </trkpt>
      <trkpt lat="-40.8474518405493" lon="172.870891665077">
        <ele>45</ele>
      </trkpt>
      <trkpt lat="-40.8474518405493" lon="172.870891665077">
        <ele>45</ele>
      </trkpt>
      <trkpt lat="-40.84731546824337" lon="172.871068090788">
        <ele>43</ele>
      </trkpt>
      <trkpt lat="-40.84732786572573" lon="172.871182529086">
        <ele>42</ele>
      </trkpt>
      <trkpt lat="-40.84732786572573" lon="172.871182529086">
        <ele>42</ele>
      </trkpt>
      <trkpt lat="-40.8472696929239" lon="172.871249284761">
        <ele>41</ele>
      </trkpt>
      <trkpt lat="-40.84725798766485" lon="172.87126268917">
        <ele>41</ele>
      </trkpt>
    </trkseg>
  </trk>
</gpx>