<?xml version="1.0" encoding="UTF-8" standalone="yes"?>
<gpx
 version="1.1"
 creator="Generated by MapOut iPhone App. See https://mapout.app"
 xmlns="http://www.topografix.com/GPX/1/1"
 xmlns:xsi="http://www.w3.org/2001/XMLSchema-instance"
 xmlns:gpxx="http://www.garmin.com/xmlschemas/GpxExtensions/v3"
 xmlns:mapout="https://mapout.app/xmlschemas/MapOutExtensions"
 xsi:schemaLocation="http://www.topografix.com/GPX/1/1 https://www.topografix.com/GPX/1/1/gpx.xsd http://www.garmin.com/xmlschemas/GpxExtensions/v3 https://www8.garmin.com/xmlschemas/GpxExtensionsv3.xsd https://mapout.app/xmlschemas/MapOutExtensions https://mapout.app/xmlschemas/MapOutExtensions.xsd">
  <metadata>
    <name>Waihao River</name>
    <desc></desc>
    <time>2026-10-01T05:01:10Z</time>
    <bounds minlat="-44.800975" minlon="170.95755" maxlat="-44.795196" maxlon="170.97612"/>
  </metadata>
  <trk>
    <name>Waihao River</name>
    <desc></desc>
    <extensions>
      <gpxx:TrackExtension>
        <gpxx:DisplayColor>Yellow</gpxx:DisplayColor>
      </gpxx:TrackExtension>
    </extensions>
    <trkseg>
      <trkpt lat="-44.795226" lon="170.95755">
        <ele>72</ele>
        <time>2026-10-01T04:39:59.000Z</time>
      </trkpt>
      <trkpt lat="-44.795211" lon="170.95769">
        <ele>73</ele>
        <time>2026-10-01T04:40:08.000Z</time>
      </trkpt>
      <trkpt lat="-44.795196" lon="170.95783">
        <ele>74</ele>
        <time>2026-10-01T04:40:18.000Z</time>
      </trkpt>
      <trkpt lat="-44.795219" lon="170.95797">
        <ele>74</ele>
        <time>2026-10-01T04:40:28.000Z</time>
      </trkpt>
      <trkpt lat="-44.79529" lon="170.95806">
        <ele>75</ele>
        <time>2026-10-01T04:40:36.000Z</time>
      </trkpt>
      <trkpt lat="-44.795374" lon="170.95815">
        <ele>75</ele>
        <time>2026-10-01T04:40:45.000Z</time>
      </trkpt>
      <trkpt lat="-44.79546" lon="170.95825">
        <ele>75</ele>
        <time>2026-10-01T04:40:54.000Z</time>
      </trkpt>
      <trkpt lat="-44.795544" lon="170.95835">
        <ele>75</ele>
        <time>2026-10-01T04:41:03.000Z</time>
      </trkpt>
      <trkpt lat="-44.795614" lon="170.95844">
        <ele>75</ele>
        <time>2026-10-01T04:41:11.000Z</time>
      </trkpt>
      <trkpt lat="-44.795687" lon="170.95854">
        <ele>76</ele>
        <time>2026-10-01T04:41:19.000Z</time>
      </trkpt>
      <trkpt lat="-44.795765" lon="170.95864">
        <ele>74</ele>
        <time>2026-10-01T04:41:28.000Z</time>
      </trkpt>
      <trkpt lat="-44.795844" lon="170.95876">
        <ele>75</ele>
        <time>2026-10-01T04:41:37.000Z</time>
      </trkpt>
      <trkpt lat="-44.795901" lon="170.95887">
        <ele>74</ele>
        <time>2026-10-01T04:41:45.000Z</time>
      </trkpt>
      <trkpt lat="-44.795977" lon="170.95897">
        <ele>74</ele>
        <time>2026-10-01T04:41:53.000Z</time>
      </trkpt>
      <trkpt lat="-44.796045" lon="170.95907">
        <ele>73</ele>
        <time>2026-10-01T04:42:01.000Z</time>
      </trkpt>
      <trkpt lat="-44.796114" lon="170.95917">
        <ele>73</ele>
        <time>2026-10-01T04:42:09.000Z</time>
      </trkpt>
      <trkpt lat="-44.796197" lon="170.95925">
        <ele>73</ele>
        <time>2026-10-01T04:42:17.000Z</time>
      </trkpt>
      <trkpt lat="-44.796272" lon="170.95937">
        <ele>73</ele>
        <time>2026-10-01T04:42:25.000Z</time>
      </trkpt>
      <trkpt lat="-44.796337" lon="170.95948">
        <ele>72</ele>
        <time>2026-10-01T04:42:34.000Z</time>
      </trkpt>
      <trkpt lat="-44.796416" lon="170.95959">
        <ele>71</ele>
        <time>2026-10-01T04:42:42.000Z</time>
      </trkpt>
      <trkpt lat="-44.79648" lon="170.95969">
        <ele>72</ele>
        <time>2026-10-01T04:42:50.000Z</time>
      </trkpt>
      <trkpt lat="-44.796551" lon="170.95982">
        <ele>72</ele>
        <time>2026-10-01T04:42:59.000Z</time>
      </trkpt>
      <trkpt lat="-44.796623" lon="170.95993">
        <ele>72</ele>
        <time>2026-10-01T04:43:07.000Z</time>
      </trkpt>
      <trkpt lat="-44.796691" lon="170.96003">
        <ele>72</ele>
        <time>2026-10-01T04:43:15.000Z</time>
      </trkpt>
      <trkpt lat="-44.796759" lon="170.96014">
        <ele>73</ele>
        <time>2026-10-01T04:43:23.000Z</time>
      </trkpt>
      <trkpt lat="-44.796819" lon="170.96025">
        <ele>72</ele>
        <time>2026-10-01T04:43:31.000Z</time>
      </trkpt>
      <trkpt lat="-44.796885" lon="170.96037">
        <ele>72</ele>
        <time>2026-10-01T04:43:40.000Z</time>
      </trkpt>
      <trkpt lat="-44.796951" lon="170.96048">
        <ele>73</ele>
        <time>2026-10-01T04:43:48.000Z</time>
      </trkpt>
      <trkpt lat="-44.797021" lon="170.96058">
        <ele>73</ele>
        <time>2026-10-01T04:43:55.000Z</time>
      </trkpt>
      <trkpt lat="-44.797097" lon="170.96069">
        <ele>75</ele>
        <time>2026-10-01T04:44:04.000Z</time>
      </trkpt>
      <trkpt lat="-44.797162" lon="170.9608">
        <ele>74</ele>
        <time>2026-10-01T04:44:12.000Z</time>
      </trkpt>
      <trkpt lat="-44.797217" lon="170.96092">
        <ele>73</ele>
        <time>2026-10-01T04:44:20.000Z</time>
      </trkpt>
      <trkpt lat="-44.797281" lon="170.96101">
        <ele>72</ele>
        <time>2026-10-01T04:44:28.000Z</time>
      </trkpt>
      <trkpt lat="-44.797362" lon="170.96111">
        <ele>72</ele>
        <time>2026-10-01T04:44:36.000Z</time>
      </trkpt>
      <trkpt lat="-44.79743" lon="170.96123">
        <ele>72</ele>
        <time>2026-10-01T04:44:44.000Z</time>
      </trkpt>
      <trkpt lat="-44.797496" lon="170.96132">
        <ele>70</ele>
        <time>2026-10-01T04:44:52.000Z</time>
      </trkpt>
      <trkpt lat="-44.797562" lon="170.96142">
        <ele>70</ele>
        <time>2026-10-01T04:45:00.000Z</time>
      </trkpt>
      <trkpt lat="-44.797636" lon="170.96152">
        <ele>70</ele>
        <time>2026-10-01T04:45:07.000Z</time>
      </trkpt>
      <trkpt lat="-44.797716" lon="170.96162">
        <ele>69</ele>
        <time>2026-10-01T04:45:15.000Z</time>
      </trkpt>
      <trkpt lat="-44.797795" lon="170.96171">
        <ele>70</ele>
        <time>2026-10-01T04:45:22.000Z</time>
      </trkpt>
      <trkpt lat="-44.797878" lon="170.96181">
        <ele>73</ele>
        <time>2026-10-01T04:45:30.000Z</time>
      </trkpt>
      <trkpt lat="-44.797951" lon="170.96191">
        <ele>73</ele>
        <time>2026-10-01T04:45:38.000Z</time>
      </trkpt>
      <trkpt lat="-44.79802" lon="170.962">
        <ele>74</ele>
        <time>2026-10-01T04:45:46.000Z</time>
      </trkpt>
      <trkpt lat="-44.798087" lon="170.96211">
        <ele>72</ele>
        <time>2026-10-01T04:45:54.000Z</time>
      </trkpt>
      <trkpt lat="-44.798149" lon="170.96222">
        <ele>71</ele>
        <time>2026-10-01T04:46:02.000Z</time>
      </trkpt>
      <trkpt lat="-44.798219" lon="170.96232">
        <ele>71</ele>
        <time>2026-10-01T04:46:10.000Z</time>
      </trkpt>
      <trkpt lat="-44.798297" lon="170.96245">
        <ele>71</ele>
        <time>2026-10-01T04:46:18.000Z</time>
      </trkpt>
      <trkpt lat="-44.798376" lon="170.96254">
        <ele>71</ele>
        <time>2026-10-01T04:46:26.000Z</time>
      </trkpt>
      <trkpt lat="-44.798447" lon="170.96265">
        <ele>74</ele>
        <time>2026-10-01T04:46:34.000Z</time>
      </trkpt>
      <trkpt lat="-44.798497" lon="170.96277">
        <ele>76</ele>
        <time>2026-10-01T04:46:42.000Z</time>
      </trkpt>
      <trkpt lat="-44.798539" lon="170.96289">
        <ele>76</ele>
        <time>2026-10-01T04:46:50.000Z</time>
      </trkpt>
      <trkpt lat="-44.798591" lon="170.96302">
        <ele>74</ele>
        <time>2026-10-01T04:46:57.000Z</time>
      </trkpt>
      <trkpt lat="-44.798655" lon="170.96312">
        <ele>72</ele>
        <time>2026-10-01T04:47:05.000Z</time>
      </trkpt>
      <trkpt lat="-44.798683" lon="170.96326">
        <ele>73</ele>
        <time>2026-10-01T04:47:14.000Z</time>
      </trkpt>
      <trkpt lat="-44.798728" lon="170.96341">
        <ele>73</ele>
        <time>2026-10-01T04:47:22.000Z</time>
      </trkpt>
      <trkpt lat="-44.798777" lon="170.96354">
        <ele>71</ele>
        <time>2026-10-01T04:47:30.000Z</time>
      </trkpt>
      <trkpt lat="-44.798827" lon="170.96366">
        <ele>73</ele>
        <time>2026-10-01T04:47:37.000Z</time>
      </trkpt>
      <trkpt lat="-44.798894" lon="170.96378">
        <ele>72</ele>
        <time>2026-10-01T04:47:45.000Z</time>
      </trkpt>
      <trkpt lat="-44.798958" lon="170.9639">
        <ele>74</ele>
        <time>2026-10-01T04:47:53.000Z</time>
      </trkpt>
      <trkpt lat="-44.799" lon="170.96402">
        <ele>70</ele>
        <time>2026-10-01T04:48:01.000Z</time>
      </trkpt>
      <trkpt lat="-44.799029" lon="170.96416">
        <ele>70</ele>
        <time>2026-10-01T04:48:09.000Z</time>
      </trkpt>
      <trkpt lat="-44.799056" lon="170.9643">
        <ele>71</ele>
        <time>2026-10-01T04:48:17.000Z</time>
      </trkpt>
      <trkpt lat="-44.799077" lon="170.96444">
        <ele>71</ele>
        <time>2026-10-01T04:48:25.000Z</time>
      </trkpt>
      <trkpt lat="-44.7991" lon="170.96459">
        <ele>73</ele>
        <time>2026-10-01T04:48:32.000Z</time>
      </trkpt>
      <trkpt lat="-44.799142" lon="170.96475">
        <ele>72</ele>
        <time>2026-10-01T04:48:40.000Z</time>
      </trkpt>
      <trkpt lat="-44.799181" lon="170.96488">
        <ele>74</ele>
        <time>2026-10-01T04:48:47.000Z</time>
      </trkpt>
      <trkpt lat="-44.799207" lon="170.96502">
        <ele>72</ele>
        <time>2026-10-01T04:48:55.000Z</time>
      </trkpt>
      <trkpt lat="-44.799255" lon="170.96516">
        <ele>72</ele>
        <time>2026-10-01T04:49:03.000Z</time>
      </trkpt>
      <trkpt lat="-44.799313" lon="170.96529">
        <ele>71</ele>
        <time>2026-10-01T04:49:12.000Z</time>
      </trkpt>
      <trkpt lat="-44.799356" lon="170.96541">
        <ele>69</ele>
        <time>2026-10-01T04:49:19.000Z</time>
      </trkpt>
      <trkpt lat="-44.799387" lon="170.96553">
        <ele>68</ele>
        <time>2026-10-01T04:49:26.000Z</time>
      </trkpt>
      <trkpt lat="-44.799406" lon="170.96566">
        <ele>67</ele>
        <time>2026-10-01T04:49:34.000Z</time>
      </trkpt>
      <trkpt lat="-44.799444" lon="170.96579">
        <ele>68</ele>
        <time>2026-10-01T04:49:41.000Z</time>
      </trkpt>
      <trkpt lat="-44.799478" lon="170.96591">
        <ele>69</ele>
        <time>2026-10-01T04:49:48.000Z</time>
      </trkpt>
      <trkpt lat="-44.799539" lon="170.96604">
        <ele>72</ele>
        <time>2026-10-01T04:49:56.000Z</time>
      </trkpt>
      <trkpt lat="-44.799584" lon="170.96616">
        <ele>71</ele>
        <time>2026-10-01T04:50:03.000Z</time>
      </trkpt>
      <trkpt lat="-44.799626" lon="170.96629">
        <ele>71</ele>
        <time>2026-10-01T04:50:11.000Z</time>
      </trkpt>
      <trkpt lat="-44.799666" lon="170.96641">
        <ele>70</ele>
        <time>2026-10-01T04:50:28.000Z</time>
      </trkpt>
      <trkpt lat="-44.79971" lon="170.96654">
        <ele>72</ele>
        <time>2026-10-01T04:50:35.000Z</time>
      </trkpt>
      <trkpt lat="-44.799736" lon="170.96667">
        <ele>71</ele>
        <time>2026-10-01T04:50:43.000Z</time>
      </trkpt>
      <trkpt lat="-44.799785" lon="170.9668">
        <ele>71</ele>
        <time>2026-10-01T04:50:51.000Z</time>
      </trkpt>
      <trkpt lat="-44.799844" lon="170.96694">
        <ele>71</ele>
        <time>2026-10-01T04:50:59.000Z</time>
      </trkpt>
      <trkpt lat="-44.799887" lon="170.96708">
        <ele>71</ele>
        <time>2026-10-01T04:51:07.000Z</time>
      </trkpt>
      <trkpt lat="-44.799916" lon="170.96722">
        <ele>71</ele>
        <time>2026-10-01T04:51:14.000Z</time>
      </trkpt>
      <trkpt lat="-44.799953" lon="170.96735">
        <ele>69</ele>
        <time>2026-10-01T04:51:22.000Z</time>
      </trkpt>
      <trkpt lat="-44.799976" lon="170.96749">
        <ele>68</ele>
        <time>2026-10-01T04:51:30.000Z</time>
      </trkpt>
      <trkpt lat="-44.800008" lon="170.96762">
        <ele>68</ele>
        <time>2026-10-01T04:51:38.000Z</time>
      </trkpt>
      <trkpt lat="-44.800038" lon="170.96775">
        <ele>70</ele>
        <time>2026-10-01T04:51:46.000Z</time>
      </trkpt>
      <trkpt lat="-44.800096" lon="170.96789">
        <ele>71</ele>
        <time>2026-10-01T04:51:54.000Z</time>
      </trkpt>
      <trkpt lat="-44.800153" lon="170.96801">
        <ele>70</ele>
        <time>2026-10-01T04:52:02.000Z</time>
      </trkpt>
      <trkpt lat="-44.800203" lon="170.96814">
        <ele>71</ele>
        <time>2026-10-01T04:52:10.000Z</time>
      </trkpt>
      <trkpt lat="-44.80025" lon="170.96828">
        <ele>71</ele>
        <time>2026-10-01T04:52:18.000Z</time>
      </trkpt>
      <trkpt lat="-44.80029" lon="170.96841">
        <ele>71</ele>
        <time>2026-10-01T04:52:26.000Z</time>
      </trkpt>
      <trkpt lat="-44.800332" lon="170.96856">
        <ele>72</ele>
        <time>2026-10-01T04:52:34.000Z</time>
      </trkpt>
      <trkpt lat="-44.800371" lon="170.9687">
        <ele>71</ele>
        <time>2026-10-01T04:52:42.000Z</time>
      </trkpt>
      <trkpt lat="-44.8004" lon="170.96883">
        <ele>70</ele>
        <time>2026-10-01T04:52:50.000Z</time>
      </trkpt>
      <trkpt lat="-44.80043" lon="170.96897">
        <ele>71</ele>
        <time>2026-10-01T04:52:58.000Z</time>
      </trkpt>
      <trkpt lat="-44.800458" lon="170.9691">
        <ele>70</ele>
        <time>2026-10-01T04:53:05.000Z</time>
      </trkpt>
      <trkpt lat="-44.800497" lon="170.96924">
        <ele>70</ele>
        <time>2026-10-01T04:53:13.000Z</time>
      </trkpt>
      <trkpt lat="-44.800535" lon="170.96939">
        <ele>70</ele>
        <time>2026-10-01T04:53:21.000Z</time>
      </trkpt>
      <trkpt lat="-44.800555" lon="170.96953">
        <ele>71</ele>
        <time>2026-10-01T04:53:29.000Z</time>
      </trkpt>
      <trkpt lat="-44.80058" lon="170.96969">
        <ele>71</ele>
        <time>2026-10-01T04:53:37.000Z</time>
      </trkpt>
      <trkpt lat="-44.80063" lon="170.96983">
        <ele>70</ele>
        <time>2026-10-01T04:53:45.000Z</time>
      </trkpt>
      <trkpt lat="-44.800654" lon="170.96997">
        <ele>68</ele>
        <time>2026-10-01T04:53:53.000Z</time>
      </trkpt>
      <trkpt lat="-44.800653" lon="170.97013">
        <ele>67</ele>
        <time>2026-10-01T04:54:01.000Z</time>
      </trkpt>
      <trkpt lat="-44.800673" lon="170.97028">
        <ele>67</ele>
        <time>2026-10-01T04:54:10.000Z</time>
      </trkpt>
      <trkpt lat="-44.800681" lon="170.97042">
        <ele>65</ele>
        <time>2026-10-01T04:54:18.000Z</time>
      </trkpt>
      <trkpt lat="-44.800736" lon="170.97055">
        <ele>69</ele>
        <time>2026-10-01T04:54:25.000Z</time>
      </trkpt>
      <trkpt lat="-44.800764" lon="170.97069">
        <ele>70</ele>
        <time>2026-10-01T04:54:33.000Z</time>
      </trkpt>
      <trkpt lat="-44.800802" lon="170.97083">
        <ele>70</ele>
        <time>2026-10-01T04:54:41.000Z</time>
      </trkpt>
      <trkpt lat="-44.800825" lon="170.97097">
        <ele>71</ele>
        <time>2026-10-01T04:54:49.000Z</time>
      </trkpt>
      <trkpt lat="-44.800857" lon="170.97111">
        <ele>70</ele>
        <time>2026-10-01T04:54:57.000Z</time>
      </trkpt>
      <trkpt lat="-44.800894" lon="170.97124">
        <ele>69</ele>
        <time>2026-10-01T04:55:05.000Z</time>
      </trkpt>
      <trkpt lat="-44.800909" lon="170.97139">
        <ele>71</ele>
        <time>2026-10-01T04:55:13.000Z</time>
      </trkpt>
      <trkpt lat="-44.800913" lon="170.97154">
        <ele>71</ele>
        <time>2026-10-01T04:55:28.000Z</time>
      </trkpt>
      <trkpt lat="-44.800903" lon="170.9717">
        <ele>71</ele>
        <time>2026-10-01T04:55:36.000Z</time>
      </trkpt>
      <trkpt lat="-44.800908" lon="170.97184">
        <ele>67</ele>
        <time>2026-10-01T04:55:45.000Z</time>
      </trkpt>
      <trkpt lat="-44.800908" lon="170.97198">
        <ele>68</ele>
        <time>2026-10-01T04:55:53.000Z</time>
      </trkpt>
      <trkpt lat="-44.800913" lon="170.97213">
        <ele>70</ele>
        <time>2026-10-01T04:56:01.000Z</time>
      </trkpt>
      <trkpt lat="-44.80094" lon="170.97228">
        <ele>70</ele>
        <time>2026-10-01T04:56:10.000Z</time>
      </trkpt>
      <trkpt lat="-44.800951" lon="170.97243">
        <ele>70</ele>
        <time>2026-10-01T04:56:18.000Z</time>
      </trkpt>
      <trkpt lat="-44.800975" lon="170.97257">
        <ele>66</ele>
        <time>2026-10-01T04:56:27.000Z</time>
      </trkpt>
      <trkpt lat="-44.800948" lon="170.97272">
        <ele>69</ele>
        <time>2026-10-01T04:56:35.000Z</time>
      </trkpt>
      <trkpt lat="-44.800927" lon="170.97286">
        <ele>67</ele>
        <time>2026-10-01T04:56:44.000Z</time>
      </trkpt>
      <trkpt lat="-44.800909" lon="170.973">
        <ele>68</ele>
        <time>2026-10-01T04:56:52.000Z</time>
      </trkpt>
      <trkpt lat="-44.800885" lon="170.97315">
        <ele>67</ele>
        <time>2026-10-01T04:57:00.000Z</time>
      </trkpt>
      <trkpt lat="-44.800884" lon="170.97329">
        <ele>69</ele>
        <time>2026-10-01T04:57:08.000Z</time>
      </trkpt>
      <trkpt lat="-44.800876" lon="170.97344">
        <ele>70</ele>
        <time>2026-10-01T04:57:16.000Z</time>
      </trkpt>
      <trkpt lat="-44.800854" lon="170.97356">
        <ele>69</ele>
        <time>2026-10-01T04:57:23.000Z</time>
      </trkpt>
      <trkpt lat="-44.800821" lon="170.9737">
        <ele>68</ele>
        <time>2026-10-01T04:57:31.000Z</time>
      </trkpt>
      <trkpt lat="-44.800803" lon="170.97386">
        <ele>66</ele>
        <time>2026-10-01T04:57:40.000Z</time>
      </trkpt>
      <trkpt lat="-44.800801" lon="170.974">
        <ele>67</ele>
        <time>2026-10-01T04:57:48.000Z</time>
      </trkpt>
      <trkpt lat="-44.800819" lon="170.97415">
        <ele>69</ele>
        <time>2026-10-01T04:57:55.000Z</time>
      </trkpt>
      <trkpt lat="-44.800806" lon="170.97429">
        <ele>69</ele>
        <time>2026-10-01T04:58:03.000Z</time>
      </trkpt>
      <trkpt lat="-44.800819" lon="170.97443">
        <ele>68</ele>
        <time>2026-10-01T04:58:11.000Z</time>
      </trkpt>
      <trkpt lat="-44.800842" lon="170.97458">
        <ele>68</ele>
        <time>2026-10-01T04:58:19.000Z</time>
      </trkpt>
      <trkpt lat="-44.800872" lon="170.97471">
        <ele>69</ele>
        <time>2026-10-01T04:58:27.000Z</time>
      </trkpt>
      <trkpt lat="-44.800874" lon="170.97486">
        <ele>69</ele>
        <time>2026-10-01T04:58:35.000Z</time>
      </trkpt>
      <trkpt lat="-44.800887" lon="170.97501">
        <ele>69</ele>
        <time>2026-10-01T04:58:44.000Z</time>
      </trkpt>
      <trkpt lat="-44.80089" lon="170.97516">
        <ele>69</ele>
        <time>2026-10-01T04:58:52.000Z</time>
      </trkpt>
      <trkpt lat="-44.800879" lon="170.97532">
        <ele>69</ele>
        <time>2026-10-01T04:59:01.000Z</time>
      </trkpt>
      <trkpt lat="-44.800881" lon="170.97545">
        <ele>69</ele>
        <time>2026-10-01T04:59:10.000Z</time>
      </trkpt>
      <trkpt lat="-44.800869" lon="170.97559">
        <ele>69</ele>
        <time>2026-10-01T04:59:19.000Z</time>
      </trkpt>
      <trkpt lat="-44.80085" lon="170.97572">
        <ele>69</ele>
        <time>2026-10-01T04:59:27.000Z</time>
      </trkpt>
      <trkpt lat="-44.8008" lon="170.97584">
        <ele>67</ele>
        <time>2026-10-01T04:59:38.000Z</time>
      </trkpt>
      <trkpt lat="-44.800797" lon="170.97597">
        <ele>65</ele>
        <time>2026-10-01T04:59:55.000Z</time>
      </trkpt>
      <trkpt lat="-44.800758" lon="170.97612">
        <ele>65</ele>
        <time>2026-10-01T05:00:04.000Z</time>
      </trkpt>
    </trkseg>
  </trk>
</gpx>