<?xml version="1.0" encoding="UTF-8" standalone="yes"?>
<gpx
 version="1.1"
 creator="Generated by MapOut iPhone App. See https://mapout.app"
 xmlns="http://www.topografix.com/GPX/1/1"
 xmlns:xsi="http://www.w3.org/2001/XMLSchema-instance"
 xmlns:gpxx="http://www.garmin.com/xmlschemas/GpxExtensions/v3"
 xmlns:mapout="https://mapout.app/xmlschemas/MapOutExtensions"
 xsi:schemaLocation="http://www.topografix.com/GPX/1/1 https://www.topografix.com/GPX/1/1/gpx.xsd http://www.garmin.com/xmlschemas/GpxExtensions/v3 https://www8.garmin.com/xmlschemas/GpxExtensionsv3.xsd https://mapout.app/xmlschemas/MapOutExtensions https://mapout.app/xmlschemas/MapOutExtensions.xsd">
  <metadata>
    <name>Penguins Seals and Shags</name>
    <author><name>iPhone</name></author>
    <time>2026-10-03T09:56:40Z</time>
    <bounds minlat="-45.11352374594698" minlon="170.970224108335" maxlat="-45.10675853518978" maxlon="170.982783711615"/>
  </metadata>
  <trk>
    <name>Penguins Seals and Shags</name>
    <trkseg>
      <trkpt lat="-45.11094928962276" lon="170.972188704023">
        <ele>84</ele>
      </trkpt>
      <trkpt lat="-45.11097081823384" lon="170.972197215335">
        <ele>84</ele>
      </trkpt>
      <trkpt lat="-45.11097081823384" lon="170.972197215335">
        <ele>84</ele>
      </trkpt>
      <trkpt lat="-45.11094697692161" lon="170.972233454129">
        <ele>84</ele>
      </trkpt>
      <trkpt lat="-45.11093839404921" lon="170.972307839024">
        <ele>84</ele>
      </trkpt>
      <trkpt lat="-45.11095174518405" lon="170.972366011825">
        <ele>84</ele>
      </trkpt>
      <trkpt lat="-45.11097272553882" lon="170.972418462712">
        <ele>84</ele>
      </trkpt>
      <trkpt lat="-45.11101659355331" lon="170.972494754911">
        <ele>84</ele>
      </trkpt>
      <trkpt lat="-45.1110776273126" lon="170.972576769025">
        <ele>83</ele>
      </trkpt>
      <trkpt lat="-45.1110776273126" lon="170.972576769025">
        <ele>83</ele>
      </trkpt>
      <trkpt lat="-45.11113770741942" lon="170.972598703033">
        <ele>83</ele>
      </trkpt>
      <trkpt lat="-45.11123593362579" lon="170.972581537288">
        <ele>84</ele>
      </trkpt>
      <trkpt lat="-45.11130268930002" lon="170.972532901011">
        <ele>84</ele>
      </trkpt>
      <trkpt lat="-45.11137612054167" lon="170.972447072287">
        <ele>84</ele>
      </trkpt>
      <trkpt lat="-45.1114257104711" lon="170.972400343315">
        <ele>84</ele>
      </trkpt>
      <trkpt lat="-45.11145145908831" lon="170.972397482357">
        <ele>85</ele>
      </trkpt>
      <trkpt lat="-45.11135704749189" lon="170.972730307076">
        <ele>83</ele>
      </trkpt>
      <trkpt lat="-45.11122067518596" lon="170.973024032043">
        <ele>82</ele>
      </trkpt>
      <trkpt lat="-45.11122067518596" lon="170.973036429525">
        <ele>82</ele>
      </trkpt>
      <trkpt lat="-45.11123307266832" lon="170.973043105093">
        <ele>82</ele>
      </trkpt>
      <trkpt lat="-45.11130078199504" lon="170.972973488461">
        <ele>83</ele>
      </trkpt>
      <trkpt lat="-45.11136753766927" lon="170.972929620446">
        <ele>83</ele>
      </trkpt>
      <trkpt lat="-45.11143333969102" lon="170.972885752432">
        <ele>83</ele>
      </trkpt>
      <trkpt lat="-45.11147530040054" lon="170.972872401297">
        <ele>84</ele>
      </trkpt>
      <trkpt lat="-45.11155445355713" lon="170.972859050162">
        <ele>84</ele>
      </trkpt>
      <trkpt lat="-45.11159164600419" lon="170.972860957467">
        <ele>84</ele>
      </trkpt>
      <trkpt lat="-45.11161548731642" lon="170.972876215907">
        <ele>84</ele>
      </trkpt>
      <trkpt lat="-45.11171562082777" lon="170.972990654206">
        <ele>85</ele>
      </trkpt>
      <trkpt lat="-45.1117480450124" lon="170.973064085447">
        <ele>85</ele>
      </trkpt>
      <trkpt lat="-45.1117652107572" lon="170.973142284951">
        <ele>86</ele>
      </trkpt>
      <trkpt lat="-45.11177093267214" lon="170.973239557505">
        <ele>86</ele>
      </trkpt>
      <trkpt lat="-45.11177570093458" lon="170.973336830059">
        <ele>86</ele>
      </trkpt>
      <trkpt lat="-45.11178619111196" lon="170.973403585733">
        <ele>86</ele>
      </trkpt>
      <trkpt lat="-45.11179572763685" lon="170.973470341408">
        <ele>87</ele>
      </trkpt>
      <trkpt lat="-45.11179572763685" lon="170.973470341408">
        <ele>87</ele>
      </trkpt>
      <trkpt lat="-45.11183292008392" lon="170.973575243181">
        <ele>88</ele>
      </trkpt>
      <trkpt lat="-45.11189300019073" lon="170.973686820523">
        <ele>89</ele>
      </trkpt>
      <trkpt lat="-45.11195308029754" lon="170.973799351516">
        <ele>91</ele>
      </trkpt>
      <trkpt lat="-45.11197024604234" lon="170.973847034141">
        <ele>91</ele>
      </trkpt>
      <trkpt lat="-45.11196833873736" lon="170.97390043868">
        <ele>92</ele>
      </trkpt>
      <trkpt lat="-45.11193400724776" lon="170.973998664887">
        <ele>92</ele>
      </trkpt>
      <trkpt lat="-45.11188727827579" lon="170.974117871448">
        <ele>92</ele>
      </trkpt>
      <trkpt lat="-45.11183959565135" lon="170.974238031661">
        <ele>92</ele>
      </trkpt>
      <trkpt lat="-45.11178142284951" lon="170.974343887088">
        <ele>91</ele>
      </trkpt>
      <trkpt lat="-45.11172325004768" lon="170.974449742514">
        <ele>90</ele>
      </trkpt>
      <trkpt lat="-45.11168796490558" lon="170.974526034713">
        <ele>90</ele>
      </trkpt>
      <trkpt lat="-45.11165172611101" lon="170.974602326912">
        <ele>89</ele>
      </trkpt>
      <trkpt lat="-45.11151535380507" lon="170.974948502766">
        <ele>87</ele>
      </trkpt>
      <trkpt lat="-45.1114953271028" lon="170.975041007057">
        <ele>86</ele>
      </trkpt>
      <trkpt lat="-45.11148388327293" lon="170.975105855426">
        <ele>86</ele>
      </trkpt>
      <trkpt lat="-45.11147243944307" lon="170.975171657448">
        <ele>86</ele>
      </trkpt>
      <trkpt lat="-45.11148769788289" lon="170.97525271791">
        <ele>86</ele>
      </trkpt>
      <trkpt lat="-45.11153347320236" lon="170.975358573336">
        <ele>87</ele>
      </trkpt>
      <trkpt lat="-45.11164218958611" lon="170.97547491894">
        <ele>89</ele>
      </trkpt>
      <trkpt lat="-45.11175758153729" lon="170.975571237841">
        <ele>91</ele>
      </trkpt>
      <trkpt lat="-45.11180907877169" lon="170.97562464238">
        <ele>91</ele>
      </trkpt>
      <trkpt lat="-45.11192065611291" lon="170.975713332062">
        <ele>93</ele>
      </trkpt>
      <trkpt lat="-45.11203223345413" lon="170.975802021743">
        <ele>94</ele>
      </trkpt>
      <trkpt lat="-45.1121132939157" lon="170.975875452985">
        <ele>95</ele>
      </trkpt>
      <trkpt lat="-45.11216669845508" lon="170.975939347702">
        <ele>96</ele>
      </trkpt>
      <trkpt lat="-45.11219340072478" lon="170.975994659546">
        <ele>97</ele>
      </trkpt>
      <trkpt lat="-45.11220961281709" lon="170.976043295823">
        <ele>97</ele>
      </trkpt>
      <trkpt lat="-45.11221914934198" lon="170.976100514972">
        <ele>97</ele>
      </trkpt>
      <trkpt lat="-45.11221914934198" lon="170.976100514972">
        <ele>97</ele>
      </trkpt>
      <trkpt lat="-45.11225920274652" lon="170.976185390044">
        <ele>98</ele>
      </trkpt>
      <trkpt lat="-45.11229925615106" lon="170.976271218768">
        <ele>99</ele>
      </trkpt>
      <trkpt lat="-45.11232309746328" lon="170.976378027847">
        <ele>100</ele>
      </trkpt>
      <trkpt lat="-45.11232500476826" lon="170.976442876216">
        <ele>101</ele>
      </trkpt>
      <trkpt lat="-45.11231451459089" lon="170.97650963189">
        <ele>101</ele>
      </trkpt>
      <trkpt lat="-45.11229734884608" lon="170.976570665649">
        <ele>101</ele>
      </trkpt>
      <trkpt lat="-45.11227350753386" lon="170.976617394621">
        <ele>101</ele>
      </trkpt>
      <trkpt lat="-45.11217528132748" lon="170.976709898913">
        <ele>99</ele>
      </trkpt>
      <trkpt lat="-45.11192065611291" lon="170.976977875262">
        <ele>96</ele>
      </trkpt>
      <trkpt lat="-45.11180431050925" lon="170.977083730689">
        <ele>95</ele>
      </trkpt>
      <trkpt lat="-45.1116870112531" lon="170.977189586115">
        <ele>93</ele>
      </trkpt>
      <trkpt lat="-45.11162693114629" lon="170.977260156399">
        <ele>92</ele>
      </trkpt>
      <trkpt lat="-45.11157161930193" lon="170.97735266069">
        <ele>91</ele>
      </trkpt>
      <trkpt lat="-45.11152679763494" lon="170.977468052642">
        <ele>90</ele>
      </trkpt>
      <trkpt lat="-45.11151249284761" lon="170.977530040053">
        <ele>90</ele>
      </trkpt>
      <trkpt lat="-45.11149723440778" lon="170.977592981118">
        <ele>89</ele>
      </trkpt>
      <trkpt lat="-45.11149246614534" lon="170.977657829487">
        <ele>89</ele>
      </trkpt>
      <trkpt lat="-45.1114867442304" lon="170.977723631509">
        <ele>89</ele>
      </trkpt>
      <trkpt lat="-45.11148865153538" lon="170.977799923708">
        <ele>89</ele>
      </trkpt>
      <trkpt lat="-45.11149055884036" lon="170.977876215907">
        <ele>89</ele>
      </trkpt>
      <trkpt lat="-45.11149628075529" lon="170.977953461759">
        <ele>89</ele>
      </trkpt>
      <trkpt lat="-45.11150200267023" lon="170.978031661263">
        <ele>89</ele>
      </trkpt>
      <trkpt lat="-45.11154873164219" lon="170.978382605379">
        <ele>91</ele>
      </trkpt>
      <trkpt lat="-45.11155540720961" lon="170.97845603662">
        <ele>90</ele>
      </trkpt>
      <trkpt lat="-45.11156208277703" lon="170.978530421514">
        <ele>90</ele>
      </trkpt>
      <trkpt lat="-45.11157066564944" lon="170.978627694068">
        <ele>90</ele>
      </trkpt>
      <trkpt lat="-45.11157543391188" lon="170.97870493992">
        <ele>90</ele>
      </trkpt>
      <trkpt lat="-45.11157924852183" lon="170.978783139424">
        <ele>89</ele>
      </trkpt>
      <trkpt lat="-45.1115735266069" lon="170.979027274461">
        <ele>87</ele>
      </trkpt>
      <trkpt lat="-45.11159355330917" lon="170.979308601945">
        <ele>85</ele>
      </trkpt>
      <trkpt lat="-45.11160308983406" lon="170.97937154301">
        <ele>85</ele>
      </trkpt>
      <trkpt lat="-45.11161262635895" lon="170.979434484074">
        <ele>84</ele>
      </trkpt>
      <trkpt lat="-45.11162979210376" lon="170.979507915316">
        <ele>84</ele>
      </trkpt>
      <trkpt lat="-45.11164695784856" lon="170.97958230021">
        <ele>84</ele>
      </trkpt>
      <trkpt lat="-45.11175376692733" lon="170.979938966241">
        <ele>82</ele>
      </trkpt>
      <trkpt lat="-45.11176711806218" lon="170.98">
        <ele>81</ele>
      </trkpt>
      <trkpt lat="-45.11176711806218" lon="170.98">
        <ele>81</ele>
      </trkpt>
      <trkpt lat="-45.11178619111196" lon="170.980080106809">
        <ele>80</ele>
      </trkpt>
      <trkpt lat="-45.11180526416174" lon="170.980160213618">
        <ele>79</ele>
      </trkpt>
      <trkpt lat="-45.11199694831203" lon="170.980750524509">
        <ele>72</ele>
      </trkpt>
      <trkpt lat="-45.11202365058173" lon="170.980856379935">
        <ele>71</ele>
      </trkpt>
      <trkpt lat="-45.11205035285142" lon="170.980963189014">
        <ele>69</ele>
      </trkpt>
      <trkpt lat="-45.11207991607858" lon="170.981056646958">
        <ele>66</ele>
      </trkpt>
      <trkpt lat="-45.11210852565325" lon="170.981151058554">
        <ele>64</ele>
      </trkpt>
      <trkpt lat="-45.11215430097273" lon="170.981230211711">
        <ele>62</ele>
      </trkpt>
      <trkpt lat="-45.11217051306504" lon="170.981248331108">
        <ele>62</ele>
      </trkpt>
      <trkpt lat="-45.11222201029945" lon="170.98128361625">
        <ele>62</ele>
      </trkpt>
      <trkpt lat="-45.11229258058363" lon="170.98131413313">
        <ele>62</ele>
      </trkpt>
      <trkpt lat="-45.11235742895289" lon="170.98131413313">
        <ele>63</ele>
      </trkpt>
      <trkpt lat="-45.11242132366966" lon="170.981315086782">
        <ele>63</ele>
      </trkpt>
      <trkpt lat="-45.11252717909593" lon="170.981285523555">
        <ele>66</ele>
      </trkpt>
      <trkpt lat="-45.11263303452222" lon="170.981256913981">
        <ele>67</ele>
      </trkpt>
      <trkpt lat="-45.11264733930955" lon="170.981261682243">
        <ele>66</ele>
      </trkpt>
      <trkpt lat="-45.11264733930955" lon="170.981261682243">
        <ele>66</ele>
      </trkpt>
      <trkpt lat="-45.11265306122449" lon="170.981271218768">
        <ele>66</ele>
      </trkpt>
      <trkpt lat="-45.11265020026702" lon="170.981285523555">
        <ele>65</ele>
      </trkpt>
      <trkpt lat="-45.11263017356475" lon="170.981309364867">
        <ele>64</ele>
      </trkpt>
      <trkpt lat="-45.11252241083349" lon="170.981386610719">
        <ele>61</ele>
      </trkpt>
      <trkpt lat="-45.11225729544154" lon="170.981634560366">
        <ele>50</ele>
      </trkpt>
      <trkpt lat="-45.11217814228495" lon="170.981685103948">
        <ele>48</ele>
      </trkpt>
      <trkpt lat="-45.11214571810032" lon="170.981687011253">
        <ele>47</ele>
      </trkpt>
      <trkpt lat="-45.11210089643334" lon="170.981673660118">
        <ele>48</ele>
      </trkpt>
      <trkpt lat="-45.11173755483502" lon="170.981499141713">
        <ele>50</ele>
      </trkpt>
      <trkpt lat="-45.11172515735266" lon="170.981502956323">
        <ele>50</ele>
      </trkpt>
      <trkpt lat="-45.11171752813275" lon="170.981518214763">
        <ele>49</ele>
      </trkpt>
      <trkpt lat="-45.11172420370017" lon="170.98154777799">
        <ele>49</ele>
      </trkpt>
      <trkpt lat="-45.11176902536715" lon="170.981637421324">
        <ele>47</ele>
      </trkpt>
      <trkpt lat="-45.11181289338165" lon="170.981727064658">
        <ele>44</ele>
      </trkpt>
      <trkpt lat="-45.11186152965859" lon="170.981816707992">
        <ele>40</ele>
      </trkpt>
      <trkpt lat="-45.11191016593553" lon="170.981906351326">
        <ele>36</ele>
      </trkpt>
      <trkpt lat="-45.11195308029754" lon="170.981977875262">
        <ele>32</ele>
      </trkpt>
      <trkpt lat="-45.11199599465954" lon="170.982049399199">
        <ele>29</ele>
      </trkpt>
      <trkpt lat="-45.11205702841885" lon="170.982119015831">
        <ele>26</ele>
      </trkpt>
      <trkpt lat="-45.1121657448026" lon="170.9821838642">
        <ele>24</ele>
      </trkpt>
      <trkpt lat="-45.11220579820714" lon="170.98218767881">
        <ele>24</ele>
      </trkpt>
      <trkpt lat="-45.1122258249094" lon="170.982177188632">
        <ele>24</ele>
      </trkpt>
      <trkpt lat="-45.11229067327866" lon="170.982108525653">
        <ele>28</ele>
      </trkpt>
      <trkpt lat="-45.11235456799542" lon="170.982039862674">
        <ele>32</ele>
      </trkpt>
      <trkpt lat="-45.11236601182529" lon="170.982037955369">
        <ele>32</ele>
      </trkpt>
      <trkpt lat="-45.11236601182529" lon="170.982037955369">
        <ele>32</ele>
      </trkpt>
      <trkpt lat="-45.11239938966241" lon="170.982057982071">
        <ele>31</ele>
      </trkpt>
      <trkpt lat="-45.11239938966241" lon="170.982057982071">
        <ele>31</ele>
      </trkpt>
      <trkpt lat="-45.112347892428" lon="170.982231546824">
        <ele>23</ele>
      </trkpt>
      <trkpt lat="-45.112347892428" lon="170.982231546824">
        <ele>23</ele>
      </trkpt>
      <trkpt lat="-45.11241369444974" lon="170.982201983597">
        <ele>24</ele>
      </trkpt>
      <trkpt lat="-45.11246233072669" lon="170.982167652108">
        <ele>26</ele>
      </trkpt>
      <trkpt lat="-45.11257486172039" lon="170.982112340263">
        <ele>29</ele>
      </trkpt>
      <trkpt lat="-45.11262921991226" lon="170.982104711043">
        <ele>29</ele>
      </trkpt>
      <trkpt lat="-45.11268357810414" lon="170.98215716193">
        <ele>27</ele>
      </trkpt>
      <trkpt lat="-45.11270741941637" lon="170.982165744803">
        <ele>27</ele>
      </trkpt>
      <trkpt lat="-45.11275796299828" lon="170.98216097654">
        <ele>27</ele>
      </trkpt>
      <trkpt lat="-45.11278085065802" lon="170.982167652108">
        <ele>26</ele>
      </trkpt>
      <trkpt lat="-45.11280373831776" lon="170.982198168987">
        <ele>25</ele>
      </trkpt>
      <trkpt lat="-45.11282281136754" lon="170.982291626931">
        <ele>21</ele>
      </trkpt>
      <trkpt lat="-45.11284760633225" lon="170.98237554835">
        <ele>17</ele>
      </trkpt>
      <trkpt lat="-45.11287240129697" lon="170.982459469769">
        <ele>13</ele>
      </trkpt>
      <trkpt lat="-45.11288479877933" lon="170.9825672325">
        <ele>11</ele>
      </trkpt>
      <trkpt lat="-45.11290864009155" lon="170.982637802785">
        <ele>10</ele>
      </trkpt>
      <trkpt lat="-45.11292485218387" lon="170.982670226969">
        <ele>9</ele>
      </trkpt>
      <trkpt lat="-45.11302403204272" lon="170.982757009346">
        <ele>8</ele>
      </trkpt>
      <trkpt lat="-45.11307266831967" lon="170.982782757963">
        <ele>8</ele>
      </trkpt>
      <trkpt lat="-45.11310986076673" lon="170.982783711615">
        <ele>8</ele>
      </trkpt>
      <trkpt lat="-45.11314419225634" lon="170.982769406828">
        <ele>8</ele>
      </trkpt>
      <trkpt lat="-45.11319855044822" lon="170.982713141331">
        <ele>9</ele>
      </trkpt>
      <trkpt lat="-45.11326053786" lon="170.982661644097">
        <ele>10</ele>
      </trkpt>
      <trkpt lat="-45.11329200839214" lon="170.98261682243">
        <ele>10</ele>
      </trkpt>
      <trkpt lat="-45.11334445927904" lon="170.982573908068">
        <ele>11</ele>
      </trkpt>
      <trkpt lat="-45.11340358573336" lon="170.982556742323">
        <ele>11</ele>
      </trkpt>
      <trkpt lat="-45.11340358573336" lon="170.982556742323">
        <ele>11</ele>
      </trkpt>
      <trkpt lat="-45.11345985123021" lon="170.982532901011">
        <ele>11</ele>
      </trkpt>
      <trkpt lat="-45.11352374594698" lon="170.982490940301">
        <ele>11</ele>
      </trkpt>
      <trkpt lat="-45.11352374594698" lon="170.982490940301">
        <ele>11</ele>
      </trkpt>
      <trkpt lat="-45.11345985123021" lon="170.982532901011">
        <ele>11</ele>
      </trkpt>
      <trkpt lat="-45.11340358573336" lon="170.982556742323">
        <ele>11</ele>
      </trkpt>
      <trkpt lat="-45.11340358573336" lon="170.982556742323">
        <ele>11</ele>
      </trkpt>
      <trkpt lat="-45.11334445927904" lon="170.982573908068">
        <ele>11</ele>
      </trkpt>
      <trkpt lat="-45.11329200839214" lon="170.98261682243">
        <ele>10</ele>
      </trkpt>
      <trkpt lat="-45.11326053786" lon="170.982661644097">
        <ele>10</ele>
      </trkpt>
      <trkpt lat="-45.11319855044822" lon="170.982713141331">
        <ele>9</ele>
      </trkpt>
      <trkpt lat="-45.11314419225634" lon="170.982769406828">
        <ele>8</ele>
      </trkpt>
      <trkpt lat="-45.11310986076673" lon="170.982783711615">
        <ele>8</ele>
      </trkpt>
      <trkpt lat="-45.11307266831967" lon="170.982782757963">
        <ele>8</ele>
      </trkpt>
      <trkpt lat="-45.11302403204272" lon="170.982757009346">
        <ele>8</ele>
      </trkpt>
      <trkpt lat="-45.11292485218387" lon="170.982670226969">
        <ele>9</ele>
      </trkpt>
      <trkpt lat="-45.11290864009155" lon="170.982637802785">
        <ele>10</ele>
      </trkpt>
      <trkpt lat="-45.11288479877933" lon="170.9825672325">
        <ele>11</ele>
      </trkpt>
      <trkpt lat="-45.11287240129697" lon="170.982459469769">
        <ele>13</ele>
      </trkpt>
      <trkpt lat="-45.11284760633225" lon="170.98237554835">
        <ele>17</ele>
      </trkpt>
      <trkpt lat="-45.11282281136754" lon="170.982291626931">
        <ele>21</ele>
      </trkpt>
      <trkpt lat="-45.11280373831776" lon="170.982198168987">
        <ele>25</ele>
      </trkpt>
      <trkpt lat="-45.11278085065802" lon="170.982167652108">
        <ele>26</ele>
      </trkpt>
      <trkpt lat="-45.11275796299828" lon="170.98216097654">
        <ele>27</ele>
      </trkpt>
      <trkpt lat="-45.11270741941637" lon="170.982165744803">
        <ele>27</ele>
      </trkpt>
      <trkpt lat="-45.11268357810414" lon="170.98215716193">
        <ele>27</ele>
      </trkpt>
      <trkpt lat="-45.11262921991226" lon="170.982104711043">
        <ele>29</ele>
      </trkpt>
      <trkpt lat="-45.11257486172039" lon="170.982112340263">
        <ele>29</ele>
      </trkpt>
      <trkpt lat="-45.11246233072669" lon="170.982167652108">
        <ele>26</ele>
      </trkpt>
      <trkpt lat="-45.11241369444974" lon="170.982201983597">
        <ele>24</ele>
      </trkpt>
      <trkpt lat="-45.112347892428" lon="170.982231546824">
        <ele>23</ele>
      </trkpt>
      <trkpt lat="-45.112347892428" lon="170.982231546824">
        <ele>23</ele>
      </trkpt>
      <trkpt lat="-45.11239938966241" lon="170.982057982071">
        <ele>31</ele>
      </trkpt>
      <trkpt lat="-45.11239938966241" lon="170.982057982071">
        <ele>31</ele>
      </trkpt>
      <trkpt lat="-45.11236601182529" lon="170.982037955369">
        <ele>32</ele>
      </trkpt>
      <trkpt lat="-45.11236601182529" lon="170.982037955369">
        <ele>32</ele>
      </trkpt>
      <trkpt lat="-45.11235456799542" lon="170.982039862674">
        <ele>32</ele>
      </trkpt>
      <trkpt lat="-45.11229067327866" lon="170.982108525653">
        <ele>28</ele>
      </trkpt>
      <trkpt lat="-45.1122258249094" lon="170.982177188632">
        <ele>24</ele>
      </trkpt>
      <trkpt lat="-45.11220579820714" lon="170.98218767881">
        <ele>24</ele>
      </trkpt>
      <trkpt lat="-45.1121657448026" lon="170.9821838642">
        <ele>24</ele>
      </trkpt>
      <trkpt lat="-45.11205702841885" lon="170.982119015831">
        <ele>26</ele>
      </trkpt>
      <trkpt lat="-45.11199599465954" lon="170.982049399199">
        <ele>29</ele>
      </trkpt>
      <trkpt lat="-45.11195308029754" lon="170.981977875262">
        <ele>32</ele>
      </trkpt>
      <trkpt lat="-45.11191016593553" lon="170.981906351326">
        <ele>36</ele>
      </trkpt>
      <trkpt lat="-45.11186152965859" lon="170.981816707992">
        <ele>40</ele>
      </trkpt>
      <trkpt lat="-45.11181289338165" lon="170.981727064658">
        <ele>44</ele>
      </trkpt>
      <trkpt lat="-45.11176902536715" lon="170.981637421324">
        <ele>47</ele>
      </trkpt>
      <trkpt lat="-45.11172420370017" lon="170.98154777799">
        <ele>49</ele>
      </trkpt>
      <trkpt lat="-45.11171752813275" lon="170.981518214763">
        <ele>49</ele>
      </trkpt>
      <trkpt lat="-45.11172515735266" lon="170.981502956323">
        <ele>50</ele>
      </trkpt>
      <trkpt lat="-45.11173755483502" lon="170.981499141713">
        <ele>50</ele>
      </trkpt>
      <trkpt lat="-45.11210089643334" lon="170.981673660118">
        <ele>48</ele>
      </trkpt>
      <trkpt lat="-45.11214571810032" lon="170.981687011253">
        <ele>47</ele>
      </trkpt>
      <trkpt lat="-45.11217814228495" lon="170.981685103948">
        <ele>48</ele>
      </trkpt>
      <trkpt lat="-45.11225729544154" lon="170.981634560366">
        <ele>50</ele>
      </trkpt>
      <trkpt lat="-45.11252241083349" lon="170.981386610719">
        <ele>61</ele>
      </trkpt>
      <trkpt lat="-45.11263017356475" lon="170.981309364867">
        <ele>64</ele>
      </trkpt>
      <trkpt lat="-45.11265020026702" lon="170.981285523555">
        <ele>65</ele>
      </trkpt>
      <trkpt lat="-45.11265306122449" lon="170.981271218768">
        <ele>66</ele>
      </trkpt>
      <trkpt lat="-45.11264733930955" lon="170.981261682243">
        <ele>66</ele>
      </trkpt>
      <trkpt lat="-45.11264733930955" lon="170.981261682243">
        <ele>66</ele>
      </trkpt>
      <trkpt lat="-45.11263303452222" lon="170.981256913981">
        <ele>67</ele>
      </trkpt>
      <trkpt lat="-45.11252717909593" lon="170.981285523555">
        <ele>66</ele>
      </trkpt>
      <trkpt lat="-45.11242132366966" lon="170.981315086782">
        <ele>63</ele>
      </trkpt>
      <trkpt lat="-45.11235742895289" lon="170.98131413313">
        <ele>63</ele>
      </trkpt>
      <trkpt lat="-45.11229258058363" lon="170.98131413313">
        <ele>62</ele>
      </trkpt>
      <trkpt lat="-45.11222201029945" lon="170.98128361625">
        <ele>62</ele>
      </trkpt>
      <trkpt lat="-45.11217051306504" lon="170.981248331108">
        <ele>62</ele>
      </trkpt>
      <trkpt lat="-45.11215430097273" lon="170.981230211711">
        <ele>62</ele>
      </trkpt>
      <trkpt lat="-45.11210852565325" lon="170.981151058554">
        <ele>64</ele>
      </trkpt>
      <trkpt lat="-45.11210852565325" lon="170.981151058554">
        <ele>64</ele>
      </trkpt>
      <trkpt lat="-45.11207324051116" lon="170.981182529086">
        <ele>63</ele>
      </trkpt>
      <trkpt lat="-45.11201983597177" lon="170.981213045966">
        <ele>61</ele>
      </trkpt>
      <trkpt lat="-45.11198931909212" lon="170.98127217242">
        <ele>59</ele>
      </trkpt>
      <trkpt lat="-45.11198931909212" lon="170.98127217242">
        <ele>59</ele>
      </trkpt>
      <trkpt lat="-45.11196643143239" lon="170.981263589548">
        <ele>58</ele>
      </trkpt>
      <trkpt lat="-45.11191970246043" lon="170.981232119016">
        <ele>59</ele>
      </trkpt>
      <trkpt lat="-45.11186534426855" lon="170.981175853519">
        <ele>59</ele>
      </trkpt>
      <trkpt lat="-45.11181384703414" lon="170.981109097845">
        <ele>60</ele>
      </trkpt>
      <trkpt lat="-45.11176139614724" lon="170.981043295823">
        <ele>60</ele>
      </trkpt>
      <trkpt lat="-45.1114524127408" lon="170.980855426283">
        <ele>51</ele>
      </trkpt>
      <trkpt lat="-45.11141522029372" lon="170.980810604616">
        <ele>50</ele>
      </trkpt>
      <trkpt lat="-45.11136658401679" lon="170.980727636849">
        <ele>49</ele>
      </trkpt>
      <trkpt lat="-45.11133415983215" lon="170.980650390998">
        <ele>49</ele>
      </trkpt>
      <trkpt lat="-45.11132462330727" lon="170.980603662026">
        <ele>49</ele>
      </trkpt>
      <trkpt lat="-45.1113389280946" lon="170.980570284188">
        <ele>50</ele>
      </trkpt>
      <trkpt lat="-45.11134274270456" lon="170.980542628266">
        <ele>51</ele>
      </trkpt>
      <trkpt lat="-45.11132462330727" lon="170.980470150677">
        <ele>51</ele>
      </trkpt>
      <trkpt lat="-45.11132080869731" lon="170.980358573336">
        <ele>53</ele>
      </trkpt>
      <trkpt lat="-45.11132939156971" lon="170.980340453939">
        <ele>54</ele>
      </trkpt>
      <trkpt lat="-45.11134560366202" lon="170.980337592981">
        <ele>54</ele>
      </trkpt>
      <trkpt lat="-45.11141426664123" lon="170.980407209613">
        <ele>57</ele>
      </trkpt>
      <trkpt lat="-45.11144669082586" lon="170.980414838833">
        <ele>59</ele>
      </trkpt>
      <trkpt lat="-45.11146385657067" lon="170.980409116918">
        <ele>60</ele>
      </trkpt>
      <trkpt lat="-45.11147243944307" lon="170.980380507343">
        <ele>61</ele>
      </trkpt>
      <trkpt lat="-45.11146767118062" lon="170.980286095747">
        <ele>62</ele>
      </trkpt>
      <trkpt lat="-45.11148102231547" lon="170.980267976349">
        <ele>63</ele>
      </trkpt>
      <trkpt lat="-45.1115563608621" lon="170.980281327484">
        <ele>67</ele>
      </trkpt>
      <trkpt lat="-45.11158592408926" lon="170.980296585924">
        <ele>68</ele>
      </trkpt>
      <trkpt lat="-45.11161644096891" lon="170.980326149151">
        <ele>69</ele>
      </trkpt>
      <trkpt lat="-45.11164028228114" lon="170.980326149151">
        <ele>71</ele>
      </trkpt>
      <trkpt lat="-45.11165267976349" lon="170.980310890711">
        <ele>72</ele>
      </trkpt>
      <trkpt lat="-45.11165458706847" lon="170.980283234789">
        <ele>72</ele>
      </trkpt>
      <trkpt lat="-45.11163551401869" lon="170.98022220103">
        <ele>73</ele>
      </trkpt>
      <trkpt lat="-45.11158020217433" lon="170.980110623689">
        <ele>72</ele>
      </trkpt>
      <trkpt lat="-45.11152489032996" lon="170.98">
        <ele>71</ele>
      </trkpt>
      <trkpt lat="-45.11152489032996" lon="170.98">
        <ele>71</ele>
      </trkpt>
      <trkpt lat="-45.11150390997521" lon="170.979935151631">
        <ele>70</ele>
      </trkpt>
      <trkpt lat="-45.11148292962044" lon="170.979871256914">
        <ele>70</ele>
      </trkpt>
      <trkpt lat="-45.11145908830822" lon="170.979759679573">
        <ele>70</ele>
      </trkpt>
      <trkpt lat="-45.11144859813084" lon="170.979655731451">
        <ele>71</ele>
      </trkpt>
      <trkpt lat="-45.11144573717338" lon="170.979594697692">
        <ele>71</ele>
      </trkpt>
      <trkpt lat="-45.1114428762159" lon="170.979533663933">
        <ele>72</ele>
      </trkpt>
      <trkpt lat="-45.11144859813084" lon="170.979239938966">
        <ele>76</ele>
      </trkpt>
      <trkpt lat="-45.11143906160595" lon="170.979176997902">
        <ele>76</ele>
      </trkpt>
      <trkpt lat="-45.11139614724394" lon="170.979102613008">
        <ele>74</ele>
      </trkpt>
      <trkpt lat="-45.11138470341407" lon="170.979057791341">
        <ele>73</ele>
      </trkpt>
      <trkpt lat="-45.11138756437154" lon="170.978971008964">
        <ele>75</ele>
      </trkpt>
      <trkpt lat="-45.11138947167652" lon="170.97888518024">
        <ele>76</ele>
      </trkpt>
      <trkpt lat="-45.11140377646385" lon="170.978765973679">
        <ele>78</ele>
      </trkpt>
      <trkpt lat="-45.11139519359146" lon="170.978667747473">
        <ele>79</ele>
      </trkpt>
      <trkpt lat="-45.11141522029372" lon="170.978589547969">
        <ele>81</ele>
      </trkpt>
      <trkpt lat="-45.1114171275987" lon="170.978556170132">
        <ele>81</ele>
      </trkpt>
      <trkpt lat="-45.11124070188823" lon="170.977894335304">
        <ele>78</ele>
      </trkpt>
      <trkpt lat="-45.11123116536334" lon="170.977880984169">
        <ele>77</ele>
      </trkpt>
      <trkpt lat="-45.11111481975968" lon="170.977798970055">
        <ele>73</ele>
      </trkpt>
      <trkpt lat="-45.1110604615678" lon="170.977741750906">
        <ele>72</ele>
      </trkpt>
      <trkpt lat="-45.11103089834064" lon="170.977661644097">
        <ele>72</ele>
      </trkpt>
      <trkpt lat="-45.11096604997139" lon="170.977592981118">
        <ele>70</ele>
      </trkpt>
      <trkpt lat="-45.11095269883654" lon="170.977556742323">
        <ele>70</ele>
      </trkpt>
      <trkpt lat="-45.11093744039672" lon="170.977474728209">
        <ele>71</ele>
      </trkpt>
      <trkpt lat="-45.11092122830441" lon="170.977393667747">
        <ele>71</ele>
      </trkpt>
      <trkpt lat="-45.11092027465192" lon="170.977325004768">
        <ele>71</ele>
      </trkpt>
      <trkpt lat="-45.11091932099943" lon="170.977257295442">
        <ele>71</ele>
      </trkpt>
      <trkpt lat="-45.11090883082205" lon="170.977209612817">
        <ele>71</ele>
      </trkpt>
      <trkpt lat="-45.11090024794964" lon="170.977197215335">
        <ele>71</ele>
      </trkpt>
      <trkpt lat="-45.11087926759489" lon="170.977192447072">
        <ele>71</ele>
      </trkpt>
      <trkpt lat="-45.11083158497043" lon="170.977217242037">
        <ele>69</ele>
      </trkpt>
      <trkpt lat="-45.11080488270074" lon="170.977252527179">
        <ele>67</ele>
      </trkpt>
      <trkpt lat="-45.11075815372878" lon="170.977288765974">
        <ele>65</ele>
      </trkpt>
      <trkpt lat="-45.1107304978066" lon="170.977323097463">
        <ele>63</ele>
      </trkpt>
      <trkpt lat="-45.11060080106809" lon="170.977658783139">
        <ele>52</ele>
      </trkpt>
      <trkpt lat="-45.1105826816708" lon="170.977683578104">
        <ele>51</ele>
      </trkpt>
      <trkpt lat="-45.11056265496853" lon="170.977672134274">
        <ele>50</ele>
      </trkpt>
      <trkpt lat="-45.11053976730879" lon="170.977610146863">
        <ele>50</ele>
      </trkpt>
      <trkpt lat="-45.11051592599657" lon="170.977489986649">
        <ele>51</ele>
      </trkpt>
      <trkpt lat="-45.11049113103185" lon="170.977369826435">
        <ele>51</ele>
      </trkpt>
      <trkpt lat="-45.11048159450696" lon="170.977250619874">
        <ele>51</ele>
      </trkpt>
      <trkpt lat="-45.11047110432958" lon="170.977132366965">
        <ele>52</ele>
      </trkpt>
      <trkpt lat="-45.11048350181194" lon="170.977020789624">
        <ele>53</ele>
      </trkpt>
      <trkpt lat="-45.1104949456418" lon="170.976909212283">
        <ele>55</ele>
      </trkpt>
      <trkpt lat="-45.11052260156399" lon="170.976790959374">
        <ele>57</ele>
      </trkpt>
      <trkpt lat="-45.11052069425901" lon="170.976767118062">
        <ele>57</ele>
      </trkpt>
      <trkpt lat="-45.1105044821667" lon="170.976767118062">
        <ele>56</ele>
      </trkpt>
      <trkpt lat="-45.11048827007438" lon="170.976778561892">
        <ele>55</ele>
      </trkpt>
      <trkpt lat="-45.11046633606713" lon="170.97678142285">
        <ele>54</ele>
      </trkpt>
      <trkpt lat="-45.11045393858478" lon="170.976759488842">
        <ele>54</ele>
      </trkpt>
      <trkpt lat="-45.11044630936487" lon="170.976698455083">
        <ele>54</ele>
      </trkpt>
      <trkpt lat="-45.11044600773421" lon="170.976696042291">
        <ele>54</ele>
      </trkpt>
      <trkpt lat="-45.11046156780469" lon="170.976627884799">
        <ele>55</ele>
      </trkpt>
      <trkpt lat="-45.11046252145718" lon="170.976574480259">
        <ele>55</ele>
      </trkpt>
      <trkpt lat="-45.11044440205989" lon="170.976508678238">
        <ele>55</ele>
      </trkpt>
      <trkpt lat="-45.11039671943544" lon="170.976397100896">
        <ele>53</ele>
      </trkpt>
      <trkpt lat="-45.11034903681099" lon="170.976285523555">
        <ele>51</ele>
      </trkpt>
      <trkpt lat="-45.11031947358383" lon="170.976209231356">
        <ele>50</ele>
      </trkpt>
      <trkpt lat="-45.11028895670417" lon="170.976132939157">
        <ele>49</ele>
      </trkpt>
      <trkpt lat="-45.11026511539195" lon="170.976041388518">
        <ele>48</ele>
      </trkpt>
      <trkpt lat="-45.11024127407973" lon="170.975950791532">
        <ele>48</ele>
      </trkpt>
      <trkpt lat="-45.11023364485981" lon="170.975884035857">
        <ele>48</ele>
      </trkpt>
      <trkpt lat="-45.1102174327675" lon="170.975818233836">
        <ele>47</ele>
      </trkpt>
      <trkpt lat="-45.11021361815754" lon="170.975734312417">
        <ele>48</ele>
      </trkpt>
      <trkpt lat="-45.11021361815754" lon="170.975734312417">
        <ele>48</ele>
      </trkpt>
      <trkpt lat="-45.11016879649056" lon="170.975634178905">
        <ele>46</ele>
      </trkpt>
      <trkpt lat="-45.11004958992943" lon="170.975291817662">
        <ele>44</ele>
      </trkpt>
      <trkpt lat="-45.1100352851421" lon="170.975230783902">
        <ele>43</ele>
      </trkpt>
      <trkpt lat="-45.11002098035476" lon="170.975169750143">
        <ele>43</ele>
      </trkpt>
      <trkpt lat="-45.11000095365249" lon="170.975050543582">
        <ele>43</ele>
      </trkpt>
      <trkpt lat="-45.10997615868777" lon="170.974728209041">
        <ele>46</ele>
      </trkpt>
      <trkpt lat="-45.10997615868777" lon="170.974728209041">
        <ele>46</ele>
      </trkpt>
      <trkpt lat="-45.10995517833302" lon="170.974665267976">
        <ele>46</ele>
      </trkpt>
      <trkpt lat="-45.10992561510586" lon="170.974604234217">
        <ele>46</ele>
      </trkpt>
      <trkpt lat="-45.10988651535381" lon="170.97452508106">
        <ele>45</ele>
      </trkpt>
      <trkpt lat="-45.10984550829678" lon="170.974463093649">
        <ele>44</ele>
      </trkpt>
      <trkpt lat="-45.10974442113294" lon="170.974369635705">
        <ele>40</ele>
      </trkpt>
      <trkpt lat="-45.10974442113294" lon="170.974369635705">
        <ele>40</ele>
      </trkpt>
      <trkpt lat="-45.10967098989128" lon="170.974302880031">
        <ele>38</ele>
      </trkpt>
      <trkpt lat="-45.10962139996185" lon="170.974246614534">
        <ele>36</ele>
      </trkpt>
      <trkpt lat="-45.10957943925234" lon="170.97417222964">
        <ele>35</ele>
      </trkpt>
      <trkpt lat="-45.10954606141522" lon="170.974080679001">
        <ele>34</ele>
      </trkpt>
      <trkpt lat="-45.10951172992561" lon="170.973979591837">
        <ele>32</ele>
      </trkpt>
      <trkpt lat="-45.10948598130841" lon="170.973859431623">
        <ele>32</ele>
      </trkpt>
      <trkpt lat="-45.10946023269121" lon="170.973740225062">
        <ele>31</ele>
      </trkpt>
      <trkpt lat="-45.10945164981881" lon="170.973631508678">
        <ele>31</ele>
      </trkpt>
      <trkpt lat="-45.1094430669464" lon="170.973522792295">
        <ele>31</ele>
      </trkpt>
      <trkpt lat="-45.1094430669464" lon="170.973522792295">
        <ele>31</ele>
      </trkpt>
      <trkpt lat="-45.10934674804501" lon="170.972786572573">
        <ele>34</ele>
      </trkpt>
      <trkpt lat="-45.10934674804501" lon="170.972786572573">
        <ele>34</ele>
      </trkpt>
      <trkpt lat="-45.10916746137708" lon="170.971501049018">
        <ele>33</ele>
      </trkpt>
      <trkpt lat="-45.10904253290101" lon="170.970699980927">
        <ele>35</ele>
      </trkpt>
      <trkpt lat="-45.10904253290101" lon="170.970699980927">
        <ele>35</ele>
      </trkpt>
      <trkpt lat="-45.10900057219149" lon="170.970708563799">
        <ele>35</ele>
      </trkpt>
      <trkpt lat="-45.10896433339691" lon="170.970699027274">
        <ele>34</ele>
      </trkpt>
      <trkpt lat="-45.10890234598512" lon="170.97063990082">
        <ele>33</ele>
      </trkpt>
      <trkpt lat="-45.10884035857334" lon="170.970612244898">
        <ele>32</ele>
      </trkpt>
      <trkpt lat="-45.10877741750906" lon="170.970610337593">
        <ele>31</ele>
      </trkpt>
      <trkpt lat="-45.10873068853709" lon="170.970629410643">
        <ele>30</ele>
      </trkpt>
      <trkpt lat="-45.10869731069998" lon="170.970688537097">
        <ele>29</ele>
      </trkpt>
      <trkpt lat="-45.10868205226016" lon="170.970754339119">
        <ele>28</ele>
      </trkpt>
      <trkpt lat="-45.10865058172802" lon="170.970818233836">
        <ele>27</ele>
      </trkpt>
      <trkpt lat="-45.10834255197406" lon="170.971119588022">
        <ele>19</ele>
      </trkpt>
      <trkpt lat="-45.10826339881747" lon="170.971128170895">
        <ele>18</ele>
      </trkpt>
      <trkpt lat="-45.10824432576769" lon="170.971161548732">
        <ele>18</ele>
      </trkpt>
      <trkpt lat="-45.10823669654778" lon="170.971227350753">
        <ele>18</ele>
      </trkpt>
      <trkpt lat="-45.10823636579577" lon="170.971230203076">
        <ele>18</ele>
      </trkpt>
      <trkpt lat="-45.10797062750333" lon="170.971051878695">
        <ele>17</ele>
      </trkpt>
      <trkpt lat="-45.10767499523174" lon="170.970815372878">
        <ele>17</ele>
      </trkpt>
      <trkpt lat="-45.10693782185771" lon="170.970249856952">
        <ele>13</ele>
      </trkpt>
      <trkpt lat="-45.10687583444593" lon="170.970224108335">
        <ele>12</ele>
      </trkpt>
      <trkpt lat="-45.10684054930383" lon="170.970240320427">
        <ele>12</ele>
      </trkpt>
      <trkpt lat="-45.10681003242419" lon="170.970284188442">
        <ele>12</ele>
      </trkpt>
      <trkpt lat="-45.10679763494183" lon="170.970324241846">
        <ele>12</ele>
      </trkpt>
      <trkpt lat="-45.10675853518978" lon="170.970637993515">
        <ele>12</ele>
      </trkpt>
      <trkpt lat="-45.10675853518978" lon="170.970637993515">
        <ele>12</ele>
      </trkpt>
      <trkpt lat="-45.10676681631602" lon="170.970571542527">
        <ele>12</ele>
      </trkpt>
      <trkpt lat="-45.10676681634057" lon="170.970571542537">
        <ele>12</ele>
      </trkpt>
      <trkpt lat="-45.10689109288575" lon="170.970616059508">
        <ele>12</ele>
      </trkpt>
      <trkpt lat="-45.10727541483883" lon="170.970851611673">
        <ele>14</ele>
      </trkpt>
      <trkpt lat="-45.1079477398436" lon="170.971495327103">
        <ele>14</ele>
      </trkpt>
      <trkpt lat="-45.10816135800114" lon="170.972190539767">
        <ele>11</ele>
      </trkpt>
      <trkpt lat="-45.1081394239939" lon="170.972231546824">
        <ele>11</ele>
      </trkpt>
      <trkpt lat="-45.10802880030517" lon="170.972221056647">
        <ele>10</ele>
      </trkpt>
      <trkpt lat="-45.10802784665268" lon="170.972251573527">
        <ele>10</ele>
      </trkpt>
      <trkpt lat="-45.10802784665268" lon="170.972251573527">
        <ele>10</ele>
      </trkpt>
      <trkpt lat="-45.10802021743277" lon="170.972380316613">
        <ele>9</ele>
      </trkpt>
      <trkpt lat="-45.10802021743277" lon="170.972380316613">
        <ele>9</ele>
      </trkpt>
      <trkpt lat="-45.10800686629792" lon="170.972452794202">
        <ele>8</ele>
      </trkpt>
      <trkpt lat="-45.10800686629792" lon="170.972452794202">
        <ele>8</ele>
      </trkpt>
      <trkpt lat="-45.10808315849705" lon="170.972495708564">
        <ele>9</ele>
      </trkpt>
      <trkpt lat="-45.10815849704368" lon="170.972539576578">
        <ele>9</ele>
      </trkpt>
      <trkpt lat="-45.10825386229258" lon="170.972612054167">
        <ele>9</ele>
      </trkpt>
      <trkpt lat="-45.10831680335686" lon="170.972672134274">
        <ele>9</ele>
      </trkpt>
      <trkpt lat="-45.10837688346366" lon="170.972740797254">
        <ele>10</ele>
      </trkpt>
      <trkpt lat="-45.1084350562655" lon="170.97284665268">
        <ele>10</ele>
      </trkpt>
      <trkpt lat="-45.1084522220103" lon="170.972901010872">
        <ele>10</ele>
      </trkpt>
      <trkpt lat="-45.10916364676712" lon="170.976073812703">
        <ele>4</ele>
      </trkpt>
      <trkpt lat="-45.10914266641236" lon="170.976323669655">
        <ele>3</ele>
      </trkpt>
      <trkpt lat="-45.10915029563227" lon="170.976393286287">
        <ele>3</ele>
      </trkpt>
      <trkpt lat="-45.1091741369445" lon="170.976496280755">
        <ele>3</ele>
      </trkpt>
      <trkpt lat="-45.10919034903681" lon="170.97654014877">
        <ele>4</ele>
      </trkpt>
      <trkpt lat="-45.10924947549113" lon="170.976628838451">
        <ele>6</ele>
      </trkpt>
      <trkpt lat="-45.10928189967576" lon="170.97672038909">
        <ele>6</ele>
      </trkpt>
      <trkpt lat="-45.10946881556361" lon="170.977453747854">
        <ele>10</ele>
      </trkpt>
      <trkpt lat="-45.10960423421705" lon="170.978090787717">
        <ele>8</ele>
      </trkpt>
      <trkpt lat="-45.10960429439356" lon="170.978091070802">
        <ele>8</ele>
      </trkpt>
      <trkpt lat="-45.10960440693797" lon="170.978090823866">
        <ele>8</ele>
      </trkpt>
      <trkpt lat="-45.10960440691523" lon="170.978090823863">
        <ele>8</ele>
      </trkpt>
      <trkpt lat="-45.10964524127408" lon="170.978099370589">
        <ele>9</ele>
      </trkpt>
      <trkpt lat="-45.1096453479099" lon="170.978099392599">
        <ele>9</ele>
      </trkpt>
      <trkpt lat="-45.10969757184304" lon="170.978341380725">
        <ele>7</ele>
      </trkpt>
    </trkseg>
  </trk>
</gpx>