<?xml version="1.0" encoding="UTF-8" standalone="yes"?>
<gpx
 version="1.1"
 creator="Generated by MapOut iPhone App. See https://mapout.app"
 xmlns="http://www.topografix.com/GPX/1/1"
 xmlns:xsi="http://www.w3.org/2001/XMLSchema-instance"
 xmlns:gpxx="http://www.garmin.com/xmlschemas/GpxExtensions/v3"
 xmlns:mapout="https://mapout.app/xmlschemas/MapOutExtensions"
 xsi:schemaLocation="http://www.topografix.com/GPX/1/1 https://www.topografix.com/GPX/1/1/gpx.xsd http://www.garmin.com/xmlschemas/GpxExtensions/v3 https://www8.garmin.com/xmlschemas/GpxExtensionsv3.xsd https://mapout.app/xmlschemas/MapOutExtensions https://mapout.app/xmlschemas/MapOutExtensions.xsd">
  <metadata>
    <name>Te Whara Track</name>
    <time>2026-03-09T09:17:02Z</time>
    <bounds minlat="-35.85465859240892" minlon="174.567488079344" maxlat="-35.83848559984742" maxlon="174.580853518978"/>
  </metadata>
  <trk>
    <name>Te Whara Track</name>
    <trkseg>
      <trkpt lat="-35.83920274651917" lon="174.572491893954">
        <ele>12</ele>
      </trkpt>
      <trkpt lat="-35.8391560175472" lon="174.572510967004">
        <ele>12</ele>
      </trkpt>
      <trkpt lat="-35.83899961853901" lon="174.572633034522">
        <ele>13</ele>
      </trkpt>
      <trkpt lat="-35.83890616059508" lon="174.572682624452">
        <ele>13</ele>
      </trkpt>
      <trkpt lat="-35.83885466336067" lon="174.572732214381">
        <ele>14</ele>
      </trkpt>
      <trkpt lat="-35.83869444974251" lon="174.572947739844">
        <ele>14</ele>
      </trkpt>
      <trkpt lat="-35.83864962807553" lon="174.573033568568">
        <ele>14</ele>
      </trkpt>
      <trkpt lat="-35.83862387945832" lon="174.573119397292">
        <ele>14</ele>
      </trkpt>
      <trkpt lat="-35.8385475872592" lon="174.573457943925">
        <ele>13</ele>
      </trkpt>
      <trkpt lat="-35.83852469959947" lon="174.573611481976">
        <ele>12</ele>
      </trkpt>
      <trkpt lat="-35.83852756055693" lon="174.573925233645">
        <ele>11</ele>
      </trkpt>
      <trkpt lat="-35.8385390043868" lon="174.574089261873">
        <ele>11</ele>
      </trkpt>
      <trkpt lat="-35.83857715048636" lon="174.574270455846">
        <ele>11</ele>
      </trkpt>
      <trkpt lat="-35.83875166889185" lon="174.574794964715">
        <ele>12</ele>
      </trkpt>
      <trkpt lat="-35.83901106236887" lon="174.575311844364">
        <ele>12</ele>
      </trkpt>
      <trkpt lat="-35.83913694449743" lon="174.575462521457">
        <ele>12</ele>
      </trkpt>
      <trkpt lat="-35.83965000953652" lon="174.575596986458">
        <ele>19</ele>
      </trkpt>
      <trkpt lat="-35.83991226397101" lon="174.575359526988">
        <ele>25</ele>
      </trkpt>
      <trkpt lat="-35.8399561319855" lon="174.575343314896">
        <ele>26</ele>
      </trkpt>
      <trkpt lat="-35.84" lon="174.575334732024">
        <ele>26</ele>
      </trkpt>
      <trkpt lat="-35.84" lon="174.575334732024">
        <ele>26</ele>
      </trkpt>
      <trkpt lat="-35.84005340453939" lon="174.575338546634">
        <ele>27</ele>
      </trkpt>
      <trkpt lat="-35.84007724585161" lon="174.575356666031">
        <ele>27</ele>
      </trkpt>
      <trkpt lat="-35.840130650391" lon="174.575466336067">
        <ele>27</ele>
      </trkpt>
      <trkpt lat="-35.84018405493038" lon="174.575576006103">
        <ele>27</ele>
      </trkpt>
      <trkpt lat="-35.84023936677475" lon="174.575637993515">
        <ele>27</ele>
      </trkpt>
      <trkpt lat="-35.84029372496662" lon="174.575699980927">
        <ele>28</ele>
      </trkpt>
      <trkpt lat="-35.84039862674042" lon="174.575713332062">
        <ele>29</ele>
      </trkpt>
      <trkpt lat="-35.84050257486172" lon="174.575726683197">
        <ele>31</ele>
      </trkpt>
      <trkpt lat="-35.84052450886897" lon="174.57583158497">
        <ele>30</ele>
      </trkpt>
      <trkpt lat="-35.84054548922373" lon="174.575937440397">
        <ele>32</ele>
      </trkpt>
      <trkpt lat="-35.84067327865726" lon="174.576214953271">
        <ele>38</ele>
      </trkpt>
      <trkpt lat="-35.84069044440206" lon="174.57633320618">
        <ele>40</ele>
      </trkpt>
      <trkpt lat="-35.84070761014686" lon="174.576452412741">
        <ele>43</ele>
      </trkpt>
      <trkpt lat="-35.84074289528895" lon="174.576519168415">
        <ele>44</ele>
      </trkpt>
      <trkpt lat="-35.84077722677856" lon="174.576586877742">
        <ele>46</ele>
      </trkpt>
      <trkpt lat="-35.84084875071524" lon="174.576686057601">
        <ele>49</ele>
      </trkpt>
      <trkpt lat="-35.8408868968148" lon="174.576723250048">
        <ele>51</ele>
      </trkpt>
      <trkpt lat="-35.84092885752432" lon="174.576748045012">
        <ele>52</ele>
      </trkpt>
      <trkpt lat="-35.84099084493611" lon="174.576770932672">
        <ele>54</ele>
      </trkpt>
      <trkpt lat="-35.84105283234789" lon="174.576793820332">
        <ele>57</ele>
      </trkpt>
      <trkpt lat="-35.84111005149724" lon="174.576827198169">
        <ele>59</ele>
      </trkpt>
      <trkpt lat="-35.84116631699409" lon="174.576845317566">
        <ele>61</ele>
      </trkpt>
      <trkpt lat="-35.84123784093077" lon="174.576830059126">
        <ele>63</ele>
      </trkpt>
      <trkpt lat="-35.84130936486744" lon="174.576740415792">
        <ele>65</ele>
      </trkpt>
      <trkpt lat="-35.84138088880412" lon="174.576650772459">
        <ele>66</ele>
      </trkpt>
      <trkpt lat="-35.84139423993897" lon="174.576644096891">
        <ele>67</ele>
      </trkpt>
      <trkpt lat="-35.84140663742132" lon="174.576647911501">
        <ele>67</ele>
      </trkpt>
      <trkpt lat="-35.84138661071906" lon="174.576709898913">
        <ele>67</ele>
      </trkpt>
      <trkpt lat="-35.84137898149914" lon="174.576778561892">
        <ele>68</ele>
      </trkpt>
      <trkpt lat="-35.84138184245661" lon="174.576836734694">
        <ele>69</ele>
      </trkpt>
      <trkpt lat="-35.84139519359146" lon="174.57691207324">
        <ele>70</ele>
      </trkpt>
      <trkpt lat="-35.84140854472631" lon="174.57698836544">
        <ele>72</ele>
      </trkpt>
      <trkpt lat="-35.84140282281137" lon="174.577103757391">
        <ele>73</ele>
      </trkpt>
      <trkpt lat="-35.84139519359146" lon="174.577167652108">
        <ele>73</ele>
      </trkpt>
      <trkpt lat="-35.84138756437154" lon="174.577231546824">
        <ele>74</ele>
      </trkpt>
      <trkpt lat="-35.84137612054167" lon="174.577299256151">
        <ele>74</ele>
      </trkpt>
      <trkpt lat="-35.84136467671181" lon="174.577366965478">
        <ele>75</ele>
      </trkpt>
      <trkpt lat="-35.84120637039863" lon="174.577733168034">
        <ele>70</ele>
      </trkpt>
      <trkpt lat="-35.84115105855427" lon="174.577805645623">
        <ele>67</ele>
      </trkpt>
      <trkpt lat="-35.8410957467099" lon="174.577878123212">
        <ele>65</ele>
      </trkpt>
      <trkpt lat="-35.84106713713523" lon="174.577906732787">
        <ele>64</ele>
      </trkpt>
      <trkpt lat="-35.84104043486553" lon="174.577947739844">
        <ele>63</ele>
      </trkpt>
      <trkpt lat="-35.84103089834065" lon="174.577986839596">
        <ele>63</ele>
      </trkpt>
      <trkpt lat="-35.84103185199314" lon="174.578031661263">
        <ele>63</ele>
      </trkpt>
      <trkpt lat="-35.84105092504291" lon="174.57806885371">
        <ele>63</ele>
      </trkpt>
      <trkpt lat="-35.84111100514973" lon="174.578134655731">
        <ele>66</ele>
      </trkpt>
      <trkpt lat="-35.84117013160404" lon="174.578201411406">
        <ele>68</ele>
      </trkpt>
      <trkpt lat="-35.84123116536334" lon="174.578236696548">
        <ele>70</ele>
      </trkpt>
      <trkpt lat="-35.84127217242037" lon="174.57825290864">
        <ele>72</ele>
      </trkpt>
      <trkpt lat="-35.84133415983216" lon="174.578250047683">
        <ele>74</ele>
      </trkpt>
      <trkpt lat="-35.84139614724395" lon="174.578247186725">
        <ele>77</ele>
      </trkpt>
      <trkpt lat="-35.8415048636277" lon="174.578224299065">
        <ele>81</ele>
      </trkpt>
      <trkpt lat="-35.84154491703224" lon="174.578205226016">
        <ele>82</ele>
      </trkpt>
      <trkpt lat="-35.84158020217433" lon="174.578171848179">
        <ele>84</ele>
      </trkpt>
      <trkpt lat="-35.84164886515354" lon="174.578086019455">
        <ele>87</ele>
      </trkpt>
      <trkpt lat="-35.84171657448026" lon="174.57800019073">
        <ele>90</ele>
      </trkpt>
      <trkpt lat="-35.84182052260157" lon="174.577947739844">
        <ele>95</ele>
      </trkpt>
      <trkpt lat="-35.84192447072287" lon="174.577885752432">
        <ele>99</ele>
      </trkpt>
      <trkpt lat="-35.84220484455464" lon="174.577644478352">
        <ele>113</ele>
      </trkpt>
      <trkpt lat="-35.84266736601182" lon="174.577317375548">
        <ele>126</ele>
      </trkpt>
      <trkpt lat="-35.84274079725348" lon="174.577284951364">
        <ele>126</ele>
      </trkpt>
      <trkpt lat="-35.84281518214762" lon="174.577264924661">
        <ele>126</ele>
      </trkpt>
      <trkpt lat="-35.84288193782186" lon="174.577268739271">
        <ele>127</ele>
      </trkpt>
      <trkpt lat="-35.84295536906352" lon="174.577304978066">
        <ele>129</ele>
      </trkpt>
      <trkpt lat="-35.8429916078581" lon="174.577345985123">
        <ele>130</ele>
      </trkpt>
      <trkpt lat="-35.84302880030517" lon="174.577414648102">
        <ele>132</ele>
      </trkpt>
      <trkpt lat="-35.84315372878123" lon="174.577722677856">
        <ele>138</ele>
      </trkpt>
      <trkpt lat="-35.84320713332062" lon="174.577837116155">
        <ele>140</ele>
      </trkpt>
      <trkpt lat="-35.84327961090979" lon="174.577932481404">
        <ele>143</ele>
      </trkpt>
      <trkpt lat="-35.84335304215144" lon="174.578010680908">
        <ele>145</ele>
      </trkpt>
      <trkpt lat="-35.84343600991799" lon="174.578079343887">
        <ele>147</ele>
      </trkpt>
      <trkpt lat="-35.84351802403204" lon="174.578148960519">
        <ele>149</ele>
      </trkpt>
      <trkpt lat="-35.84388422658783" lon="174.578533282472">
        <ele>160</ele>
      </trkpt>
      <trkpt lat="-35.84396433339691" lon="174.578599084494">
        <ele>162</ele>
      </trkpt>
      <trkpt lat="-35.84405302307839" lon="174.578639137898">
        <ele>164</ele>
      </trkpt>
      <trkpt lat="-35.84414075910738" lon="174.578680144955">
        <ele>167</ele>
      </trkpt>
      <trkpt lat="-35.84443829868396" lon="174.578860385276">
        <ele>169</ele>
      </trkpt>
      <trkpt lat="-35.84453461758535" lon="174.578946214">
        <ele>171</ele>
      </trkpt>
      <trkpt lat="-35.8448178523746" lon="174.579110242228">
        <ele>177</ele>
      </trkpt>
      <trkpt lat="-35.84485313751669" lon="174.579140759107">
        <ele>179</ele>
      </trkpt>
      <trkpt lat="-35.84488365439634" lon="174.579174136944">
        <ele>180</ele>
      </trkpt>
      <trkpt lat="-35.84491131031852" lon="174.579219912264">
        <ele>181</ele>
      </trkpt>
      <trkpt lat="-35.84494564180812" lon="174.579305740988">
        <ele>182</ele>
      </trkpt>
      <trkpt lat="-35.84497901964524" lon="174.579391569712">
        <ele>183</ele>
      </trkpt>
      <trkpt lat="-35.84500095365249" lon="174.579466908259">
        <ele>184</ele>
      </trkpt>
      <trkpt lat="-35.84501621209232" lon="174.579503147053">
        <ele>184</ele>
      </trkpt>
      <trkpt lat="-35.84504100705703" lon="174.579533663933">
        <ele>185</ele>
      </trkpt>
      <trkpt lat="-35.84516212092313" lon="174.579625214572">
        <ele>185</ele>
      </trkpt>
      <trkpt lat="-35.84528323478924" lon="174.579717718863">
        <ele>187</ele>
      </trkpt>
      <trkpt lat="-35.84537097081824" lon="174.579809269502">
        <ele>189</ele>
      </trkpt>
      <trkpt lat="-35.84545775319474" lon="174.579900820141">
        <ele>191</ele>
      </trkpt>
      <trkpt lat="-35.84551878695404" lon="174.579940873546">
        <ele>193</ele>
      </trkpt>
      <trkpt lat="-35.84557505245089" lon="174.58">
        <ele>195</ele>
      </trkpt>
      <trkpt lat="-35.84557505245089" lon="174.58">
        <ele>195</ele>
      </trkpt>
      <trkpt lat="-35.84563036429525" lon="174.580073431242">
        <ele>195</ele>
      </trkpt>
      <trkpt lat="-35.84568567613962" lon="174.580147816136">
        <ele>194</ele>
      </trkpt>
      <trkpt lat="-35.84573812702651" lon="174.580196452413">
        <ele>194</ele>
      </trkpt>
      <trkpt lat="-35.84578962426092" lon="174.580228876597">
        <ele>195</ele>
      </trkpt>
      <trkpt lat="-35.84638565706657" lon="174.58044058745">
        <ele>209</ele>
      </trkpt>
      <trkpt lat="-35.84679954224681" lon="174.580423421705">
        <ele>222</ele>
      </trkpt>
      <trkpt lat="-35.8469216097654" lon="174.580495899294">
        <ele>228</ele>
      </trkpt>
      <trkpt lat="-35.847043677284" lon="174.580569330536">
        <ele>235</ele>
      </trkpt>
      <trkpt lat="-35.84742799923708" lon="174.580641808125">
        <ele>253</ele>
      </trkpt>
      <trkpt lat="-35.84767976349418" lon="174.5806322716">
        <ele>262</ele>
      </trkpt>
      <trkpt lat="-35.84769692923899" lon="174.580637993515">
        <ele>263</ele>
      </trkpt>
      <trkpt lat="-35.8477131413313" lon="174.580656112912">
        <ele>264</ele>
      </trkpt>
      <trkpt lat="-35.84778466526798" lon="174.580751478161">
        <ele>270</ele>
      </trkpt>
      <trkpt lat="-35.84780278466527" lon="174.580766736601">
        <ele>271</ele>
      </trkpt>
      <trkpt lat="-35.84790196452413" lon="174.580791531566">
        <ele>275</ele>
      </trkpt>
      <trkpt lat="-35.84791626931146" lon="174.580803929048">
        <ele>276</ele>
      </trkpt>
      <trkpt lat="-35.84794201792867" lon="174.58084684341">
        <ele>277</ele>
      </trkpt>
      <trkpt lat="-35.84795441541102" lon="174.580853518978">
        <ele>277</ele>
      </trkpt>
      <trkpt lat="-35.84807171466718" lon="174.580822048446">
        <ele>282</ele>
      </trkpt>
      <trkpt lat="-35.84808792675949" lon="174.580793438871">
        <ele>281</ele>
      </trkpt>
      <trkpt lat="-35.84814609956132" lon="174.580787716956">
        <ele>283</ele>
      </trkpt>
      <trkpt lat="-35.84815563608621" lon="174.580771504864">
        <ele>283</ele>
      </trkpt>
      <trkpt lat="-35.84815849704368" lon="174.580730497807">
        <ele>282</ele>
      </trkpt>
      <trkpt lat="-35.84817184817852" lon="174.580704749189">
        <ele>282</ele>
      </trkpt>
      <trkpt lat="-35.84823955750525" lon="174.580711424757">
        <ele>284</ele>
      </trkpt>
      <trkpt lat="-35.84830249856952" lon="174.580667556742">
        <ele>286</ele>
      </trkpt>
      <trkpt lat="-35.84841216860576" lon="174.580637993515">
        <ele>285</ele>
      </trkpt>
      <trkpt lat="-35.84845699027274" lon="174.580553118444">
        <ele>284</ele>
      </trkpt>
      <trkpt lat="-35.84850181193973" lon="174.580468243372">
        <ele>283</ele>
      </trkpt>
      <trkpt lat="-35.84858668701126" lon="174.580385275606">
        <ele>283</ele>
      </trkpt>
      <trkpt lat="-35.84867060843029" lon="174.580303261492">
        <ele>284</ele>
      </trkpt>
      <trkpt lat="-35.84871924470723" lon="174.580269883654">
        <ele>285</ele>
      </trkpt>
      <trkpt lat="-35.84877074194164" lon="174.580266069044">
        <ele>286</ele>
      </trkpt>
      <trkpt lat="-35.84881270265115" lon="174.580301354187">
        <ele>286</ele>
      </trkpt>
      <trkpt lat="-35.84884512683578" lon="174.580291817662">
        <ele>287</ele>
      </trkpt>
      <trkpt lat="-35.84892618729735" lon="174.580181193973">
        <ele>291</ele>
      </trkpt>
      <trkpt lat="-35.848999618539" lon="174.580113484646">
        <ele>294</ele>
      </trkpt>
      <trkpt lat="-35.84905874499333" lon="174.580144955178">
        <ele>295</ele>
      </trkpt>
      <trkpt lat="-35.84912645432005" lon="174.580141140568">
        <ele>297</ele>
      </trkpt>
      <trkpt lat="-35.8491398054549" lon="174.580093457944">
        <ele>299</ele>
      </trkpt>
      <trkpt lat="-35.84916078580965" lon="174.580077245852">
        <ele>300</ele>
      </trkpt>
      <trkpt lat="-35.84918462712188" lon="174.580082014114">
        <ele>301</ele>
      </trkpt>
      <trkpt lat="-35.84923803166127" lon="174.58">
        <ele>305</ele>
      </trkpt>
      <trkpt lat="-35.84923803166286" lon="174.579999999998">
        <ele>305</ele>
      </trkpt>
      <trkpt lat="-35.84926473393096" lon="174.579959946595">
        <ele>305</ele>
      </trkpt>
      <trkpt lat="-35.84934293343506" lon="174.57998092695">
        <ele>307</ele>
      </trkpt>
      <trkpt lat="-35.84938012588213" lon="174.579880793439">
        <ele>308</ele>
      </trkpt>
      <trkpt lat="-35.84946309364867" lon="174.579786381842">
        <ele>309</ele>
      </trkpt>
      <trkpt lat="-35.84950600801069" lon="174.57978542819">
        <ele>310</ele>
      </trkpt>
      <trkpt lat="-35.84954033950029" lon="174.579745374785">
        <ele>311</ele>
      </trkpt>
      <trkpt lat="-35.84956990272745" lon="174.579668128934">
        <ele>312</ele>
      </trkpt>
      <trkpt lat="-35.84959851230212" lon="174.579591836735">
        <ele>312</ele>
      </trkpt>
      <trkpt lat="-35.84965096318901" lon="174.579500286096">
        <ele>314</ele>
      </trkpt>
      <trkpt lat="-35.84975395765783" lon="174.579427808507">
        <ele>317</ele>
      </trkpt>
      <trkpt lat="-35.84981880602709" lon="174.579475491131">
        <ele>320</ele>
      </trkpt>
      <trkpt lat="-35.84988270074385" lon="174.579523173755">
        <ele>322</ele>
      </trkpt>
      <trkpt lat="-35.84993324432577" lon="174.579568949075">
        <ele>324</ele>
      </trkpt>
      <trkpt lat="-35.84999713904254" lon="174.579571810032">
        <ele>326</ele>
      </trkpt>
      <trkpt lat="-35.8500610337593" lon="174.57957467099">
        <ele>327</ele>
      </trkpt>
      <trkpt lat="-35.85014114056838" lon="174.579541293153">
        <ele>329</ele>
      </trkpt>
      <trkpt lat="-35.85025748617204" lon="174.579510776273">
        <ele>331</ele>
      </trkpt>
      <trkpt lat="-35.85037383177571" lon="174.579480259393">
        <ele>334</ele>
      </trkpt>
      <trkpt lat="-35.85040720961282" lon="174.579397291627">
        <ele>337</ele>
      </trkpt>
      <trkpt lat="-35.85049685294679" lon="174.579315277513">
        <ele>341</ele>
      </trkpt>
      <trkpt lat="-35.85053690635133" lon="174.579267594888">
        <ele>343</ele>
      </trkpt>
      <trkpt lat="-35.85055407209613" lon="174.579222773221">
        <ele>345</ele>
      </trkpt>
      <trkpt lat="-35.85061605950791" lon="174.57916460042">
        <ele>348</ele>
      </trkpt>
      <trkpt lat="-35.85061129124547" lon="174.579043486554">
        <ele>347</ele>
      </trkpt>
      <trkpt lat="-35.8506522983025" lon="174.578972916269">
        <ele>349</ele>
      </trkpt>
      <trkpt lat="-35.85072286858669" lon="174.57890425329">
        <ele>351</ele>
      </trkpt>
      <trkpt lat="-35.85078962426092" lon="174.578819378219">
        <ele>354</ele>
      </trkpt>
      <trkpt lat="-35.85089071142476" lon="174.578773602899">
        <ele>357</ele>
      </trkpt>
      <trkpt lat="-35.85099179858859" lon="174.57872782758">
        <ele>360</ele>
      </trkpt>
      <trkpt lat="-35.85106522983025" lon="174.578657257295">
        <ele>362</ele>
      </trkpt>
      <trkpt lat="-35.85107572000763" lon="174.578562845699">
        <ele>363</ele>
      </trkpt>
      <trkpt lat="-35.85109288575244" lon="174.578527560557">
        <ele>364</ele>
      </trkpt>
      <trkpt lat="-35.85114915124929" lon="174.57850562655">
        <ele>366</ele>
      </trkpt>
      <trkpt lat="-35.85115201220675" lon="174.578473202365">
        <ele>367</ele>
      </trkpt>
      <trkpt lat="-35.85122448979592" lon="174.57847510967">
        <ele>369</ele>
      </trkpt>
      <trkpt lat="-35.85130268930002" lon="174.578410261301">
        <ele>373</ele>
      </trkpt>
      <trkpt lat="-35.85133988174709" lon="174.578322525272">
        <ele>376</ele>
      </trkpt>
      <trkpt lat="-35.85141045203128" lon="174.578316803357">
        <ele>378</ele>
      </trkpt>
      <trkpt lat="-35.85148483692542" lon="174.578266259775">
        <ele>380</ele>
      </trkpt>
      <trkpt lat="-35.85154396337975" lon="174.578276749952">
        <ele>382</ele>
      </trkpt>
      <trkpt lat="-35.85166603089834" lon="174.57824527942">
        <ele>386</ele>
      </trkpt>
      <trkpt lat="-35.85174899866489" lon="174.578244325768">
        <ele>387</ele>
      </trkpt>
      <trkpt lat="-35.85181575433912" lon="174.578251954988">
        <ele>388</ele>
      </trkpt>
      <trkpt lat="-35.85188155636087" lon="174.57826053786">
        <ele>389</ele>
      </trkpt>
      <trkpt lat="-35.85195880221247" lon="174.578191874881">
        <ele>388</ele>
      </trkpt>
      <trkpt lat="-35.8520350944116" lon="174.578123211902">
        <ele>388</ele>
      </trkpt>
      <trkpt lat="-35.85208849895098" lon="174.578126072859">
        <ele>388</ele>
      </trkpt>
      <trkpt lat="-35.85211043295823" lon="174.578085065802">
        <ele>388</ele>
      </trkpt>
      <trkpt lat="-35.85212759870304" lon="174.578014495518">
        <ele>386</ele>
      </trkpt>
      <trkpt lat="-35.85214476444784" lon="174.577944878886">
        <ele>385</ele>
      </trkpt>
      <trkpt lat="-35.85221152012207" lon="174.577948693496">
        <ele>386</ele>
      </trkpt>
      <trkpt lat="-35.8522782757963" lon="174.577953461759">
        <ele>388</ele>
      </trkpt>
      <trkpt lat="-35.85239366774747" lon="174.577884798779">
        <ele>389</ele>
      </trkpt>
      <trkpt lat="-35.85245565515926" lon="174.577883845127">
        <ele>390</ele>
      </trkpt>
      <trkpt lat="-35.85253480831585" lon="174.577956322716">
        <ele>392</ele>
      </trkpt>
      <trkpt lat="-35.85260251764257" lon="174.577990654206">
        <ele>392</ele>
      </trkpt>
      <trkpt lat="-35.8526873927141" lon="174.577981117681">
        <ele>392</ele>
      </trkpt>
      <trkpt lat="-35.85272077055122" lon="174.578012588213">
        <ele>392</ele>
      </trkpt>
      <trkpt lat="-35.8528180431051" lon="174.577986839596">
        <ele>392</ele>
      </trkpt>
      <trkpt lat="-35.85291150104902" lon="174.577941064276">
        <ele>391</ele>
      </trkpt>
      <trkpt lat="-35.85298016402823" lon="174.577940110624">
        <ele>391</ele>
      </trkpt>
      <trkpt lat="-35.85304787335495" lon="174.577940110624">
        <ele>391</ele>
      </trkpt>
      <trkpt lat="-35.8530612244898" lon="174.577888613389">
        <ele>391</ele>
      </trkpt>
      <trkpt lat="-35.85308601945452" lon="174.577870493992">
        <ele>391</ele>
      </trkpt>
      <trkpt lat="-35.85312988746901" lon="174.577878123212">
        <ele>391</ele>
      </trkpt>
      <trkpt lat="-35.85318710661835" lon="174.577829486935">
        <ele>391</ele>
      </trkpt>
      <trkpt lat="-35.85319187488079" lon="174.577762731261">
        <ele>391</ele>
      </trkpt>
      <trkpt lat="-35.85325481594507" lon="174.577655922182">
        <ele>392</ele>
      </trkpt>
      <trkpt lat="-35.85329010108717" lon="174.577565325195">
        <ele>393</ele>
      </trkpt>
      <trkpt lat="-35.85332443257677" lon="174.577475681862">
        <ele>393</ele>
      </trkpt>
      <trkpt lat="-35.85343028800305" lon="174.577407018882">
        <ele>395</ele>
      </trkpt>
      <trkpt lat="-35.85345889757772" lon="174.577373641045">
        <ele>395</ele>
      </trkpt>
      <trkpt lat="-35.85345985123021" lon="174.577312607286">
        <ele>395</ele>
      </trkpt>
      <trkpt lat="-35.85348083158497" lon="174.577264924661">
        <ele>395</ele>
      </trkpt>
      <trkpt lat="-35.85353328247187" lon="174.577300209804">
        <ele>396</ele>
      </trkpt>
      <trkpt lat="-35.85356856761396" lon="174.577381270265">
        <ele>398</ele>
      </trkpt>
      <trkpt lat="-35.85364485981309" lon="174.577438489414">
        <ele>401</ele>
      </trkpt>
      <trkpt lat="-35.85370875452985" lon="174.577435628457">
        <ele>403</ele>
      </trkpt>
      <trkpt lat="-35.85377264924661" lon="174.5774327675">
        <ele>404</ele>
      </trkpt>
      <trkpt lat="-35.8538613389281" lon="174.577463284379">
        <ele>407</ele>
      </trkpt>
      <trkpt lat="-35.85394907495709" lon="174.577494754911">
        <ele>410</ele>
      </trkpt>
      <trkpt lat="-35.85405683768835" lon="174.577419416365">
        <ele>412</ele>
      </trkpt>
      <trkpt lat="-35.85406542056075" lon="174.577365058173">
        <ele>411</ele>
      </trkpt>
      <trkpt lat="-35.85411119588022" lon="174.57736028991">
        <ele>412</ele>
      </trkpt>
      <trkpt lat="-35.8541741369445" lon="174.577378409308">
        <ele>414</ele>
      </trkpt>
      <trkpt lat="-35.85429429715812" lon="174.577287812321">
        <ele>409</ele>
      </trkpt>
      <trkpt lat="-35.85433244325768" lon="174.57734884608">
        <ele>408</ele>
      </trkpt>
      <trkpt lat="-35.85436963570475" lon="174.57740987984">
        <ele>408</ele>
      </trkpt>
      <trkpt lat="-35.85444115964142" lon="174.57740606523">
        <ele>405</ele>
      </trkpt>
      <trkpt lat="-35.85450314705322" lon="174.5774327675">
        <ele>404</ele>
      </trkpt>
      <trkpt lat="-35.85453652489033" lon="174.57736028991">
        <ele>402</ele>
      </trkpt>
      <trkpt lat="-35.85461377074194" lon="174.577322143811">
        <ele>399</ele>
      </trkpt>
      <trkpt lat="-35.85461377074194" lon="174.577322143811">
        <ele>399</ele>
      </trkpt>
      <trkpt lat="-35.85465000953653" lon="174.577263971009">
        <ele>397</ele>
      </trkpt>
      <trkpt lat="-35.85465859240892" lon="174.577156208278">
        <ele>395</ele>
      </trkpt>
      <trkpt lat="-35.85463665840168" lon="174.577042723632">
        <ele>394</ele>
      </trkpt>
      <trkpt lat="-35.85464810223155" lon="174.576972153347">
        <ele>393</ele>
      </trkpt>
      <trkpt lat="-35.85461186343696" lon="174.576910165936">
        <ele>393</ele>
      </trkpt>
      <trkpt lat="-35.85457276368491" lon="174.576887278276">
        <ele>394</ele>
      </trkpt>
      <trkpt lat="-35.85455369063514" lon="174.576822429907">
        <ele>394</ele>
      </trkpt>
      <trkpt lat="-35.85453461758535" lon="174.57675853519">
        <ele>394</ele>
      </trkpt>
      <trkpt lat="-35.85456131985504" lon="174.576657448026">
        <ele>392</ele>
      </trkpt>
      <trkpt lat="-35.8545212664505" lon="174.576607858097">
        <ele>393</ele>
      </trkpt>
      <trkpt lat="-35.85443066946405" lon="174.576610719054">
        <ele>396</ele>
      </trkpt>
      <trkpt lat="-35.85438870875453" lon="174.5765134465">
        <ele>397</ele>
      </trkpt>
      <trkpt lat="-35.8542866679382" lon="174.576460995613">
        <ele>400</ele>
      </trkpt>
      <trkpt lat="-35.85425615105856" lon="174.576438107953">
        <ele>402</ele>
      </trkpt>
      <trkpt lat="-35.85423993896624" lon="174.576318901392">
        <ele>402</ele>
      </trkpt>
      <trkpt lat="-35.85423707800877" lon="174.576203509441">
        <ele>402</ele>
      </trkpt>
      <trkpt lat="-35.85427999237078" lon="174.576109097845">
        <ele>400</ele>
      </trkpt>
      <trkpt lat="-35.85428189967576" lon="174.576041388518">
        <ele>400</ele>
      </trkpt>
      <trkpt lat="-35.85431718481785" lon="174.576013732596">
        <ele>398</ele>
      </trkpt>
      <trkpt lat="-35.85435723822239" lon="174.576004196071">
        <ele>396</ele>
      </trkpt>
      <trkpt lat="-35.85442304024414" lon="174.575926950219">
        <ele>392</ele>
      </trkpt>
      <trkpt lat="-35.85442113293916" lon="174.575844936105">
        <ele>392</ele>
      </trkpt>
      <trkpt lat="-35.85441827198169" lon="174.575762921991">
        <ele>391</ele>
      </trkpt>
      <trkpt lat="-35.85436868205226" lon="174.575720961282">
        <ele>394</ele>
      </trkpt>
      <trkpt lat="-35.85428380698074" lon="174.57566278848">
        <ele>398</ele>
      </trkpt>
      <trkpt lat="-35.85428189967576" lon="174.575552164791">
        <ele>397</ele>
      </trkpt>
      <trkpt lat="-35.85427903871829" lon="174.575442494755">
        <ele>396</ele>
      </trkpt>
      <trkpt lat="-35.85423707800877" lon="174.575345222201">
        <ele>398</ele>
      </trkpt>
      <trkpt lat="-35.85420083921419" lon="174.575341407591">
        <ele>400</ele>
      </trkpt>
      <trkpt lat="-35.85417699790197" lon="174.575296585924">
        <ele>401</ele>
      </trkpt>
      <trkpt lat="-35.85416650772459" lon="174.575219340072">
        <ele>401</ele>
      </trkpt>
      <trkpt lat="-35.85419702460423" lon="174.575169750143">
        <ele>399</ele>
      </trkpt>
      <trkpt lat="-35.85423135609384" lon="174.575071523937">
        <ele>396</ele>
      </trkpt>
      <trkpt lat="-35.85426473393095" lon="174.57497329773">
        <ele>393</ele>
      </trkpt>
      <trkpt lat="-35.85427617776082" lon="174.574904634751">
        <ele>391</ele>
      </trkpt>
      <trkpt lat="-35.85428762159069" lon="174.574835971772">
        <ele>388</ele>
      </trkpt>
      <trkpt lat="-35.85395479687202" lon="174.57435628457">
        <ele>380</ele>
      </trkpt>
      <trkpt lat="-35.85387564371543" lon="174.574258058364">
        <ele>377</ele>
      </trkpt>
      <trkpt lat="-35.85379649055884" lon="174.57416078581">
        <ele>374</ele>
      </trkpt>
      <trkpt lat="-35.85361815754339" lon="174.573861338928">
        <ele>368</ele>
      </trkpt>
      <trkpt lat="-35.85359240892619" lon="174.573462712188">
        <ele>361</ele>
      </trkpt>
      <trkpt lat="-35.85359336257868" lon="174.57300019073">
        <ele>356</ele>
      </trkpt>
      <trkpt lat="-35.85348750715239" lon="174.572711234026">
        <ele>358</ele>
      </trkpt>
      <trkpt lat="-35.85339309555598" lon="174.572589166508">
        <ele>361</ele>
      </trkpt>
      <trkpt lat="-35.85336734693878" lon="174.572329773031">
        <ele>354</ele>
      </trkpt>
      <trkpt lat="-35.85329200839215" lon="174.572366011825">
        <ele>356</ele>
      </trkpt>
      <trkpt lat="-35.85329296204463" lon="174.572279229449">
        <ele>352</ele>
      </trkpt>
      <trkpt lat="-35.85329391569712" lon="174.572193400725">
        <ele>349</ele>
      </trkpt>
      <trkpt lat="-35.85321476254053" lon="174.572136181575">
        <ele>344</ele>
      </trkpt>
      <trkpt lat="-35.85313560938394" lon="174.572078962426">
        <ele>339</ele>
      </trkpt>
      <trkpt lat="-35.85308601945452" lon="174.571981689872">
        <ele>333</ele>
      </trkpt>
      <trkpt lat="-35.85298683959565" lon="174.571941636468">
        <ele>329</ele>
      </trkpt>
      <trkpt lat="-35.85292866679382" lon="174.571870112531">
        <ele>324</ele>
      </trkpt>
      <trkpt lat="-35.85294487888613" lon="174.571803356857">
        <ele>322</ele>
      </trkpt>
      <trkpt lat="-35.85302975395766" lon="174.571791913027">
        <ele>324</ele>
      </trkpt>
      <trkpt lat="-35.85311462902919" lon="174.57178142285">
        <ele>327</ele>
      </trkpt>
      <trkpt lat="-35.85315086782376" lon="174.571710852565">
        <ele>325</ele>
      </trkpt>
      <trkpt lat="-35.853217623498" lon="174.571619301926">
        <ele>323</ele>
      </trkpt>
      <trkpt lat="-35.85331584970437" lon="174.571599275224">
        <ele>325</ele>
      </trkpt>
      <trkpt lat="-35.85331584970437" lon="174.571263589548">
        <ele>312</ele>
      </trkpt>
      <trkpt lat="-35.85337211520122" lon="174.571182529086">
        <ele>308</ele>
      </trkpt>
      <trkpt lat="-35.85342838069808" lon="174.571101468625">
        <ele>303</ele>
      </trkpt>
      <trkpt lat="-35.8533215716193" lon="174.570986076674">
        <ele>302</ele>
      </trkpt>
      <trkpt lat="-35.85330154491703" lon="174.570887850467">
        <ele>297</ele>
      </trkpt>
      <trkpt lat="-35.85328151821476" lon="174.570790577913">
        <ele>293</ele>
      </trkpt>
      <trkpt lat="-35.85327770360481" lon="174.570723822239">
        <ele>290</ele>
      </trkpt>
      <trkpt lat="-35.85327293534236" lon="174.570658020217">
        <ele>288</ele>
      </trkpt>
      <trkpt lat="-35.85344459279039" lon="174.570365248903">
        <ele>278</ele>
      </trkpt>
      <trkpt lat="-35.85353614342934" lon="174.570296585924">
        <ele>274</ele>
      </trkpt>
      <trkpt lat="-35.85364104520313" lon="174.570259393477">
        <ele>270</ele>
      </trkpt>
      <trkpt lat="-35.85374594697692" lon="174.570223154682">
        <ele>266</ele>
      </trkpt>
      <trkpt lat="-35.85391188251001" lon="174.569814037765">
        <ele>252</ele>
      </trkpt>
      <trkpt lat="-35.85392523364486" lon="174.569732023651">
        <ele>249</ele>
      </trkpt>
      <trkpt lat="-35.85393763112722" lon="174.569650963189">
        <ele>246</ele>
      </trkpt>
      <trkpt lat="-35.85389948502766" lon="174.56916841503">
        <ele>233</ele>
      </trkpt>
      <trkpt lat="-35.85385752431814" lon="174.569071142476">
        <ele>231</ele>
      </trkpt>
      <trkpt lat="-35.85381556360862" lon="174.568974823574">
        <ele>229</ele>
      </trkpt>
      <trkpt lat="-35.85374022506199" lon="174.568893763113">
        <ele>228</ele>
      </trkpt>
      <trkpt lat="-35.85374022506199" lon="174.568818104446">
        <ele>226</ele>
      </trkpt>
      <trkpt lat="-35.85374022506199" lon="174.568818104446">
        <ele>226</ele>
      </trkpt>
      <trkpt lat="-35.85374022506199" lon="174.568625786763">
        <ele>222</ele>
      </trkpt>
      <trkpt lat="-35.85374022506199" lon="174.568625786763">
        <ele>222</ele>
      </trkpt>
      <trkpt lat="-35.85362864772078" lon="174.568626740416">
        <ele>222</ele>
      </trkpt>
      <trkpt lat="-35.85362864772078" lon="174.568626740416">
        <ele>222</ele>
      </trkpt>
      <trkpt lat="-35.85359622353614" lon="174.568711615487">
        <ele>225</ele>
      </trkpt>
      <trkpt lat="-35.85352565325196" lon="174.568719244707">
        <ele>225</ele>
      </trkpt>
      <trkpt lat="-35.85345508296777" lon="174.56872782758">
        <ele>226</ele>
      </trkpt>
      <trkpt lat="-35.85337020789624" lon="174.568803166126">
        <ele>228</ele>
      </trkpt>
      <trkpt lat="-35.85332729353424" lon="174.568909021553">
        <ele>231</ele>
      </trkpt>
      <trkpt lat="-35.85326530612245" lon="174.569025367156">
        <ele>231</ele>
      </trkpt>
      <trkpt lat="-35.85316803356857" lon="174.569050162121">
        <ele>227</ele>
      </trkpt>
      <trkpt lat="-35.85316803356857" lon="174.569050162121">
        <ele>227</ele>
      </trkpt>
      <trkpt lat="-35.85310032424185" lon="174.56911501049">
        <ele>225</ele>
      </trkpt>
      <trkpt lat="-35.85310032424185" lon="174.56911501049">
        <ele>225</ele>
      </trkpt>
      <trkpt lat="-35.85304882700744" lon="174.569165554072">
        <ele>225</ele>
      </trkpt>
      <trkpt lat="-35.85304882700744" lon="174.569165554072">
        <ele>225</ele>
      </trkpt>
      <trkpt lat="-35.85301163456037" lon="174.569196070952">
        <ele>224</ele>
      </trkpt>
      <trkpt lat="-35.85301163456037" lon="174.569196070952">
        <ele>224</ele>
      </trkpt>
      <trkpt lat="-35.85294201792867" lon="174.569241846271">
        <ele>222</ele>
      </trkpt>
      <trkpt lat="-35.85287240129697" lon="174.569288575243">
        <ele>221</ele>
      </trkpt>
      <trkpt lat="-35.85276082395576" lon="174.569395384322">
        <ele>219</ele>
      </trkpt>
      <trkpt lat="-35.85273984360099" lon="174.569488842266">
        <ele>221</ele>
      </trkpt>
      <trkpt lat="-35.85271790959374" lon="174.569583253862">
        <ele>223</ele>
      </trkpt>
      <trkpt lat="-35.85268548540912" lon="174.569647148579">
        <ele>224</ele>
      </trkpt>
      <trkpt lat="-35.85265306122449" lon="174.569711996948">
        <ele>224</ele>
      </trkpt>
      <trkpt lat="-35.85258344459279" lon="174.56976635514">
        <ele>223</ele>
      </trkpt>
      <trkpt lat="-35.85238985313752" lon="174.570087736029">
        <ele>227</ele>
      </trkpt>
      <trkpt lat="-35.85237459469769" lon="174.570179286668">
        <ele>231</ele>
      </trkpt>
      <trkpt lat="-35.85231260728591" lon="174.570181193973">
        <ele>229</ele>
      </trkpt>
      <trkpt lat="-35.85224966622163" lon="174.570183101278">
        <ele>228</ele>
      </trkpt>
      <trkpt lat="-35.85217528132748" lon="174.570282281137">
        <ele>231</ele>
      </trkpt>
      <trkpt lat="-35.85213808888042" lon="174.570285142094">
        <ele>230</ele>
      </trkpt>
      <trkpt lat="-35.85213808888042" lon="174.570285142094">
        <ele>230</ele>
      </trkpt>
      <trkpt lat="-35.8520608430288" lon="174.570286095747">
        <ele>228</ele>
      </trkpt>
      <trkpt lat="-35.8520608430288" lon="174.570286095747">
        <ele>228</ele>
      </trkpt>
      <trkpt lat="-35.85202746519168" lon="174.570284188442">
        <ele>227</ele>
      </trkpt>
      <trkpt lat="-35.85202746519168" lon="174.570284188442">
        <ele>227</ele>
      </trkpt>
      <trkpt lat="-35.85185103948121" lon="174.570274651917">
        <ele>223</ele>
      </trkpt>
      <trkpt lat="-35.85185103948121" lon="174.570274651917">
        <ele>223</ele>
      </trkpt>
      <trkpt lat="-35.85163837497616" lon="174.570561701316">
        <ele>231</ele>
      </trkpt>
      <trkpt lat="-35.85162502384131" lon="174.570567423231">
        <ele>231</ele>
      </trkpt>
      <trkpt lat="-35.85162502384131" lon="174.570567423231">
        <ele>231</ele>
      </trkpt>
      <trkpt lat="-35.8515649437345" lon="174.570590310891">
        <ele>231</ele>
      </trkpt>
      <trkpt lat="-35.85147434674805" lon="174.570496852947">
        <ele>224</ele>
      </trkpt>
      <trkpt lat="-35.85147434674805" lon="174.570496852947">
        <ele>224</ele>
      </trkpt>
      <trkpt lat="-35.85143906160595" lon="174.570433911883">
        <ele>220</ele>
      </trkpt>
      <trkpt lat="-35.85136753766928" lon="174.570420560748">
        <ele>218</ele>
      </trkpt>
      <trkpt lat="-35.8512702651154" lon="174.570362387946">
        <ele>213</ele>
      </trkpt>
      <trkpt lat="-35.85112721724204" lon="174.5706322716">
        <ele>221</ele>
      </trkpt>
      <trkpt lat="-35.85105760061034" lon="174.57061319855">
        <ele>218</ele>
      </trkpt>
      <trkpt lat="-35.85105760061034" lon="174.57061319855">
        <ele>218</ele>
      </trkpt>
      <trkpt lat="-35.85075529277132" lon="174.570745756246">
        <ele>215</ele>
      </trkpt>
      <trkpt lat="-35.85071047110433" lon="174.571162502384">
        <ele>216</ele>
      </trkpt>
      <trkpt lat="-35.85071047110433" lon="174.571162502384">
        <ele>216</ele>
      </trkpt>
      <trkpt lat="-35.85061415220294" lon="174.570885943162">
        <ele>213</ele>
      </trkpt>
      <trkpt lat="-35.85055216479115" lon="174.570842075148">
        <ele>210</ele>
      </trkpt>
      <trkpt lat="-35.85048922372687" lon="174.570799160786">
        <ele>207</ele>
      </trkpt>
      <trkpt lat="-35.85041674613771" lon="174.570731451459">
        <ele>203</ele>
      </trkpt>
      <trkpt lat="-35.85034426854854" lon="174.570664695785">
        <ele>199</ele>
      </trkpt>
      <trkpt lat="-35.85020217432768" lon="174.570391951173">
        <ele>191</ele>
      </trkpt>
      <trkpt lat="-35.8502260156399" lon="174.570282281137">
        <ele>190</ele>
      </trkpt>
      <trkpt lat="-35.85011634560367" lon="174.570324241846">
        <ele>189</ele>
      </trkpt>
      <trkpt lat="-35.85004291436201" lon="174.570305168796">
        <ele>187</ele>
      </trkpt>
      <trkpt lat="-35.84996852946787" lon="174.570286095747">
        <ele>186</ele>
      </trkpt>
      <trkpt lat="-35.84989509822621" lon="174.570312798016">
        <ele>185</ele>
      </trkpt>
      <trkpt lat="-35.84982071333206" lon="174.570339500286">
        <ele>183</ele>
      </trkpt>
      <trkpt lat="-35.84972534808316" lon="174.570328056456">
        <ele>182</ele>
      </trkpt>
      <trkpt lat="-35.84962902918177" lon="174.570317566279">
        <ele>180</ele>
      </trkpt>
      <trkpt lat="-35.84957943925234" lon="174.57023364486">
        <ele>179</ele>
      </trkpt>
      <trkpt lat="-35.84952889567042" lon="174.570149723441">
        <ele>179</ele>
      </trkpt>
      <trkpt lat="-35.84944211329392" lon="174.570082967767">
        <ele>178</ele>
      </trkpt>
      <trkpt lat="-35.84935533091741" lon="174.570016212092">
        <ele>178</ele>
      </trkpt>
      <trkpt lat="-35.84925615105855" lon="174.570033377837">
        <ele>177</ele>
      </trkpt>
      <trkpt lat="-35.8491569711997" lon="174.570051497234">
        <ele>175</ele>
      </trkpt>
      <trkpt lat="-35.84896910165936" lon="174.569767308793">
        <ele>166</ele>
      </trkpt>
      <trkpt lat="-35.84888136563037" lon="174.569647148579">
        <ele>162</ele>
      </trkpt>
      <trkpt lat="-35.84879362960137" lon="174.569527942018">
        <ele>159</ele>
      </trkpt>
      <trkpt lat="-35.84876597367919" lon="174.569435437726">
        <ele>158</ele>
      </trkpt>
      <trkpt lat="-35.84874594697693" lon="174.569180812512">
        <ele>157</ele>
      </trkpt>
      <trkpt lat="-35.84872973488461" lon="174.569165554072">
        <ele>156</ele>
      </trkpt>
      <trkpt lat="-35.84863150867824" lon="174.569247568186">
        <ele>153</ele>
      </trkpt>
      <trkpt lat="-35.84858668701126" lon="174.569299065421">
        <ele>152</ele>
      </trkpt>
      <trkpt lat="-35.84856093839405" lon="174.569364867442">
        <ele>151</ele>
      </trkpt>
      <trkpt lat="-35.84855044821667" lon="174.569429715812">
        <ele>150</ele>
      </trkpt>
      <trkpt lat="-35.8485571237841" lon="174.569707228686">
        <ele>150</ele>
      </trkpt>
      <trkpt lat="-35.84854377264925" lon="174.569733930956">
        <ele>150</ele>
      </trkpt>
      <trkpt lat="-35.84851993133702" lon="174.569729162693">
        <ele>149</ele>
      </trkpt>
      <trkpt lat="-35.84839459161869" lon="174.569566130233">
        <ele>145</ele>
      </trkpt>
      <trkpt lat="-35.84839459161869" lon="174.569566130233">
        <ele>145</ele>
      </trkpt>
      <trkpt lat="-35.84825672325005" lon="174.56938680145">
        <ele>141</ele>
      </trkpt>
      <trkpt lat="-35.84824241846271" lon="174.569342933435">
        <ele>141</ele>
      </trkpt>
      <trkpt lat="-35.84823383559031" lon="174.569284760633">
        <ele>141</ele>
      </trkpt>
      <trkpt lat="-35.84822906732786" lon="174.56916841503">
        <ele>141</ele>
      </trkpt>
      <trkpt lat="-35.84821953080298" lon="174.569133129887">
        <ele>140</ele>
      </trkpt>
      <trkpt lat="-35.84820427236316" lon="174.56910738127">
        <ele>139</ele>
      </trkpt>
      <trkpt lat="-35.84815086782377" lon="174.569062559603">
        <ele>136</ele>
      </trkpt>
      <trkpt lat="-35.84815086782377" lon="174.569062559603">
        <ele>136</ele>
      </trkpt>
      <trkpt lat="-35.84810795346176" lon="174.569019645241">
        <ele>134</ele>
      </trkpt>
      <trkpt lat="-35.84810795346176" lon="174.569019645241">
        <ele>134</ele>
      </trkpt>
      <trkpt lat="-35.84807457562464" lon="174.568972916269">
        <ele>132</ele>
      </trkpt>
      <trkpt lat="-35.84803356856762" lon="174.568889948503">
        <ele>129</ele>
      </trkpt>
      <trkpt lat="-35.84787049399199" lon="174.56870875453">
        <ele>122</ele>
      </trkpt>
      <trkpt lat="-35.8470789624261" lon="174.568125119207">
        <ele>100</ele>
      </trkpt>
      <trkpt lat="-35.84692542437536" lon="174.568041197788">
        <ele>96</ele>
      </trkpt>
      <trkpt lat="-35.84685962235361" lon="174.568014495518">
        <ele>94</ele>
      </trkpt>
      <trkpt lat="-35.84671943543773" lon="174.567990654206">
        <ele>92</ele>
      </trkpt>
      <trkpt lat="-35.84671943543773" lon="174.567990654206">
        <ele>92</ele>
      </trkpt>
      <trkpt lat="-35.84657638756438" lon="174.567936296014">
        <ele>89</ele>
      </trkpt>
      <trkpt lat="-35.84657638756438" lon="174.567936296014">
        <ele>89</ele>
      </trkpt>
      <trkpt lat="-35.84630841121496" lon="174.567834255197">
        <ele>83</ele>
      </trkpt>
      <trkpt lat="-35.84624737745565" lon="174.567825672325">
        <ele>82</ele>
      </trkpt>
      <trkpt lat="-35.84596891092886" lon="174.567837116155">
        <ele>79</ele>
      </trkpt>
      <trkpt lat="-35.84592599656686" lon="174.567837116155">
        <ele>78</ele>
      </trkpt>
      <trkpt lat="-35.84589357238222" lon="174.567829486935">
        <ele>77</ele>
      </trkpt>
      <trkpt lat="-35.84589357238222" lon="174.567829486935">
        <ele>77</ele>
      </trkpt>
      <trkpt lat="-35.84585924089262" lon="174.56780850658">
        <ele>77</ele>
      </trkpt>
      <trkpt lat="-35.84583158497044" lon="174.56778180431">
        <ele>76</ele>
      </trkpt>
      <trkpt lat="-35.84578199504101" lon="174.567754148388">
        <ele>75</ele>
      </trkpt>
      <trkpt lat="-35.84566755674233" lon="174.567717909594">
        <ele>72</ele>
      </trkpt>
      <trkpt lat="-35.84555216479115" lon="174.567682624452">
        <ele>70</ele>
      </trkpt>
      <trkpt lat="-35.84547587259203" lon="174.567664505054">
        <ele>68</ele>
      </trkpt>
      <trkpt lat="-35.84539862674042" lon="174.567646385657">
        <ele>67</ele>
      </trkpt>
      <trkpt lat="-35.84532805645623" lon="174.567637802785">
        <ele>65</ele>
      </trkpt>
      <trkpt lat="-35.84525653251955" lon="174.567629219912">
        <ele>64</ele>
      </trkpt>
      <trkpt lat="-35.84519835971772" lon="174.56763208087">
        <ele>63</ele>
      </trkpt>
      <trkpt lat="-35.84513827961091" lon="174.5676435247">
        <ele>62</ele>
      </trkpt>
      <trkpt lat="-35.84506866297921" lon="174.567670226969">
        <ele>61</ele>
      </trkpt>
      <trkpt lat="-35.84498378790769" lon="174.567713141331">
        <ele>60</ele>
      </trkpt>
      <trkpt lat="-35.84489891283616" lon="174.567756055693">
        <ele>59</ele>
      </trkpt>
      <trkpt lat="-35.84487221056647" lon="174.567747472821">
        <ele>58</ele>
      </trkpt>
      <trkpt lat="-35.84485123021171" lon="174.567725538814">
        <ele>58</ele>
      </trkpt>
      <trkpt lat="-35.84484741560176" lon="174.567662597749">
        <ele>57</ele>
      </trkpt>
      <trkpt lat="-35.8448350181194" lon="174.567631127217">
        <ele>57</ele>
      </trkpt>
      <trkpt lat="-35.8448350181194" lon="174.567631127217">
        <ele>57</ele>
      </trkpt>
      <trkpt lat="-35.84481403776464" lon="174.567613961472">
        <ele>56</ele>
      </trkpt>
      <trkpt lat="-35.84470246042342" lon="174.567604424948">
        <ele>55</ele>
      </trkpt>
      <trkpt lat="-35.84466526797635" lon="174.567581537288">
        <ele>54</ele>
      </trkpt>
      <trkpt lat="-35.84463570474919" lon="174.56758630555">
        <ele>54</ele>
      </trkpt>
      <trkpt lat="-35.84460518786954" lon="174.56760919321">
        <ele>53</ele>
      </trkpt>
      <trkpt lat="-35.84460518786954" lon="174.56760919321">
        <ele>53</ele>
      </trkpt>
      <trkpt lat="-35.84411691779516" lon="174.567583444593">
        <ele>47</ele>
      </trkpt>
      <trkpt lat="-35.84334541293153" lon="174.567588212855">
        <ele>40</ele>
      </trkpt>
      <trkpt lat="-35.84293438870876" lon="174.567579629983">
        <ele>38</ele>
      </trkpt>
      <trkpt lat="-35.84284855998474" lon="174.567568186153">
        <ele>38</ele>
      </trkpt>
      <trkpt lat="-35.84265496852947" lon="174.567488079344">
        <ele>37</ele>
      </trkpt>
      <trkpt lat="-35.84265496852947" lon="174.567488079344">
        <ele>37</ele>
      </trkpt>
      <trkpt lat="-35.84259870303261" lon="174.567573908068">
        <ele>37</ele>
      </trkpt>
      <trkpt lat="-35.84253766927332" lon="174.567637802785">
        <ele>37</ele>
      </trkpt>
      <trkpt lat="-35.84225348083159" lon="174.567838069807">
        <ele>35</ele>
      </trkpt>
      <trkpt lat="-35.8410957467099" lon="174.568633415983">
        <ele>34</ele>
      </trkpt>
      <trkpt lat="-35.84067327865726" lon="174.568909975205">
        <ele>34</ele>
      </trkpt>
      <trkpt lat="-35.84" lon="174.569335304215">
        <ele>32</ele>
      </trkpt>
      <trkpt lat="-35.84" lon="174.569335304215">
        <ele>32</ele>
      </trkpt>
      <trkpt lat="-35.83848559984742" lon="174.570296585924">
        <ele>24</ele>
      </trkpt>
      <trkpt lat="-35.83848559984742" lon="174.570296585924">
        <ele>24</ele>
      </trkpt>
      <trkpt lat="-35.83858954796872" lon="174.570555025749">
        <ele>22</ele>
      </trkpt>
      <trkpt lat="-35.83862387945832" lon="174.570603662026">
        <ele>22</ele>
      </trkpt>
      <trkpt lat="-35.83865916460041" lon="174.570640854473">
        <ele>22</ele>
      </trkpt>
      <trkpt lat="-35.83870017165744" lon="174.57067423231">
        <ele>22</ele>
      </trkpt>
      <trkpt lat="-35.83879649055884" lon="174.570724775892">
        <ele>21</ele>
      </trkpt>
      <trkpt lat="-35.83887755102041" lon="174.570752431814">
        <ele>21</ele>
      </trkpt>
      <trkpt lat="-35.83895861148198" lon="174.570781041388">
        <ele>21</ele>
      </trkpt>
      <trkpt lat="-35.83906446690825" lon="174.570833492275">
        <ele>20</ele>
      </trkpt>
      <trkpt lat="-35.83915506389472" lon="174.570917413694">
        <ele>19</ele>
      </trkpt>
      <trkpt lat="-35.83919893190921" lon="174.570984169369">
        <ele>19</ele>
      </trkpt>
      <trkpt lat="-35.83925138279611" lon="174.571087163837">
        <ele>18</ele>
      </trkpt>
      <trkpt lat="-35.839434484074" lon="174.571485790578">
        <ele>15</ele>
      </trkpt>
      <trkpt lat="-35.83948312035094" lon="174.571568758344">
        <ele>15</ele>
      </trkpt>
      <trkpt lat="-35.83949860882763" lon="174.571596018063">
        <ele>15</ele>
      </trkpt>
    </trkseg>
  </trk>
</gpx>