<?xml version="1.0" encoding="UTF-8" standalone="yes"?>
<gpx
 version="1.1"
 creator="Generated by MapOut iPhone App. See https://mapout.app"
 xmlns="http://www.topografix.com/GPX/1/1"
 xmlns:xsi="http://www.w3.org/2001/XMLSchema-instance"
 xmlns:gpxx="http://www.garmin.com/xmlschemas/GpxExtensions/v3"
 xmlns:mapout="https://mapout.app/xmlschemas/MapOutExtensions"
 xsi:schemaLocation="http://www.topografix.com/GPX/1/1 https://www.topografix.com/GPX/1/1/gpx.xsd http://www.garmin.com/xmlschemas/GpxExtensions/v3 https://www8.garmin.com/xmlschemas/GpxExtensionsv3.xsd https://mapout.app/xmlschemas/MapOutExtensions https://mapout.app/xmlschemas/MapOutExtensions.xsd">
  <metadata>
    <name>Pupū Hydro Walk</name>
    <author><name>iPhone</name></author>
    <time>2026-09-17T23:43:05Z</time>
    <bounds minlat="-40.85826530612245" minlon="172.720370970818" maxlat="-40.85172420370017" maxlon="172.738951935915"/>
  </metadata>
  <trk>
    <name>Pupū Hydro Walk</name>
    <trkseg>
      <trkpt lat="-40.85589567215098" lon="172.738608115964">
        <ele>51</ele>
      </trkpt>
      <trkpt lat="-40.85589643333969" lon="172.73849799733">
        <ele>51</ele>
      </trkpt>
      <trkpt lat="-40.85589643333969" lon="172.73849799733">
        <ele>51</ele>
      </trkpt>
      <trkpt lat="-40.85567232500477" lon="172.738223345413">
        <ele>55</ele>
      </trkpt>
      <trkpt lat="-40.85567232500477" lon="172.738223345413">
        <ele>55</ele>
      </trkpt>
      <trkpt lat="-40.85562559603281" lon="172.738139423994">
        <ele>56</ele>
      </trkpt>
      <trkpt lat="-40.85562559603281" lon="172.738139423994">
        <ele>56</ele>
      </trkpt>
      <trkpt lat="-40.85540530230784" lon="172.737784665268">
        <ele>62</ele>
      </trkpt>
      <trkpt lat="-40.85540530230784" lon="172.737784665268">
        <ele>62</ele>
      </trkpt>
      <trkpt lat="-40.85534045393859" lon="172.737872401297">
        <ele>63</ele>
      </trkpt>
      <trkpt lat="-40.85534045393859" lon="172.737872401297">
        <ele>63</ele>
      </trkpt>
      <trkpt lat="-40.85532042723631" lon="172.737885752432">
        <ele>63</ele>
      </trkpt>
      <trkpt lat="-40.85532042723631" lon="172.737885752432">
        <ele>63</ele>
      </trkpt>
      <trkpt lat="-40.85528895670418" lon="172.737923898531">
        <ele>64</ele>
      </trkpt>
      <trkpt lat="-40.85529372496662" lon="172.737958230021">
        <ele>64</ele>
      </trkpt>
      <trkpt lat="-40.85528609574671" lon="172.737987793248">
        <ele>64</ele>
      </trkpt>
      <trkpt lat="-40.85523936677475" lon="172.738012588213">
        <ele>64</ele>
      </trkpt>
      <trkpt lat="-40.85525462521457" lon="172.738052641617">
        <ele>64</ele>
      </trkpt>
      <trkpt lat="-40.85528800305169" lon="172.738109860767">
        <ele>63</ele>
      </trkpt>
      <trkpt lat="-40.85526416173946" lon="172.738206179668">
        <ele>63</ele>
      </trkpt>
      <trkpt lat="-40.85523936677475" lon="172.738303452222">
        <ele>63</ele>
      </trkpt>
      <trkpt lat="-40.85517070379554" lon="172.738406446691">
        <ele>64</ele>
      </trkpt>
      <trkpt lat="-40.85514304787336" lon="172.738480831585">
        <ele>64</ele>
      </trkpt>
      <trkpt lat="-40.85514304787336" lon="172.738538050734">
        <ele>64</ele>
      </trkpt>
      <trkpt lat="-40.85513160404349" lon="172.738557123784">
        <ele>64</ele>
      </trkpt>
      <trkpt lat="-40.85513255769597" lon="172.738604806409">
        <ele>64</ele>
      </trkpt>
      <trkpt lat="-40.85512302117109" lon="172.738636276941">
        <ele>64</ele>
      </trkpt>
      <trkpt lat="-40.85505721914934" lon="172.738756437154">
        <ele>65</ele>
      </trkpt>
      <trkpt lat="-40.85502288765974" lon="172.738778371162">
        <ele>65</ele>
      </trkpt>
      <trkpt lat="-40.85501144382987" lon="172.738795536906">
        <ele>65</ele>
      </trkpt>
      <trkpt lat="-40.85500762921991" lon="172.738847034141">
        <ele>65</ele>
      </trkpt>
      <trkpt lat="-40.85502002670227" lon="172.738920465382">
        <ele>65</ele>
      </trkpt>
      <trkpt lat="-40.85501144382987" lon="172.73893858478">
        <ele>65</ele>
      </trkpt>
      <trkpt lat="-40.85499904634752" lon="172.738946214">
        <ele>65</ele>
      </trkpt>
      <trkpt lat="-40.8549828342552" lon="172.738951935915">
        <ele>65</ele>
      </trkpt>
      <trkpt lat="-40.85495803929049" lon="172.738944306695">
        <ele>66</ele>
      </trkpt>
      <trkpt lat="-40.85492752241083" lon="172.73890425329">
        <ele>66</ele>
      </trkpt>
      <trkpt lat="-40.85490558840359" lon="172.738818424566">
        <ele>67</ele>
      </trkpt>
      <trkpt lat="-40.8549046347511" lon="172.738780278467">
        <ele>68</ele>
      </trkpt>
      <trkpt lat="-40.85489414457372" lon="172.738729734885">
        <ele>68</ele>
      </trkpt>
      <trkpt lat="-40.85489700553119" lon="172.73869349609">
        <ele>68</ele>
      </trkpt>
      <trkpt lat="-40.85487697882892" lon="172.738626740416">
        <ele>69</ele>
      </trkpt>
      <trkpt lat="-40.85488174709136" lon="172.738540911692">
        <ele>70</ele>
      </trkpt>
      <trkpt lat="-40.85487793248141" lon="172.73849036811">
        <ele>70</ele>
      </trkpt>
      <trkpt lat="-40.85489891283616" lon="172.73851325577">
        <ele>70</ele>
      </trkpt>
      <trkpt lat="-40.8549132176235" lon="172.738502765592">
        <ele>69</ele>
      </trkpt>
      <trkpt lat="-40.8549132176235" lon="172.738465573145">
        <ele>69</ele>
      </trkpt>
      <trkpt lat="-40.85491989319092" lon="172.738460804883">
        <ele>69</ele>
      </trkpt>
      <trkpt lat="-40.85494468815564" lon="172.738366393286">
        <ele>69</ele>
      </trkpt>
      <trkpt lat="-40.85496948312035" lon="172.738272935342">
        <ele>69</ele>
      </trkpt>
      <trkpt lat="-40.85495231737555" lon="172.738251001335">
        <ele>70</ele>
      </trkpt>
      <trkpt lat="-40.85485504482167" lon="172.738308220484">
        <ele>72</ele>
      </trkpt>
      <trkpt lat="-40.85484264733931" lon="172.738332061797">
        <ele>72</ele>
      </trkpt>
      <trkpt lat="-40.85475967957277" lon="172.738365439634">
        <ele>75</ele>
      </trkpt>
      <trkpt lat="-40.85467575815373" lon="172.738399771123">
        <ele>77</ele>
      </trkpt>
      <trkpt lat="-40.85460614152203" lon="172.738397863818">
        <ele>79</ele>
      </trkpt>
      <trkpt lat="-40.85451268357811" lon="172.738438870875">
        <ele>81</ele>
      </trkpt>
      <trkpt lat="-40.85441922563418" lon="172.738480831585">
        <ele>83</ele>
      </trkpt>
      <trkpt lat="-40.85440492084685" lon="172.73847892428">
        <ele>83</ele>
      </trkpt>
      <trkpt lat="-40.85439252336449" lon="172.73846366584">
        <ele>84</ele>
      </trkpt>
      <trkpt lat="-40.85432099942781" lon="172.738465573145">
        <ele>86</ele>
      </trkpt>
      <trkpt lat="-40.85424947549113" lon="172.738468434103">
        <ele>88</ele>
      </trkpt>
      <trkpt lat="-40.85417127598704" lon="172.738514209422">
        <ele>89</ele>
      </trkpt>
      <trkpt lat="-40.85407018882319" lon="172.738555216479">
        <ele>92</ele>
      </trkpt>
      <trkpt lat="-40.85405016212093" lon="172.738550448217">
        <ele>93</ele>
      </trkpt>
      <trkpt lat="-40.85402918176617" lon="172.738555216479">
        <ele>93</ele>
      </trkpt>
      <trkpt lat="-40.85400724775891" lon="172.738530421514">
        <ele>94</ele>
      </trkpt>
      <trkpt lat="-40.85398722105665" lon="172.738533282472">
        <ele>95</ele>
      </trkpt>
      <trkpt lat="-40.85395861148198" lon="172.738523745947">
        <ele>96</ele>
      </trkpt>
      <trkpt lat="-40.85394430669464" lon="172.738495136372">
        <ele>97</ele>
      </trkpt>
      <trkpt lat="-40.85395575052451" lon="172.738484646195">
        <ele>97</ele>
      </trkpt>
      <trkpt lat="-40.85398149914172" lon="172.738477970628">
        <ele>96</ele>
      </trkpt>
      <trkpt lat="-40.85406160595079" lon="172.738407400343">
        <ele>95</ele>
      </trkpt>
      <trkpt lat="-40.8540959374404" lon="172.738384512684">
        <ele>94</ele>
      </trkpt>
      <trkpt lat="-40.85418176616441" lon="172.738280564562">
        <ele>93</ele>
      </trkpt>
      <trkpt lat="-40.85421419034904" lon="172.738215716193">
        <ele>93</ele>
      </trkpt>
      <trkpt lat="-40.85423803166126" lon="172.738101277894">
        <ele>95</ele>
      </trkpt>
      <trkpt lat="-40.85422754148389" lon="172.738022124738">
        <ele>97</ele>
      </trkpt>
      <trkpt lat="-40.85425042914362" lon="172.738013541865">
        <ele>96</ele>
      </trkpt>
      <trkpt lat="-40.854260919321" lon="172.737975395766">
        <ele>96</ele>
      </trkpt>
      <trkpt lat="-40.85428285332825" lon="172.737952508106">
        <ele>96</ele>
      </trkpt>
      <trkpt lat="-40.8543391188251" lon="172.73786572573">
        <ele>95</ele>
      </trkpt>
      <trkpt lat="-40.85436200648484" lon="172.737803738318">
        <ele>96</ele>
      </trkpt>
      <trkpt lat="-40.85434197978257" lon="172.737683578104">
        <ele>98</ele>
      </trkpt>
      <trkpt lat="-40.8543133702079" lon="172.737640663742">
        <ele>100</ele>
      </trkpt>
      <trkpt lat="-40.85430764829297" lon="172.737606332253">
        <ele>101</ele>
      </trkpt>
      <trkpt lat="-40.8543133702079" lon="172.737572000763">
        <ele>102</ele>
      </trkpt>
      <trkpt lat="-40.8542780850658" lon="172.737501430479">
        <ele>105</ele>
      </trkpt>
      <trkpt lat="-40.85424184627122" lon="172.737430860195">
        <ele>107</ele>
      </trkpt>
      <trkpt lat="-40.8542351707038" lon="172.737387945833">
        <ele>108</ele>
      </trkpt>
      <trkpt lat="-40.85419607095174" lon="172.737316421896">
        <ele>110</ele>
      </trkpt>
      <trkpt lat="-40.85422754148389" lon="172.73719912264">
        <ele>110</ele>
      </trkpt>
      <trkpt lat="-40.85422372687393" lon="172.737181003242">
        <ele>111</ele>
      </trkpt>
      <trkpt lat="-40.85423612435628" lon="172.737108525653">
        <ele>111</ele>
      </trkpt>
      <trkpt lat="-40.85424756818615" lon="172.737036048064">
        <ele>111</ele>
      </trkpt>
      <trkpt lat="-40.85429429715812" lon="172.736913980545">
        <ele>110</ele>
      </trkpt>
      <trkpt lat="-40.85428476063323" lon="172.736872973488">
        <ele>111</ele>
      </trkpt>
      <trkpt lat="-40.85423707800877" lon="172.736918748808">
        <ele>113</ele>
      </trkpt>
      <trkpt lat="-40.85417509059699" lon="172.737011253099">
        <ele>115</ele>
      </trkpt>
      <trkpt lat="-40.85413408353996" lon="172.737037001717">
        <ele>117</ele>
      </trkpt>
      <trkpt lat="-40.85404920846844" lon="172.737135227923">
        <ele>120</ele>
      </trkpt>
      <trkpt lat="-40.85402822811368" lon="172.737123784093">
        <ele>121</ele>
      </trkpt>
      <trkpt lat="-40.85398817470914" lon="172.737154300973">
        <ele>123</ele>
      </trkpt>
      <trkpt lat="-40.85393477016975" lon="172.737244897959">
        <ele>124</ele>
      </trkpt>
      <trkpt lat="-40.85388136563036" lon="172.737335494946">
        <ele>126</ele>
      </trkpt>
      <trkpt lat="-40.85388041197788" lon="172.737370780088">
        <ele>125</ele>
      </trkpt>
      <trkpt lat="-40.85386229258059" lon="172.737435628457">
        <ele>125</ele>
      </trkpt>
      <trkpt lat="-40.85384131222582" lon="172.737442304024">
        <ele>126</ele>
      </trkpt>
      <trkpt lat="-40.85381842456609" lon="172.737542437536">
        <ele>125</ele>
      </trkpt>
      <trkpt lat="-40.85383177570094" lon="172.737633988175">
        <ele>122</ele>
      </trkpt>
      <trkpt lat="-40.85384417318329" lon="172.737725538814">
        <ele>119</ele>
      </trkpt>
      <trkpt lat="-40.85383368300592" lon="172.737757962998">
        <ele>119</ele>
      </trkpt>
      <trkpt lat="-40.85380984169369" lon="172.737770360481">
        <ele>120</ele>
      </trkpt>
      <trkpt lat="-40.85379458325387" lon="172.737752241083">
        <ele>121</ele>
      </trkpt>
      <trkpt lat="-40.85375452984933" lon="172.737758916651">
        <ele>122</ele>
      </trkpt>
      <trkpt lat="-40.85371924470723" lon="172.737680717147">
        <ele>126</ele>
      </trkpt>
      <trkpt lat="-40.8536963570475" lon="172.737670226969">
        <ele>127</ele>
      </trkpt>
      <trkpt lat="-40.85367346938776" lon="172.737681670799">
        <ele>128</ele>
      </trkpt>
      <trkpt lat="-40.85364676711806" lon="172.737722677856">
        <ele>128</ele>
      </trkpt>
      <trkpt lat="-40.85361243562846" lon="172.737754148388">
        <ele>129</ele>
      </trkpt>
      <trkpt lat="-40.8535742895289" lon="172.737762731261">
        <ele>130</ele>
      </trkpt>
      <trkpt lat="-40.85347606332252" lon="172.737745565516">
        <ele>135</ele>
      </trkpt>
      <trkpt lat="-40.85343791722296" lon="172.737764638566">
        <ele>136</ele>
      </trkpt>
      <trkpt lat="-40.85340453938585" lon="172.737743658211">
        <ele>138</ele>
      </trkpt>
      <trkpt lat="-40.85335971771887" lon="172.737690253672">
        <ele>142</ele>
      </trkpt>
      <trkpt lat="-40.85326149151249" lon="172.737708373069">
        <ele>145</ele>
      </trkpt>
      <trkpt lat="-40.8532004577532" lon="172.737771314133">
        <ele>146</ele>
      </trkpt>
      <trkpt lat="-40.85313847034141" lon="172.73783520885">
        <ele>146</ele>
      </trkpt>
      <trkpt lat="-40.85304024413504" lon="172.737872401297">
        <ele>148</ele>
      </trkpt>
      <trkpt lat="-40.85296681289338" lon="172.737944878886">
        <ele>149</ele>
      </trkpt>
      <trkpt lat="-40.85289338165173" lon="172.738017356475">
        <ele>149</ele>
      </trkpt>
      <trkpt lat="-40.85288098416937" lon="172.738074575625">
        <ele>148</ele>
      </trkpt>
      <trkpt lat="-40.852825672325" lon="172.738129887469">
        <ele>148</ele>
      </trkpt>
      <trkpt lat="-40.85279897005531" lon="172.738125119207">
        <ele>149</ele>
      </trkpt>
      <trkpt lat="-40.85274365821095" lon="172.738168033569">
        <ele>150</ele>
      </trkpt>
      <trkpt lat="-40.85264733930956" lon="172.738148960519">
        <ele>155</ele>
      </trkpt>
      <trkpt lat="-40.8526349418272" lon="172.738125119207">
        <ele>156</ele>
      </trkpt>
      <trkpt lat="-40.85266259774938" lon="172.738039290483">
        <ele>157</ele>
      </trkpt>
      <trkpt lat="-40.85266641235934" lon="172.737934388709">
        <ele>161</ele>
      </trkpt>
      <trkpt lat="-40.85267022696929" lon="172.737830440587">
        <ele>164</ele>
      </trkpt>
      <trkpt lat="-40.85270169750143" lon="172.737790387183">
        <ele>164</ele>
      </trkpt>
      <trkpt lat="-40.85273698264353" lon="172.737781804311">
        <ele>163</ele>
      </trkpt>
      <trkpt lat="-40.85276368491322" lon="172.737733168034">
        <ele>164</ele>
      </trkpt>
      <trkpt lat="-40.85285046728972" lon="172.737664505054">
        <ele>162</ele>
      </trkpt>
      <trkpt lat="-40.85292866679382" lon="172.737622544345">
        <ele>161</ele>
      </trkpt>
      <trkpt lat="-40.85300686629792" lon="172.737580583635">
        <ele>159</ele>
      </trkpt>
      <trkpt lat="-40.85304024413504" lon="172.737603471295">
        <ele>157</ele>
      </trkpt>
      <trkpt lat="-40.85309650963189" lon="172.737554835018">
        <ele>157</ele>
      </trkpt>
      <trkpt lat="-40.85310699980927" lon="172.737503337784">
        <ele>158</ele>
      </trkpt>
      <trkpt lat="-40.85309746328438" lon="172.737448025939">
        <ele>160</ele>
      </trkpt>
      <trkpt lat="-40.85304882700744" lon="172.7373946214">
        <ele>163</ele>
      </trkpt>
      <trkpt lat="-40.85312416555407" lon="172.73740606523">
        <ele>160</ele>
      </trkpt>
      <trkpt lat="-40.85318138470342" lon="172.73738699218">
        <ele>158</ele>
      </trkpt>
      <trkpt lat="-40.85322143810796" lon="172.737305931719">
        <ele>158</ele>
      </trkpt>
      <trkpt lat="-40.85320331871066" lon="172.737237268739">
        <ele>160</ele>
      </trkpt>
      <trkpt lat="-40.85322525271791" lon="172.737158115583">
        <ele>161</ele>
      </trkpt>
      <trkpt lat="-40.85330059126454" lon="172.737126645051">
        <ele>159</ele>
      </trkpt>
      <trkpt lat="-40.85329963761205" lon="172.737014114057">
        <ele>161</ele>
      </trkpt>
      <trkpt lat="-40.85335018119397" lon="172.736930192638">
        <ele>161</ele>
      </trkpt>
      <trkpt lat="-40.85343982452795" lon="172.736819568949">
        <ele>158</ele>
      </trkpt>
      <trkpt lat="-40.85347320236506" lon="172.736737554835">
        <ele>158</ele>
      </trkpt>
      <trkpt lat="-40.85346843410262" lon="172.736678428381">
        <ele>159</ele>
      </trkpt>
      <trkpt lat="-40.85350467289719" lon="172.736642189586">
        <ele>158</ele>
      </trkpt>
      <trkpt lat="-40.85350467289719" lon="172.736579248522">
        <ele>159</ele>
      </trkpt>
      <trkpt lat="-40.85350467289719" lon="172.736516307458">
        <ele>161</ele>
      </trkpt>
      <trkpt lat="-40.85354949456418" lon="172.736500095365">
        <ele>159</ele>
      </trkpt>
      <trkpt lat="-40.85355712378409" lon="172.736456227351">
        <ele>159</ele>
      </trkpt>
      <trkpt lat="-40.85359240892619" lon="172.736437154301">
        <ele>158</ele>
      </trkpt>
      <trkpt lat="-40.85362197215335" lon="172.736337974442">
        <ele>159</ele>
      </trkpt>
      <trkpt lat="-40.85367060843029" lon="172.736297921038">
        <ele>157</ele>
      </trkpt>
      <trkpt lat="-40.85375452984933" lon="172.736274079725">
        <ele>153</ele>
      </trkpt>
      <trkpt lat="-40.85383749761587" lon="172.736250238413">
        <ele>149</ele>
      </trkpt>
      <trkpt lat="-40.85386706084303" lon="172.736179668129">
        <ele>149</ele>
      </trkpt>
      <trkpt lat="-40.85389662407019" lon="172.736109097845">
        <ele>149</ele>
      </trkpt>
      <trkpt lat="-40.85389280946023" lon="172.73606141522">
        <ele>150</ele>
      </trkpt>
      <trkpt lat="-40.85398531375167" lon="172.736010871638">
        <ele>146</ele>
      </trkpt>
      <trkpt lat="-40.85409689109289" lon="172.735976540149">
        <ele>141</ele>
      </trkpt>
      <trkpt lat="-40.85416650772459" lon="172.735898340645">
        <ele>139</ele>
      </trkpt>
      <trkpt lat="-40.85416650772459" lon="172.735898340645">
        <ele>139</ele>
      </trkpt>
      <trkpt lat="-40.85417985885943" lon="172.735882128552">
        <ele>138</ele>
      </trkpt>
      <trkpt lat="-40.85417985885943" lon="172.735882128552">
        <ele>138</ele>
      </trkpt>
      <trkpt lat="-40.85419702460423" lon="172.735849704368">
        <ele>138</ele>
      </trkpt>
      <trkpt lat="-40.85421419034904" lon="172.735772458516">
        <ele>138</ele>
      </trkpt>
      <trkpt lat="-40.85407686439062" lon="172.735499713904">
        <ele>149</ele>
      </trkpt>
      <trkpt lat="-40.85409784474538" lon="172.735431050925">
        <ele>148</ele>
      </trkpt>
      <trkpt lat="-40.85411787144765" lon="172.735362387946">
        <ele>148</ele>
      </trkpt>
      <trkpt lat="-40.85411691779516" lon="172.735296585924">
        <ele>148</ele>
      </trkpt>
      <trkpt lat="-40.85411596414266" lon="172.735230783902">
        <ele>149</ele>
      </trkpt>
      <trkpt lat="-40.85409307648293" lon="172.735164981881">
        <ele>151</ele>
      </trkpt>
      <trkpt lat="-40.85410356666031" lon="172.735124928476">
        <ele>151</ele>
      </trkpt>
      <trkpt lat="-40.8540959374404" lon="172.735092504291">
        <ele>152</ele>
      </trkpt>
      <trkpt lat="-40.8540959374404" lon="172.734995231738">
        <ele>153</ele>
      </trkpt>
      <trkpt lat="-40.8540959374404" lon="172.734897959184">
        <ele>153</ele>
      </trkpt>
      <trkpt lat="-40.85408353995804" lon="172.734825481595">
        <ele>154</ele>
      </trkpt>
      <trkpt lat="-40.85407018882319" lon="172.734753957658">
        <ele>155</ele>
      </trkpt>
      <trkpt lat="-40.85406637421324" lon="172.734655731451">
        <ele>156</ele>
      </trkpt>
      <trkpt lat="-40.85408163265306" lon="172.734619492657">
        <ele>155</ele>
      </trkpt>
      <trkpt lat="-40.85408067900057" lon="172.734546061415">
        <ele>155</ele>
      </trkpt>
      <trkpt lat="-40.85411501049018" lon="172.734472630174">
        <ele>153</ele>
      </trkpt>
      <trkpt lat="-40.85411501049018" lon="172.734407781804">
        <ele>154</ele>
      </trkpt>
      <trkpt lat="-40.85411405683769" lon="172.734343887088">
        <ele>154</ele>
      </trkpt>
      <trkpt lat="-40.85409689109289" lon="172.734304787336">
        <ele>155</ele>
      </trkpt>
      <trkpt lat="-40.85409116917796" lon="172.734208468434">
        <ele>156</ele>
      </trkpt>
      <trkpt lat="-40.85408449361053" lon="172.734112149533">
        <ele>158</ele>
      </trkpt>
      <trkpt lat="-40.85410642761778" lon="172.734057791341">
        <ele>157</ele>
      </trkpt>
      <trkpt lat="-40.8540959374404" lon="172.734012969674">
        <ele>158</ele>
      </trkpt>
      <trkpt lat="-40.85409689109289" lon="172.73393858478">
        <ele>159</ele>
      </trkpt>
      <trkpt lat="-40.85409784474538" lon="172.733864199886">
        <ele>160</ele>
      </trkpt>
      <trkpt lat="-40.85408353995804" lon="172.733797444211">
        <ele>162</ele>
      </trkpt>
      <trkpt lat="-40.85406923517071" lon="172.73373164219">
        <ele>164</ele>
      </trkpt>
      <trkpt lat="-40.85407018882319" lon="172.733631508678">
        <ele>166</ele>
      </trkpt>
      <trkpt lat="-40.85407114247568" lon="172.733532328819">
        <ele>167</ele>
      </trkpt>
      <trkpt lat="-40.85407686439062" lon="172.733430288003">
        <ele>168</ele>
      </trkpt>
      <trkpt lat="-40.85408163265306" lon="172.733328247187">
        <ele>170</ele>
      </trkpt>
      <trkpt lat="-40.85406923517071" lon="172.733288193782">
        <ele>171</ele>
      </trkpt>
      <trkpt lat="-40.85407400343315" lon="172.733168033569">
        <ele>174</ele>
      </trkpt>
      <trkpt lat="-40.85410261300782" lon="172.73308029754">
        <ele>174</ele>
      </trkpt>
      <trkpt lat="-40.85413026893001" lon="172.732992561511">
        <ele>175</ele>
      </trkpt>
      <trkpt lat="-40.85419702460423" lon="172.732989700553">
        <ele>172</ele>
      </trkpt>
      <trkpt lat="-40.8542265878314" lon="172.733024985695">
        <ele>169</ele>
      </trkpt>
      <trkpt lat="-40.85427427045585" lon="172.733021171085">
        <ele>167</ele>
      </trkpt>
      <trkpt lat="-40.85437154300973" lon="172.73304215144">
        <ele>162</ele>
      </trkpt>
      <trkpt lat="-40.85439919893191" lon="172.732995422468">
        <ele>162</ele>
      </trkpt>
      <trkpt lat="-40.85442017928667" lon="172.732985885943">
        <ele>161</ele>
      </trkpt>
      <trkpt lat="-40.85445737173374" lon="172.732889567042">
        <ele>162</ele>
      </trkpt>
      <trkpt lat="-40.85451172992562" lon="172.732828533282">
        <ele>161</ele>
      </trkpt>
      <trkpt lat="-40.85457943925234" lon="172.732790387183">
        <ele>159</ele>
      </trkpt>
      <trkpt lat="-40.85464619492657" lon="172.732753194736">
        <ele>157</ele>
      </trkpt>
      <trkpt lat="-40.85473202365058" lon="172.732692160977">
        <ele>155</ele>
      </trkpt>
      <trkpt lat="-40.854738699218" lon="172.732606332253">
        <ele>157</ele>
      </trkpt>
      <trkpt lat="-40.85474537478543" lon="172.732520503529">
        <ele>159</ele>
      </trkpt>
      <trkpt lat="-40.85476254053023" lon="172.73239843601">
        <ele>161</ele>
      </trkpt>
      <trkpt lat="-40.85482548159451" lon="172.73240606523">
        <ele>158</ele>
      </trkpt>
      <trkpt lat="-40.85487125691398" lon="172.732386038528">
        <ele>157</ele>
      </trkpt>
      <trkpt lat="-40.85489223726874" lon="172.732284951364">
        <ele>158</ele>
      </trkpt>
      <trkpt lat="-40.85491226397101" lon="172.7321838642">
        <ele>159</ele>
      </trkpt>
      <trkpt lat="-40.85493991989319" lon="172.732107572001">
        <ele>159</ele>
      </trkpt>
      <trkpt lat="-40.85496757581537" lon="172.732032233454">
        <ele>160</ele>
      </trkpt>
      <trkpt lat="-40.85498188060271" lon="172.73196929239">
        <ele>160</ele>
      </trkpt>
      <trkpt lat="-40.85499618539004" lon="172.731907304978">
        <ele>161</ele>
      </trkpt>
      <trkpt lat="-40.85504196070952" lon="172.731839595651">
        <ele>160</ele>
      </trkpt>
      <trkpt lat="-40.85505531184437" lon="172.73151726111">
        <ele>161</ele>
      </trkpt>
      <trkpt lat="-40.85504005340454" lon="172.731443829868">
        <ele>161</ele>
      </trkpt>
      <trkpt lat="-40.85502384131222" lon="172.731370398627">
        <ele>161</ele>
      </trkpt>
      <trkpt lat="-40.85503242418463" lon="172.731267404158">
        <ele>160</ele>
      </trkpt>
      <trkpt lat="-40.85506389471676" lon="172.731186343696">
        <ele>158</ele>
      </trkpt>
      <trkpt lat="-40.85505149723441" lon="172.731069998093">
        <ele>157</ele>
      </trkpt>
      <trkpt lat="-40.85503814609956" lon="172.730953652489">
        <ele>156</ele>
      </trkpt>
      <trkpt lat="-40.85495136372306" lon="172.730458706847">
        <ele>154</ele>
      </trkpt>
      <trkpt lat="-40.85487983978638" lon="172.730365248903">
        <ele>156</ele>
      </trkpt>
      <trkpt lat="-40.85480736219721" lon="172.730271790959">
        <ele>158</ele>
      </trkpt>
      <trkpt lat="-40.85481022315469" lon="172.730188823193">
        <ele>156</ele>
      </trkpt>
      <trkpt lat="-40.85473583826054" lon="172.730087736029">
        <ele>158</ele>
      </trkpt>
      <trkpt lat="-40.8546614533664" lon="172.729986648865">
        <ele>159</ele>
      </trkpt>
      <trkpt lat="-40.85457181003243" lon="172.729943734503">
        <ele>161</ele>
      </trkpt>
      <trkpt lat="-40.85452317375548" lon="172.729847415602">
        <ele>161</ele>
      </trkpt>
      <trkpt lat="-40.85447453747854" lon="172.7297510967">
        <ele>160</ele>
      </trkpt>
      <trkpt lat="-40.85442780850658" lon="172.729634751097">
        <ele>159</ele>
      </trkpt>
      <trkpt lat="-40.85431432386039" lon="172.729565134465">
        <ele>159</ele>
      </trkpt>
      <trkpt lat="-40.85425710471105" lon="172.729545107763">
        <ele>160</ele>
      </trkpt>
      <trkpt lat="-40.85416936868205" lon="172.72956704177">
        <ele>162</ele>
      </trkpt>
      <trkpt lat="-40.85409879839786" lon="172.729626168224">
        <ele>166</ele>
      </trkpt>
      <trkpt lat="-40.85402441350372" lon="172.729654777799">
        <ele>170</ele>
      </trkpt>
      <trkpt lat="-40.85395002860957" lon="172.729684341026">
        <ele>173</ele>
      </trkpt>
      <trkpt lat="-40.85388518024032" lon="172.729695784856">
        <ele>175</ele>
      </trkpt>
      <trkpt lat="-40.85383082204844" lon="172.72976635514">
        <ele>179</ele>
      </trkpt>
      <trkpt lat="-40.85376025176426" lon="172.729742513828">
        <ele>180</ele>
      </trkpt>
      <trkpt lat="-40.85368968148007" lon="172.729719626168">
        <ele>182</ele>
      </trkpt>
      <trkpt lat="-40.85360766736601" lon="172.729617585352">
        <ele>180</ele>
      </trkpt>
      <trkpt lat="-40.85352565325196" lon="172.729515544536">
        <ele>179</ele>
      </trkpt>
      <trkpt lat="-40.85349036810986" lon="172.729447835209">
        <ele>178</ele>
      </trkpt>
      <trkpt lat="-40.85345412931528" lon="172.729381079535">
        <ele>176</ele>
      </trkpt>
      <trkpt lat="-40.85338832729354" lon="172.729332443258">
        <ele>176</ele>
      </trkpt>
      <trkpt lat="-40.85332252527179" lon="172.729284760633">
        <ele>177</ele>
      </trkpt>
      <trkpt lat="-40.85329868395957" lon="172.729219912264">
        <ele>175</ele>
      </trkpt>
      <trkpt lat="-40.85327388899485" lon="172.729156017547">
        <ele>175</ele>
      </trkpt>
      <trkpt lat="-40.85325672325005" lon="172.729074003433">
        <ele>174</ele>
      </trkpt>
      <trkpt lat="-40.85323955750525" lon="172.728991989319">
        <ele>174</ele>
      </trkpt>
      <trkpt lat="-40.85323288193782" lon="172.72889280946">
        <ele>173</ele>
      </trkpt>
      <trkpt lat="-40.85322525271791" lon="172.728793629601">
        <ele>171</ele>
      </trkpt>
      <trkpt lat="-40.85319473583827" lon="172.72869349609">
        <ele>172</ele>
      </trkpt>
      <trkpt lat="-40.85316421895861" lon="172.728594316231">
        <ele>172</ele>
      </trkpt>
      <trkpt lat="-40.85316135800115" lon="172.728487507152">
        <ele>170</ele>
      </trkpt>
      <trkpt lat="-40.85315754339119" lon="172.728381651726">
        <ele>169</ele>
      </trkpt>
      <trkpt lat="-40.85318901392333" lon="172.728304405875">
        <ele>166</ele>
      </trkpt>
      <trkpt lat="-40.85322048445546" lon="172.728228113675">
        <ele>164</ele>
      </trkpt>
      <trkpt lat="-40.85321094793058" lon="172.728153728781">
        <ele>164</ele>
      </trkpt>
      <trkpt lat="-40.85320141140568" lon="172.728079343887">
        <ele>164</ele>
      </trkpt>
      <trkpt lat="-40.85317280183101" lon="172.727978256723">
        <ele>164</ele>
      </trkpt>
      <trkpt lat="-40.85314323860386" lon="172.727878123212">
        <ele>165</ele>
      </trkpt>
      <trkpt lat="-40.85309937058936" lon="172.72782376502">
        <ele>167</ele>
      </trkpt>
      <trkpt lat="-40.85308983406447" lon="172.727761777608">
        <ele>167</ele>
      </trkpt>
      <trkpt lat="-40.85307934388709" lon="172.727700743849">
        <ele>167</ele>
      </trkpt>
      <trkpt lat="-40.85310509250429" lon="172.72762826626">
        <ele>165</ele>
      </trkpt>
      <trkpt lat="-40.8531308411215" lon="172.727556742323">
        <ele>163</ele>
      </trkpt>
      <trkpt lat="-40.85310795346176" lon="172.727482357429">
        <ele>163</ele>
      </trkpt>
      <trkpt lat="-40.85311081441922" lon="172.727372687393">
        <ele>163</ele>
      </trkpt>
      <trkpt lat="-40.85308411214953" lon="172.727291626931">
        <ele>164</ele>
      </trkpt>
      <trkpt lat="-40.85305645622735" lon="172.727211520122">
        <ele>165</ele>
      </trkpt>
      <trkpt lat="-40.85300209803547" lon="172.727136181575">
        <ele>167</ele>
      </trkpt>
      <trkpt lat="-40.85296967385085" lon="172.727019835972">
        <ele>167</ele>
      </trkpt>
      <trkpt lat="-40.85293724966623" lon="172.726904444021">
        <ele>168</ele>
      </trkpt>
      <trkpt lat="-40.85286763303452" lon="172.726784283807">
        <ele>169</ele>
      </trkpt>
      <trkpt lat="-40.85284093076483" lon="172.726680335686">
        <ele>169</ele>
      </trkpt>
      <trkpt lat="-40.85275891665077" lon="172.726562082777">
        <ele>171</ele>
      </trkpt>
      <trkpt lat="-40.85267594888423" lon="172.726443829868">
        <ele>172</ele>
      </trkpt>
      <trkpt lat="-40.85255578867061" lon="172.726354186534">
        <ele>174</ele>
      </trkpt>
      <trkpt lat="-40.85247663551402" lon="172.726261682243">
        <ele>175</ele>
      </trkpt>
      <trkpt lat="-40.85247377455655" lon="172.726194926569">
        <ele>174</ele>
      </trkpt>
      <trkpt lat="-40.85247091359908" lon="172.726129124547">
        <ele>173</ele>
      </trkpt>
      <trkpt lat="-40.85250047682624" lon="172.726021361816">
        <ele>170</ele>
      </trkpt>
      <trkpt lat="-40.85252908640091" lon="172.725913599085">
        <ele>168</ele>
      </trkpt>
      <trkpt lat="-40.85255388136563" lon="172.725871638375">
        <ele>167</ele>
      </trkpt>
      <trkpt lat="-40.8526082395575" lon="172.725844936105">
        <ele>167</ele>
      </trkpt>
      <trkpt lat="-40.85261968338737" lon="172.725780087736">
        <ele>166</ele>
      </trkpt>
      <trkpt lat="-40.85262540530231" lon="172.725703795537">
        <ele>166</ele>
      </trkpt>
      <trkpt lat="-40.85263017356476" lon="172.725627503338">
        <ele>165</ele>
      </trkpt>
      <trkpt lat="-40.85251478161358" lon="172.725369063513">
        <ele>163</ele>
      </trkpt>
      <trkpt lat="-40.85245088689682" lon="172.725285142094">
        <ele>164</ele>
      </trkpt>
      <trkpt lat="-40.85241941636468" lon="172.725271790959">
        <ele>165</ele>
      </trkpt>
      <trkpt lat="-40.85237173374023" lon="172.725163074576">
        <ele>166</ele>
      </trkpt>
      <trkpt lat="-40.85236124356285" lon="172.725073431242">
        <ele>165</ele>
      </trkpt>
      <trkpt lat="-40.85230879267595" lon="172.72501144383">
        <ele>166</ele>
      </trkpt>
      <trkpt lat="-40.85225538813656" lon="172.724950410071">
        <ele>168</ele>
      </trkpt>
      <trkpt lat="-40.85223822239176" lon="172.724832157162">
        <ele>168</ele>
      </trkpt>
      <trkpt lat="-40.85220770551211" lon="172.724738699218">
        <ele>169</ele>
      </trkpt>
      <trkpt lat="-40.85216097654015" lon="172.724690062941">
        <ele>171</ele>
      </trkpt>
      <trkpt lat="-40.85217909593744" lon="172.724584207515">
        <ele>170</ele>
      </trkpt>
      <trkpt lat="-40.85219626168224" lon="172.724478352089">
        <ele>169</ele>
      </trkpt>
      <trkpt lat="-40.85222391760443" lon="172.724446881556">
        <ele>169</ele>
      </trkpt>
      <trkpt lat="-40.85229830249857" lon="172.724432576769">
        <ele>166</ele>
      </trkpt>
      <trkpt lat="-40.85235552164792" lon="172.724383940492">
        <ele>165</ele>
      </trkpt>
      <trkpt lat="-40.85238794583254" lon="172.724311462903">
        <ele>164</ele>
      </trkpt>
      <trkpt lat="-40.85235075338547" lon="172.724196070952">
        <ele>165</ele>
      </trkpt>
      <trkpt lat="-40.85226397100897" lon="172.7241188251">
        <ele>168</ele>
      </trkpt>
      <trkpt lat="-40.85217718863247" lon="172.724041579249">
        <ele>170</ele>
      </trkpt>
      <trkpt lat="-40.85212378409308" lon="172.724003433149">
        <ele>172</ele>
      </trkpt>
      <trkpt lat="-40.85214285714286" lon="172.723918558077">
        <ele>172</ele>
      </trkpt>
      <trkpt lat="-40.8521914934198" lon="172.723844173183">
        <ele>171</ele>
      </trkpt>
      <trkpt lat="-40.85227255388137" lon="172.723776463857">
        <ele>169</ele>
      </trkpt>
      <trkpt lat="-40.85228876597368" lon="172.723703986267">
        <ele>169</ele>
      </trkpt>
      <trkpt lat="-40.85230402441351" lon="172.723632462331">
        <ele>168</ele>
      </trkpt>
      <trkpt lat="-40.85230688537097" lon="172.723565706657">
        <ele>169</ele>
      </trkpt>
      <trkpt lat="-40.85230879267595" lon="172.723498950982">
        <ele>169</ele>
      </trkpt>
      <trkpt lat="-40.85228018310128" lon="172.723436009918">
        <ele>170</ele>
      </trkpt>
      <trkpt lat="-40.85231069998093" lon="172.723327293534">
        <ele>169</ele>
      </trkpt>
      <trkpt lat="-40.85233835590311" lon="172.723251001335">
        <ele>169</ele>
      </trkpt>
      <trkpt lat="-40.85236601182529" lon="172.723175662788">
        <ele>168</ele>
      </trkpt>
      <trkpt lat="-40.85236887278276" lon="172.72308411215">
        <ele>168</ele>
      </trkpt>
      <trkpt lat="-40.85240797253481" lon="172.722971581156">
        <ele>168</ele>
      </trkpt>
      <trkpt lat="-40.85240225061987" lon="172.722908640092">
        <ele>168</ele>
      </trkpt>
      <trkpt lat="-40.85239652870494" lon="172.72284665268">
        <ele>168</ele>
      </trkpt>
      <trkpt lat="-40.85235266069044" lon="172.722782757963">
        <ele>170</ele>
      </trkpt>
      <trkpt lat="-40.85230879267595" lon="172.722719816899">
        <ele>171</ele>
      </trkpt>
      <trkpt lat="-40.852347892428" lon="172.722463284379">
        <ele>171</ele>
      </trkpt>
      <trkpt lat="-40.85229258058364" lon="172.722366011825">
        <ele>172</ele>
      </trkpt>
      <trkpt lat="-40.85218386419989" lon="172.722244897959">
        <ele>175</ele>
      </trkpt>
      <trkpt lat="-40.85209422086592" lon="172.722222010299">
        <ele>176</ele>
      </trkpt>
      <trkpt lat="-40.85201602136182" lon="172.722216288385">
        <ele>177</ele>
      </trkpt>
      <trkpt lat="-40.85195021934008" lon="172.722170513065">
        <ele>177</ele>
      </trkpt>
      <trkpt lat="-40.85191111958802" lon="172.722100896433">
        <ele>178</ele>
      </trkpt>
      <trkpt lat="-40.85187106618348" lon="172.722032233454">
        <ele>178</ele>
      </trkpt>
      <trkpt lat="-40.85182242990654" lon="172.721934007248">
        <ele>178</ele>
      </trkpt>
      <trkpt lat="-40.85177283997712" lon="172.721836734694">
        <ele>178</ele>
      </trkpt>
      <trkpt lat="-40.85180812511921" lon="172.721727064658">
        <ele>177</ele>
      </trkpt>
      <trkpt lat="-40.85184245660881" lon="172.721617394621">
        <ele>178</ele>
      </trkpt>
      <trkpt lat="-40.85176997901964" lon="172.721213999619">
        <ele>179</ele>
      </trkpt>
      <trkpt lat="-40.85177283997712" lon="172.721201602136">
        <ele>179</ele>
      </trkpt>
      <trkpt lat="-40.85177283997712" lon="172.721201602136">
        <ele>179</ele>
      </trkpt>
      <trkpt lat="-40.85179095937441" lon="172.72112626359">
        <ele>179</ele>
      </trkpt>
      <trkpt lat="-40.85180812511921" lon="172.721050925043">
        <ele>180</ele>
      </trkpt>
      <trkpt lat="-40.85180812511921" lon="172.721050925043">
        <ele>180</ele>
      </trkpt>
      <trkpt lat="-40.85182147625405" lon="172.720950791532">
        <ele>181</ele>
      </trkpt>
      <trkpt lat="-40.85182147625405" lon="172.720950791532">
        <ele>181</ele>
      </trkpt>
      <trkpt lat="-40.85175472057982" lon="172.720867823765">
        <ele>180</ele>
      </trkpt>
      <trkpt lat="-40.85173183292009" lon="172.720822048446">
        <ele>180</ele>
      </trkpt>
      <trkpt lat="-40.85172420370017" lon="172.720794392523">
        <ele>180</ele>
      </trkpt>
      <trkpt lat="-40.85173755483502" lon="172.720762921991">
        <ele>180</ele>
      </trkpt>
      <trkpt lat="-40.8517652107572" lon="172.720738127027">
        <ele>181</ele>
      </trkpt>
      <trkpt lat="-40.85180812511921" lon="172.720740034331">
        <ele>182</ele>
      </trkpt>
      <trkpt lat="-40.8518434102613" lon="172.720756246424">
        <ele>182</ele>
      </trkpt>
      <trkpt lat="-40.85187583444593" lon="172.720756246424">
        <ele>183</ele>
      </trkpt>
      <trkpt lat="-40.85190062941064" lon="172.720729544154">
        <ele>183</ele>
      </trkpt>
      <trkpt lat="-40.851913026893" lon="172.720664695785">
        <ele>184</ele>
      </trkpt>
      <trkpt lat="-40.85191111958802" lon="172.720612244898">
        <ele>185</ele>
      </trkpt>
      <trkpt lat="-40.85193305359527" lon="172.720536906351">
        <ele>186</ele>
      </trkpt>
      <trkpt lat="-40.85196452412741" lon="172.720486362769">
        <ele>187</ele>
      </trkpt>
      <trkpt lat="-40.8519740606523" lon="172.720437726492">
        <ele>187</ele>
      </trkpt>
      <trkpt lat="-40.85200648483693" lon="172.720407209613">
        <ele>188</ele>
      </trkpt>
      <trkpt lat="-40.85207228685867" lon="172.720370970818">
        <ele>190</ele>
      </trkpt>
      <trkpt lat="-40.85213332061797" lon="172.720378600038">
        <ele>191</ele>
      </trkpt>
      <trkpt lat="-40.852217242037" lon="172.720441541102">
        <ele>192</ele>
      </trkpt>
      <trkpt lat="-40.85230116345604" lon="172.720504482167">
        <ele>193</ele>
      </trkpt>
      <trkpt lat="-40.85233835590311" lon="172.720564562274">
        <ele>193</ele>
      </trkpt>
      <trkpt lat="-40.85244802593935" lon="172.720811558268">
        <ele>192</ele>
      </trkpt>
      <trkpt lat="-40.85255292771314" lon="172.720930764829">
        <ele>192</ele>
      </trkpt>
      <trkpt lat="-40.85259584207515" lon="172.720940301354">
        <ele>193</ele>
      </trkpt>
      <trkpt lat="-40.85261014686248" lon="172.720921228304">
        <ele>193</ele>
      </trkpt>
      <trkpt lat="-40.85261396147244" lon="172.720889757772">
        <ele>194</ele>
      </trkpt>
      <trkpt lat="-40.85266164409689" lon="172.720797253481">
        <ele>196</ele>
      </trkpt>
      <trkpt lat="-40.85267594888423" lon="172.720732405112">
        <ele>197</ele>
      </trkpt>
      <trkpt lat="-40.85269025367156" lon="172.720667556742">
        <ele>198</ele>
      </trkpt>
      <trkpt lat="-40.85276749952317" lon="172.720546442876">
        <ele>202</ele>
      </trkpt>
      <trkpt lat="-40.85282185771505" lon="172.720546442876">
        <ele>203</ele>
      </trkpt>
      <trkpt lat="-40.85293248140378" lon="172.720513065039">
        <ele>205</ele>
      </trkpt>
      <trkpt lat="-40.85301068090788" lon="172.720525462521">
        <ele>207</ele>
      </trkpt>
      <trkpt lat="-40.85303356856762" lon="172.720521647912">
        <ele>207</ele>
      </trkpt>
      <trkpt lat="-40.8530955559794" lon="172.720568376883">
        <ele>208</ele>
      </trkpt>
      <trkpt lat="-40.8531480068663" lon="172.7206704177">
        <ele>207</ele>
      </trkpt>
      <trkpt lat="-40.85319950410071" lon="172.720772458516">
        <ele>206</ele>
      </trkpt>
      <trkpt lat="-40.85320331871066" lon="172.720797253481">
        <ele>206</ele>
      </trkpt>
      <trkpt lat="-40.85321857715049" lon="172.720794392523">
        <ele>206</ele>
      </trkpt>
      <trkpt lat="-40.85322906732787" lon="172.72086210185">
        <ele>205</ele>
      </trkpt>
      <trkpt lat="-40.85323955750525" lon="172.720930764829">
        <ele>204</ele>
      </trkpt>
      <trkpt lat="-40.85325958420751" lon="172.720976540149">
        <ele>204</ele>
      </trkpt>
      <trkpt lat="-40.85327579629983" lon="172.720989891284">
        <ele>204</ele>
      </trkpt>
      <trkpt lat="-40.8532872401297" lon="172.721028991036">
        <ele>204</ele>
      </trkpt>
      <trkpt lat="-40.85329200839215" lon="172.721101468625">
        <ele>203</ele>
      </trkpt>
      <trkpt lat="-40.85330822048446" lon="172.721152965859">
        <ele>203</ele>
      </trkpt>
      <trkpt lat="-40.85330822048446" lon="172.721181575434">
        <ele>203</ele>
      </trkpt>
      <trkpt lat="-40.85332824718672" lon="172.721216860576">
        <ele>203</ele>
      </trkpt>
      <trkpt lat="-40.85333396910166" lon="172.72131031852">
        <ele>202</ele>
      </trkpt>
      <trkpt lat="-40.85329963761205" lon="172.721405683769">
        <ele>200</ele>
      </trkpt>
      <trkpt lat="-40.85329200839215" lon="172.721501049018">
        <ele>199</ele>
      </trkpt>
      <trkpt lat="-40.85329296204463" lon="172.721580202174">
        <ele>198</ele>
      </trkpt>
      <trkpt lat="-40.85329391569712" lon="172.721660308983">
        <ele>197</ele>
      </trkpt>
      <trkpt lat="-40.85326339881748" lon="172.721752813275">
        <ele>196</ele>
      </trkpt>
      <trkpt lat="-40.85325386229258" lon="172.721843410261">
        <ele>195</ele>
      </trkpt>
      <trkpt lat="-40.85327388899485" lon="172.721913026893">
        <ele>195</ele>
      </trkpt>
      <trkpt lat="-40.85329296204463" lon="172.721983597177">
        <ele>195</ele>
      </trkpt>
      <trkpt lat="-40.85332252527179" lon="172.722039862674">
        <ele>195</ele>
      </trkpt>
      <trkpt lat="-40.85337497615869" lon="172.722098035476">
        <ele>196</ele>
      </trkpt>
      <trkpt lat="-40.85341407591074" lon="172.722155254625">
        <ele>197</ele>
      </trkpt>
      <trkpt lat="-40.85350753385467" lon="172.72217242037">
        <ele>200</ele>
      </trkpt>
      <trkpt lat="-40.85359813084112" lon="172.722241083349">
        <ele>203</ele>
      </trkpt>
      <trkpt lat="-40.85357238222392" lon="172.722319282853">
        <ele>202</ele>
      </trkpt>
      <trkpt lat="-40.85352469959947" lon="172.72242132367">
        <ele>200</ele>
      </trkpt>
      <trkpt lat="-40.85350276559222" lon="172.722530040053">
        <ele>199</ele>
      </trkpt>
      <trkpt lat="-40.85357715048637" lon="172.722875262254">
        <ele>202</ele>
      </trkpt>
      <trkpt lat="-40.85367156208278" lon="172.722965859241">
        <ele>206</ele>
      </trkpt>
      <trkpt lat="-40.85371924470723" lon="172.72305359527">
        <ele>208</ele>
      </trkpt>
      <trkpt lat="-40.85373545679954" lon="172.723144192256">
        <ele>209</ele>
      </trkpt>
      <trkpt lat="-40.85375071523937" lon="172.723235742895">
        <ele>210</ele>
      </trkpt>
      <trkpt lat="-40.85383749761587" lon="172.723533282472">
        <ele>213</ele>
      </trkpt>
      <trkpt lat="-40.8538432195308" lon="172.723603852756">
        <ele>213</ele>
      </trkpt>
      <trkpt lat="-40.85387659736792" lon="172.723711615487">
        <ele>214</ele>
      </trkpt>
      <trkpt lat="-40.85390711424757" lon="172.723778371162">
        <ele>215</ele>
      </trkpt>
      <trkpt lat="-40.85393667747473" lon="172.723845126836">
        <ele>216</ele>
      </trkpt>
      <trkpt lat="-40.85398436009918" lon="172.723914743468">
        <ele>218</ele>
      </trkpt>
      <trkpt lat="-40.85399675758154" lon="172.723948121305">
        <ele>219</ele>
      </trkpt>
      <trkpt lat="-40.85399771123403" lon="172.723979591837">
        <ele>219</ele>
      </trkpt>
      <trkpt lat="-40.85404253290101" lon="172.724046347511">
        <ele>220</ele>
      </trkpt>
      <trkpt lat="-40.85409021552547" lon="172.724084493611">
        <ele>222</ele>
      </trkpt>
      <trkpt lat="-40.85413980545489" lon="172.72416078581">
        <ele>224</ele>
      </trkpt>
      <trkpt lat="-40.85418939538432" lon="172.724238031661">
        <ele>225</ele>
      </trkpt>
      <trkpt lat="-40.85421323669655" lon="172.724293343506">
        <ele>225</ele>
      </trkpt>
      <trkpt lat="-40.85422086591646" lon="172.724368682052">
        <ele>224</ele>
      </trkpt>
      <trkpt lat="-40.85422849513638" lon="172.724444974251">
        <ele>224</ele>
      </trkpt>
      <trkpt lat="-40.85421705130651" lon="172.72452889567">
        <ele>222</ele>
      </trkpt>
      <trkpt lat="-40.85422563417891" lon="172.724592790387">
        <ele>222</ele>
      </trkpt>
      <trkpt lat="-40.85423326339882" lon="172.724657638756">
        <ele>221</ele>
      </trkpt>
      <trkpt lat="-40.85425519740607" lon="172.724719626168">
        <ele>221</ele>
      </trkpt>
      <trkpt lat="-40.85427713141331" lon="172.72478161358">
        <ele>220</ele>
      </trkpt>
      <trkpt lat="-40.85428476063323" lon="172.724885561701">
        <ele>219</ele>
      </trkpt>
      <trkpt lat="-40.85427140949838" lon="172.724968529468">
        <ele>218</ele>
      </trkpt>
      <trkpt lat="-40.85425805836353" lon="172.725051497234">
        <ele>216</ele>
      </trkpt>
      <trkpt lat="-40.85422181956895" lon="172.725154491703">
        <ele>213</ele>
      </trkpt>
      <trkpt lat="-40.85416746137707" lon="172.725223154682">
        <ele>210</ele>
      </trkpt>
      <trkpt lat="-40.85414266641236" lon="172.725300400534">
        <ele>207</ele>
      </trkpt>
      <trkpt lat="-40.85415697119969" lon="172.725369063513">
        <ele>207</ele>
      </trkpt>
      <trkpt lat="-40.85419225634179" lon="172.72540625596">
        <ele>207</ele>
      </trkpt>
      <trkpt lat="-40.85428476063323" lon="172.72544440206">
        <ele>207</ele>
      </trkpt>
      <trkpt lat="-40.85437631127218" lon="172.725483501812">
        <ele>208</ele>
      </trkpt>
      <trkpt lat="-40.85444306694641" lon="172.725516879649">
        <ele>208</ele>
      </trkpt>
      <trkpt lat="-40.85450886896815" lon="172.725550257486">
        <ele>209</ele>
      </trkpt>
      <trkpt lat="-40.85457181003243" lon="172.725548350181">
        <ele>210</ele>
      </trkpt>
      <trkpt lat="-40.85467289719627" lon="172.725501621209">
        <ele>213</ele>
      </trkpt>
      <trkpt lat="-40.85477207705512" lon="172.725475872592">
        <ele>215</ele>
      </trkpt>
      <trkpt lat="-40.85485409116918" lon="172.725526416174">
        <ele>215</ele>
      </trkpt>
      <trkpt lat="-40.85491035666603" lon="172.725593171848">
        <ele>214</ele>
      </trkpt>
      <trkpt lat="-40.85495231737555" lon="172.725671371352">
        <ele>212</ele>
      </trkpt>
      <trkpt lat="-40.85498950982262" lon="172.725781041389">
        <ele>210</ele>
      </trkpt>
      <trkpt lat="-40.85504482166699" lon="172.725808697311">
        <ele>210</ele>
      </trkpt>
      <trkpt lat="-40.8550867823765" lon="172.72587354568">
        <ele>209</ele>
      </trkpt>
      <trkpt lat="-40.85515258439825" lon="172.725926950219">
        <ele>209</ele>
      </trkpt>
      <trkpt lat="-40.85521838641999" lon="172.725981308411">
        <ele>209</ele>
      </trkpt>
      <trkpt lat="-40.85531184436392" lon="172.726006103376">
        <ele>211</ele>
      </trkpt>
      <trkpt lat="-40.85537097081824" lon="172.72606904444">
        <ele>211</ele>
      </trkpt>
      <trkpt lat="-40.85547205798207" lon="172.726125309937">
        <ele>211</ele>
      </trkpt>
      <trkpt lat="-40.85553690635133" lon="172.726184436391">
        <ele>212</ele>
      </trkpt>
      <trkpt lat="-40.85552450886897" lon="172.726276940683">
        <ele>210</ele>
      </trkpt>
      <trkpt lat="-40.85551115773412" lon="172.726370398627">
        <ele>208</ele>
      </trkpt>
      <trkpt lat="-40.85544058744993" lon="172.726465763876">
        <ele>205</ele>
      </trkpt>
      <trkpt lat="-40.85537001716575" lon="172.726562082777">
        <ele>202</ele>
      </trkpt>
      <trkpt lat="-40.85531851993134" lon="172.726657448026">
        <ele>200</ele>
      </trkpt>
      <trkpt lat="-40.85526702269693" lon="172.726752813275">
        <ele>197</ele>
      </trkpt>
      <trkpt lat="-40.85519549876025" lon="172.726817661644">
        <ele>195</ele>
      </trkpt>
      <trkpt lat="-40.85512397482358" lon="172.726882510013">
        <ele>192</ele>
      </trkpt>
      <trkpt lat="-40.85508296776655" lon="172.726966431432">
        <ele>190</ele>
      </trkpt>
      <trkpt lat="-40.85504196070952" lon="172.727050352851">
        <ele>188</ele>
      </trkpt>
      <trkpt lat="-40.85507533854663" lon="172.727148579058">
        <ele>187</ele>
      </trkpt>
      <trkpt lat="-40.85510871638375" lon="172.727246805264">
        <ele>186</ele>
      </trkpt>
      <trkpt lat="-40.85519549876025" lon="172.727260156399">
        <ele>188</ele>
      </trkpt>
      <trkpt lat="-40.85527751287431" lon="172.727292580584">
        <ele>189</ele>
      </trkpt>
      <trkpt lat="-40.85530898340645" lon="172.727349799733">
        <ele>189</ele>
      </trkpt>
      <trkpt lat="-40.85534617585352" lon="172.727464238032">
        <ele>188</ele>
      </trkpt>
      <trkpt lat="-40.85541388518024" lon="172.727538622926">
        <ele>188</ele>
      </trkpt>
      <trkpt lat="-40.85551211138661" lon="172.727596795728">
        <ele>189</ele>
      </trkpt>
      <trkpt lat="-40.855565515926" lon="172.727659736792">
        <ele>189</ele>
      </trkpt>
      <trkpt lat="-40.85561796681289" lon="172.727722677856">
        <ele>189</ele>
      </trkpt>
      <trkpt lat="-40.85570188823193" lon="172.727774175091">
        <ele>190</ele>
      </trkpt>
      <trkpt lat="-40.85578485599848" lon="172.727825672325">
        <ele>191</ele>
      </trkpt>
      <trkpt lat="-40.85582395575052" lon="172.727879076864">
        <ele>191</ele>
      </trkpt>
      <trkpt lat="-40.85584779706275" lon="172.727940110624">
        <ele>191</ele>
      </trkpt>
      <trkpt lat="-40.85587163837498" lon="172.728002098035">
        <ele>190</ele>
      </trkpt>
      <trkpt lat="-40.85589643333969" lon="172.728111768072">
        <ele>188</ele>
      </trkpt>
      <trkpt lat="-40.85592504291436" lon="172.728163265306">
        <ele>187</ele>
      </trkpt>
      <trkpt lat="-40.85604043486553" lon="172.72824909403">
        <ele>186</ele>
      </trkpt>
      <trkpt lat="-40.85606618348274" lon="172.728303452222">
        <ele>185</ele>
      </trkpt>
      <trkpt lat="-40.8560785809651" lon="172.728378790769">
        <ele>184</ele>
      </trkpt>
      <trkpt lat="-40.85609002479497" lon="172.728455082968">
        <ele>183</ele>
      </trkpt>
      <trkpt lat="-40.85608144192256" lon="172.728536143429">
        <ele>182</ele>
      </trkpt>
      <trkpt lat="-40.85607285905017" lon="172.728617203891">
        <ele>181</ele>
      </trkpt>
      <trkpt lat="-40.8560690444402" lon="172.728728781232">
        <ele>179</ele>
      </trkpt>
      <trkpt lat="-40.85611195880222" lon="172.728803166126">
        <ele>178</ele>
      </trkpt>
      <trkpt lat="-40.85615391951173" lon="172.72887755102">
        <ele>177</ele>
      </trkpt>
      <trkpt lat="-40.856216860576" lon="172.728935723822">
        <ele>177</ele>
      </trkpt>
      <trkpt lat="-40.85627980164028" lon="172.728994850277">
        <ele>177</ele>
      </trkpt>
      <trkpt lat="-40.85642475681862" lon="172.729243753576">
        <ele>175</ele>
      </trkpt>
      <trkpt lat="-40.85651535380507" lon="172.729308601945">
        <ele>176</ele>
      </trkpt>
      <trkpt lat="-40.85660499713904" lon="172.729373450315">
        <ele>176</ele>
      </trkpt>
      <trkpt lat="-40.85668891855808" lon="172.729476444784">
        <ele>176</ele>
      </trkpt>
      <trkpt lat="-40.85677283997711" lon="172.729580392905">
        <ele>175</ele>
      </trkpt>
      <trkpt lat="-40.85684341026131" lon="172.729594697692">
        <ele>174</ele>
      </trkpt>
      <trkpt lat="-40.85684341026131" lon="172.729594697692">
        <ele>174</ele>
      </trkpt>
      <trkpt lat="-40.85703604806409" lon="172.730112530994">
        <ele>171</ele>
      </trkpt>
      <trkpt lat="-40.85729353423613" lon="172.730484455464">
        <ele>169</ele>
      </trkpt>
      <trkpt lat="-40.85729353423613" lon="172.73061319855">
        <ele>168</ele>
      </trkpt>
      <trkpt lat="-40.85715620827771" lon="172.730760061034">
        <ele>166</ele>
      </trkpt>
      <trkpt lat="-40.85710185008583" lon="172.730920274652">
        <ele>163</ele>
      </trkpt>
      <trkpt lat="-40.85710185008583" lon="172.730920274652">
        <ele>163</ele>
      </trkpt>
      <trkpt lat="-40.85715620827771" lon="172.730760061034">
        <ele>166</ele>
      </trkpt>
      <trkpt lat="-40.85729353423613" lon="172.73061319855">
        <ele>168</ele>
      </trkpt>
      <trkpt lat="-40.85729353423613" lon="172.730484455464">
        <ele>169</ele>
      </trkpt>
      <trkpt lat="-40.85703604806409" lon="172.730112530994">
        <ele>171</ele>
      </trkpt>
      <trkpt lat="-40.85684341026131" lon="172.729594697692">
        <ele>174</ele>
      </trkpt>
      <trkpt lat="-40.85684341026131" lon="172.729594697692">
        <ele>174</ele>
      </trkpt>
      <trkpt lat="-40.85693114629029" lon="172.729547015068">
        <ele>174</ele>
      </trkpt>
      <trkpt lat="-40.85703986267404" lon="172.729465000954">
        <ele>172</ele>
      </trkpt>
      <trkpt lat="-40.85715525462522" lon="172.729450696166">
        <ele>171</ele>
      </trkpt>
      <trkpt lat="-40.85726683196643" lon="172.729353423612">
        <ele>170</ele>
      </trkpt>
      <trkpt lat="-40.85734407781804" lon="172.72931432386">
        <ele>168</ele>
      </trkpt>
      <trkpt lat="-40.85738699218005" lon="172.729275224108">
        <ele>168</ele>
      </trkpt>
      <trkpt lat="-40.85739557505245" lon="172.729235170704">
        <ele>167</ele>
      </trkpt>
      <trkpt lat="-40.85732309746329" lon="172.72913789815">
        <ele>169</ele>
      </trkpt>
      <trkpt lat="-40.85725061987412" lon="172.729041579249">
        <ele>171</ele>
      </trkpt>
      <trkpt lat="-40.85726397100897" lon="172.728948121305">
        <ele>173</ele>
      </trkpt>
      <trkpt lat="-40.85737650200267" lon="172.728861338928">
        <ele>173</ele>
      </trkpt>
      <trkpt lat="-40.85742990654206" lon="172.728832729353">
        <ele>173</ele>
      </trkpt>
      <trkpt lat="-40.85745851611673" lon="172.728771695594">
        <ele>173</ele>
      </trkpt>
      <trkpt lat="-40.85748617203891" lon="172.728710661835">
        <ele>174</ele>
      </trkpt>
      <trkpt lat="-40.85754339118825" lon="172.728676330345">
        <ele>175</ele>
      </trkpt>
      <trkpt lat="-40.85760442494755" lon="172.72893095556">
        <ele>169</ele>
      </trkpt>
      <trkpt lat="-40.85766164409689" lon="172.728986267404">
        <ele>168</ele>
      </trkpt>
      <trkpt lat="-40.85767785618921" lon="172.729051115773">
        <ele>167</ele>
      </trkpt>
      <trkpt lat="-40.85773221438108" lon="172.729072096128">
        <ele>166</ele>
      </trkpt>
      <trkpt lat="-40.85777512874309" lon="172.72911501049">
        <ele>166</ele>
      </trkpt>
      <trkpt lat="-40.85780373831776" lon="172.729189395384">
        <ele>165</ele>
      </trkpt>
      <trkpt lat="-40.85783139423994" lon="172.729264733931">
        <ele>164</ele>
      </trkpt>
      <trkpt lat="-40.85777226778562" lon="172.729331489605">
        <ele>165</ele>
      </trkpt>
      <trkpt lat="-40.8577913408354" lon="172.72939061606">
        <ele>165</ele>
      </trkpt>
      <trkpt lat="-40.85784474537478" lon="172.729427808507">
        <ele>164</ele>
      </trkpt>
      <trkpt lat="-40.85788575243181" lon="172.729499332443">
        <ele>164</ele>
      </trkpt>
      <trkpt lat="-40.85792580583635" lon="172.729571810032">
        <ele>163</ele>
      </trkpt>
      <trkpt lat="-40.85796681289338" lon="172.729609956132">
        <ele>163</ele>
      </trkpt>
      <trkpt lat="-40.85799351516307" lon="172.729669082586">
        <ele>162</ele>
      </trkpt>
      <trkpt lat="-40.85800781995041" lon="172.729681480069">
        <ele>162</ele>
      </trkpt>
      <trkpt lat="-40.85803166126264" lon="172.729772077055">
        <ele>161</ele>
      </trkpt>
      <trkpt lat="-40.85805454892238" lon="172.729863627694">
        <ele>160</ele>
      </trkpt>
      <trkpt lat="-40.858086973107" lon="172.729925615106">
        <ele>159</ele>
      </trkpt>
      <trkpt lat="-40.85811844363914" lon="172.72998855617">
        <ele>158</ele>
      </trkpt>
      <trkpt lat="-40.85812416555407" lon="172.730042914362">
        <ele>158</ele>
      </trkpt>
      <trkpt lat="-40.85812035094412" lon="172.730121113866">
        <ele>157</ele>
      </trkpt>
      <trkpt lat="-40.85811558268167" lon="172.73019931337">
        <ele>156</ele>
      </trkpt>
      <trkpt lat="-40.85812893381652" lon="172.730267976349">
        <ele>155</ele>
      </trkpt>
      <trkpt lat="-40.85814228495136" lon="172.730336639329">
        <ele>154</ele>
      </trkpt>
      <trkpt lat="-40.8581823383559" lon="172.730412931528">
        <ele>153</ele>
      </trkpt>
      <trkpt lat="-40.85818519931337" lon="172.730504482167">
        <ele>152</ele>
      </trkpt>
      <trkpt lat="-40.85816135800115" lon="172.730577913408">
        <ele>152</ele>
      </trkpt>
      <trkpt lat="-40.85818329200839" lon="172.7306704177">
        <ele>150</ele>
      </trkpt>
      <trkpt lat="-40.858217623498" lon="172.730781041389">
        <ele>148</ele>
      </trkpt>
      <trkpt lat="-40.8582519549876" lon="172.73089261873">
        <ele>145</ele>
      </trkpt>
      <trkpt lat="-40.85825672325005" lon="172.730966049971">
        <ele>144</ele>
      </trkpt>
      <trkpt lat="-40.85823097463285" lon="172.731026130078">
        <ele>144</ele>
      </trkpt>
      <trkpt lat="-40.85817852374595" lon="172.731071905398">
        <ele>145</ele>
      </trkpt>
      <trkpt lat="-40.85812893381652" lon="172.731149151249">
        <ele>146</ele>
      </trkpt>
      <trkpt lat="-40.8581222582491" lon="172.731234026321">
        <ele>145</ele>
      </trkpt>
      <trkpt lat="-40.85812798016403" lon="172.731312225825">
        <ele>144</ele>
      </trkpt>
      <trkpt lat="-40.85813370207897" lon="172.731391378982">
        <ele>143</ele>
      </trkpt>
      <trkpt lat="-40.8581651726111" lon="172.731462902918">
        <ele>141</ele>
      </trkpt>
      <trkpt lat="-40.85819664314324" lon="172.731534426855">
        <ele>139</ele>
      </trkpt>
      <trkpt lat="-40.85819950410071" lon="172.731584016784">
        <ele>138</ele>
      </trkpt>
      <trkpt lat="-40.8582347892428" lon="172.731655540721">
        <ele>136</ele>
      </trkpt>
      <trkpt lat="-40.85825004768262" lon="172.731717528133">
        <ele>135</ele>
      </trkpt>
      <trkpt lat="-40.85826530612245" lon="172.731780469197">
        <ele>133</ele>
      </trkpt>
      <trkpt lat="-40.85825481594507" lon="172.731849132176">
        <ele>133</ele>
      </trkpt>
      <trkpt lat="-40.85824432576769" lon="172.731917795155">
        <ele>132</ele>
      </trkpt>
      <trkpt lat="-40.85824623307267" lon="172.731987411787">
        <ele>131</ele>
      </trkpt>
      <trkpt lat="-40.85824814037765" lon="172.732057028419">
        <ele>130</ele>
      </trkpt>
      <trkpt lat="-40.85826053786001" lon="172.732089452604">
        <ele>129</ele>
      </trkpt>
      <trkpt lat="-40.85825100133511" lon="172.732197215335">
        <ele>128</ele>
      </trkpt>
      <trkpt lat="-40.85821094793057" lon="172.732262063704">
        <ele>128</ele>
      </trkpt>
      <trkpt lat="-40.85816994087354" lon="172.732327865726">
        <ele>128</ele>
      </trkpt>
      <trkpt lat="-40.85816803356857" lon="172.732362197215">
        <ele>127</ele>
      </trkpt>
      <trkpt lat="-40.8581394239939" lon="172.732391760443">
        <ele>128</ele>
      </trkpt>
      <trkpt lat="-40.85805836353233" lon="172.732414648102">
        <ele>129</ele>
      </trkpt>
      <trkpt lat="-40.85801544917032" lon="172.732435628457">
        <ele>129</ele>
      </trkpt>
      <trkpt lat="-40.85800114438299" lon="172.732488079344">
        <ele>129</ele>
      </trkpt>
      <trkpt lat="-40.85801544917032" lon="172.732531947358">
        <ele>128</ele>
      </trkpt>
      <trkpt lat="-40.85801449551784" lon="172.732572954415">
        <ele>126</ele>
      </trkpt>
      <trkpt lat="-40.85799923707801" lon="172.73260919321">
        <ele>126</ele>
      </trkpt>
      <trkpt lat="-40.85791150104902" lon="172.732697882892">
        <ele>125</ele>
      </trkpt>
      <trkpt lat="-40.85790864009155" lon="172.732715048636">
        <ele>124</ele>
      </trkpt>
      <trkpt lat="-40.85781995041008" lon="172.732821857715">
        <ele>122</ele>
      </trkpt>
      <trkpt lat="-40.8577741750906" lon="172.732904825482">
        <ele>120</ele>
      </trkpt>
      <trkpt lat="-40.8577131413313" lon="172.732934388709">
        <ele>120</ele>
      </trkpt>
      <trkpt lat="-40.85766355140187" lon="172.732991607858">
        <ele>118</ele>
      </trkpt>
      <trkpt lat="-40.85759774938013" lon="172.733036429525">
        <ele>117</ele>
      </trkpt>
      <trkpt lat="-40.85755292771314" lon="172.733040244135">
        <ele>118</ele>
      </trkpt>
      <trkpt lat="-40.85751192065612" lon="172.733031661263">
        <ele>118</ele>
      </trkpt>
      <trkpt lat="-40.85746519168415" lon="172.732999237078">
        <ele>119</ele>
      </trkpt>
      <trkpt lat="-40.85743944306694" lon="172.732969673851">
        <ele>120</ele>
      </trkpt>
      <trkpt lat="-40.85738508487507" lon="172.732940110624">
        <ele>121</ele>
      </trkpt>
      <trkpt lat="-40.85735361434293" lon="172.732942017929">
        <ele>121</ele>
      </trkpt>
      <trkpt lat="-40.85728781232119" lon="172.732927713141">
        <ele>122</ele>
      </trkpt>
      <trkpt lat="-40.85724108334923" lon="172.732998283426">
        <ele>119</ele>
      </trkpt>
      <trkpt lat="-40.85718958611482" lon="172.733115582682">
        <ele>115</ele>
      </trkpt>
      <trkpt lat="-40.85719530802975" lon="172.733182338356">
        <ele>113</ele>
      </trkpt>
      <trkpt lat="-40.85715525462522" lon="172.733270074385">
        <ele>110</ele>
      </trkpt>
      <trkpt lat="-40.85708945260347" lon="172.733333015449">
        <ele>108</ele>
      </trkpt>
      <trkpt lat="-40.85705512111387" lon="172.733400724776">
        <ele>107</ele>
      </trkpt>
      <trkpt lat="-40.85702841884417" lon="172.733415983216">
        <ele>107</ele>
      </trkpt>
      <trkpt lat="-40.85698836543963" lon="172.733415983216">
        <ele>107</ele>
      </trkpt>
      <trkpt lat="-40.8569568949075" lon="172.733403585733">
        <ele>107</ele>
      </trkpt>
      <trkpt lat="-40.85686439061606" lon="172.733405493038">
        <ele>108</ele>
      </trkpt>
      <trkpt lat="-40.85679382033187" lon="172.733460804883">
        <ele>107</ele>
      </trkpt>
      <trkpt lat="-40.85672801831013" lon="172.733533282472">
        <ele>107</ele>
      </trkpt>
      <trkpt lat="-40.85672134274271" lon="172.733580965096">
        <ele>106</ele>
      </trkpt>
      <trkpt lat="-40.85668033568568" lon="172.733649628076">
        <ele>105</ele>
      </trkpt>
      <trkpt lat="-40.85662597749381" lon="172.733683959565">
        <ele>105</ele>
      </trkpt>
      <trkpt lat="-40.85658783139424" lon="172.733763112722">
        <ele>105</ele>
      </trkpt>
      <trkpt lat="-40.85656303642953" lon="172.733845126836">
        <ele>104</ele>
      </trkpt>
      <trkpt lat="-40.85656399008202" lon="172.733870875453">
        <ele>104</ele>
      </trkpt>
      <trkpt lat="-40.85662979210376" lon="172.733978638184">
        <ele>102</ele>
      </trkpt>
      <trkpt lat="-40.85663551401869" lon="172.734067327866">
        <ele>101</ele>
      </trkpt>
      <trkpt lat="-40.85666030898341" lon="172.7341569712">
        <ele>100</ele>
      </trkpt>
      <trkpt lat="-40.856651726111" lon="172.734259965669">
        <ele>97</ele>
      </trkpt>
      <trkpt lat="-40.85662025557887" lon="172.734349609002">
        <ele>96</ele>
      </trkpt>
      <trkpt lat="-40.85658783139424" lon="172.734440205989">
        <ele>94</ele>
      </trkpt>
      <trkpt lat="-40.85654682433722" lon="172.734470722869">
        <ele>94</ele>
      </trkpt>
      <trkpt lat="-40.85651058554263" lon="172.73455178333">
        <ele>92</ele>
      </trkpt>
      <trkpt lat="-40.85650200267023" lon="172.734599465955">
        <ele>92</ele>
      </trkpt>
      <trkpt lat="-40.8564094983788" lon="172.734659546061">
        <ele>92</ele>
      </trkpt>
      <trkpt lat="-40.85637993515163" lon="172.734706275033">
        <ele>91</ele>
      </trkpt>
      <trkpt lat="-40.85638470341408" lon="172.734746328438">
        <ele>90</ele>
      </trkpt>
      <trkpt lat="-40.85635227922945" lon="172.734834064467">
        <ele>89</ele>
      </trkpt>
      <trkpt lat="-40.85628170894526" lon="172.734903681099">
        <ele>88</ele>
      </trkpt>
      <trkpt lat="-40.85625691398054" lon="172.735020980355">
        <ele>86</ele>
      </trkpt>
      <trkpt lat="-40.85621304596605" lon="172.735116345604">
        <ele>86</ele>
      </trkpt>
      <trkpt lat="-40.85616822429907" lon="172.735211710853">
        <ele>85</ele>
      </trkpt>
      <trkpt lat="-40.8561653633416" lon="172.735280373832">
        <ele>84</ele>
      </trkpt>
      <trkpt lat="-40.85617203890902" lon="172.735335685676">
        <ele>83</ele>
      </trkpt>
      <trkpt lat="-40.85616250238413" lon="172.735376692733">
        <ele>82</ele>
      </trkpt>
      <trkpt lat="-40.85613198550448" lon="172.735372878123">
        <ele>83</ele>
      </trkpt>
      <trkpt lat="-40.85610623688728" lon="172.735382414648">
        <ele>83</ele>
      </trkpt>
      <trkpt lat="-40.85606809078772" lon="172.735483501812">
        <ele>82</ele>
      </trkpt>
      <trkpt lat="-40.85603852756056" lon="172.735520694259">
        <ele>82</ele>
      </trkpt>
      <trkpt lat="-40.85592504291436" lon="172.735571237841">
        <ele>82</ele>
      </trkpt>
      <trkpt lat="-40.85590787716956" lon="172.735599847416">
        <ele>82</ele>
      </trkpt>
      <trkpt lat="-40.85592695021934" lon="172.73560938394">
        <ele>81</ele>
      </trkpt>
      <trkpt lat="-40.85602136181576" lon="172.735616059508">
        <ele>80</ele>
      </trkpt>
      <trkpt lat="-40.85608334922755" lon="172.735606522983">
        <ele>80</ele>
      </trkpt>
      <trkpt lat="-40.8561396147244" lon="172.735573145146">
        <ele>80</ele>
      </trkpt>
      <trkpt lat="-40.85618062178143" lon="172.735481594507">
        <ele>80</ele>
      </trkpt>
      <trkpt lat="-40.85625596032806" lon="172.735400534045">
        <ele>81</ele>
      </trkpt>
      <trkpt lat="-40.85630555025749" lon="172.735323288194">
        <ele>81</ele>
      </trkpt>
      <trkpt lat="-40.85635227922945" lon="172.735274651917">
        <ele>81</ele>
      </trkpt>
      <trkpt lat="-40.85638756437154" lon="172.73520694259">
        <ele>81</ele>
      </trkpt>
      <trkpt lat="-40.85642189586115" lon="172.735140186916">
        <ele>82</ele>
      </trkpt>
      <trkpt lat="-40.85648960518787" lon="172.735089643334">
        <ele>81</ele>
      </trkpt>
      <trkpt lat="-40.8565563608621" lon="172.735040053405">
        <ele>81</ele>
      </trkpt>
      <trkpt lat="-40.85660690444402" lon="172.735009536525">
        <ele>80</ele>
      </trkpt>
      <trkpt lat="-40.856608811749" lon="172.73503433149">
        <ele>80</ele>
      </trkpt>
      <trkpt lat="-40.85649151249285" lon="172.735138279611">
        <ele>81</ele>
      </trkpt>
      <trkpt lat="-40.85646671752814" lon="172.735197406065">
        <ele>80</ele>
      </trkpt>
      <trkpt lat="-40.85646004196071" lon="172.735267976349">
        <ele>80</ele>
      </trkpt>
      <trkpt lat="-40.85645336639329" lon="172.735338546634">
        <ele>79</ele>
      </trkpt>
      <trkpt lat="-40.85644096891093" lon="172.735393858478">
        <ele>78</ele>
      </trkpt>
      <trkpt lat="-40.85643238603853" lon="172.735475872592">
        <ele>77</ele>
      </trkpt>
      <trkpt lat="-40.85638565706657" lon="172.735518786954">
        <ele>77</ele>
      </trkpt>
      <trkpt lat="-40.85637707419416" lon="172.735572191493">
        <ele>77</ele>
      </trkpt>
      <trkpt lat="-40.85631222582491" lon="172.735637039863">
        <ele>76</ele>
      </trkpt>
      <trkpt lat="-40.85627980164028" lon="172.735702841884">
        <ele>76</ele>
      </trkpt>
      <trkpt lat="-40.85618825100133" lon="172.735753385466">
        <ele>76</ele>
      </trkpt>
      <trkpt lat="-40.85612435628457" lon="172.735844936105">
        <ele>75</ele>
      </trkpt>
      <trkpt lat="-40.8560871638375" lon="172.735938394049">
        <ele>74</ele>
      </trkpt>
      <trkpt lat="-40.85604901773794" lon="172.736032805646">
        <ele>73</ele>
      </trkpt>
      <trkpt lat="-40.85604329582301" lon="172.736101468625">
        <ele>72</ele>
      </trkpt>
      <trkpt lat="-40.85602517642571" lon="172.73611863437">
        <ele>72</ele>
      </trkpt>
      <trkpt lat="-40.85601945451078" lon="172.736216860576">
        <ele>70</ele>
      </trkpt>
      <trkpt lat="-40.85596128170895" lon="172.736300781995">
        <ele>69</ele>
      </trkpt>
      <trkpt lat="-40.85593171848178" lon="172.736319855045">
        <ele>69</ele>
      </trkpt>
      <trkpt lat="-40.8559221819569" lon="172.736398054549">
        <ele>67</ele>
      </trkpt>
      <trkpt lat="-40.85591169177952" lon="172.736476254053">
        <ele>66</ele>
      </trkpt>
      <trkpt lat="-40.85590787716956" lon="172.736577341217">
        <ele>64</ele>
      </trkpt>
      <trkpt lat="-40.85594602326912" lon="172.736674613771">
        <ele>62</ele>
      </trkpt>
      <trkpt lat="-40.85596032805645" lon="172.736796681289">
        <ele>61</ele>
      </trkpt>
      <trkpt lat="-40.85592504291436" lon="172.736873927141">
        <ele>61</ele>
      </trkpt>
      <trkpt lat="-40.85586591646004" lon="172.736970246042">
        <ele>60</ele>
      </trkpt>
      <trkpt lat="-40.85582395575052" lon="172.736998855617">
        <ele>60</ele>
      </trkpt>
      <trkpt lat="-40.85579629982834" lon="172.737043677284">
        <ele>60</ele>
      </trkpt>
      <trkpt lat="-40.85572477589167" lon="172.737100896433">
        <ele>61</ele>
      </trkpt>
      <trkpt lat="-40.85563227160023" lon="172.737162883845">
        <ele>62</ele>
      </trkpt>
      <trkpt lat="-40.85558458897578" lon="172.7371457181">
        <ele>63</ele>
      </trkpt>
      <trkpt lat="-40.85555121113866" lon="172.73715334732">
        <ele>64</ele>
      </trkpt>
      <trkpt lat="-40.85549685294679" lon="172.737223917604">
        <ele>64</ele>
      </trkpt>
      <trkpt lat="-40.85538718291055" lon="172.737504291436">
        <ele>64</ele>
      </trkpt>
      <trkpt lat="-40.85541579248522" lon="172.73757867633">
        <ele>63</ele>
      </trkpt>
      <trkpt lat="-40.8554434484074" lon="172.737653061225">
        <ele>62</ele>
      </trkpt>
      <trkpt lat="-40.8554434484074" lon="172.737653061225">
        <ele>62</ele>
      </trkpt>
      <trkpt lat="-40.85542437535762" lon="172.737718863246">
        <ele>62</ele>
      </trkpt>
      <trkpt lat="-40.85540530230784" lon="172.737784665268">
        <ele>62</ele>
      </trkpt>
      <trkpt lat="-40.85540530230784" lon="172.737784665268">
        <ele>62</ele>
      </trkpt>
      <trkpt lat="-40.85562559603281" lon="172.738139423994">
        <ele>56</ele>
      </trkpt>
      <trkpt lat="-40.85562559603281" lon="172.738139423994">
        <ele>56</ele>
      </trkpt>
      <trkpt lat="-40.85567232500477" lon="172.738223345413">
        <ele>55</ele>
      </trkpt>
      <trkpt lat="-40.85567232500477" lon="172.738223345413">
        <ele>55</ele>
      </trkpt>
      <trkpt lat="-40.85589643333969" lon="172.73849799733">
        <ele>51</ele>
      </trkpt>
      <trkpt lat="-40.85589643333969" lon="172.73849799733">
        <ele>51</ele>
      </trkpt>
      <trkpt lat="-40.85591073812703" lon="172.738396910166">
        <ele>51</ele>
      </trkpt>
      <trkpt lat="-40.85591542455956" lon="172.738364105138">
        <ele>51</ele>
      </trkpt>
    </trkseg>
  </trk>
</gpx>