<?xml version="1.0" encoding="UTF-8" standalone="yes"?>
<gpx
 version="1.1"
 creator="Generated by MapOut iPhone App. See https://mapout.app"
 xmlns="http://www.topografix.com/GPX/1/1"
 xmlns:xsi="http://www.w3.org/2001/XMLSchema-instance"
 xmlns:gpxx="http://www.garmin.com/xmlschemas/GpxExtensions/v3"
 xmlns:mapout="https://mapout.app/xmlschemas/MapOutExtensions"
 xsi:schemaLocation="http://www.topografix.com/GPX/1/1 https://www.topografix.com/GPX/1/1/gpx.xsd http://www.garmin.com/xmlschemas/GpxExtensions/v3 https://www8.garmin.com/xmlschemas/GpxExtensionsv3.xsd https://mapout.app/xmlschemas/MapOutExtensions https://mapout.app/xmlschemas/MapOutExtensions.xsd">
  <metadata>
    <name>Waiatiu Falls</name>
    <author><name>iPhone</name></author>
    <time>2026-09-01T23:32:58Z</time>
    <bounds minlat="-38.6833387373641" minlon="176.66090787717" maxlat="-38.68019835971771" maxlon="176.68467811451"/>
  </metadata>
  <trk>
    <name>Waiatiu Falls</name>
    <trkseg>
      <trkpt lat="-38.68022525626558" lon="176.68467811451">
        <ele>443</ele>
      </trkpt>
      <trkpt lat="-38.68019835971771" lon="176.684654777799">
        <ele>442</ele>
      </trkpt>
      <trkpt lat="-38.68019835971771" lon="176.684654777799">
        <ele>442</ele>
      </trkpt>
      <trkpt lat="-38.68024222773222" lon="176.684583253862">
        <ele>442</ele>
      </trkpt>
      <trkpt lat="-38.68044630936487" lon="176.684415411024">
        <ele>443</ele>
      </trkpt>
      <trkpt lat="-38.68054930383368" lon="176.684142666412">
        <ele>440</ele>
      </trkpt>
      <trkpt lat="-38.68071047110433" lon="176.683782185771">
        <ele>437</ele>
      </trkpt>
      <trkpt lat="-38.68085637993515" lon="176.683654396338">
        <ele>437</ele>
      </trkpt>
      <trkpt lat="-38.68101945451077" lon="176.683619111196">
        <ele>438</ele>
      </trkpt>
      <trkpt lat="-38.6814257104711" lon="176.683388327294">
        <ele>441</ele>
      </trkpt>
      <trkpt lat="-38.68150295632272" lon="176.683102231547">
        <ele>441</ele>
      </trkpt>
      <trkpt lat="-38.68151058554263" lon="176.682669273317">
        <ele>439</ele>
      </trkpt>
      <trkpt lat="-38.6816259774938" lon="176.682370780088">
        <ele>441</ele>
      </trkpt>
      <trkpt lat="-38.68183196643143" lon="176.681971199695">
        <ele>448</ele>
      </trkpt>
      <trkpt lat="-38.68186343696357" lon="176.681685103948">
        <ele>450</ele>
      </trkpt>
      <trkpt lat="-38.6817041769979" lon="176.681456227351">
        <ele>443</ele>
      </trkpt>
      <trkpt lat="-38.68162407018882" lon="176.681196833874">
        <ele>440</ele>
      </trkpt>
      <trkpt lat="-38.68162407018882" lon="176.680777226779">
        <ele>437</ele>
      </trkpt>
      <trkpt lat="-38.68169845508297" lon="176.68045584589">
        <ele>436</ele>
      </trkpt>
      <trkpt lat="-38.68166126263589" lon="176.680310890711">
        <ele>435</ele>
      </trkpt>
      <trkpt lat="-38.68165077245851" lon="176.68">
        <ele>433</ele>
      </trkpt>
      <trkpt lat="-38.68165077245851" lon="176.68">
        <ele>433</ele>
      </trkpt>
      <trkpt lat="-38.68164791150105" lon="176.679534617585">
        <ele>434</ele>
      </trkpt>
      <trkpt lat="-38.68157448025939" lon="176.679156017547">
        <ele>436</ele>
      </trkpt>
      <trkpt lat="-38.68162502384131" lon="176.678825100134">
        <ele>436</ele>
      </trkpt>
      <trkpt lat="-38.68169082586305" lon="176.678648674423">
        <ele>437</ele>
      </trkpt>
      <trkpt lat="-38.68163360671371" lon="176.678524699599">
        <ele>437</ele>
      </trkpt>
      <trkpt lat="-38.68139614724394" lon="176.67849036811">
        <ele>438</ele>
      </trkpt>
      <trkpt lat="-38.68128266259775" lon="176.678488460805">
        <ele>439</ele>
      </trkpt>
      <trkpt lat="-38.68120064848369" lon="176.678336830059">
        <ele>439</ele>
      </trkpt>
      <trkpt lat="-38.68111386610719" lon="176.678272935342">
        <ele>441</ele>
      </trkpt>
      <trkpt lat="-38.68111386610719" lon="176.678272935342">
        <ele>441</ele>
      </trkpt>
      <trkpt lat="-38.68099465954606" lon="176.678257676903">
        <ele>441</ele>
      </trkpt>
      <trkpt lat="-38.68087449933244" lon="176.678242418463">
        <ele>442</ele>
      </trkpt>
      <trkpt lat="-38.68087449933244" lon="176.678242418463">
        <ele>442</ele>
      </trkpt>
      <trkpt lat="-38.68087736028991" lon="176.677907686439">
        <ele>447</ele>
      </trkpt>
      <trkpt lat="-38.68110814419225" lon="176.677377455655">
        <ele>452</ele>
      </trkpt>
      <trkpt lat="-38.68132653061225" lon="176.676778561892">
        <ele>457</ele>
      </trkpt>
      <trkpt lat="-38.68136753766927" lon="176.676377074194">
        <ele>463</ele>
      </trkpt>
      <trkpt lat="-38.68137612054167" lon="176.676119588022">
        <ele>468</ele>
      </trkpt>
      <trkpt lat="-38.68148292962044" lon="176.675883082205">
        <ele>471</ele>
      </trkpt>
      <trkpt lat="-38.68168987221056" lon="176.675638947168">
        <ele>475</ele>
      </trkpt>
      <trkpt lat="-38.68172801831012" lon="176.675304215144">
        <ele>482</ele>
      </trkpt>
      <trkpt lat="-38.68166507724585" lon="176.675131604044">
        <ele>486</ele>
      </trkpt>
      <trkpt lat="-38.68145718100324" lon="176.674810223155">
        <ele>492</ele>
      </trkpt>
      <trkpt lat="-38.68147148579057" lon="176.674556551593">
        <ele>497</ele>
      </trkpt>
      <trkpt lat="-38.6815563608621" lon="176.674451649819">
        <ele>500</ele>
      </trkpt>
      <trkpt lat="-38.68155159259965" lon="176.67412263971">
        <ele>506</ele>
      </trkpt>
      <trkpt lat="-38.68156303642952" lon="176.67387373641">
        <ele>512</ele>
      </trkpt>
      <trkpt lat="-38.68167938203319" lon="176.673705893572">
        <ele>517</ele>
      </trkpt>
      <trkpt lat="-38.68169845508297" lon="176.673460804883">
        <ele>522</ele>
      </trkpt>
      <trkpt lat="-38.681782376502" lon="176.673082204845">
        <ele>527</ele>
      </trkpt>
      <trkpt lat="-38.68175281327484" lon="176.672885752432">
        <ele>528</ele>
      </trkpt>
      <trkpt lat="-38.68140186915888" lon="176.672717909594">
        <ele>526</ele>
      </trkpt>
      <trkpt lat="-38.68132462330726" lon="176.672559603281">
        <ele>526</ele>
      </trkpt>
      <trkpt lat="-38.68126168224299" lon="176.672372687393">
        <ele>526</ele>
      </trkpt>
      <trkpt lat="-38.68122448979592" lon="176.671448598131">
        <ele>529</ele>
      </trkpt>
      <trkpt lat="-38.68139423993897" lon="176.670618920465">
        <ele>532</ele>
      </trkpt>
      <trkpt lat="-38.68139519359146" lon="176.670371924471">
        <ele>532</ele>
      </trkpt>
      <trkpt lat="-38.68116154873164" lon="176.669814037765">
        <ele>532</ele>
      </trkpt>
      <trkpt lat="-38.68079725348083" lon="176.66934865535">
        <ele>532</ele>
      </trkpt>
      <trkpt lat="-38.68074194163646" lon="176.66912263971">
        <ele>533</ele>
      </trkpt>
      <trkpt lat="-38.68078008773603" lon="176.668946214">
        <ele>534</ele>
      </trkpt>
      <trkpt lat="-38.68100133511349" lon="176.668468434103">
        <ele>538</ele>
      </trkpt>
      <trkpt lat="-38.68108907114247" lon="176.668083158497">
        <ele>539</ele>
      </trkpt>
      <trkpt lat="-38.68102326912073" lon="176.66778943353">
        <ele>540</ele>
      </trkpt>
      <trkpt lat="-38.68103948121304" lon="176.667396528705">
        <ele>540</ele>
      </trkpt>
      <trkpt lat="-38.68103948121304" lon="176.667237268739">
        <ele>539</ele>
      </trkpt>
      <trkpt lat="-38.68125596032805" lon="176.66670894526">
        <ele>536</ele>
      </trkpt>
      <trkpt lat="-38.68133129887469" lon="176.666278847988">
        <ele>534</ele>
      </trkpt>
      <trkpt lat="-38.68162120923135" lon="176.665757200076">
        <ele>535</ele>
      </trkpt>
      <trkpt lat="-38.68182147625405" lon="176.665492084684">
        <ele>530</ele>
      </trkpt>
      <trkpt lat="-38.68200457753195" lon="176.665271790959">
        <ele>526</ele>
      </trkpt>
      <trkpt lat="-38.6822344077818" lon="176.665124928476">
        <ele>525</ele>
      </trkpt>
      <trkpt lat="-38.68239176044249" lon="176.664952317376">
        <ele>523</ele>
      </trkpt>
      <trkpt lat="-38.68264829296204" lon="176.664788289147">
        <ele>518</ele>
      </trkpt>
      <trkpt lat="-38.68297158115583" lon="176.664476444784">
        <ele>508</ele>
      </trkpt>
      <trkpt lat="-38.68313656303643" lon="176.664394430669">
        <ele>505</ele>
      </trkpt>
      <trkpt lat="-38.68321380888804" lon="176.664116917795">
        <ele>501</ele>
      </trkpt>
      <trkpt lat="-38.68324623307267" lon="176.6637354568">
        <ele>498</ele>
      </trkpt>
      <trkpt lat="-38.68318138470341" lon="176.663221438108">
        <ele>496</ele>
      </trkpt>
      <trkpt lat="-38.6833387373641" lon="176.662818043105">
        <ele>496</ele>
      </trkpt>
      <trkpt lat="-38.68320427236315" lon="176.662495708564">
        <ele>500</ele>
      </trkpt>
      <trkpt lat="-38.68317184817852" lon="176.662113293916">
        <ele>503</ele>
      </trkpt>
      <trkpt lat="-38.68317566278848" lon="176.66170894526">
        <ele>505</ele>
      </trkpt>
      <trkpt lat="-38.68307171466717" lon="176.661330345222">
        <ele>507</ele>
      </trkpt>
      <trkpt lat="-38.6829477398436" lon="176.661093839405">
        <ele>507</ele>
      </trkpt>
      <trkpt lat="-38.68276845317566" lon="176.660953652489">
        <ele>506</ele>
      </trkpt>
      <trkpt lat="-38.68250715239367" lon="176.66090787717">
        <ele>505</ele>
      </trkpt>
      <trkpt lat="-38.68229067327866" lon="176.660982262064">
        <ele>502</ele>
      </trkpt>
      <trkpt lat="-38.68214571810032" lon="176.660937440397">
        <ele>500</ele>
      </trkpt>
      <trkpt lat="-38.68195117299256" lon="176.660924089262">
        <ele>497</ele>
      </trkpt>
    </trkseg>
  </trk>
</gpx>