<?xml version="1.0" encoding="UTF-8" standalone="yes"?>
<gpx
 version="1.1"
 creator="Generated by MapOut iPhone App. See https://mapout.app"
 xmlns="http://www.topografix.com/GPX/1/1"
 xmlns:xsi="http://www.w3.org/2001/XMLSchema-instance"
 xmlns:gpxx="http://www.garmin.com/xmlschemas/GpxExtensions/v3"
 xmlns:mapout="https://mapout.app/xmlschemas/MapOutExtensions"
 xsi:schemaLocation="http://www.topografix.com/GPX/1/1 https://www.topografix.com/GPX/1/1/gpx.xsd http://www.garmin.com/xmlschemas/GpxExtensions/v3 https://www8.garmin.com/xmlschemas/GpxExtensionsv3.xsd https://mapout.app/xmlschemas/MapOutExtensions https://mapout.app/xmlschemas/MapOutExtensions.xsd">
  <metadata>
    <name>Queen Elisabeth Park</name>
    <author><name>iPhone</name></author>
    <time>2026-07-21T02:00:03Z</time>
    <bounds minlat="-40.98804024413504" minlon="174.949827388899" maxlat="-40.95125357444063" maxlon="174.976290291818"/>
  </metadata>
  <trk>
    <name>Queen Elisabeth Park</name>
    <trkseg>
      <trkpt lat="-40.98804024413504" lon="174.950935533092">
        <ele>16</ele>
      </trkpt>
      <trkpt lat="-40.98801258821285" lon="174.950824909403">
        <ele>16</ele>
      </trkpt>
      <trkpt lat="-40.98798397863818" lon="174.950741941636">
        <ele>15</ele>
      </trkpt>
      <trkpt lat="-40.98773126072859" lon="174.950133511348">
        <ele>12</ele>
      </trkpt>
      <trkpt lat="-40.98764066374213" lon="174.949941827198">
        <ele>11</ele>
      </trkpt>
      <trkpt lat="-40.98759202746519" lon="174.949881747091">
        <ele>10</ele>
      </trkpt>
      <trkpt lat="-40.9875481594507" lon="174.949850276559">
        <ele>10</ele>
      </trkpt>
      <trkpt lat="-40.9875042914362" lon="174.949831203509">
        <ele>10</ele>
      </trkpt>
      <trkpt lat="-40.98743372115202" lon="174.949827388899">
        <ele>9</ele>
      </trkpt>
      <trkpt lat="-40.98738889948503" lon="174.949838832729">
        <ele>9</ele>
      </trkpt>
      <trkpt lat="-40.987347892428" lon="174.949856952127">
        <ele>9</ele>
      </trkpt>
      <trkpt lat="-40.98716193019264" lon="174.949976158688">
        <ele>10</ele>
      </trkpt>
      <trkpt lat="-40.98652489032997" lon="174.950408163265">
        <ele>11</ele>
      </trkpt>
      <trkpt lat="-40.98592218195689" lon="174.95083921419">
        <ele>10</ele>
      </trkpt>
      <trkpt lat="-40.98574289528896" lon="174.950984169369">
        <ele>10</ele>
      </trkpt>
      <trkpt lat="-40.98204653824147" lon="174.95372019836">
        <ele>6</ele>
      </trkpt>
      <trkpt lat="-40.9814524127408" lon="174.95408830822">
        <ele>6</ele>
      </trkpt>
      <trkpt lat="-40.9810261300782" lon="174.954397291627">
        <ele>7</ele>
      </trkpt>
      <trkpt lat="-40.98063417890521" lon="174.954717718863">
        <ele>8</ele>
      </trkpt>
      <trkpt lat="-40.98" lon="174.955127789434">
        <ele>7</ele>
      </trkpt>
      <trkpt lat="-40.98" lon="174.955127789434">
        <ele>7</ele>
      </trkpt>
      <trkpt lat="-40.97990177379363" lon="174.95519168415">
        <ele>7</ele>
      </trkpt>
      <trkpt lat="-40.97911214953271" lon="174.955771504864">
        <ele>7</ele>
      </trkpt>
      <trkpt lat="-40.97845985123021" lon="174.956227350753">
        <ele>7</ele>
      </trkpt>
      <trkpt lat="-40.97764829296204" lon="174.95673564753">
        <ele>6</ele>
      </trkpt>
      <trkpt lat="-40.97743086019454" lon="174.956884417318">
        <ele>6</ele>
      </trkpt>
      <trkpt lat="-40.97616345603662" lon="174.95782376502">
        <ele>7</ele>
      </trkpt>
      <trkpt lat="-40.97508487507152" lon="174.958597177189">
        <ele>6</ele>
      </trkpt>
      <trkpt lat="-40.97504672897196" lon="174.958640091551">
        <ele>6</ele>
      </trkpt>
      <trkpt lat="-40.97498092695022" lon="174.958698264352">
        <ele>6</ele>
      </trkpt>
      <trkpt lat="-40.97483311081442" lon="174.958856570666">
        <ele>6</ele>
      </trkpt>
      <trkpt lat="-40.97464428762159" lon="174.959029181766">
        <ele>5</ele>
      </trkpt>
      <trkpt lat="-40.97456894907496" lon="174.959059698646">
        <ele>5</ele>
      </trkpt>
      <trkpt lat="-40.97440015258439" lon="174.959077818043">
        <ele>5</ele>
      </trkpt>
      <trkpt lat="-40.9743562845699" lon="174.959097844745">
        <ele>5</ele>
      </trkpt>
      <trkpt lat="-40.97428285332825" lon="174.95915315659">
        <ele>4</ele>
      </trkpt>
      <trkpt lat="-40.97415315658974" lon="174.958899485028">
        <ele>3</ele>
      </trkpt>
      <trkpt lat="-40.97283616250238" lon="174.959768262445">
        <ele>3</ele>
      </trkpt>
      <trkpt lat="-40.97239462139996" lon="174.96">
        <ele>3</ele>
      </trkpt>
      <trkpt lat="-40.97239462139996" lon="174.96">
        <ele>3</ele>
      </trkpt>
      <trkpt lat="-40.97202841884418" lon="174.96019168415">
        <ele>4</ele>
      </trkpt>
      <trkpt lat="-40.97081346557314" lon="174.960870684723">
        <ele>5</ele>
      </trkpt>
      <trkpt lat="-40.97080231365711" lon="174.960877008969">
        <ele>5</ele>
      </trkpt>
      <trkpt lat="-40.97082786087865" lon="174.961121108038">
        <ele>7</ele>
      </trkpt>
      <trkpt lat="-40.97082585223094" lon="174.961115529288">
        <ele>7</ele>
      </trkpt>
      <trkpt lat="-40.97073335876406" lon="174.961173946214">
        <ele>7</ele>
      </trkpt>
      <trkpt lat="-40.97069139805455" lon="174.961224489796">
        <ele>8</ele>
      </trkpt>
      <trkpt lat="-40.97067327865726" lon="174.96129506008">
        <ele>8</ele>
      </trkpt>
      <trkpt lat="-40.97067327865726" lon="174.96129506008">
        <ele>8</ele>
      </trkpt>
      <trkpt lat="-40.97068472248712" lon="174.961380888804">
        <ele>9</ele>
      </trkpt>
      <trkpt lat="-40.97071428571429" lon="174.961481022315">
        <ele>10</ele>
      </trkpt>
      <trkpt lat="-40.97074289528896" lon="174.961582109479">
        <ele>11</ele>
      </trkpt>
      <trkpt lat="-40.97078104138852" lon="174.961665077246">
        <ele>12</ele>
      </trkpt>
      <trkpt lat="-40.97081918748808" lon="174.961748045012">
        <ele>12</ele>
      </trkpt>
      <trkpt lat="-40.97094888422659" lon="174.962005531184">
        <ele>15</ele>
      </trkpt>
      <trkpt lat="-40.97099465954606" lon="174.962069425901">
        <ele>15</ele>
      </trkpt>
      <trkpt lat="-40.97103948121305" lon="174.96213427427">
        <ele>16</ele>
      </trkpt>
      <trkpt lat="-40.97114342933435" lon="174.962211520122">
        <ele>16</ele>
      </trkpt>
      <trkpt lat="-40.9712082777036" lon="174.962245851612">
        <ele>17</ele>
      </trkpt>
      <trkpt lat="-40.97127312607286" lon="174.962280183101">
        <ele>17</ele>
      </trkpt>
      <trkpt lat="-40.97165554072096" lon="174.962520503529">
        <ele>19</ele>
      </trkpt>
      <trkpt lat="-40.97165554072096" lon="174.962520503529">
        <ele>19</ele>
      </trkpt>
      <trkpt lat="-40.97166984550829" lon="174.962304024414">
        <ele>18</ele>
      </trkpt>
      <trkpt lat="-40.97175853518978" lon="174.962108525653">
        <ele>17</ele>
      </trkpt>
      <trkpt lat="-40.97185008582872" lon="174.961979782567">
        <ele>16</ele>
      </trkpt>
      <trkpt lat="-40.97194735838261" lon="174.961893953843">
        <ele>16</ele>
      </trkpt>
      <trkpt lat="-40.97201220675186" lon="174.961928285333">
        <ele>16</ele>
      </trkpt>
      <trkpt lat="-40.97203414075911" lon="174.962093267213">
        <ele>17</ele>
      </trkpt>
      <trkpt lat="-40.97203414075911" lon="174.962093267213">
        <ele>17</ele>
      </trkpt>
      <trkpt lat="-40.97203032614915" lon="174.962171466718">
        <ele>17</ele>
      </trkpt>
      <trkpt lat="-40.97206561129124" lon="174.962277322144">
        <ele>18</ele>
      </trkpt>
      <trkpt lat="-40.9721132939157" lon="174.962339309556">
        <ele>18</ele>
      </trkpt>
      <trkpt lat="-40.97221438107953" lon="174.962354567995">
        <ele>18</ele>
      </trkpt>
      <trkpt lat="-40.97218672515735" lon="174.962403204272">
        <ele>18</ele>
      </trkpt>
      <trkpt lat="-40.97224108334922" lon="174.962431813847">
        <ele>18</ele>
      </trkpt>
      <trkpt lat="-40.97224108334922" lon="174.962431813847">
        <ele>18</ele>
      </trkpt>
      <trkpt lat="-40.97229734884608" lon="174.962397482357">
        <ele>18</ele>
      </trkpt>
      <trkpt lat="-40.97229925615106" lon="174.962464238032">
        <ele>18</ele>
      </trkpt>
      <trkpt lat="-40.97229925615106" lon="174.962464238032">
        <ele>18</ele>
      </trkpt>
      <trkpt lat="-40.97233168033569" lon="174.962485218386">
        <ele>18</ele>
      </trkpt>
      <trkpt lat="-40.9723736410452" lon="174.962454701507">
        <ele>18</ele>
      </trkpt>
      <trkpt lat="-40.9723736410452" lon="174.962454701507">
        <ele>18</ele>
      </trkpt>
      <trkpt lat="-40.97239366774747" lon="174.962649246615">
        <ele>19</ele>
      </trkpt>
      <trkpt lat="-40.97239366774747" lon="174.962649246615">
        <ele>19</ele>
      </trkpt>
      <trkpt lat="-40.97248331108144" lon="174.962681670799">
        <ele>19</ele>
      </trkpt>
      <trkpt lat="-40.97257200076292" lon="174.962715048636">
        <ele>19</ele>
      </trkpt>
      <trkpt lat="-40.97257200076292" lon="174.962715048636">
        <ele>19</ele>
      </trkpt>
      <trkpt lat="-40.97264733930955" lon="174.96300781995">
        <ele>19</ele>
      </trkpt>
      <trkpt lat="-40.97263398817471" lon="174.963113675377">
        <ele>19</ele>
      </trkpt>
      <trkpt lat="-40.97261968338737" lon="174.963220484455">
        <ele>19</ele>
      </trkpt>
      <trkpt lat="-40.97260537860004" lon="174.963251954988">
        <ele>20</ele>
      </trkpt>
      <trkpt lat="-40.9725653251955" lon="174.963277703605">
        <ele>20</ele>
      </trkpt>
      <trkpt lat="-40.97249094030136" lon="174.963297730307">
        <ele>20</ele>
      </trkpt>
      <trkpt lat="-40.97236982643525" lon="174.963382605379">
        <ele>20</ele>
      </trkpt>
      <trkpt lat="-40.97229258058363" lon="174.963503719245">
        <ele>20</ele>
      </trkpt>
      <trkpt lat="-40.97225443448407" lon="174.963543772649">
        <ele>21</ele>
      </trkpt>
      <trkpt lat="-40.9721829105474" lon="174.963536143429">
        <ele>21</ele>
      </trkpt>
      <trkpt lat="-40.97210661834827" lon="174.96350181194">
        <ele>21</ele>
      </trkpt>
      <trkpt lat="-40.97210061166615" lon="174.96349910886">
        <ele>21</ele>
      </trkpt>
      <trkpt lat="-40.97200648483692" lon="174.963358764066">
        <ele>21</ele>
      </trkpt>
      <trkpt lat="-40.97193400724776" lon="174.96329868396">
        <ele>21</ele>
      </trkpt>
      <trkpt lat="-40.97191207324051" lon="174.963221438108">
        <ele>21</ele>
      </trkpt>
      <trkpt lat="-40.97191207324051" lon="174.963221438108">
        <ele>21</ele>
      </trkpt>
      <trkpt lat="-40.97187106618348" lon="174.963239557505">
        <ele>21</ele>
      </trkpt>
      <trkpt lat="-40.97180907877169" lon="174.963248140378">
        <ele>21</ele>
      </trkpt>
      <trkpt lat="-40.97174613770742" lon="174.96325672325">
        <ele>21</ele>
      </trkpt>
      <trkpt lat="-40.9716603089834" lon="174.96327961091">
        <ele>22</ele>
      </trkpt>
      <trkpt lat="-40.97157448025939" lon="174.96330249857">
        <ele>22</ele>
      </trkpt>
      <trkpt lat="-40.97148579057792" lon="174.963350181194">
        <ele>22</ele>
      </trkpt>
      <trkpt lat="-40.97142666412359" lon="174.963394049208">
        <ele>22</ele>
      </trkpt>
      <trkpt lat="-40.97137230593172" lon="174.963456990273">
        <ele>22</ele>
      </trkpt>
      <trkpt lat="-40.97133797444211" lon="174.963537097082">
        <ele>22</ele>
      </trkpt>
      <trkpt lat="-40.97130268930002" lon="174.963618157543">
        <ele>22</ele>
      </trkpt>
      <trkpt lat="-40.97125023841312" lon="174.96371256914">
        <ele>22</ele>
      </trkpt>
      <trkpt lat="-40.97119778752622" lon="174.963765973679">
        <ele>22</ele>
      </trkpt>
      <trkpt lat="-40.97112721724204" lon="174.963786954034">
        <ele>22</ele>
      </trkpt>
      <trkpt lat="-40.97076959755865" lon="174.963801258821">
        <ele>22</ele>
      </trkpt>
      <trkpt lat="-40.97070284188442" lon="174.963836543963">
        <ele>22</ele>
      </trkpt>
      <trkpt lat="-40.97065802021744" lon="174.963891855808">
        <ele>22</ele>
      </trkpt>
      <trkpt lat="-40.97051974060652" lon="174.964204653824">
        <ele>22</ele>
      </trkpt>
      <trkpt lat="-40.97051974060652" lon="174.964204653824">
        <ele>22</ele>
      </trkpt>
      <trkpt lat="-40.97043200457753" lon="174.964157924852">
        <ele>22</ele>
      </trkpt>
      <trkpt lat="-40.97034426854854" lon="174.964112149533">
        <ele>22</ele>
      </trkpt>
      <trkpt lat="-40.97024222773221" lon="174.96410356666">
        <ele>22</ele>
      </trkpt>
      <trkpt lat="-40.9701392332634" lon="174.96409593744">
        <ele>22</ele>
      </trkpt>
      <trkpt lat="-40.97004863627694" lon="174.964048254816">
        <ele>22</ele>
      </trkpt>
      <trkpt lat="-40.96993324432577" lon="174.964009155064">
        <ele>21</ele>
      </trkpt>
      <trkpt lat="-40.96986839595651" lon="174.964024413504">
        <ele>21</ele>
      </trkpt>
      <trkpt lat="-40.96978733549494" lon="174.964029181766">
        <ele>21</ele>
      </trkpt>
      <trkpt lat="-40.96940205988938" lon="174.963868968148">
        <ele>20</ele>
      </trkpt>
      <trkpt lat="-40.96933148960519" lon="174.963833683006">
        <ele>20</ele>
      </trkpt>
      <trkpt lat="-40.96925996566851" lon="174.963798397864">
        <ele>20</ele>
      </trkpt>
      <trkpt lat="-40.96915792485218" lon="174.96371638375">
        <ele>19</ele>
      </trkpt>
      <trkpt lat="-40.96911119588022" lon="174.96370493992">
        <ele>19</ele>
      </trkpt>
      <trkpt lat="-40.96906828151821" lon="174.96373164219">
        <ele>19</ele>
      </trkpt>
      <trkpt lat="-40.96901201602136" lon="174.963811748999">
        <ele>19</ele>
      </trkpt>
      <trkpt lat="-40.96894812130459" lon="174.963825100134">
        <ele>19</ele>
      </trkpt>
      <trkpt lat="-40.96887278275796" lon="174.963771695594">
        <ele>19</ele>
      </trkpt>
      <trkpt lat="-40.96877264924662" lon="174.963687774175">
        <ele>18</ele>
      </trkpt>
      <trkpt lat="-40.96867251573526" lon="174.963604806409">
        <ele>17</ele>
      </trkpt>
      <trkpt lat="-40.96856666030898" lon="174.963587640664">
        <ele>17</ele>
      </trkpt>
      <trkpt lat="-40.96849704367728" lon="174.963599084494">
        <ele>17</ele>
      </trkpt>
      <trkpt lat="-40.96842647339309" lon="174.963610528323">
        <ele>17</ele>
      </trkpt>
      <trkpt lat="-40.96832443257676" lon="174.963597177189">
        <ele>16</ele>
      </trkpt>
      <trkpt lat="-40.96820808697311" lon="174.963552355522">
        <ele>16</ele>
      </trkpt>
      <trkpt lat="-40.96812607285905" lon="174.963563799352">
        <ele>16</ele>
      </trkpt>
      <trkpt lat="-40.96804405874499" lon="174.963575243181">
        <ele>15</ele>
      </trkpt>
      <trkpt lat="-40.96804405874499" lon="174.963575243181">
        <ele>15</ele>
      </trkpt>
      <trkpt lat="-40.96808220484456" lon="174.963636276941">
        <ele>16</ele>
      </trkpt>
      <trkpt lat="-40.96813751668892" lon="174.963687774175">
        <ele>16</ele>
      </trkpt>
      <trkpt lat="-40.96822525271791" lon="174.963738317757">
        <ele>17</ele>
      </trkpt>
      <trkpt lat="-40.96831775700934" lon="174.963809841694">
        <ele>18</ele>
      </trkpt>
      <trkpt lat="-40.96842838069807" lon="174.963879458325">
        <ele>19</ele>
      </trkpt>
      <trkpt lat="-40.96853805073431" lon="174.963949074957">
        <ele>19</ele>
      </trkpt>
      <trkpt lat="-40.96857238222392" lon="174.964015830631">
        <ele>20</ele>
      </trkpt>
      <trkpt lat="-40.96860671371352" lon="174.964083539958">
        <ele>20</ele>
      </trkpt>
      <trkpt lat="-40.96868395956513" lon="174.96414171276">
        <ele>21</ele>
      </trkpt>
      <trkpt lat="-40.96876120541675" lon="174.964199885562">
        <ele>21</ele>
      </trkpt>
      <trkpt lat="-40.96886133892809" lon="174.964301926378">
        <ele>21</ele>
      </trkpt>
      <trkpt lat="-40.96896147243944" lon="174.964403967194">
        <ele>21</ele>
      </trkpt>
      <trkpt lat="-40.96902727446118" lon="174.964515544536">
        <ele>22</ele>
      </trkpt>
      <trkpt lat="-40.96909212283044" lon="174.964628075529">
        <ele>22</ele>
      </trkpt>
      <trkpt lat="-40.96912931527751" lon="174.964735838261">
        <ele>22</ele>
      </trkpt>
      <trkpt lat="-40.96917222963952" lon="174.964771123403">
        <ele>22</ele>
      </trkpt>
      <trkpt lat="-40.96925042914362" lon="174.9647892428">
        <ele>21</ele>
      </trkpt>
      <trkpt lat="-40.9693124165554" lon="174.964866488652">
        <ele>21</ele>
      </trkpt>
      <trkpt lat="-40.96931718481785" lon="174.964966622163">
        <ele>21</ele>
      </trkpt>
      <trkpt lat="-40.96942685485409" lon="174.965084875072">
        <ele>21</ele>
      </trkpt>
      <trkpt lat="-40.96949647148579" lon="174.965149723441">
        <ele>21</ele>
      </trkpt>
      <trkpt lat="-40.96956608811749" lon="174.96521457181">
        <ele>20</ele>
      </trkpt>
      <trkpt lat="-40.96956608811749" lon="174.96521457181">
        <ele>20</ele>
      </trkpt>
      <trkpt lat="-40.96950696166317" lon="174.965313751669">
        <ele>20</ele>
      </trkpt>
      <trkpt lat="-40.96944783520885" lon="174.965412931528">
        <ele>20</ele>
      </trkpt>
      <trkpt lat="-40.96935342361243" lon="174.965488270074">
        <ele>20</ele>
      </trkpt>
      <trkpt lat="-40.96925901201602" lon="174.965564562274">
        <ele>21</ele>
      </trkpt>
      <trkpt lat="-40.96914457371734" lon="174.96564753004">
        <ele>21</ele>
      </trkpt>
      <trkpt lat="-40.96902918176616" lon="174.965731451459">
        <ele>21</ele>
      </trkpt>
      <trkpt lat="-40.96894335304215" lon="174.965813465573">
        <ele>21</ele>
      </trkpt>
      <trkpt lat="-40.96887945832538" lon="174.965836353233">
        <ele>22</ele>
      </trkpt>
      <trkpt lat="-40.96856666030898" lon="174.965924089262">
        <ele>23</ele>
      </trkpt>
      <trkpt lat="-40.96850085828724" lon="174.965951745184">
        <ele>23</ele>
      </trkpt>
      <trkpt lat="-40.96843410261301" lon="174.965980354759">
        <ele>23</ele>
      </trkpt>
      <trkpt lat="-40.96834350562655" lon="174.966001335114">
        <ele>23</ele>
      </trkpt>
      <trkpt lat="-40.96825290864009" lon="174.966022315468">
        <ele>23</ele>
      </trkpt>
      <trkpt lat="-40.96819187488079" lon="174.965993705894">
        <ele>23</ele>
      </trkpt>
      <trkpt lat="-40.96812702651154" lon="174.965944115964">
        <ele>24</ele>
      </trkpt>
      <trkpt lat="-40.96806217814228" lon="174.965894526035">
        <ele>24</ele>
      </trkpt>
      <trkpt lat="-40.96799351516307" lon="174.965880221247">
        <ele>24</ele>
      </trkpt>
      <trkpt lat="-40.96792389853137" lon="174.965866870113">
        <ele>24</ele>
      </trkpt>
      <trkpt lat="-40.96781613580011" lon="174.965824909403">
        <ele>24</ele>
      </trkpt>
      <trkpt lat="-40.96770741941636" lon="174.965782948694">
        <ele>24</ele>
      </trkpt>
      <trkpt lat="-40.96764066374213" lon="174.965764829296">
        <ele>24</ele>
      </trkpt>
      <trkpt lat="-40.96754053023079" lon="174.96565134465">
        <ele>23</ele>
      </trkpt>
      <trkpt lat="-40.96741846271219" lon="174.96561701316">
        <ele>23</ele>
      </trkpt>
      <trkpt lat="-40.96729639519359" lon="174.965582681671">
        <ele>22</ele>
      </trkpt>
      <trkpt lat="-40.96723345412931" lon="174.965557886706">
        <ele>22</ele>
      </trkpt>
      <trkpt lat="-40.96720293724967" lon="174.965524508869">
        <ele>22</ele>
      </trkpt>
      <trkpt lat="-40.9671304596605" lon="174.965405302308">
        <ele>21</ele>
      </trkpt>
      <trkpt lat="-40.96706751859622" lon="174.965385275606">
        <ele>21</ele>
      </trkpt>
      <trkpt lat="-40.96700267022697" lon="174.965414838833">
        <ele>20</ele>
      </trkpt>
      <trkpt lat="-40.96693686820522" lon="174.96544440206">
        <ele>20</ele>
      </trkpt>
      <trkpt lat="-40.96683673469388" lon="174.965460614152">
        <ele>20</ele>
      </trkpt>
      <trkpt lat="-40.96673755483501" lon="174.965451077627">
        <ele>19</ele>
      </trkpt>
      <trkpt lat="-40.96665267976349" lon="174.965505435819">
        <ele>19</ele>
      </trkpt>
      <trkpt lat="-40.96661358001144" lon="174.965603662026">
        <ele>19</ele>
      </trkpt>
      <trkpt lat="-40.96661930192638" lon="174.965718100324">
        <ele>19</ele>
      </trkpt>
      <trkpt lat="-40.96664886515354" lon="174.965792485218">
        <ele>19</ele>
      </trkpt>
      <trkpt lat="-40.9666784283807" lon="174.965866870113">
        <ele>19</ele>
      </trkpt>
      <trkpt lat="-40.96667652107572" lon="174.965987983979">
        <ele>19</ele>
      </trkpt>
      <trkpt lat="-40.96667366011825" lon="174.966110051497">
        <ele>19</ele>
      </trkpt>
      <trkpt lat="-40.96665458706847" lon="174.966527751287">
        <ele>18</ele>
      </trkpt>
      <trkpt lat="-40.9666688918558" lon="174.966611672707">
        <ele>18</ele>
      </trkpt>
      <trkpt lat="-40.96668224299065" lon="174.966696547778">
        <ele>18</ele>
      </trkpt>
      <trkpt lat="-40.96666412359336" lon="174.966778561892">
        <ele>18</ele>
      </trkpt>
      <trkpt lat="-40.96664600419607" lon="174.966861529659">
        <ele>18</ele>
      </trkpt>
      <trkpt lat="-40.96656208277704" lon="174.96694259012">
        <ele>18</ele>
      </trkpt>
      <trkpt lat="-40.96645908830822" lon="174.966962616822">
        <ele>18</ele>
      </trkpt>
      <trkpt lat="-40.9663560938394" lon="174.966983597177">
        <ele>18</ele>
      </trkpt>
      <trkpt lat="-40.96626454320046" lon="174.967011253099">
        <ele>17</ele>
      </trkpt>
      <trkpt lat="-40.96618634369636" lon="174.967043677284">
        <ele>17</ele>
      </trkpt>
      <trkpt lat="-40.96610719053977" lon="174.967076101469">
        <ele>17</ele>
      </trkpt>
      <trkpt lat="-40.96607285905016" lon="174.967171466718">
        <ele>17</ele>
      </trkpt>
      <trkpt lat="-40.96603852756056" lon="174.967266831966">
        <ele>17</ele>
      </trkpt>
      <trkpt lat="-40.96599561319855" lon="174.967347892428">
        <ele>17</ele>
      </trkpt>
      <trkpt lat="-40.96593171848178" lon="174.967340263208">
        <ele>17</ele>
      </trkpt>
      <trkpt lat="-40.96588975777227" lon="174.967281136754">
        <ele>17</ele>
      </trkpt>
      <trkpt lat="-40.96585542628266" lon="174.967201029945">
        <ele>17</ele>
      </trkpt>
      <trkpt lat="-40.96582014114057" lon="174.967121876788">
        <ele>17</ele>
      </trkpt>
      <trkpt lat="-40.96574098798398" lon="174.967034140759">
        <ele>17</ele>
      </trkpt>
      <trkpt lat="-40.96566183482739" lon="174.96694640473">
        <ele>18</ele>
      </trkpt>
      <trkpt lat="-40.96561415220294" lon="174.966851993134">
        <ele>18</ele>
      </trkpt>
      <trkpt lat="-40.96560270837307" lon="174.96675090597">
        <ele>18</ele>
      </trkpt>
      <trkpt lat="-40.9655912645432" lon="174.966650772459">
        <ele>18</ele>
      </trkpt>
      <trkpt lat="-40.96555884035858" lon="174.966580202174">
        <ele>18</ele>
      </trkpt>
      <trkpt lat="-40.96552641617394" lon="174.966510585543">
        <ele>17</ele>
      </trkpt>
      <trkpt lat="-40.96545489223727" lon="174.966468624833">
        <ele>17</ele>
      </trkpt>
      <trkpt lat="-40.96538432195308" lon="174.966501049018">
        <ele>18</ele>
      </trkpt>
      <trkpt lat="-40.96531375166889" lon="174.966534426855">
        <ele>18</ele>
      </trkpt>
      <trkpt lat="-40.96505054358192" lon="174.966458134656">
        <ele>18</ele>
      </trkpt>
      <trkpt lat="-40.96474060652298" lon="174.966326530612">
        <ele>18</ele>
      </trkpt>
      <trkpt lat="-40.96439633797444" lon="174.966193972916">
        <ele>19</ele>
      </trkpt>
      <trkpt lat="-40.96429620446309" lon="174.966231165363">
        <ele>19</ele>
      </trkpt>
      <trkpt lat="-40.96420370017166" lon="174.966293152775">
        <ele>20</ele>
      </trkpt>
      <trkpt lat="-40.96411024222773" lon="174.966355140187">
        <ele>20</ele>
      </trkpt>
      <trkpt lat="-40.96403013541865" lon="174.966398054549">
        <ele>20</ele>
      </trkpt>
      <trkpt lat="-40.96394907495709" lon="174.966440968911">
        <ele>20</ele>
      </trkpt>
      <trkpt lat="-40.96383940492085" lon="174.966446690826">
        <ele>20</ele>
      </trkpt>
      <trkpt lat="-40.96377169559413" lon="174.966461949266">
        <ele>20</ele>
      </trkpt>
      <trkpt lat="-40.96372305931718" lon="174.966516307458">
        <ele>20</ele>
      </trkpt>
      <trkpt lat="-40.96372496662216" lon="174.966609765402">
        <ele>21</ele>
      </trkpt>
      <trkpt lat="-40.96375357619683" lon="174.966674613771">
        <ele>21</ele>
      </trkpt>
      <trkpt lat="-40.96386133892809" lon="174.966788098417">
        <ele>22</ele>
      </trkpt>
      <trkpt lat="-40.96396814800686" lon="174.966901583063">
        <ele>22</ele>
      </trkpt>
      <trkpt lat="-40.96400343314896" lon="174.967008392142">
        <ele>21</ele>
      </trkpt>
      <trkpt lat="-40.96400343314896" lon="174.967083730689">
        <ele>21</ele>
      </trkpt>
      <trkpt lat="-40.96397577722678" lon="174.967160022888">
        <ele>21</ele>
      </trkpt>
      <trkpt lat="-40.96392618729735" lon="174.967178142285">
        <ele>21</ele>
      </trkpt>
      <trkpt lat="-40.96382510013351" lon="174.967169559413">
        <ele>21</ele>
      </trkpt>
      <trkpt lat="-40.96372401296967" lon="174.967161930193">
        <ele>21</ele>
      </trkpt>
      <trkpt lat="-40.96362292580584" lon="174.967186725157">
        <ele>21</ele>
      </trkpt>
      <trkpt lat="-40.96355426282663" lon="174.967242037002">
        <ele>22</ele>
      </trkpt>
      <trkpt lat="-40.96334541293152" lon="174.967669273317">
        <ele>22</ele>
      </trkpt>
      <trkpt lat="-40.96331394239939" lon="174.967755102041">
        <ele>21</ele>
      </trkpt>
      <trkpt lat="-40.96328151821476" lon="174.967840930765">
        <ele>21</ele>
      </trkpt>
      <trkpt lat="-40.96324909403013" lon="174.967948693496">
        <ele>20</ele>
      </trkpt>
      <trkpt lat="-40.96323955750525" lon="174.968067900057">
        <ele>20</ele>
      </trkpt>
      <trkpt lat="-40.96316612626359" lon="174.968173755484">
        <ele>19</ele>
      </trkpt>
      <trkpt lat="-40.96310032424184" lon="174.968225252718">
        <ele>19</ele>
      </trkpt>
      <trkpt lat="-40.9630345222201" lon="174.968277703605">
        <ele>19</ele>
      </trkpt>
      <trkpt lat="-40.96295060080107" lon="174.968323478924">
        <ele>19</ele>
      </trkpt>
      <trkpt lat="-40.96288003051688" lon="174.968326339882">
        <ele>19</ele>
      </trkpt>
      <trkpt lat="-40.96282853328247" lon="174.968346366584">
        <ele>19</ele>
      </trkpt>
      <trkpt lat="-40.96270741941636" lon="174.968450314705">
        <ele>18</ele>
      </trkpt>
      <trkpt lat="-40.96259679572763" lon="174.968491321762">
        <ele>18</ele>
      </trkpt>
      <trkpt lat="-40.96247949647149" lon="174.968511348465">
        <ele>18</ele>
      </trkpt>
      <trkpt lat="-40.96241178714477" lon="174.968507533855">
        <ele>18</ele>
      </trkpt>
      <trkpt lat="-40.96234407781805" lon="174.968503719245">
        <ele>18</ele>
      </trkpt>
      <trkpt lat="-40.96228018310128" lon="174.968489414457">
        <ele>19</ele>
      </trkpt>
      <trkpt lat="-40.96221533473202" lon="174.96847510967">
        <ele>19</ele>
      </trkpt>
      <trkpt lat="-40.96168510394812" lon="174.968243372115">
        <ele>20</ele>
      </trkpt>
      <trkpt lat="-40.96159259965668" lon="174.968220484455">
        <ele>20</ele>
      </trkpt>
      <trkpt lat="-40.96150009536525" lon="174.968198550448">
        <ele>19</ele>
      </trkpt>
      <trkpt lat="-40.96141235933626" lon="174.968186152966">
        <ele>19</ele>
      </trkpt>
      <trkpt lat="-40.96132462330726" lon="174.968174709136">
        <ele>19</ele>
      </trkpt>
      <trkpt lat="-40.96106713713522" lon="174.968200457753">
        <ele>19</ele>
      </trkpt>
      <trkpt lat="-40.96106713713522" lon="174.968200457753">
        <ele>19</ele>
      </trkpt>
      <trkpt lat="-40.96102708373068" lon="174.96822620637">
        <ele>19</ele>
      </trkpt>
      <trkpt lat="-40.96092599656685" lon="174.968270074385">
        <ele>19</ele>
      </trkpt>
      <trkpt lat="-40.96064180812512" lon="174.968355903109">
        <ele>19</ele>
      </trkpt>
      <trkpt lat="-40.9605473965287" lon="174.968352088499">
        <ele>18</ele>
      </trkpt>
      <trkpt lat="-40.96045298493229" lon="174.968349227542">
        <ele>18</ele>
      </trkpt>
      <trkpt lat="-40.96033091741369" lon="174.968331108144">
        <ele>18</ele>
      </trkpt>
      <trkpt lat="-40.96023078390235" lon="174.968305359527">
        <ele>18</ele>
      </trkpt>
      <trkpt lat="-40.96014686248331" lon="174.968267213427">
        <ele>17</ele>
      </trkpt>
      <trkpt lat="-40.96008582872401" lon="174.968261491513">
        <ele>17</ele>
      </trkpt>
      <trkpt lat="-40.96" lon="174.968272935342">
        <ele>17</ele>
      </trkpt>
      <trkpt lat="-40.95999999999999" lon="174.968272935342">
        <ele>17</ele>
      </trkpt>
      <trkpt lat="-40.95994468815563" lon="174.968292008392">
        <ele>17</ele>
      </trkpt>
      <trkpt lat="-40.95985409116918" lon="174.968336830059">
        <ele>17</ele>
      </trkpt>
      <trkpt lat="-40.95985409116918" lon="174.968336830059">
        <ele>17</ele>
      </trkpt>
      <trkpt lat="-40.95979210375739" lon="174.968402632081">
        <ele>17</ele>
      </trkpt>
      <trkpt lat="-40.95974060652298" lon="174.968484646195">
        <ele>17</ele>
      </trkpt>
      <trkpt lat="-40.95969483120351" lon="174.968575243181">
        <ele>17</ele>
      </trkpt>
      <trkpt lat="-40.9596690825863" lon="174.968652489033">
        <ele>17</ele>
      </trkpt>
      <trkpt lat="-40.95965382414648" lon="174.968753576197">
        <ele>17</ele>
      </trkpt>
      <trkpt lat="-40.95963856570665" lon="174.968855617013">
        <ele>17</ele>
      </trkpt>
      <trkpt lat="-40.959608048827" lon="174.969664314324">
        <ele>16</ele>
      </trkpt>
      <trkpt lat="-40.95960232691207" lon="174.969740606523">
        <ele>16</ele>
      </trkpt>
      <trkpt lat="-40.95958420751478" lon="174.969821666985">
        <ele>16</ele>
      </trkpt>
      <trkpt lat="-40.95954415411024" lon="174.969921800496">
        <ele>16</ele>
      </trkpt>
      <trkpt lat="-40.9595041007057" lon="174.970021934007">
        <ele>15</ele>
      </trkpt>
      <trkpt lat="-40.95935819187488" lon="174.970351897768">
        <ele>15</ele>
      </trkpt>
      <trkpt lat="-40.95930669464047" lon="174.970458706847">
        <ele>14</ele>
      </trkpt>
      <trkpt lat="-40.95925519740606" lon="174.970565515926">
        <ele>14</ele>
      </trkpt>
      <trkpt lat="-40.95925519740606" lon="174.970565515926">
        <ele>14</ele>
      </trkpt>
      <trkpt lat="-40.95918844173183" lon="174.970482548159">
        <ele>14</ele>
      </trkpt>
      <trkpt lat="-40.95912084660183" lon="174.970399720324">
        <ele>14</ele>
      </trkpt>
      <trkpt lat="-40.95912084661683" lon="174.970399720298">
        <ele>14</ele>
      </trkpt>
      <trkpt lat="-40.9591035666603" lon="174.970416746138">
        <ele>14</ele>
      </trkpt>
      <trkpt lat="-40.95903871829105" lon="174.970481594507">
        <ele>14</ele>
      </trkpt>
      <trkpt lat="-40.95901487697883" lon="174.970493991989">
        <ele>14</ele>
      </trkpt>
      <trkpt lat="-40.95899198931909" lon="174.970490177379">
        <ele>14</ele>
      </trkpt>
      <trkpt lat="-40.95896719435437" lon="174.970497806599">
        <ele>14</ele>
      </trkpt>
      <trkpt lat="-40.95887755102041" lon="174.970591264543">
        <ele>13</ele>
      </trkpt>
      <trkpt lat="-40.95883272935342" lon="174.970621781423">
        <ele>13</ele>
      </trkpt>
      <trkpt lat="-40.95831775700934" lon="174.970826816708">
        <ele>12</ele>
      </trkpt>
      <trkpt lat="-40.95823478924279" lon="174.970853518978">
        <ele>11</ele>
      </trkpt>
      <trkpt lat="-40.95815182147625" lon="174.9708811749">
        <ele>11</ele>
      </trkpt>
      <trkpt lat="-40.95804882700743" lon="174.970942208659">
        <ele>11</ele>
      </trkpt>
      <trkpt lat="-40.95796776654586" lon="174.970982262064">
        <ele>11</ele>
      </trkpt>
      <trkpt lat="-40.95790196452413" lon="174.970995613199">
        <ele>11</ele>
      </trkpt>
      <trkpt lat="-40.95784760633225" lon="174.971024222773">
        <ele>10</ele>
      </trkpt>
      <trkpt lat="-40.95779134083539" lon="174.97107667366">
        <ele>10</ele>
      </trkpt>
      <trkpt lat="-40.95773221438107" lon="174.971161548732">
        <ele>10</ele>
      </trkpt>
      <trkpt lat="-40.95767690253671" lon="174.971262635895">
        <ele>10</ele>
      </trkpt>
      <trkpt lat="-40.95759679572763" lon="174.971380888804">
        <ele>10</ele>
      </trkpt>
      <trkpt lat="-40.95753576196834" lon="174.971447644478">
        <ele>10</ele>
      </trkpt>
      <trkpt lat="-40.95747377455655" lon="174.971515353805">
        <ele>10</ele>
      </trkpt>
      <trkpt lat="-40.95739462139996" lon="174.971589738699">
        <ele>9</ele>
      </trkpt>
      <trkpt lat="-40.95731546824337" lon="174.971665077246">
        <ele>9</ele>
      </trkpt>
      <trkpt lat="-40.95726206370398" lon="174.97174327675">
        <ele>9</ele>
      </trkpt>
      <trkpt lat="-40.95709135990845" lon="174.972047491894">
        <ele>9</ele>
      </trkpt>
      <trkpt lat="-40.95695403395003" lon="174.9723564753">
        <ele>9</ele>
      </trkpt>
      <trkpt lat="-40.95692065611291" lon="174.972399389662">
        <ele>8</ele>
      </trkpt>
      <trkpt lat="-40.95688155636086" lon="174.972433721152">
        <ele>8</ele>
      </trkpt>
      <trkpt lat="-40.95681956894907" lon="174.972462330727">
        <ele>8</ele>
      </trkpt>
      <trkpt lat="-40.95676139614724" lon="174.972512874309">
        <ele>8</ele>
      </trkpt>
      <trkpt lat="-40.95666889185581" lon="174.972615868777">
        <ele>8</ele>
      </trkpt>
      <trkpt lat="-40.95662407018882" lon="174.972675948884">
        <ele>8</ele>
      </trkpt>
      <trkpt lat="-40.95659927522411" lon="174.972726492466">
        <ele>8</ele>
      </trkpt>
      <trkpt lat="-40.95658783139424" lon="174.972820904063">
        <ele>8</ele>
      </trkpt>
      <trkpt lat="-40.95659546061415" lon="174.972924852184">
        <ele>8</ele>
      </trkpt>
      <trkpt lat="-40.95660308983406" lon="174.973029753958">
        <ele>8</ele>
      </trkpt>
      <trkpt lat="-40.95659736791912" lon="174.973102231547">
        <ele>8</ele>
      </trkpt>
      <trkpt lat="-40.95659164600419" lon="174.973175662789">
        <ele>8</ele>
      </trkpt>
      <trkpt lat="-40.9565735266069" lon="174.9732757963">
        <ele>8</ele>
      </trkpt>
      <trkpt lat="-40.95655445355712" lon="174.973376883464">
        <ele>7</ele>
      </trkpt>
      <trkpt lat="-40.95652584398245" lon="174.973497043677">
        <ele>7</ele>
      </trkpt>
      <trkpt lat="-40.95649628075529" lon="174.973617203891">
        <ele>7</ele>
      </trkpt>
      <trkpt lat="-40.95644764447835" lon="174.973884226588">
        <ele>7</ele>
      </trkpt>
      <trkpt lat="-40.95643620064848" lon="174.973992942972">
        <ele>7</ele>
      </trkpt>
      <trkpt lat="-40.95642380316612" lon="174.974102613008">
        <ele>7</ele>
      </trkpt>
      <trkpt lat="-40.95640663742132" lon="174.974218958612">
        <ele>7</ele>
      </trkpt>
      <trkpt lat="-40.95638851802403" lon="174.974335304215">
        <ele>7</ele>
      </trkpt>
      <trkpt lat="-40.95636086210185" lon="174.974764447835">
        <ele>7</ele>
      </trkpt>
      <trkpt lat="-40.95633415983215" lon="174.974874117871">
        <ele>7</ele>
      </trkpt>
      <trkpt lat="-40.95627598703032" lon="174.97497329773">
        <ele>7</ele>
      </trkpt>
      <trkpt lat="-40.956216860576" lon="174.975072477589">
        <ele>8</ele>
      </trkpt>
      <trkpt lat="-40.95584207514781" lon="174.975506389472">
        <ele>8</ele>
      </trkpt>
      <trkpt lat="-40.95580488270074" lon="174.975609383941">
        <ele>8</ele>
      </trkpt>
      <trkpt lat="-40.95576986164076" lon="174.9756827614">
        <ele>8</ele>
      </trkpt>
      <trkpt lat="-40.95576986173535" lon="174.975682761174">
        <ele>8</ele>
      </trkpt>
      <trkpt lat="-40.95578676330345" lon="174.975706656494">
        <ele>8</ele>
      </trkpt>
      <trkpt lat="-40.95579629982834" lon="174.975731451459">
        <ele>8</ele>
      </trkpt>
      <trkpt lat="-40.95578771695594" lon="174.97583539958">
        <ele>8</ele>
      </trkpt>
      <trkpt lat="-40.95573240511158" lon="174.976151058554">
        <ele>8</ele>
      </trkpt>
      <trkpt lat="-40.95573335876406" lon="174.976220675186">
        <ele>8</ele>
      </trkpt>
      <trkpt lat="-40.95573335876406" lon="174.976290291818">
        <ele>8</ele>
      </trkpt>
      <trkpt lat="-40.95573335876406" lon="174.976290291818">
        <ele>8</ele>
      </trkpt>
      <trkpt lat="-40.95566755674232" lon="174.976223536143">
        <ele>8</ele>
      </trkpt>
      <trkpt lat="-40.95563227160022" lon="174.976211138661">
        <ele>8</ele>
      </trkpt>
      <trkpt lat="-40.95559889376311" lon="174.976217814229">
        <ele>8</ele>
      </trkpt>
      <trkpt lat="-40.95553595269883" lon="174.976242609193">
        <ele>8</ele>
      </trkpt>
      <trkpt lat="-40.95547205798206" lon="174.976267404158">
        <ele>8</ele>
      </trkpt>
      <trkpt lat="-40.95541102422277" lon="174.976276940683">
        <ele>8</ele>
      </trkpt>
      <trkpt lat="-40.95537287812321" lon="174.97626835781">
        <ele>9</ele>
      </trkpt>
      <trkpt lat="-40.95534522220103" lon="174.976244516498">
        <ele>9</ele>
      </trkpt>
      <trkpt lat="-40.95533568567613" lon="174.976232119016">
        <ele>9</ele>
      </trkpt>
      <trkpt lat="-40.95533854663361" lon="174.976209231356">
        <ele>9</ele>
      </trkpt>
      <trkpt lat="-40.95533854663361" lon="174.976209231356">
        <ele>9</ele>
      </trkpt>
      <trkpt lat="-40.95530326149151" lon="174.976171085257">
        <ele>9</ele>
      </trkpt>
      <trkpt lat="-40.95525748617204" lon="174.976058554263">
        <ele>9</ele>
      </trkpt>
      <trkpt lat="-40.95525748617204" lon="174.976058554263">
        <ele>9</ele>
      </trkpt>
      <trkpt lat="-40.95523078390234" lon="174.975971771886">
        <ele>9</ele>
      </trkpt>
      <trkpt lat="-40.95523078390234" lon="174.975971771886">
        <ele>9</ele>
      </trkpt>
      <trkpt lat="-40.95520694259012" lon="174.975916460042">
        <ele>9</ele>
      </trkpt>
      <trkpt lat="-40.9551468624833" lon="174.975853518978">
        <ele>10</ele>
      </trkpt>
      <trkpt lat="-40.9550257486172" lon="174.975745756246">
        <ele>10</ele>
      </trkpt>
      <trkpt lat="-40.95483002231499" lon="174.975594753645">
        <ele>11</ele>
      </trkpt>
      <trkpt lat="-40.95482738889948" lon="174.975595079153">
        <ele>11</ele>
      </trkpt>
      <trkpt lat="-40.95479401106236" lon="174.975499713904">
        <ele>11</ele>
      </trkpt>
      <trkpt lat="-40.9544602326912" lon="174.974817852375">
        <ele>13</ele>
      </trkpt>
      <trkpt lat="-40.95441350371924" lon="174.974742513828">
        <ele>14</ele>
      </trkpt>
      <trkpt lat="-40.95436677474728" lon="174.974668128934">
        <ele>14</ele>
      </trkpt>
      <trkpt lat="-40.95432481403776" lon="174.974622353614">
        <ele>14</ele>
      </trkpt>
      <trkpt lat="-40.95432481403776" lon="174.974622353614">
        <ele>14</ele>
      </trkpt>
      <trkpt lat="-40.95435342361243" lon="174.974531756628">
        <ele>14</ele>
      </trkpt>
      <trkpt lat="-40.95439347701697" lon="174.974486934961">
        <ele>14</ele>
      </trkpt>
      <trkpt lat="-40.95447835208849" lon="174.974452603471">
        <ele>14</ele>
      </trkpt>
      <trkpt lat="-40.95451172992561" lon="174.97438298684">
        <ele>14</ele>
      </trkpt>
      <trkpt lat="-40.95452222010299" lon="174.974266641236">
        <ele>14</ele>
      </trkpt>
      <trkpt lat="-40.95444497425138" lon="174.973884226588">
        <ele>15</ele>
      </trkpt>
      <trkpt lat="-40.95410642761777" lon="174.973392141904">
        <ele>16</ele>
      </trkpt>
      <trkpt lat="-40.95405683768834" lon="174.973350181194">
        <ele>16</ele>
      </trkpt>
      <trkpt lat="-40.95398912836162" lon="174.973338737364">
        <ele>17</ele>
      </trkpt>
      <trkpt lat="-40.95390902155254" lon="174.973348273889">
        <ele>17</ele>
      </trkpt>
      <trkpt lat="-40.95384226587831" lon="174.973320617967">
        <ele>17</ele>
      </trkpt>
      <trkpt lat="-40.95380888804119" lon="174.973248140378">
        <ele>17</ele>
      </trkpt>
      <trkpt lat="-40.95379267594888" lon="174.973178523746">
        <ele>17</ele>
      </trkpt>
      <trkpt lat="-40.95377646385656" lon="174.973109860767">
        <ele>17</ele>
      </trkpt>
      <trkpt lat="-40.95371638374976" lon="174.973003051688">
        <ele>18</ele>
      </trkpt>
      <trkpt lat="-40.95365534999046" lon="174.972897196262">
        <ele>18</ele>
      </trkpt>
      <trkpt lat="-40.95364199885562" lon="174.972833301545">
        <ele>18</ele>
      </trkpt>
      <trkpt lat="-40.95362769406827" lon="174.972769406828">
        <ele>18</ele>
      </trkpt>
      <trkpt lat="-40.95356570665649" lon="174.972710280374">
        <ele>18</ele>
      </trkpt>
      <trkpt lat="-40.9535037192447" lon="174.972652107572">
        <ele>18</ele>
      </trkpt>
      <trkpt lat="-40.95342647339309" lon="174.972565325196">
        <ele>19</ele>
      </trkpt>
      <trkpt lat="-40.95333492275414" lon="174.972502384131">
        <ele>19</ele>
      </trkpt>
      <trkpt lat="-40.95327865725729" lon="174.972397482357">
        <ele>19</ele>
      </trkpt>
      <trkpt lat="-40.95322143810795" lon="174.972293534236">
        <ele>19</ele>
      </trkpt>
      <trkpt lat="-40.95317470913599" lon="174.97219530803">
        <ele>18</ele>
      </trkpt>
      <trkpt lat="-40.95318138470341" lon="174.972078962426">
        <ele>18</ele>
      </trkpt>
      <trkpt lat="-40.95317089452603" lon="174.972010299447">
        <ele>18</ele>
      </trkpt>
      <trkpt lat="-40.95315945069616" lon="174.97194259012">
        <ele>17</ele>
      </trkpt>
      <trkpt lat="-40.95310699980926" lon="174.971865344269">
        <ele>17</ele>
      </trkpt>
      <trkpt lat="-40.95301354186534" lon="174.971779515545">
        <ele>16</ele>
      </trkpt>
      <trkpt lat="-40.95283806980736" lon="174.971511539195">
        <ele>15</ele>
      </trkpt>
      <trkpt lat="-40.95280278466527" lon="174.971448598131">
        <ele>14</ele>
      </trkpt>
      <trkpt lat="-40.95276654587068" lon="174.971385657067">
        <ele>14</ele>
      </trkpt>
      <trkpt lat="-40.95270265115391" lon="174.971311272172">
        <ele>13</ele>
      </trkpt>
      <trkpt lat="-40.95264066374213" lon="174.971320808697">
        <ele>13</ele>
      </trkpt>
      <trkpt lat="-40.95257676902536" lon="174.97129887469">
        <ele>13</ele>
      </trkpt>
      <trkpt lat="-40.95252908640091" lon="174.971229258058">
        <ele>13</ele>
      </trkpt>
      <trkpt lat="-40.95248045012397" lon="174.971160595079">
        <ele>12</ele>
      </trkpt>
      <trkpt lat="-40.95243086019454" lon="174.971108144192">
        <ele>12</ele>
      </trkpt>
      <trkpt lat="-40.95237650200266" lon="174.97106904444">
        <ele>12</ele>
      </trkpt>
      <trkpt lat="-40.95228304405874" lon="174.971025176426">
        <ele>11</ele>
      </trkpt>
      <trkpt lat="-40.95223726873927" lon="174.970955559794">
        <ele>11</ele>
      </trkpt>
      <trkpt lat="-40.9521914934198" lon="174.970885943162">
        <ele>10</ele>
      </trkpt>
      <trkpt lat="-40.95201220675185" lon="174.970635132558">
        <ele>8</ele>
      </trkpt>
      <trkpt lat="-40.95201220675185" lon="174.970635132558">
        <ele>8</ele>
      </trkpt>
      <trkpt lat="-40.95151916841503" lon="174.970705702842">
        <ele>7</ele>
      </trkpt>
      <trkpt lat="-40.95151916841503" lon="174.970705702842">
        <ele>7</ele>
      </trkpt>
      <trkpt lat="-40.95140663742132" lon="174.970561701316">
        <ele>6</ele>
      </trkpt>
      <trkpt lat="-40.95125357452066" lon="174.970327828809">
        <ele>4</ele>
      </trkpt>
      <trkpt lat="-40.95125357444063" lon="174.970327828817">
        <ele>4</ele>
      </trkpt>
      <trkpt lat="-40.95290673278657" lon="174.96978542819">
        <ele>6</ele>
      </trkpt>
      <trkpt lat="-40.95470246042342" lon="174.969058744993">
        <ele>3</ele>
      </trkpt>
      <trkpt lat="-40.95518882319283" lon="174.968949074957">
        <ele>3</ele>
      </trkpt>
      <trkpt lat="-40.95557123784093" lon="174.968980545489">
        <ele>3</ele>
      </trkpt>
      <trkpt lat="-40.95586210185008" lon="174.968973869922">
        <ele>3</ele>
      </trkpt>
      <trkpt lat="-40.95586210185008" lon="174.968973869922">
        <ele>3</ele>
      </trkpt>
      <trkpt lat="-40.95590916156578" lon="174.96917870712">
        <ele>4</ele>
      </trkpt>
      <trkpt lat="-40.95588243225864" lon="174.969412264159">
        <ele>5</ele>
      </trkpt>
      <trkpt lat="-40.95587047698717" lon="174.969484662641">
        <ele>5</ele>
      </trkpt>
      <trkpt lat="-40.95582761554322" lon="174.969616171831">
        <ele>5</ele>
      </trkpt>
      <trkpt lat="-40.95576020055085" lon="174.969807548288">
        <ele>6</ele>
      </trkpt>
      <trkpt lat="-40.95568982377807" lon="174.970052029457">
        <ele>7</ele>
      </trkpt>
      <trkpt lat="-40.95567876043713" lon="174.970082956177">
        <ele>7</ele>
      </trkpt>
      <trkpt lat="-40.95567980048261" lon="174.970123851264">
        <ele>7</ele>
      </trkpt>
      <trkpt lat="-40.95567893151136" lon="174.970143230762">
        <ele>7</ele>
      </trkpt>
      <trkpt lat="-40.95567978832813" lon="174.97016015902">
        <ele>7</ele>
      </trkpt>
      <trkpt lat="-40.95568479211695" lon="174.970188208215">
        <ele>7</ele>
      </trkpt>
      <trkpt lat="-40.95569943054332" lon="174.97020559691">
        <ele>7</ele>
      </trkpt>
      <trkpt lat="-40.95572555358129" lon="174.97021461185">
        <ele>7</ele>
      </trkpt>
      <trkpt lat="-40.95574560522553" lon="174.970217885376">
        <ele>7</ele>
      </trkpt>
      <trkpt lat="-40.95575541380575" lon="174.970224367018">
        <ele>7</ele>
      </trkpt>
      <trkpt lat="-40.95579565333016" lon="174.970258320473">
        <ele>7</ele>
      </trkpt>
      <trkpt lat="-40.95581752318528" lon="174.970272882924">
        <ele>7</ele>
      </trkpt>
      <trkpt lat="-40.95584097368398" lon="174.970277171053">
        <ele>7</ele>
      </trkpt>
      <trkpt lat="-40.95587526461011" lon="174.970273528592">
        <ele>7</ele>
      </trkpt>
      <trkpt lat="-40.95589931728161" lon="174.970274674556">
        <ele>7</ele>
      </trkpt>
      <trkpt lat="-40.95589942504767" lon="174.970273635342">
        <ele>7</ele>
      </trkpt>
      <trkpt lat="-40.95591550638947" lon="174.970276559222">
        <ele>7</ele>
      </trkpt>
      <trkpt lat="-40.95591550638947" lon="174.970276559222">
        <ele>7</ele>
      </trkpt>
      <trkpt lat="-40.95601945451077" lon="174.970288003052">
        <ele>7</ele>
      </trkpt>
      <trkpt lat="-40.95612340263207" lon="174.970299446882">
        <ele>7</ele>
      </trkpt>
      <trkpt lat="-40.95620541674614" lon="174.970300400534">
        <ele>7</ele>
      </trkpt>
      <trkpt lat="-40.95628743086019" lon="174.970302307839">
        <ele>7</ele>
      </trkpt>
      <trkpt lat="-40.95633320617966" lon="174.970319473584">
        <ele>7</ele>
      </trkpt>
      <trkpt lat="-40.95642666412359" lon="174.970384321953">
        <ele>7</ele>
      </trkpt>
      <trkpt lat="-40.95651916841503" lon="174.970450123975">
        <ele>7</ele>
      </trkpt>
      <trkpt lat="-40.95662883845127" lon="174.970511157734">
        <ele>7</ele>
      </trkpt>
      <trkpt lat="-40.95667556742323" lon="174.970526416174">
        <ele>7</ele>
      </trkpt>
      <trkpt lat="-40.95672229639519" lon="174.970528323479">
        <ele>7</ele>
      </trkpt>
      <trkpt lat="-40.95676902536715" lon="174.970514972344">
        <ele>8</ele>
      </trkpt>
      <trkpt lat="-40.95676902536715" lon="174.970514972344">
        <ele>8</ele>
      </trkpt>
      <trkpt lat="-40.9568081251192" lon="174.97041769979">
        <ele>8</ele>
      </trkpt>
      <trkpt lat="-40.95685962235361" lon="174.970333778371">
        <ele>8</ele>
      </trkpt>
      <trkpt lat="-40.95707991607858" lon="174.970053404539">
        <ele>8</ele>
      </trkpt>
      <trkpt lat="-40.95713332061796" lon="174.969976158688">
        <ele>8</ele>
      </trkpt>
      <trkpt lat="-40.95718672515735" lon="174.969899866489">
        <ele>8</ele>
      </trkpt>
      <trkpt lat="-40.95720198359717" lon="174.969862674042">
        <ele>8</ele>
      </trkpt>
      <trkpt lat="-40.95722296395193" lon="174.96975491131">
        <ele>8</ele>
      </trkpt>
      <trkpt lat="-40.95722201029944" lon="174.969673850849">
        <ele>8</ele>
      </trkpt>
      <trkpt lat="-40.95722105664695" lon="174.96959374404">
        <ele>8</ele>
      </trkpt>
      <trkpt lat="-40.95722773221438" lon="174.969527942018">
        <ele>8</ele>
      </trkpt>
      <trkpt lat="-40.9572344077818" lon="174.969462139996">
        <ele>7</ele>
      </trkpt>
      <trkpt lat="-40.95724871256913" lon="174.969410642762">
        <ele>7</ele>
      </trkpt>
      <trkpt lat="-40.95726873927141" lon="174.969365821095">
        <ele>7</ele>
      </trkpt>
      <trkpt lat="-40.9573383559031" lon="174.969247568186">
        <ele>8</ele>
      </trkpt>
      <trkpt lat="-40.95740701888231" lon="174.969129315278">
        <ele>8</ele>
      </trkpt>
      <trkpt lat="-40.95744707228685" lon="174.969039671944">
        <ele>8</ele>
      </trkpt>
      <trkpt lat="-40.95748617203891" lon="174.96895002861">
        <ele>7</ele>
      </trkpt>
      <trkpt lat="-40.95752813274842" lon="174.968878504673">
        <ele>7</ele>
      </trkpt>
      <trkpt lat="-40.95756723250047" lon="174.968827007439">
        <ele>7</ele>
      </trkpt>
      <trkpt lat="-40.95760347129506" lon="174.968799351516">
        <ele>8</ele>
      </trkpt>
      <trkpt lat="-40.95765687583445" lon="174.968781232119">
        <ele>8</ele>
      </trkpt>
      <trkpt lat="-40.95771981689872" lon="174.968774556552">
        <ele>8</ele>
      </trkpt>
      <trkpt lat="-40.95779801640282" lon="174.968779324814">
        <ele>8</ele>
      </trkpt>
      <trkpt lat="-40.95790768643906" lon="174.968809841694">
        <ele>9</ele>
      </trkpt>
      <trkpt lat="-40.95795155445355" lon="174.968836543963">
        <ele>9</ele>
      </trkpt>
      <trkpt lat="-40.95805073431242" lon="174.968907114248">
        <ele>10</ele>
      </trkpt>
      <trkpt lat="-40.95814896051878" lon="174.968977684532">
        <ele>10</ele>
      </trkpt>
      <trkpt lat="-40.95821953080297" lon="174.969034903681">
        <ele>11</ele>
      </trkpt>
      <trkpt lat="-40.95833683005912" lon="174.969146481022">
        <ele>12</ele>
      </trkpt>
      <trkpt lat="-40.95839309555598" lon="174.969222773221">
        <ele>12</ele>
      </trkpt>
      <trkpt lat="-40.95844840740034" lon="174.969299065421">
        <ele>12</ele>
      </trkpt>
      <trkpt lat="-40.95868586687011" lon="174.969714857906">
        <ele>13</ele>
      </trkpt>
      <trkpt lat="-40.95894335304214" lon="174.970109670036">
        <ele>14</ele>
      </trkpt>
      <trkpt lat="-40.9591207324051" lon="174.970399580393">
        <ele>14</ele>
      </trkpt>
      <trkpt lat="-40.95918844173183" lon="174.970482548159">
        <ele>14</ele>
      </trkpt>
      <trkpt lat="-40.95925519740606" lon="174.970565515926">
        <ele>14</ele>
      </trkpt>
      <trkpt lat="-40.95925519740606" lon="174.970565515926">
        <ele>14</ele>
      </trkpt>
      <trkpt lat="-40.95930669464047" lon="174.970458706847">
        <ele>14</ele>
      </trkpt>
      <trkpt lat="-40.95935819187488" lon="174.970351897768">
        <ele>15</ele>
      </trkpt>
      <trkpt lat="-40.95935819187488" lon="174.970351897768">
        <ele>15</ele>
      </trkpt>
      <trkpt lat="-40.95944592790386" lon="174.970358573336">
        <ele>15</ele>
      </trkpt>
      <trkpt lat="-40.95947358382605" lon="174.970348083159">
        <ele>15</ele>
      </trkpt>
      <trkpt lat="-40.95950219340072" lon="174.970322334541">
        <ele>15</ele>
      </trkpt>
      <trkpt lat="-40.95954510776273" lon="174.970258439825">
        <ele>15</ele>
      </trkpt>
      <trkpt lat="-40.95958897577722" lon="174.970215525463">
        <ele>15</ele>
      </trkpt>
      <trkpt lat="-40.95968434102613" lon="174.970175472058">
        <ele>15</ele>
      </trkpt>
      <trkpt lat="-40.95979591836734" lon="174.970140186916">
        <ele>16</ele>
      </trkpt>
      <trkpt lat="-40.95987411787144" lon="174.970125882129">
        <ele>16</ele>
      </trkpt>
      <trkpt lat="-40.95995327102803" lon="174.970143047873">
        <ele>16</ele>
      </trkpt>
      <trkpt lat="-40.95999999999999" lon="174.970174518406">
        <ele>16</ele>
      </trkpt>
      <trkpt lat="-40.96" lon="174.970174518406">
        <ele>16</ele>
      </trkpt>
      <trkpt lat="-40.96008106046157" lon="174.970238413122">
        <ele>16</ele>
      </trkpt>
      <trkpt lat="-40.96016116727065" lon="174.970303261492">
        <ele>16</ele>
      </trkpt>
      <trkpt lat="-40.96024508868968" lon="174.970377646386">
        <ele>15</ele>
      </trkpt>
      <trkpt lat="-40.96033473202365" lon="174.970412931528">
        <ele>15</ele>
      </trkpt>
      <trkpt lat="-40.96042818996757" lon="174.970422468053">
        <ele>15</ele>
      </trkpt>
      <trkpt lat="-40.96050352851421" lon="174.970419607095">
        <ele>15</ele>
      </trkpt>
      <trkpt lat="-40.96056551592599" lon="174.970389090216">
        <ele>15</ele>
      </trkpt>
      <trkpt lat="-40.96061224489796" lon="174.970324241846">
        <ele>15</ele>
      </trkpt>
      <trkpt lat="-40.96064562273507" lon="174.970246042342">
        <ele>16</ele>
      </trkpt>
      <trkpt lat="-40.96065325195499" lon="174.970156399008">
        <ele>16</ele>
      </trkpt>
      <trkpt lat="-40.96064466908258" lon="174.970111577341">
        <ele>16</ele>
      </trkpt>
      <trkpt lat="-40.96062559603281" lon="174.970066755674">
        <ele>16</ele>
      </trkpt>
      <trkpt lat="-40.96054358191875" lon="174.969975205035">
        <ele>16</ele>
      </trkpt>
      <trkpt lat="-40.96050638947167" lon="174.969904634751">
        <ele>17</ele>
      </trkpt>
      <trkpt lat="-40.96049017737936" lon="174.969841693687">
        <ele>17</ele>
      </trkpt>
      <trkpt lat="-40.96049494564181" lon="174.969774938013">
        <ele>17</ele>
      </trkpt>
      <trkpt lat="-40.96051401869159" lon="174.969705321381">
        <ele>17</ele>
      </trkpt>
      <trkpt lat="-40.96055121113866" lon="174.969648102232">
        <ele>17</ele>
      </trkpt>
      <trkpt lat="-40.96060080106809" lon="174.969594697692">
        <ele>18</ele>
      </trkpt>
      <trkpt lat="-40.96065420560748" lon="174.969554644288">
        <ele>18</ele>
      </trkpt>
      <trkpt lat="-40.96072572954415" lon="174.96952889567">
        <ele>18</ele>
      </trkpt>
      <trkpt lat="-40.9608001144383" lon="174.969511729926">
        <ele>18</ele>
      </trkpt>
      <trkpt lat="-40.96087449933244" lon="174.969515544536">
        <ele>18</ele>
      </trkpt>
      <trkpt lat="-40.9609822620637" lon="174.969549876025">
        <ele>17</ele>
      </trkpt>
      <trkpt lat="-40.96109002479496" lon="174.969585161167">
        <ele>17</ele>
      </trkpt>
      <trkpt lat="-40.9611653633416" lon="174.96960137326">
        <ele>17</ele>
      </trkpt>
      <trkpt lat="-40.96144859813084" lon="174.969726301736">
        <ele>16</ele>
      </trkpt>
      <trkpt lat="-40.96151344650009" lon="174.969729162693">
        <ele>15</ele>
      </trkpt>
      <trkpt lat="-40.96158973869922" lon="174.969714857906">
        <ele>15</ele>
      </trkpt>
      <trkpt lat="-40.9616526797635" lon="174.969674804501">
        <ele>15</ele>
      </trkpt>
      <trkpt lat="-40.96171371352279" lon="174.969622353614">
        <ele>15</ele>
      </trkpt>
      <trkpt lat="-40.96177474728209" lon="174.969569902727">
        <ele>15</ele>
      </trkpt>
      <trkpt lat="-40.96183292008392" lon="174.969501239748">
        <ele>15</ele>
      </trkpt>
      <trkpt lat="-40.96189013923326" lon="174.969432576769">
        <ele>16</ele>
      </trkpt>
      <trkpt lat="-40.96198168987221" lon="174.969383940492">
        <ele>16</ele>
      </trkpt>
      <trkpt lat="-40.96209040625596" lon="174.969334350563">
        <ele>16</ele>
      </trkpt>
      <trkpt lat="-40.96219912263971" lon="174.969285714286">
        <ele>16</ele>
      </trkpt>
      <trkpt lat="-40.96228018310128" lon="174.969217051307">
        <ele>16</ele>
      </trkpt>
      <trkpt lat="-40.9623564753004" lon="174.969167461377">
        <ele>16</ele>
      </trkpt>
      <trkpt lat="-40.96243276749952" lon="174.969131222583">
        <ele>16</ele>
      </trkpt>
      <trkpt lat="-40.96252622544345" lon="174.969112149533">
        <ele>16</ele>
      </trkpt>
      <trkpt lat="-40.96287144764447" lon="174.969128361625">
        <ele>16</ele>
      </trkpt>
      <trkpt lat="-40.96293343505626" lon="174.96910738127">
        <ele>16</ele>
      </trkpt>
      <trkpt lat="-40.96300114438299" lon="174.969071142476">
        <ele>16</ele>
      </trkpt>
      <trkpt lat="-40.96310223154682" lon="174.969008201411">
        <ele>16</ele>
      </trkpt>
      <trkpt lat="-40.96320331871066" lon="174.968945260347">
        <ele>16</ele>
      </trkpt>
      <trkpt lat="-40.96326721342743" lon="174.968894716765">
        <ele>16</ele>
      </trkpt>
      <trkpt lat="-40.9633301544917" lon="174.968844173183">
        <ele>16</ele>
      </trkpt>
      <trkpt lat="-40.96338832729354" lon="174.968782185772">
        <ele>16</ele>
      </trkpt>
      <trkpt lat="-40.96344459279039" lon="174.968683005913">
        <ele>16</ele>
      </trkpt>
      <trkpt lat="-40.96349990463475" lon="174.968584779706">
        <ele>17</ele>
      </trkpt>
      <trkpt lat="-40.96357428952889" lon="174.968506580202">
        <ele>17</ele>
      </trkpt>
      <trkpt lat="-40.96363723059317" lon="174.968427427046">
        <ele>17</ele>
      </trkpt>
      <trkpt lat="-40.96365725729544" lon="174.968354949456">
        <ele>17</ele>
      </trkpt>
      <trkpt lat="-40.96365916460042" lon="174.968270074385">
        <ele>18</ele>
      </trkpt>
      <trkpt lat="-40.96367346938776" lon="174.968194735838">
        <ele>18</ele>
      </trkpt>
      <trkpt lat="-40.96368777417509" lon="174.968119397292">
        <ele>18</ele>
      </trkpt>
      <trkpt lat="-40.96377264924661" lon="174.96804978066">
        <ele>18</ele>
      </trkpt>
      <trkpt lat="-40.96380984169369" lon="174.968039290483">
        <ele>18</ele>
      </trkpt>
      <trkpt lat="-40.96388231928285" lon="174.96803833683">
        <ele>18</ele>
      </trkpt>
      <trkpt lat="-40.96395861148198" lon="174.968074575625">
        <ele>18</ele>
      </trkpt>
      <trkpt lat="-40.96403395002861" lon="174.968110814419">
        <ele>17</ele>
      </trkpt>
      <trkpt lat="-40.96415220293725" lon="174.968143238604">
        <ele>17</ele>
      </trkpt>
      <trkpt lat="-40.96426187297349" lon="174.968155636086">
        <ele>17</ele>
      </trkpt>
      <trkpt lat="-40.96432386038528" lon="174.968149914171">
        <ele>17</ele>
      </trkpt>
      <trkpt lat="-40.96436296013732" lon="174.968128933817">
        <ele>17</ele>
      </trkpt>
      <trkpt lat="-40.9644259012016" lon="174.968020217433">
        <ele>17</ele>
      </trkpt>
      <trkpt lat="-40.96447644478352" lon="174.967977303071">
        <ele>17</ele>
      </trkpt>
      <trkpt lat="-40.96458992942971" lon="174.967990654206">
        <ele>17</ele>
      </trkpt>
      <trkpt lat="-40.96470913599084" lon="174.968010680908">
        <ele>17</ele>
      </trkpt>
      <trkpt lat="-40.96482738889949" lon="174.968031661263">
        <ele>16</ele>
      </trkpt>
      <trkpt lat="-40.96488746900629" lon="174.968032614915">
        <ele>16</ele>
      </trkpt>
      <trkpt lat="-40.96495708563799" lon="174.96802307839">
        <ele>16</ele>
      </trkpt>
      <trkpt lat="-40.96502670226969" lon="174.968014495518">
        <ele>16</ele>
      </trkpt>
      <trkpt lat="-40.96505721914934" lon="174.96801926378">
        <ele>16</ele>
      </trkpt>
      <trkpt lat="-40.96511920656113" lon="174.968058363532">
        <ele>16</ele>
      </trkpt>
      <trkpt lat="-40.96518024032043" lon="174.968097463284">
        <ele>15</ele>
      </trkpt>
      <trkpt lat="-40.96529372496662" lon="174.968178523746">
        <ele>15</ele>
      </trkpt>
      <trkpt lat="-40.96540720961281" lon="174.96826053786">
        <ele>14</ele>
      </trkpt>
      <trkpt lat="-40.96552069425901" lon="174.968327293534">
        <ele>14</ele>
      </trkpt>
      <trkpt lat="-40.96560270837307" lon="174.968357810414">
        <ele>14</ele>
      </trkpt>
      <trkpt lat="-40.9657133320618" lon="174.968381651726">
        <ele>14</ele>
      </trkpt>
      <trkpt lat="-40.96580774365821" lon="174.968424566088">
        <ele>14</ele>
      </trkpt>
      <trkpt lat="-40.96590215525462" lon="174.96846748045">
        <ele>14</ele>
      </trkpt>
      <trkpt lat="-40.96595842075148" lon="174.968480831585">
        <ele>14</ele>
      </trkpt>
      <trkpt lat="-40.96602517642571" lon="174.968472248713">
        <ele>14</ele>
      </trkpt>
      <trkpt lat="-40.96633511348465" lon="174.968273888995">
        <ele>14</ele>
      </trkpt>
      <trkpt lat="-40.96643047873355" lon="174.968230974633">
        <ele>14</ele>
      </trkpt>
      <trkpt lat="-40.96652012206751" lon="174.968209994278">
        <ele>14</ele>
      </trkpt>
      <trkpt lat="-40.96660976540149" lon="174.968189013923">
        <ele>14</ele>
      </trkpt>
      <trkpt lat="-40.96667652107572" lon="174.968160404349">
        <ele>15</ele>
      </trkpt>
      <trkpt lat="-40.96674232309746" lon="174.968132748427">
        <ele>15</ele>
      </trkpt>
      <trkpt lat="-40.96678142284951" lon="174.968130841122">
        <ele>15</ele>
      </trkpt>
      <trkpt lat="-40.9670265115392" lon="174.968192828533">
        <ele>15</ele>
      </trkpt>
      <trkpt lat="-40.96713808888041" lon="174.968208086973">
        <ele>15</ele>
      </trkpt>
      <trkpt lat="-40.96723345412931" lon="174.968212855236">
        <ele>16</ele>
      </trkpt>
      <trkpt lat="-40.96733168033568" lon="174.968201411406">
        <ele>16</ele>
      </trkpt>
      <trkpt lat="-40.96743753576197" lon="174.968165172611">
        <ele>16</ele>
      </trkpt>
      <trkpt lat="-40.96754243753576" lon="174.968115582682">
        <ele>17</ele>
      </trkpt>
      <trkpt lat="-40.96762826625977" lon="174.96806122449">
        <ele>17</ele>
      </trkpt>
      <trkpt lat="-40.96772935342361" lon="174.967970627503">
        <ele>17</ele>
      </trkpt>
      <trkpt lat="-40.96779229448789" lon="174.967952508106">
        <ele>17</ele>
      </trkpt>
      <trkpt lat="-40.96786381842457" lon="174.967945832539">
        <ele>17</ele>
      </trkpt>
      <trkpt lat="-40.96794106427618" lon="174.967951554454">
        <ele>17</ele>
      </trkpt>
      <trkpt lat="-40.96799256151058" lon="174.967964905588">
        <ele>17</ele>
      </trkpt>
      <trkpt lat="-40.9681041388518" lon="174.968035475873">
        <ele>17</ele>
      </trkpt>
      <trkpt lat="-40.96817280183101" lon="174.968056456227">
        <ele>17</ele>
      </trkpt>
      <trkpt lat="-40.96823002098036" lon="174.968039290483">
        <ele>17</ele>
      </trkpt>
      <trkpt lat="-40.96830726683196" lon="174.967998283426">
        <ele>17</ele>
      </trkpt>
      <trkpt lat="-40.9683740225062" lon="174.967976349418">
        <ele>17</ele>
      </trkpt>
      <trkpt lat="-40.96844077818043" lon="174.967955369064">
        <ele>17</ele>
      </trkpt>
      <trkpt lat="-40.96853518977684" lon="174.967949647149">
        <ele>17</ele>
      </trkpt>
      <trkpt lat="-40.96862864772077" lon="174.967943925234">
        <ele>17</ele>
      </trkpt>
      <trkpt lat="-40.9687392714095" lon="174.967942017929">
        <ele>17</ele>
      </trkpt>
      <trkpt lat="-40.96884989509822" lon="174.967940110624">
        <ele>17</ele>
      </trkpt>
      <trkpt lat="-40.96889757772268" lon="174.967931527751">
        <ele>17</ele>
      </trkpt>
      <trkpt lat="-40.96894430669464" lon="174.967916269312">
        <ele>17</ele>
      </trkpt>
      <trkpt lat="-40.96898626740415" lon="174.967860957467">
        <ele>17</ele>
      </trkpt>
      <trkpt lat="-40.96900629410643" lon="174.967803738318">
        <ele>17</ele>
      </trkpt>
      <trkpt lat="-40.96902155254625" lon="174.967688346367">
        <ele>17</ele>
      </trkpt>
      <trkpt lat="-40.96903681098608" lon="174.967573908068">
        <ele>17</ele>
      </trkpt>
      <trkpt lat="-40.9690692351707" lon="174.967477589167">
        <ele>17</ele>
      </trkpt>
      <trkpt lat="-40.96913503719244" lon="174.96736028991">
        <ele>17</ele>
      </trkpt>
      <trkpt lat="-40.96922372687393" lon="174.967240129697">
        <ele>17</ele>
      </trkpt>
      <trkpt lat="-40.96927999237078" lon="174.96718767881">
        <ele>17</ele>
      </trkpt>
      <trkpt lat="-40.96937917222964" lon="174.967114247568">
        <ele>17</ele>
      </trkpt>
      <trkpt lat="-40.96944783520885" lon="174.967102803738">
        <ele>17</ele>
      </trkpt>
      <trkpt lat="-40.96951554453557" lon="174.967092313561">
        <ele>17</ele>
      </trkpt>
      <trkpt lat="-40.96954892237269" lon="174.967066564944">
        <ele>17</ele>
      </trkpt>
      <trkpt lat="-40.96960804882701" lon="174.966998855617">
        <ele>17</ele>
      </trkpt>
      <trkpt lat="-40.96966622162883" lon="174.96693114629">
        <ele>17</ele>
      </trkpt>
      <trkpt lat="-40.96972916269311" lon="174.966835781041">
        <ele>17</ele>
      </trkpt>
      <trkpt lat="-40.96972916269311" lon="174.966835781041">
        <ele>17</ele>
      </trkpt>
      <trkpt lat="-40.96968338737364" lon="174.966787144764">
        <ele>17</ele>
      </trkpt>
      <trkpt lat="-40.96963856570665" lon="174.966760442495">
        <ele>17</ele>
      </trkpt>
      <trkpt lat="-40.96951935914553" lon="174.966746137707">
        <ele>17</ele>
      </trkpt>
      <trkpt lat="-40.9694001525844" lon="174.966732786573">
        <ele>17</ele>
      </trkpt>
      <trkpt lat="-40.96934388708755" lon="174.966682242991">
        <ele>17</ele>
      </trkpt>
      <trkpt lat="-40.96929715811558" lon="174.966607858097">
        <ele>17</ele>
      </trkpt>
      <trkpt lat="-40.96926473393096" lon="174.96650963189">
        <ele>18</ele>
      </trkpt>
      <trkpt lat="-40.96926473393096" lon="174.96650963189">
        <ele>18</ele>
      </trkpt>
      <trkpt lat="-40.96978924279992" lon="174.966304596605">
        <ele>17</ele>
      </trkpt>
      <trkpt lat="-40.96978924279992" lon="174.966304596605">
        <ele>17</ele>
      </trkpt>
      <trkpt lat="-40.96983024985695" lon="174.966265496853">
        <ele>17</ele>
      </trkpt>
      <trkpt lat="-40.96989891283616" lon="174.966221628838">
        <ele>17</ele>
      </trkpt>
      <trkpt lat="-40.96996662216289" lon="174.966177760824">
        <ele>17</ele>
      </trkpt>
      <trkpt lat="-40.97004958992943" lon="174.966136753767">
        <ele>17</ele>
      </trkpt>
      <trkpt lat="-40.97013160404349" lon="174.966096700362">
        <ele>17</ele>
      </trkpt>
      <trkpt lat="-40.97019454510776" lon="174.966019454511">
        <ele>17</ele>
      </trkpt>
      <trkpt lat="-40.97023936677475" lon="174.965940301354">
        <ele>18</ele>
      </trkpt>
      <trkpt lat="-40.97055597940111" lon="174.965310890711">
        <ele>18</ele>
      </trkpt>
      <trkpt lat="-40.97059412550067" lon="174.965280373832">
        <ele>18</ele>
      </trkpt>
      <trkpt lat="-40.97063417890521" lon="174.965262254435">
        <ele>18</ele>
      </trkpt>
      <trkpt lat="-40.97067327865726" lon="174.965277512874">
        <ele>18</ele>
      </trkpt>
      <trkpt lat="-40.97075243181384" lon="174.965337592981">
        <ele>18</ele>
      </trkpt>
      <trkpt lat="-40.97083158497043" lon="174.965397673088">
        <ele>18</ele>
      </trkpt>
      <trkpt lat="-40.97094125500667" lon="174.965462521457">
        <ele>18</ele>
      </trkpt>
      <trkpt lat="-40.97104520312798" lon="174.965535952699">
        <ele>18</ele>
      </trkpt>
      <trkpt lat="-40.97133797444211" lon="174.965710471104">
        <ele>18</ele>
      </trkpt>
      <trkpt lat="-40.97160976540149" lon="174.96590406256">
        <ele>18</ele>
      </trkpt>
      <trkpt lat="-40.97167175281327" lon="174.965935533092">
        <ele>18</ele>
      </trkpt>
      <trkpt lat="-40.97174136944497" lon="174.965953652489">
        <ele>18</ele>
      </trkpt>
      <trkpt lat="-40.97180717146671" lon="174.965953652489">
        <ele>18</ele>
      </trkpt>
      <trkpt lat="-40.97187201983597" lon="174.965954606142">
        <ele>18</ele>
      </trkpt>
      <trkpt lat="-40.97198168987221" lon="174.965968910929">
        <ele>19</ele>
      </trkpt>
      <trkpt lat="-40.9720951745184" lon="174.965995613199">
        <ele>19</ele>
      </trkpt>
      <trkpt lat="-40.97216669845508" lon="174.965998474156">
        <ele>19</ele>
      </trkpt>
      <trkpt lat="-40.97224775891665" lon="174.965962235361">
        <ele>19</ele>
      </trkpt>
      <trkpt lat="-40.97231642189586" lon="174.96589643334">
        <ele>19</ele>
      </trkpt>
      <trkpt lat="-40.9723650581728" lon="174.965827770361">
        <ele>19</ele>
      </trkpt>
      <trkpt lat="-40.97242037001716" lon="174.965735266069">
        <ele>19</ele>
      </trkpt>
      <trkpt lat="-40.97247568186153" lon="174.965642761778">
        <ele>20</ele>
      </trkpt>
      <trkpt lat="-40.97288479877933" lon="174.965363341598">
        <ele>20</ele>
      </trkpt>
      <trkpt lat="-40.9731480068663" lon="174.965211710853">
        <ele>20</ele>
      </trkpt>
      <trkpt lat="-40.97321857715048" lon="174.965163074576">
        <ele>20</ele>
      </trkpt>
      <trkpt lat="-40.97328819378218" lon="174.965115391951">
        <ele>20</ele>
      </trkpt>
      <trkpt lat="-40.97335304215144" lon="174.965058172802">
        <ele>20</ele>
      </trkpt>
      <trkpt lat="-40.9734169368682" lon="174.965000953653">
        <ele>20</ele>
      </trkpt>
      <trkpt lat="-40.97353614342934" lon="174.964926568758">
        <ele>19</ele>
      </trkpt>
      <trkpt lat="-40.97360099179858" lon="174.964893190921">
        <ele>19</ele>
      </trkpt>
      <trkpt lat="-40.97366488651535" lon="174.964860766737">
        <ele>19</ele>
      </trkpt>
      <trkpt lat="-40.97375548350181" lon="174.964830249857">
        <ele>19</ele>
      </trkpt>
      <trkpt lat="-40.97383177570094" lon="174.964839786382">
        <ele>19</ele>
      </trkpt>
      <trkpt lat="-40.97390711424757" lon="174.964849322907">
        <ele>19</ele>
      </trkpt>
      <trkpt lat="-40.97401106236887" lon="174.964841693687">
        <ele>19</ele>
      </trkpt>
      <trkpt lat="-40.97411405683768" lon="174.964835018119">
        <ele>19</ele>
      </trkpt>
      <trkpt lat="-40.9742084684341" lon="174.964841693687">
        <ele>19</ele>
      </trkpt>
      <trkpt lat="-40.97430192637803" lon="174.964849322907">
        <ele>18</ele>
      </trkpt>
      <trkpt lat="-40.97440396719436" lon="174.964876978829">
        <ele>18</ele>
      </trkpt>
      <trkpt lat="-40.9744688155636" lon="174.964910356666">
        <ele>18</ele>
      </trkpt>
      <trkpt lat="-40.97449647148579" lon="174.964933244326">
        <ele>18</ele>
      </trkpt>
      <trkpt lat="-40.97460232691207" lon="174.965044821667">
        <ele>18</ele>
      </trkpt>
      <trkpt lat="-40.97470818233835" lon="174.965157352661">
        <ele>18</ele>
      </trkpt>
      <trkpt lat="-40.97481403776464" lon="174.965193591455">
        <ele>18</ele>
      </trkpt>
      <trkpt lat="-40.97491607858096" lon="174.965221247377">
        <ele>18</ele>
      </trkpt>
      <trkpt lat="-40.9750171657448" lon="174.9652489033">
        <ele>17</ele>
      </trkpt>
      <trkpt lat="-40.97510108716384" lon="174.965275605569">
        <ele>17</ele>
      </trkpt>
      <trkpt lat="-40.97518500858287" lon="174.965303261492">
        <ele>17</ele>
      </trkpt>
      <trkpt lat="-40.97558744993324" lon="174.965359526988">
        <ele>15</ele>
      </trkpt>
      <trkpt lat="-40.97566660308983" lon="174.965376692733">
        <ele>14</ele>
      </trkpt>
      <trkpt lat="-40.97571047110433" lon="174.965393858478">
        <ele>14</ele>
      </trkpt>
      <trkpt lat="-40.97575529277131" lon="174.965400534045">
        <ele>14</ele>
      </trkpt>
      <trkpt lat="-40.97581632653061" lon="174.965392904826">
        <ele>14</ele>
      </trkpt>
      <trkpt lat="-40.97587354567995" lon="174.965377646386">
        <ele>13</ele>
      </trkpt>
      <trkpt lat="-40.97588965832493" lon="174.965377646386">
        <ele>13</ele>
      </trkpt>
      <trkpt lat="-40.97588965832493" lon="174.965377646386">
        <ele>13</ele>
      </trkpt>
      <trkpt lat="-40.97587354567995" lon="174.965377646386">
        <ele>13</ele>
      </trkpt>
      <trkpt lat="-40.97587354567995" lon="174.965377646386">
        <ele>13</ele>
      </trkpt>
      <trkpt lat="-40.97587163837498" lon="174.965311844364">
        <ele>13</ele>
      </trkpt>
      <trkpt lat="-40.97586877741751" lon="174.965246042342">
        <ele>13</ele>
      </trkpt>
      <trkpt lat="-40.97585256532519" lon="174.965174518406">
        <ele>13</ele>
      </trkpt>
      <trkpt lat="-40.97583539958039" lon="174.965103948121">
        <ele>13</ele>
      </trkpt>
      <trkpt lat="-40.97583826053786" lon="174.965041007057">
        <ele>13</ele>
      </trkpt>
      <trkpt lat="-40.97571428571428" lon="174.964696738509">
        <ele>13</ele>
      </trkpt>
      <trkpt lat="-40.97569711996948" lon="174.964608048827">
        <ele>13</ele>
      </trkpt>
      <trkpt lat="-40.97567900057219" lon="174.964519359146">
        <ele>13</ele>
      </trkpt>
      <trkpt lat="-40.97571714667176" lon="174.964214190349">
        <ele>12</ele>
      </trkpt>
      <trkpt lat="-40.97571714667176" lon="174.964120732405">
        <ele>12</ele>
      </trkpt>
      <trkpt lat="-40.9757047491894" lon="174.964058744993">
        <ele>12</ele>
      </trkpt>
      <trkpt lat="-40.97569139805455" lon="174.963997711234">
        <ele>12</ele>
      </trkpt>
      <trkpt lat="-40.97563131794774" lon="174.963903299638">
        <ele>12</ele>
      </trkpt>
      <trkpt lat="-40.97557314514591" lon="174.963847034141">
        <ele>12</ele>
      </trkpt>
      <trkpt lat="-40.97546824337211" lon="174.963802212474">
        <ele>13</ele>
      </trkpt>
      <trkpt lat="-40.97536429525081" lon="174.963797444211">
        <ele>13</ele>
      </trkpt>
      <trkpt lat="-40.97528418844173" lon="174.963818424566">
        <ele>13</ele>
      </trkpt>
      <trkpt lat="-40.97521838641999" lon="174.963793629601">
        <ele>13</ele>
      </trkpt>
      <trkpt lat="-40.97515163074576" lon="174.963769788289">
        <ele>13</ele>
      </trkpt>
      <trkpt lat="-40.97509822620637" lon="174.96372019836">
        <ele>13</ele>
      </trkpt>
      <trkpt lat="-40.97504863627694" lon="174.963635323288">
        <ele>13</ele>
      </trkpt>
      <trkpt lat="-40.97499904634751" lon="174.963550448217">
        <ele>13</ele>
      </trkpt>
      <trkpt lat="-40.97493229067328" lon="174.963307266832">
        <ele>13</ele>
      </trkpt>
      <trkpt lat="-40.97493229067328" lon="174.963307266832">
        <ele>13</ele>
      </trkpt>
      <trkpt lat="-40.97491131031852" lon="174.963247186725">
        <ele>13</ele>
      </trkpt>
      <trkpt lat="-40.97485409116918" lon="174.963179477398">
        <ele>13</ele>
      </trkpt>
      <trkpt lat="-40.97479687201984" lon="174.963112721724">
        <ele>13</ele>
      </trkpt>
      <trkpt lat="-40.974695784856" lon="174.963010680908">
        <ele>13</ele>
      </trkpt>
      <trkpt lat="-40.97459774290904" lon="174.962912638961">
        <ele>13</ele>
      </trkpt>
      <trkpt lat="-40.97459774290904" lon="174.962912638961">
        <ele>13</ele>
      </trkpt>
      <trkpt lat="-40.97459469769216" lon="174.962909593744">
        <ele>13</ele>
      </trkpt>
      <trkpt lat="-40.97453175662788" lon="174.96286954034">
        <ele>13</ele>
      </trkpt>
      <trkpt lat="-40.9744688155636" lon="174.962829486935">
        <ele>13</ele>
      </trkpt>
    </trkseg>
  </trk>
</gpx>