<?xml version="1.0" encoding="UTF-8" standalone="yes"?>
<gpx
 version="1.1"
 creator="Generated by MapOut iPhone App. See https://mapout.app"
 xmlns="http://www.topografix.com/GPX/1/1"
 xmlns:xsi="http://www.w3.org/2001/XMLSchema-instance"
 xmlns:gpxx="http://www.garmin.com/xmlschemas/GpxExtensions/v3"
 xmlns:mapout="https://mapout.app/xmlschemas/MapOutExtensions"
 xsi:schemaLocation="http://www.topografix.com/GPX/1/1 https://www.topografix.com/GPX/1/1/gpx.xsd http://www.garmin.com/xmlschemas/GpxExtensions/v3 https://www8.garmin.com/xmlschemas/GpxExtensionsv3.xsd https://mapout.app/xmlschemas/MapOutExtensions https://mapout.app/xmlschemas/MapOutExtensions.xsd">
  <metadata>
    <name>Mt Paku</name>
    <author><name>iPhone</name></author>
    <time>2026-03-31T20:41:32Z</time>
    <bounds minlat="-37.0025655942397" minlon="175.865582681671" maxlat="-37.0002517642571" maxlon="175.868636276941"/>
  </metadata>
  <trk>
    <name>Mt Paku</name>
    <trkseg>
      <trkpt lat="-37.0025655942397" lon="175.868602419411">
        <ele>77</ele>
      </trkpt>
      <trkpt lat="-37.00251668891855" lon="175.868636276941">
        <ele>78</ele>
      </trkpt>
      <trkpt lat="-37.00251668891855" lon="175.868636276941">
        <ele>78</ele>
      </trkpt>
      <trkpt lat="-37.00216955941255" lon="175.867537669273">
        <ele>93</ele>
      </trkpt>
      <trkpt lat="-37.00185771504864" lon="175.867395575052">
        <ele>97</ele>
      </trkpt>
      <trkpt lat="-37.00182624451649" lon="175.8673946214">
        <ele>98</ele>
      </trkpt>
      <trkpt lat="-37.00180526416174" lon="175.867400343315">
        <ele>98</ele>
      </trkpt>
      <trkpt lat="-37.00178333015449" lon="175.867418462712">
        <ele>98</ele>
      </trkpt>
      <trkpt lat="-37.00170226969292" lon="175.867572954415">
        <ele>98</ele>
      </trkpt>
      <trkpt lat="-37.0016603089834" lon="175.86758630555">
        <ele>98</ele>
      </trkpt>
      <trkpt lat="-37.00165955640126" lon="175.867586545046">
        <ele>98</ele>
      </trkpt>
      <trkpt lat="-37.00181098607667" lon="175.867056074766">
        <ele>101</ele>
      </trkpt>
      <trkpt lat="-37.00181098607667" lon="175.867056074766">
        <ele>101</ele>
      </trkpt>
      <trkpt lat="-37.00107095174518" lon="175.866756627885">
        <ele>126</ele>
      </trkpt>
      <trkpt lat="-37.00107095174518" lon="175.866756627885">
        <ele>126</ele>
      </trkpt>
      <trkpt lat="-37.00109288575243" lon="175.866681289338">
        <ele>127</ele>
      </trkpt>
      <trkpt lat="-37.00111386610719" lon="175.866606904444">
        <ele>127</ele>
      </trkpt>
      <trkpt lat="-37.00101182529086" lon="175.866554453557">
        <ele>130</ele>
      </trkpt>
      <trkpt lat="-37.00090883082205" lon="175.866502956323">
        <ele>134</ele>
      </trkpt>
      <trkpt lat="-37.00083635323288" lon="175.8665515926">
        <ele>136</ele>
      </trkpt>
      <trkpt lat="-37.00072477589166" lon="175.866535380507">
        <ele>135</ele>
      </trkpt>
      <trkpt lat="-37.00065802021743" lon="175.866557314515">
        <ele>134</ele>
      </trkpt>
      <trkpt lat="-37.00059031089071" lon="175.866579248522">
        <ele>133</ele>
      </trkpt>
      <trkpt lat="-37.00049685294678" lon="175.866572572954">
        <ele>132</ele>
      </trkpt>
      <trkpt lat="-37.0005826816708" lon="175.866460995613">
        <ele>134</ele>
      </trkpt>
      <trkpt lat="-37.00066851039481" lon="175.866349418272">
        <ele>135</ele>
      </trkpt>
      <trkpt lat="-37.00072954415411" lon="175.866102422277">
        <ele>137</ele>
      </trkpt>
      <trkpt lat="-37.00074194163646" lon="175.866005149723">
        <ele>137</ele>
      </trkpt>
      <trkpt lat="-37.00075433911882" lon="175.86590787717">
        <ele>138</ele>
      </trkpt>
      <trkpt lat="-37.00075910738127" lon="175.865810604616">
        <ele>137</ele>
      </trkpt>
      <trkpt lat="-37.00076387564371" lon="175.865714285714">
        <ele>133</ele>
      </trkpt>
      <trkpt lat="-37.0006866297921" lon="175.865660881175">
        <ele>131</ele>
      </trkpt>
      <trkpt lat="-37.00065611291245" lon="175.865658020217">
        <ele>131</ele>
      </trkpt>
      <trkpt lat="-37.00067137135228" lon="175.865722868587">
        <ele>133</ele>
      </trkpt>
      <trkpt lat="-37.00058363532329" lon="175.865703795537">
        <ele>132</ele>
      </trkpt>
      <trkpt lat="-37.00049589929429" lon="175.865684722487">
        <ele>131</ele>
      </trkpt>
      <trkpt lat="-37.00042914362006" lon="175.865631317948">
        <ele>129</ele>
      </trkpt>
      <trkpt lat="-37.00034808315849" lon="175.865617966813">
        <ele>128</ele>
      </trkpt>
      <trkpt lat="-37.00031375166889" lon="175.865582681671">
        <ele>126</ele>
      </trkpt>
      <trkpt lat="-37.00027751287431" lon="175.865582681671">
        <ele>126</ele>
      </trkpt>
      <trkpt lat="-37.0002517642571" lon="175.865634178905">
        <ele>128</ele>
      </trkpt>
      <trkpt lat="-37.00026416173946" lon="175.865679954225">
        <ele>130</ele>
      </trkpt>
      <trkpt lat="-37.00028800305169" lon="175.865703795537">
        <ele>130</ele>
      </trkpt>
      <trkpt lat="-37.00031184436391" lon="175.865684722487">
        <ele>130</ele>
      </trkpt>
      <trkpt lat="-37.0003566660309" lon="175.865795346176">
        <ele>134</ele>
      </trkpt>
      <trkpt lat="-37.00040148769788" lon="175.865848750715">
        <ele>135</ele>
      </trkpt>
      <trkpt lat="-37.00042056074766" lon="175.865899294297">
        <ele>135</ele>
      </trkpt>
      <trkpt lat="-37.00045298493229" lon="175.865918367347">
        <ele>135</ele>
      </trkpt>
      <trkpt lat="-37.00048254815945" lon="175.865961281709">
        <ele>135</ele>
      </trkpt>
      <trkpt lat="-37.00049288660748" lon="175.866024173934">
        <ele>135</ele>
      </trkpt>
    </trkseg>
  </trk>
</gpx>