<?xml version="1.0" encoding="UTF-8" standalone="yes"?>
<gpx
 version="1.1"
 creator="Generated by MapOut iPhone App. See https://mapout.app"
 xmlns="http://www.topografix.com/GPX/1/1"
 xmlns:xsi="http://www.w3.org/2001/XMLSchema-instance"
 xmlns:gpxx="http://www.garmin.com/xmlschemas/GpxExtensions/v3"
 xmlns:mapout="https://mapout.app/xmlschemas/MapOutExtensions"
 xsi:schemaLocation="http://www.topografix.com/GPX/1/1 https://www.topografix.com/GPX/1/1/gpx.xsd http://www.garmin.com/xmlschemas/GpxExtensions/v3 https://www8.garmin.com/xmlschemas/GpxExtensionsv3.xsd https://mapout.app/xmlschemas/MapOutExtensions https://mapout.app/xmlschemas/MapOutExtensions.xsd">
  <metadata>
    <name>Kapnui Loop</name>
    <author><name>iPhone</name></author>
    <time>2026-05-26T00:59:00Z</time>
    <bounds minlat="-39.32626168224299" minlon="174.103521838642" maxlat="-39.32290101087164" maxlon="174.107496662216"/>
  </metadata>
  <trk>
    <name>Kapnui Loop</name>
    <trkseg>
      <trkpt lat="-39.32395670417699" lon="174.103559031089">
        <ele>899</ele>
      </trkpt>
      <trkpt lat="-39.32384131222582" lon="174.103589547969">
        <ele>900</ele>
      </trkpt>
      <trkpt lat="-39.32372496662216" lon="174.103621018501">
        <ele>902</ele>
      </trkpt>
      <trkpt lat="-39.32362292580584" lon="174.103705893572">
        <ele>903</ele>
      </trkpt>
      <trkpt lat="-39.32362292580584" lon="174.103705893572">
        <ele>903</ele>
      </trkpt>
      <trkpt lat="-39.3234951363723" lon="174.104052069426">
        <ele>901</ele>
      </trkpt>
      <trkpt lat="-39.32345508296776" lon="174.104125500668">
        <ele>901</ele>
      </trkpt>
      <trkpt lat="-39.32341502956323" lon="174.104198931909">
        <ele>901</ele>
      </trkpt>
      <trkpt lat="-39.32331966431432" lon="174.104271409498">
        <ele>901</ele>
      </trkpt>
      <trkpt lat="-39.32324146481022" lon="174.104287621591">
        <ele>901</ele>
      </trkpt>
      <trkpt lat="-39.32316231165363" lon="174.104304787336">
        <ele>901</ele>
      </trkpt>
      <trkpt lat="-39.32308983406447" lon="174.104305740988">
        <ele>902</ele>
      </trkpt>
      <trkpt lat="-39.32301640282281" lon="174.10430669464">
        <ele>902</ele>
      </trkpt>
      <trkpt lat="-39.32298588594316" lon="174.104332443258">
        <ele>902</ele>
      </trkpt>
      <trkpt lat="-39.32296585924089" lon="174.104374403967">
        <ele>902</ele>
      </trkpt>
      <trkpt lat="-39.32295250810604" lon="174.104431623117">
        <ele>902</ele>
      </trkpt>
      <trkpt lat="-39.32297158115583" lon="174.104486934961">
        <ele>901</ele>
      </trkpt>
      <trkpt lat="-39.32297158115583" lon="174.104486934961">
        <ele>901</ele>
      </trkpt>
      <trkpt lat="-39.32290101087164" lon="174.104602326912">
        <ele>901</ele>
      </trkpt>
      <trkpt lat="-39.32293534236124" lon="174.104771123403">
        <ele>900</ele>
      </trkpt>
      <trkpt lat="-39.32295727636849" lon="174.104956131986">
        <ele>900</ele>
      </trkpt>
      <trkpt lat="-39.32301926378027" lon="174.105205988938">
        <ele>897</ele>
      </trkpt>
      <trkpt lat="-39.32301926378027" lon="174.105205988938">
        <ele>897</ele>
      </trkpt>
      <trkpt lat="-39.3230698073622" lon="174.105269883654">
        <ele>896</ele>
      </trkpt>
      <trkpt lat="-39.32312035094412" lon="174.105334732024">
        <ele>895</ele>
      </trkpt>
      <trkpt lat="-39.32316994087354" lon="174.105433911883">
        <ele>894</ele>
      </trkpt>
      <trkpt lat="-39.32321857715048" lon="174.105534045394">
        <ele>892</ele>
      </trkpt>
      <trkpt lat="-39.32328533282472" lon="174.105579820713">
        <ele>891</ele>
      </trkpt>
      <trkpt lat="-39.32335113484646" lon="174.105625596033">
        <ele>890</ele>
      </trkpt>
      <trkpt lat="-39.32341693686821" lon="174.105683768835">
        <ele>889</ele>
      </trkpt>
      <trkpt lat="-39.32348273888994" lon="174.105741941636">
        <ele>888</ele>
      </trkpt>
      <trkpt lat="-39.3234865534999" lon="174.105817280183">
        <ele>887</ele>
      </trkpt>
      <trkpt lat="-39.32348941445737" lon="174.105893572382">
        <ele>886</ele>
      </trkpt>
      <trkpt lat="-39.32346366584017" lon="174.105973679191">
        <ele>886</ele>
      </trkpt>
      <trkpt lat="-39.32343696357047" lon="174.106053786">
        <ele>885</ele>
      </trkpt>
      <trkpt lat="-39.3234522220103" lon="174.106152965859">
        <ele>884</ele>
      </trkpt>
      <trkpt lat="-39.32346652679763" lon="174.106253099371">
        <ele>883</ele>
      </trkpt>
      <trkpt lat="-39.32349036810986" lon="174.106353232882">
        <ele>882</ele>
      </trkpt>
      <trkpt lat="-39.32351420942209" lon="174.106454320046">
        <ele>880</ele>
      </trkpt>
      <trkpt lat="-39.32360671371352" lon="174.106699408735">
        <ele>877</ele>
      </trkpt>
      <trkpt lat="-39.32366393286286" lon="174.106770932672">
        <ele>876</ele>
      </trkpt>
      <trkpt lat="-39.32376120541674" lon="174.106780469197">
        <ele>875</ele>
      </trkpt>
      <trkpt lat="-39.32378409307648" lon="174.106795727637">
        <ele>875</ele>
      </trkpt>
      <trkpt lat="-39.32387564371543" lon="174.106833873736">
        <ele>874</ele>
      </trkpt>
      <trkpt lat="-39.32396719435437" lon="174.106872019836">
        <ele>873</ele>
      </trkpt>
      <trkpt lat="-39.32406637421324" lon="174.106985504482">
        <ele>871</ele>
      </trkpt>
      <trkpt lat="-39.3241655540721" lon="174.107099942781">
        <ele>870</ele>
      </trkpt>
      <trkpt lat="-39.32424279992371" lon="174.10716097654">
        <ele>868</ele>
      </trkpt>
      <trkpt lat="-39.32432004577532" lon="174.107222963952">
        <ele>867</ele>
      </trkpt>
      <trkpt lat="-39.32438394049208" lon="174.107247758917">
        <ele>866</ele>
      </trkpt>
      <trkpt lat="-39.32444688155636" lon="174.107272553881">
        <ele>865</ele>
      </trkpt>
      <trkpt lat="-39.32448979591837" lon="174.107339309556">
        <ele>863</ele>
      </trkpt>
      <trkpt lat="-39.32453175662788" lon="174.10740606523">
        <ele>862</ele>
      </trkpt>
      <trkpt lat="-39.32459660499714" lon="174.107448025939">
        <ele>860</ele>
      </trkpt>
      <trkpt lat="-39.32466145336639" lon="174.107490940301">
        <ele>859</ele>
      </trkpt>
      <trkpt lat="-39.32476254053023" lon="174.107496662216">
        <ele>857</ele>
      </trkpt>
      <trkpt lat="-39.32478065992752" lon="174.107407018882">
        <ele>858</ele>
      </trkpt>
      <trkpt lat="-39.32485313751669" lon="174.107399389662">
        <ele>857</ele>
      </trkpt>
      <trkpt lat="-39.32492561510585" lon="174.107392714095">
        <ele>856</ele>
      </trkpt>
      <trkpt lat="-39.32499237078009" lon="174.107366965478">
        <ele>855</ele>
      </trkpt>
      <trkpt lat="-39.32505912645432" lon="174.107342170513">
        <ele>854</ele>
      </trkpt>
      <trkpt lat="-39.32502098035476" lon="174.107278275796">
        <ele>856</ele>
      </trkpt>
      <trkpt lat="-39.3250085828724" lon="174.107212473775">
        <ele>857</ele>
      </trkpt>
      <trkpt lat="-39.32499618539004" lon="174.107146671753">
        <ele>858</ele>
      </trkpt>
      <trkpt lat="-39.32500953652489" lon="174.107065611291">
        <ele>859</ele>
      </trkpt>
      <trkpt lat="-39.32502193400725" lon="174.10698455083">
        <ele>860</ele>
      </trkpt>
      <trkpt lat="-39.32502193400725" lon="174.10698455083">
        <ele>860</ele>
      </trkpt>
      <trkpt lat="-39.32510585542628" lon="174.106935914553">
        <ele>860</ele>
      </trkpt>
      <trkpt lat="-39.32518882319282" lon="174.106887278276">
        <ele>860</ele>
      </trkpt>
      <trkpt lat="-39.32518882319282" lon="174.106887278276">
        <ele>860</ele>
      </trkpt>
      <trkpt lat="-39.32509917985886" lon="174.107089452603">
        <ele>858</ele>
      </trkpt>
      <trkpt lat="-39.32508964333397" lon="174.107139996185">
        <ele>857</ele>
      </trkpt>
      <trkpt lat="-39.32518405493038" lon="174.107092313561">
        <ele>856</ele>
      </trkpt>
      <trkpt lat="-39.32521872873323" lon="174.107229357639">
        <ele>854</ele>
      </trkpt>
      <trkpt lat="-39.32521872873323" lon="174.107229357639">
        <ele>854</ele>
      </trkpt>
      <trkpt lat="-39.32518405493038" lon="174.107092313561">
        <ele>856</ele>
      </trkpt>
      <trkpt lat="-39.32508964333397" lon="174.107139996185">
        <ele>857</ele>
      </trkpt>
      <trkpt lat="-39.32509917985886" lon="174.107089452603">
        <ele>858</ele>
      </trkpt>
      <trkpt lat="-39.32518882319282" lon="174.106887278276">
        <ele>860</ele>
      </trkpt>
      <trkpt lat="-39.32518882319282" lon="174.106887278276">
        <ele>860</ele>
      </trkpt>
      <trkpt lat="-39.32527179095937" lon="174.106882510013">
        <ele>859</ele>
      </trkpt>
      <trkpt lat="-39.32536810986077" lon="174.10676616441">
        <ele>860</ele>
      </trkpt>
      <trkpt lat="-39.32548540911692" lon="174.106801449552">
        <ele>858</ele>
      </trkpt>
      <trkpt lat="-39.32559603280564" lon="174.106794773984">
        <ele>857</ele>
      </trkpt>
      <trkpt lat="-39.32564753004005" lon="174.106764257105">
        <ele>857</ele>
      </trkpt>
      <trkpt lat="-39.32568758344459" lon="174.106756627885">
        <ele>857</ele>
      </trkpt>
      <trkpt lat="-39.32568853709708" lon="174.106685103948">
        <ele>859</ele>
      </trkpt>
      <trkpt lat="-39.32568853709708" lon="174.106613580011">
        <ele>860</ele>
      </trkpt>
      <trkpt lat="-39.32562750333778" lon="174.106579248522">
        <ele>861</ele>
      </trkpt>
      <trkpt lat="-39.32556646957848" lon="174.106545870685">
        <ele>862</ele>
      </trkpt>
      <trkpt lat="-39.32550829677665" lon="174.106481022315">
        <ele>863</ele>
      </trkpt>
      <trkpt lat="-39.32545012397483" lon="174.106416173946">
        <ele>864</ele>
      </trkpt>
      <trkpt lat="-39.32535952698836" lon="174.106336067137">
        <ele>866</ele>
      </trkpt>
      <trkpt lat="-39.3252689300019" lon="174.106255960328">
        <ele>868</ele>
      </trkpt>
      <trkpt lat="-39.32519454510776" lon="174.106143429334">
        <ele>870</ele>
      </trkpt>
      <trkpt lat="-39.32511920656113" lon="174.106030898341">
        <ele>872</ele>
      </trkpt>
      <trkpt lat="-39.32508964333397" lon="174.105954606142">
        <ele>873</ele>
      </trkpt>
      <trkpt lat="-39.32505912645432" lon="174.105879267595">
        <ele>874</ele>
      </trkpt>
      <trkpt lat="-39.32509822620637" lon="174.105777226779">
        <ele>875</ele>
      </trkpt>
      <trkpt lat="-39.32513732595842" lon="174.105676139615">
        <ele>875</ele>
      </trkpt>
      <trkpt lat="-39.32520217432767" lon="174.105597940111">
        <ele>876</ele>
      </trkpt>
      <trkpt lat="-39.32526606904444" lon="174.105519740607">
        <ele>876</ele>
      </trkpt>
      <trkpt lat="-39.32554072096128" lon="174.105461567805">
        <ele>875</ele>
      </trkpt>
      <trkpt lat="-39.32564276177761" lon="174.105364295251">
        <ele>875</ele>
      </trkpt>
      <trkpt lat="-39.32574384894144" lon="174.105267976349">
        <ele>875</ele>
      </trkpt>
      <trkpt lat="-39.32583253862293" lon="174.105208849895">
        <ele>875</ele>
      </trkpt>
      <trkpt lat="-39.3259212283044" lon="174.105150677093">
        <ele>874</ele>
      </trkpt>
      <trkpt lat="-39.32599370589357" lon="174.105117299256">
        <ele>872</ele>
      </trkpt>
      <trkpt lat="-39.32606618348274" lon="174.105083921419">
        <ele>871</ele>
      </trkpt>
      <trkpt lat="-39.32612817089453" lon="174.105042914362">
        <ele>870</ele>
      </trkpt>
      <trkpt lat="-39.32618920465382" lon="174.105001907305">
        <ele>869</ele>
      </trkpt>
      <trkpt lat="-39.32622544344841" lon="174.104933244326">
        <ele>868</ele>
      </trkpt>
      <trkpt lat="-39.32626168224299" lon="174.104865534999">
        <ele>867</ele>
      </trkpt>
      <trkpt lat="-39.32620160213618" lon="174.104585161167">
        <ele>870</ele>
      </trkpt>
      <trkpt lat="-39.32616822429906" lon="174.104501239748">
        <ele>871</ele>
      </trkpt>
      <trkpt lat="-39.32613389280946" lon="174.104418271982">
        <ele>872</ele>
      </trkpt>
      <trkpt lat="-39.32613484646195" lon="174.1043295823">
        <ele>873</ele>
      </trkpt>
      <trkpt lat="-39.32613580011444" lon="174.104241846271">
        <ele>873</ele>
      </trkpt>
      <trkpt lat="-39.32609097844745" lon="174.103810795346">
        <ele>874</ele>
      </trkpt>
      <trkpt lat="-39.32605283234789" lon="174.103695403395">
        <ele>875</ele>
      </trkpt>
      <trkpt lat="-39.32601373259584" lon="174.103580011444">
        <ele>875</ele>
      </trkpt>
      <trkpt lat="-39.32594602326912" lon="174.103550448217">
        <ele>876</ele>
      </trkpt>
      <trkpt lat="-39.3258783139424" lon="174.103521838642">
        <ele>877</ele>
      </trkpt>
      <trkpt lat="-39.32578294869349" lon="174.103560938394">
        <ele>878</ele>
      </trkpt>
      <trkpt lat="-39.32568758344459" lon="174.103600038146">
        <ele>879</ele>
      </trkpt>
      <trkpt lat="-39.32564276177761" lon="174.103671562083">
        <ele>880</ele>
      </trkpt>
      <trkpt lat="-39.32559698645813" lon="174.103744039672">
        <ele>881</ele>
      </trkpt>
      <trkpt lat="-39.32549113103185" lon="174.103851802403">
        <ele>882</ele>
      </trkpt>
      <trkpt lat="-39.32522792294488" lon="174.103962426092">
        <ele>884</ele>
      </trkpt>
      <trkpt lat="-39.32513541865344" lon="174.104039671944">
        <ele>885</ele>
      </trkpt>
      <trkpt lat="-39.32504291436201" lon="174.104117871448">
        <ele>885</ele>
      </trkpt>
      <trkpt lat="-39.32497901964524" lon="174.104202746519">
        <ele>885</ele>
      </trkpt>
      <trkpt lat="-39.32491512492847" lon="174.104287621591">
        <ele>886</ele>
      </trkpt>
      <trkpt lat="-39.32483787907686" lon="174.104300019073">
        <ele>887</ele>
      </trkpt>
      <trkpt lat="-39.32475967957276" lon="174.104312416555">
        <ele>887</ele>
      </trkpt>
      <trkpt lat="-39.32469959946595" lon="174.104373450315">
        <ele>888</ele>
      </trkpt>
      <trkpt lat="-39.32463951935915" lon="174.104434484074">
        <ele>888</ele>
      </trkpt>
      <trkpt lat="-39.32452317375548" lon="174.104400152584">
        <ele>890</ele>
      </trkpt>
      <trkpt lat="-39.32440682815182" lon="174.104366774747">
        <ele>891</ele>
      </trkpt>
      <trkpt lat="-39.32430669464047" lon="174.104328628648">
        <ele>892</ele>
      </trkpt>
      <trkpt lat="-39.32420560747664" lon="174.104291436201">
        <ele>893</ele>
      </trkpt>
      <trkpt lat="-39.32409116917795" lon="174.104192256342">
        <ele>895</ele>
      </trkpt>
      <trkpt lat="-39.32404825481594" lon="174.104104520313">
        <ele>896</ele>
      </trkpt>
      <trkpt lat="-39.32400534045394" lon="174.104016784284">
        <ele>896</ele>
      </trkpt>
      <trkpt lat="-39.32401869158878" lon="174.10393095556">
        <ele>897</ele>
      </trkpt>
      <trkpt lat="-39.32401869158878" lon="174.10393095556">
        <ele>897</ele>
      </trkpt>
      <trkpt lat="-39.32398054548922" lon="174.103858477971">
        <ele>897</ele>
      </trkpt>
      <trkpt lat="-39.3239686026765" lon="174.103836340074">
        <ele>897</ele>
      </trkpt>
    </trkseg>
  </trk>
</gpx>