<?xml version="1.0" encoding="UTF-8" standalone="yes"?>
<gpx
 version="1.1"
 creator="Generated by MapOut iPhone App. See https://mapout.app"
 xmlns="http://www.topografix.com/GPX/1/1"
 xmlns:xsi="http://www.w3.org/2001/XMLSchema-instance"
 xmlns:gpxx="http://www.garmin.com/xmlschemas/GpxExtensions/v3"
 xmlns:mapout="https://mapout.app/xmlschemas/MapOutExtensions"
 xsi:schemaLocation="http://www.topografix.com/GPX/1/1 https://www.topografix.com/GPX/1/1/gpx.xsd http://www.garmin.com/xmlschemas/GpxExtensions/v3 https://www8.garmin.com/xmlschemas/GpxExtensionsv3.xsd https://mapout.app/xmlschemas/MapOutExtensions https://mapout.app/xmlschemas/MapOutExtensions.xsd">
  <metadata>
    <name>Te Rerenga Tunnel Run</name>
    <author><name>iPhone</name></author>
    <time>2026-09-05T20:59:44Z</time>
    <bounds minlat="-37.94760633225253" minlon="176.148592408926" maxlat="-37.93870493991989" maxlon="176.154933575269"/>
  </metadata>
  <trk>
    <name>Te Rerenga Tunnel Run</name>
    <trkseg>
      <trkpt lat="-37.9463901006341" lon="176.154365586738">
        <ele>484</ele>
      </trkpt>
      <trkpt lat="-37.94642666412359" lon="176.154358191875">
        <ele>485</ele>
      </trkpt>
      <trkpt lat="-37.94648102231547" lon="176.154335304215">
        <ele>485</ele>
      </trkpt>
      <trkpt lat="-37.94650486362769" lon="176.154316231165">
        <ele>485</ele>
      </trkpt>
      <trkpt lat="-37.94650486362769" lon="176.154316231165">
        <ele>485</ele>
      </trkpt>
      <trkpt lat="-37.94650486362769" lon="176.154275224108">
        <ele>485</ele>
      </trkpt>
      <trkpt lat="-37.94653156589738" lon="176.154195117299">
        <ele>486</ele>
      </trkpt>
      <trkpt lat="-37.94658020217432" lon="176.15413789815">
        <ele>486</ele>
      </trkpt>
      <trkpt lat="-37.94664505054358" lon="176.15409593744">
        <ele>486</ele>
      </trkpt>
      <trkpt lat="-37.94671085256532" lon="176.154083539958">
        <ele>486</ele>
      </trkpt>
      <trkpt lat="-37.94676616440969" lon="176.154058744993">
        <ele>486</ele>
      </trkpt>
      <trkpt lat="-37.94681098607667" lon="176.154020598894">
        <ele>486</ele>
      </trkpt>
      <trkpt lat="-37.94686439061606" lon="176.153959565134">
        <ele>486</ele>
      </trkpt>
      <trkpt lat="-37.94691398054548" lon="176.15388899485">
        <ele>487</ele>
      </trkpt>
      <trkpt lat="-37.94696357047491" lon="176.153818424566">
        <ele>487</ele>
      </trkpt>
      <trkpt lat="-37.94700743848941" lon="176.153742132367">
        <ele>487</ele>
      </trkpt>
      <trkpt lat="-37.94705035285142" lon="176.153665840168">
        <ele>487</ele>
      </trkpt>
      <trkpt lat="-37.94707324051115" lon="176.153600038146">
        <ele>487</ele>
      </trkpt>
      <trkpt lat="-37.94709612817089" lon="176.153534236124">
        <ele>488</ele>
      </trkpt>
      <trkpt lat="-37.94709612817089" lon="176.153534236124">
        <ele>488</ele>
      </trkpt>
      <trkpt lat="-37.94714094983787" lon="176.153375929811">
        <ele>488</ele>
      </trkpt>
      <trkpt lat="-37.94714094983787" lon="176.153375929811">
        <ele>488</ele>
      </trkpt>
      <trkpt lat="-37.94717146671752" lon="176.153410261301">
        <ele>488</ele>
      </trkpt>
      <trkpt lat="-37.94722773221438" lon="176.153454129315">
        <ele>488</ele>
      </trkpt>
      <trkpt lat="-37.94728304405874" lon="176.153481785237">
        <ele>488</ele>
      </trkpt>
      <trkpt lat="-37.94728304405874" lon="176.153481785237">
        <ele>488</ele>
      </trkpt>
      <trkpt lat="-37.94735742895288" lon="176.153380698074">
        <ele>489</ele>
      </trkpt>
      <trkpt lat="-37.94743086019454" lon="176.15327961091">
        <ele>490</ele>
      </trkpt>
      <trkpt lat="-37.94746328437917" lon="176.153218577151">
        <ele>489</ele>
      </trkpt>
      <trkpt lat="-37.94748998664886" lon="176.153147053214">
        <ele>489</ele>
      </trkpt>
      <trkpt lat="-37.94755769597558" lon="176.152881937822">
        <ele>489</ele>
      </trkpt>
      <trkpt lat="-37.9475824909403" lon="176.152813274843">
        <ele>488</ele>
      </trkpt>
      <trkpt lat="-37.94760633225253" lon="176.152744611863">
        <ele>488</ele>
      </trkpt>
      <trkpt lat="-37.94760633225253" lon="176.152744611863">
        <ele>488</ele>
      </trkpt>
      <trkpt lat="-37.94729734884608" lon="176.152645432005">
        <ele>487</ele>
      </trkpt>
      <trkpt lat="-37.94722296395193" lon="176.152630173565">
        <ele>487</ele>
      </trkpt>
      <trkpt lat="-37.94716002288766" lon="176.152630173565">
        <ele>487</ele>
      </trkpt>
      <trkpt lat="-37.9470427236315" lon="176.152655922182">
        <ele>486</ele>
      </trkpt>
      <trkpt lat="-37.94692447072286" lon="176.152681670799">
        <ele>486</ele>
      </trkpt>
      <trkpt lat="-37.94684817852374" lon="176.152691207324">
        <ele>486</ele>
      </trkpt>
      <trkpt lat="-37.9467642571047" lon="176.152683578104">
        <ele>485</ele>
      </trkpt>
      <trkpt lat="-37.94667842838069" lon="176.152661644097">
        <ele>485</ele>
      </trkpt>
      <trkpt lat="-37.94660499713904" lon="176.152631127217">
        <ele>485</ele>
      </trkpt>
      <trkpt lat="-37.94653728781232" lon="176.15259012016">
        <ele>484</ele>
      </trkpt>
      <trkpt lat="-37.9464695784856" lon="176.152550066756">
        <ele>484</ele>
      </trkpt>
      <trkpt lat="-37.94641045203127" lon="176.152498569521">
        <ele>484</ele>
      </trkpt>
      <trkpt lat="-37.94632462330726" lon="176.152387945833">
        <ele>484</ele>
      </trkpt>
      <trkpt lat="-37.94632462330726" lon="176.152387945833">
        <ele>484</ele>
      </trkpt>
      <trkpt lat="-37.94628838451268" lon="176.152501430479">
        <ele>484</ele>
      </trkpt>
      <trkpt lat="-37.94621590692351" lon="176.152516688919">
        <ele>483</ele>
      </trkpt>
      <trkpt lat="-37.94614342933435" lon="176.152532901011">
        <ele>483</ele>
      </trkpt>
      <trkpt lat="-37.94608144192256" lon="176.152529086401">
        <ele>483</ele>
      </trkpt>
      <trkpt lat="-37.94601850085828" lon="176.152526225443">
        <ele>483</ele>
      </trkpt>
      <trkpt lat="-37.94598989128361" lon="176.152544344841">
        <ele>483</ele>
      </trkpt>
      <trkpt lat="-37.94589071142475" lon="176.152645432005">
        <ele>483</ele>
      </trkpt>
      <trkpt lat="-37.94585733358764" lon="176.152669273317">
        <ele>482</ele>
      </trkpt>
      <trkpt lat="-37.94582777036047" lon="176.152680717147">
        <ele>482</ele>
      </trkpt>
      <trkpt lat="-37.94574957085638" lon="176.152673087927">
        <ele>483</ele>
      </trkpt>
      <trkpt lat="-37.94570951745184" lon="176.152677856189">
        <ele>483</ele>
      </trkpt>
      <trkpt lat="-37.94567900057218" lon="176.152697882892">
        <ele>483</ele>
      </trkpt>
      <trkpt lat="-37.94562368872782" lon="176.152757962998">
        <ele>483</ele>
      </trkpt>
      <trkpt lat="-37.94559317184817" lon="176.152771314133">
        <ele>483</ele>
      </trkpt>
      <trkpt lat="-37.94557123784092" lon="176.152776082396">
        <ele>483</ele>
      </trkpt>
      <trkpt lat="-37.94554453557124" lon="176.152773221438">
        <ele>483</ele>
      </trkpt>
      <trkpt lat="-37.94547682624452" lon="176.152744611863">
        <ele>483</ele>
      </trkpt>
      <trkpt lat="-37.94538909021552" lon="176.152686439062">
        <ele>483</ele>
      </trkpt>
      <trkpt lat="-37.94534426854854" lon="176.152663551402">
        <ele>483</ele>
      </trkpt>
      <trkpt lat="-37.94532710280373" lon="176.152664505054">
        <ele>483</ele>
      </trkpt>
      <trkpt lat="-37.94530516879649" lon="176.152679763494">
        <ele>483</ele>
      </trkpt>
      <trkpt lat="-37.94523650581728" lon="176.152762731261">
        <ele>483</ele>
      </trkpt>
      <trkpt lat="-37.94520694259012" lon="176.152777989701">
        <ele>484</ele>
      </trkpt>
      <trkpt lat="-37.94515544535571" lon="176.152777989701">
        <ele>484</ele>
      </trkpt>
      <trkpt lat="-37.94512016021361" lon="176.15278561892">
        <ele>484</ele>
      </trkpt>
      <trkpt lat="-37.94506103375929" lon="176.152813274843">
        <ele>484</ele>
      </trkpt>
      <trkpt lat="-37.94503623879458" lon="176.152818043105">
        <ele>484</ele>
      </trkpt>
      <trkpt lat="-37.94497043677283" lon="176.15279324814">
        <ele>484</ele>
      </trkpt>
      <trkpt lat="-37.94492847606332" lon="176.15278943353">
        <ele>484</ele>
      </trkpt>
      <trkpt lat="-37.94485695212664" lon="176.152813274843">
        <ele>484</ele>
      </trkpt>
      <trkpt lat="-37.94478256723249" lon="176.152807552928">
        <ele>484</ele>
      </trkpt>
      <trkpt lat="-37.94470722868586" lon="176.152802784665">
        <ele>485</ele>
      </trkpt>
      <trkpt lat="-37.94466622162884" lon="176.152811367538">
        <ele>485</ele>
      </trkpt>
      <trkpt lat="-37.94458039290482" lon="176.152866679382">
        <ele>485</ele>
      </trkpt>
      <trkpt lat="-37.94449361052832" lon="176.152921991226">
        <ele>485</ele>
      </trkpt>
      <trkpt lat="-37.94438012588213" lon="176.152958230021">
        <ele>485</ele>
      </trkpt>
      <trkpt lat="-37.94434007247759" lon="176.152947739844">
        <ele>485</ele>
      </trkpt>
      <trkpt lat="-37.94431527751287" lon="176.152918176616">
        <ele>486</ele>
      </trkpt>
      <trkpt lat="-37.9442513827961" lon="176.152810413885">
        <ele>486</ele>
      </trkpt>
      <trkpt lat="-37.94420274651917" lon="176.152769406828">
        <ele>486</ele>
      </trkpt>
      <trkpt lat="-37.94414266641235" lon="176.152747472821">
        <ele>486</ele>
      </trkpt>
      <trkpt lat="-37.94407972534808" lon="176.152744611863">
        <ele>487</ele>
      </trkpt>
      <trkpt lat="-37.94400629410642" lon="176.152760823956">
        <ele>487</ele>
      </trkpt>
      <trkpt lat="-37.94392904825481" lon="176.152784665268">
        <ele>487</ele>
      </trkpt>
      <trkpt lat="-37.94385084875071" lon="176.15280850658">
        <ele>487</ele>
      </trkpt>
      <trkpt lat="-37.94373259584207" lon="176.152828533283">
        <ele>488</ele>
      </trkpt>
      <trkpt lat="-37.94346843410261" lon="176.152775128743">
        <ele>489</ele>
      </trkpt>
      <trkpt lat="-37.94342075147816" lon="176.152753194736">
        <ele>489</ele>
      </trkpt>
      <trkpt lat="-37.94338546633606" lon="176.152728399771">
        <ele>489</ele>
      </trkpt>
      <trkpt lat="-37.94332443257677" lon="176.152741750906">
        <ele>489</ele>
      </trkpt>
      <trkpt lat="-37.94326244516498" lon="176.152755102041">
        <ele>489</ele>
      </trkpt>
      <trkpt lat="-37.94316898722105" lon="176.152768453176">
        <ele>488</ele>
      </trkpt>
      <trkpt lat="-37.94307457562464" lon="176.152782757963">
        <ele>488</ele>
      </trkpt>
      <trkpt lat="-37.94297253480831" lon="176.15283520885">
        <ele>487</ele>
      </trkpt>
      <trkpt lat="-37.94285618920465" lon="176.152918176616">
        <ele>487</ele>
      </trkpt>
      <trkpt lat="-37.9427913408354" lon="176.153005912645">
        <ele>488</ele>
      </trkpt>
      <trkpt lat="-37.94274556551592" lon="176.15303833683">
        <ele>488</ele>
      </trkpt>
      <trkpt lat="-37.94267594888422" lon="176.153048827007">
        <ele>488</ele>
      </trkpt>
      <trkpt lat="-37.9426435246996" lon="176.153060270837">
        <ele>488</ele>
      </trkpt>
      <trkpt lat="-37.94261396147243" lon="176.15308792676">
        <ele>488</ele>
      </trkpt>
      <trkpt lat="-37.94259393477017" lon="176.153123211902">
        <ele>488</ele>
      </trkpt>
      <trkpt lat="-37.94255483501811" lon="176.153158497044">
        <ele>489</ele>
      </trkpt>
      <trkpt lat="-37.94251668891855" lon="176.153179477398">
        <ele>489</ele>
      </trkpt>
      <trkpt lat="-37.9424346748045" lon="176.153182338356">
        <ele>488</ele>
      </trkpt>
      <trkpt lat="-37.94238031661262" lon="176.153155636086">
        <ele>487</ele>
      </trkpt>
      <trkpt lat="-37.94234121686057" lon="176.153153728781">
        <ele>487</ele>
      </trkpt>
      <trkpt lat="-37.94231356093839" lon="176.153159450696">
        <ele>487</ele>
      </trkpt>
      <trkpt lat="-37.942260156399" lon="176.153257676903">
        <ele>488</ele>
      </trkpt>
      <trkpt lat="-37.94222105664695" lon="176.153346366584">
        <ele>488</ele>
      </trkpt>
      <trkpt lat="-37.94220293724966" lon="176.153371161549">
        <ele>488</ele>
      </trkpt>
      <trkpt lat="-37.94216574480259" lon="176.153398817471">
        <ele>488</ele>
      </trkpt>
      <trkpt lat="-37.94209708182338" lon="176.153418844173">
        <ele>488</ele>
      </trkpt>
      <trkpt lat="-37.94202269692924" lon="176.153411214953">
        <ele>487</ele>
      </trkpt>
      <trkpt lat="-37.94198550448216" lon="176.153425519741">
        <ele>487</ele>
      </trkpt>
      <trkpt lat="-37.94191398054549" lon="176.153424566088">
        <ele>487</ele>
      </trkpt>
      <trkpt lat="-37.94189300019072" lon="176.153430288003">
        <ele>487</ele>
      </trkpt>
      <trkpt lat="-37.94186343696357" lon="176.153453175663">
        <ele>487</ele>
      </trkpt>
      <trkpt lat="-37.94177570093458" lon="176.15347129506">
        <ele>487</ele>
      </trkpt>
      <trkpt lat="-37.94175185962235" lon="176.15349036811">
        <ele>487</ele>
      </trkpt>
      <trkpt lat="-37.94173660118253" lon="176.153521838642">
        <ele>487</ele>
      </trkpt>
      <trkpt lat="-37.94171752813274" lon="176.153630555026">
        <ele>488</ele>
      </trkpt>
      <trkpt lat="-37.94167175281327" lon="176.153715430097">
        <ele>489</ele>
      </trkpt>
      <trkpt lat="-37.9416259774938" lon="176.153800305169">
        <ele>490</ele>
      </trkpt>
      <trkpt lat="-37.94157829486934" lon="176.153847034141">
        <ele>490</ele>
      </trkpt>
      <trkpt lat="-37.94154014876978" lon="176.153867060843">
        <ele>490</ele>
      </trkpt>
      <trkpt lat="-37.94151535380507" lon="176.153897577723">
        <ele>490</ele>
      </trkpt>
      <trkpt lat="-37.94145336639328" lon="176.153913789815">
        <ele>489</ele>
      </trkpt>
      <trkpt lat="-37.94142857142857" lon="176.153935723822">
        <ele>489</ele>
      </trkpt>
      <trkpt lat="-37.94134083539958" lon="176.153971962617">
        <ele>489</ele>
      </trkpt>
      <trkpt lat="-37.94130555025748" lon="176.153979591837">
        <ele>489</ele>
      </trkpt>
      <trkpt lat="-37.94124642380316" lon="176.153979591837">
        <ele>488</ele>
      </trkpt>
      <trkpt lat="-37.94120541674614" lon="176.153993896624">
        <ele>488</ele>
      </trkpt>
      <trkpt lat="-37.94115105855426" lon="176.154019645241">
        <ele>488</ele>
      </trkpt>
      <trkpt lat="-37.94111195880221" lon="176.154050162121">
        <ele>488</ele>
      </trkpt>
      <trkpt lat="-37.9410604615678" lon="176.154068281518">
        <ele>488</ele>
      </trkpt>
      <trkpt lat="-37.94102994468815" lon="176.154070188823">
        <ele>488</ele>
      </trkpt>
      <trkpt lat="-37.94094602326911" lon="176.154034903681">
        <ele>487</ele>
      </trkpt>
      <trkpt lat="-37.94088212855235" lon="176.154023459851">
        <ele>486</ele>
      </trkpt>
      <trkpt lat="-37.9408172801831" lon="176.154012016021">
        <ele>485</ele>
      </trkpt>
      <trkpt lat="-37.94072668319664" lon="176.154034903681">
        <ele>485</ele>
      </trkpt>
      <trkpt lat="-37.9406427617776" lon="176.15410356666">
        <ele>486</ele>
      </trkpt>
      <trkpt lat="-37.94056933053595" lon="176.154148388327">
        <ele>486</ele>
      </trkpt>
      <trkpt lat="-37.94049589929429" lon="176.154194163647">
        <ele>486</ele>
      </trkpt>
      <trkpt lat="-37.94045107762731" lon="176.154289528896">
        <ele>487</ele>
      </trkpt>
      <trkpt lat="-37.94038527560556" lon="176.154334350563">
        <ele>486</ele>
      </trkpt>
      <trkpt lat="-37.94030516879648" lon="176.154413503719">
        <ele>486</ele>
      </trkpt>
      <trkpt lat="-37.94022410833492" lon="176.154493610528">
        <ele>486</ele>
      </trkpt>
      <trkpt lat="-37.94014876978829" lon="176.154581346557">
        <ele>486</ele>
      </trkpt>
      <trkpt lat="-37.94008392141903" lon="176.154627121877">
        <ele>486</ele>
      </trkpt>
      <trkpt lat="-37.94002765592218" lon="176.154657638756">
        <ele>486</ele>
      </trkpt>
      <trkpt lat="-37.94" lon="176.154663360671">
        <ele>486</ele>
      </trkpt>
      <trkpt lat="-37.94" lon="176.154663360671">
        <ele>486</ele>
      </trkpt>
      <trkpt lat="-37.93991035666603" lon="176.154700553118">
        <ele>485</ele>
      </trkpt>
      <trkpt lat="-37.93987125691398" lon="176.154699599466">
        <ele>485</ele>
      </trkpt>
      <trkpt lat="-37.93975205035285" lon="176.154735838261">
        <ele>484</ele>
      </trkpt>
      <trkpt lat="-37.93969101659355" lon="176.154698645814">
        <ele>483</ele>
      </trkpt>
      <trkpt lat="-37.93964810223154" lon="176.154680526416">
        <ele>483</ele>
      </trkpt>
      <trkpt lat="-37.93955845889758" lon="176.154692923899">
        <ele>482</ele>
      </trkpt>
      <trkpt lat="-37.93948979591837" lon="176.154623307267">
        <ele>481</ele>
      </trkpt>
      <trkpt lat="-37.93940110623689" lon="176.154549876025">
        <ele>479</ele>
      </trkpt>
      <trkpt lat="-37.93935056265497" lon="176.154447835209">
        <ele>478</ele>
      </trkpt>
      <trkpt lat="-37.93932290673278" lon="176.154369635705">
        <ele>478</ele>
      </trkpt>
      <trkpt lat="-37.9392952508106" lon="176.154292389853">
        <ele>477</ele>
      </trkpt>
      <trkpt lat="-37.93927140949838" lon="176.154247568186">
        <ele>476</ele>
      </trkpt>
      <trkpt lat="-37.9391998855617" lon="176.154184627122">
        <ele>475</ele>
      </trkpt>
      <trkpt lat="-37.93918367346939" lon="176.1541569712">
        <ele>475</ele>
      </trkpt>
      <trkpt lat="-37.93918367346939" lon="176.1541569712">
        <ele>475</ele>
      </trkpt>
      <trkpt lat="-37.93915029563227" lon="176.154074003433">
        <ele>474</ele>
      </trkpt>
      <trkpt lat="-37.93915029563227" lon="176.154074003433">
        <ele>474</ele>
      </trkpt>
      <trkpt lat="-37.93913408353995" lon="176.154042532901">
        <ele>474</ele>
      </trkpt>
      <trkpt lat="-37.93908163265306" lon="176.154031089071">
        <ele>473</ele>
      </trkpt>
      <trkpt lat="-37.9390177379363" lon="176.154053976731">
        <ele>472</ele>
      </trkpt>
      <trkpt lat="-37.9389738699218" lon="176.154105473965">
        <ele>472</ele>
      </trkpt>
      <trkpt lat="-37.93894239938966" lon="176.15416841503">
        <ele>472</ele>
      </trkpt>
      <trkpt lat="-37.93891092885752" lon="176.154231356094">
        <ele>472</ele>
      </trkpt>
      <trkpt lat="-37.93884226587831" lon="176.154233263399">
        <ele>471</ele>
      </trkpt>
      <trkpt lat="-37.93878600038146" lon="176.154185580774">
        <ele>470</ele>
      </trkpt>
      <trkpt lat="-37.93875071523937" lon="176.154106427618">
        <ele>468</ele>
      </trkpt>
      <trkpt lat="-37.93871543009728" lon="176.154028228114">
        <ele>467</ele>
      </trkpt>
      <trkpt lat="-37.93870493991989" lon="176.15393095556">
        <ele>466</ele>
      </trkpt>
      <trkpt lat="-37.93876883463666" lon="176.153580965096">
        <ele>464</ele>
      </trkpt>
      <trkpt lat="-37.93876406637421" lon="176.153170894526">
        <ele>463</ele>
      </trkpt>
      <trkpt lat="-37.938783139424" lon="176.153086973107">
        <ele>463</ele>
      </trkpt>
      <trkpt lat="-37.93882891474347" lon="176.152992561511">
        <ele>464</ele>
      </trkpt>
      <trkpt lat="-37.93913122258249" lon="176.152721724204">
        <ele>464</ele>
      </trkpt>
      <trkpt lat="-37.93922849513637" lon="176.152654014877">
        <ele>464</ele>
      </trkpt>
      <trkpt lat="-37.93932481403776" lon="176.15258630555">
        <ele>464</ele>
      </trkpt>
      <trkpt lat="-37.93939633797444" lon="176.152520503529">
        <ele>463</ele>
      </trkpt>
      <trkpt lat="-37.93946690825863" lon="176.152454701507">
        <ele>464</ele>
      </trkpt>
      <trkpt lat="-37.93946690825863" lon="176.152454701507">
        <ele>464</ele>
      </trkpt>
      <trkpt lat="-37.93956036620256" lon="176.15236791913">
        <ele>464</ele>
      </trkpt>
      <trkpt lat="-37.93956036620256" lon="176.15236791913">
        <ele>464</ele>
      </trkpt>
      <trkpt lat="-37.93989319092123" lon="176.151759488842">
        <ele>464</ele>
      </trkpt>
      <trkpt lat="-37.93989319092123" lon="176.151759488842">
        <ele>464</ele>
      </trkpt>
      <trkpt lat="-37.94" lon="176.151756627885">
        <ele>462</ele>
      </trkpt>
      <trkpt lat="-37.94" lon="176.151756627885">
        <ele>462</ele>
      </trkpt>
      <trkpt lat="-37.94045298493229" lon="176.151741369445">
        <ele>464</ele>
      </trkpt>
      <trkpt lat="-37.94060461567804" lon="176.15175472058">
        <ele>465</ele>
      </trkpt>
      <trkpt lat="-37.94125786763303" lon="176.151936868205">
        <ele>467</ele>
      </trkpt>
      <trkpt lat="-37.94144478352088" lon="176.151940682815">
        <ele>468</ele>
      </trkpt>
      <trkpt lat="-37.94178428380697" lon="176.151896814801">
        <ele>470</ele>
      </trkpt>
      <trkpt lat="-37.94183005912645" lon="176.151870112531">
        <ele>471</ele>
      </trkpt>
      <trkpt lat="-37.94187392714095" lon="176.151806217814">
        <ele>471</ele>
      </trkpt>
      <trkpt lat="-37.94196070951745" lon="176.151562082777">
        <ele>472</ele>
      </trkpt>
      <trkpt lat="-37.94219530802975" lon="176.15131413313">
        <ele>473</ele>
      </trkpt>
      <trkpt lat="-37.94256246423803" lon="176.150803929048">
        <ele>469</ele>
      </trkpt>
      <trkpt lat="-37.94261110051497" lon="176.150686629792">
        <ele>469</ele>
      </trkpt>
      <trkpt lat="-37.94265592218196" lon="176.150528323479">
        <ele>469</ele>
      </trkpt>
      <trkpt lat="-37.94268167079915" lon="176.15003433149">
        <ele>469</ele>
      </trkpt>
      <trkpt lat="-37.94274365821094" lon="176.149610909785">
        <ele>471</ele>
      </trkpt>
      <trkpt lat="-37.94313274842647" lon="176.149765401488">
        <ele>471</ele>
      </trkpt>
      <trkpt lat="-37.94333969101659" lon="176.149870303262">
        <ele>470</ele>
      </trkpt>
      <trkpt lat="-37.94355330917413" lon="176.15000762922">
        <ele>470</ele>
      </trkpt>
      <trkpt lat="-37.94362864772076" lon="176.150027655922">
        <ele>471</ele>
      </trkpt>
      <trkpt lat="-37.94365439633797" lon="176.15002288766">
        <ele>471</ele>
      </trkpt>
      <trkpt lat="-37.94365439633797" lon="176.15002288766">
        <ele>471</ele>
      </trkpt>
      <trkpt lat="-37.94374117871448" lon="176.15000381461">
        <ele>472</ele>
      </trkpt>
      <trkpt lat="-37.94374117871448" lon="176.15000381461">
        <ele>472</ele>
      </trkpt>
      <trkpt lat="-37.94383749761587" lon="176.149960900248">
        <ele>473</ele>
      </trkpt>
      <trkpt lat="-37.94393381651726" lon="176.149917985886">
        <ele>474</ele>
      </trkpt>
      <trkpt lat="-37.94402918176616" lon="176.149855998474">
        <ele>475</ele>
      </trkpt>
      <trkpt lat="-37.94412454701506" lon="176.149794011062">
        <ele>475</ele>
      </trkpt>
      <trkpt lat="-37.94438012588213" lon="176.149587068472">
        <ele>477</ele>
      </trkpt>
      <trkpt lat="-37.94470818233835" lon="176.149233263399">
        <ele>477</ele>
      </trkpt>
      <trkpt lat="-37.94481499141713" lon="176.149166507725">
        <ele>476</ele>
      </trkpt>
      <trkpt lat="-37.9449218004959" lon="176.14909975205">
        <ele>477</ele>
      </trkpt>
      <trkpt lat="-37.94500286095747" lon="176.149032042724">
        <ele>477</ele>
      </trkpt>
      <trkpt lat="-37.94509727255388" lon="176.148929048255">
        <ele>478</ele>
      </trkpt>
      <trkpt lat="-37.9451907304978" lon="176.148826053786">
        <ele>479</ele>
      </trkpt>
      <trkpt lat="-37.94530516879649" lon="176.148740225062">
        <ele>479</ele>
      </trkpt>
      <trkpt lat="-37.94540911691779" lon="176.148641045203">
        <ele>479</ele>
      </trkpt>
      <trkpt lat="-37.94547587259202" lon="176.148616250238">
        <ele>479</ele>
      </trkpt>
      <trkpt lat="-37.94554167461376" lon="176.148592408926">
        <ele>479</ele>
      </trkpt>
      <trkpt lat="-37.94560652298302" lon="176.148593362579">
        <ele>479</ele>
      </trkpt>
      <trkpt lat="-37.94567137135228" lon="176.148595269884">
        <ele>478</ele>
      </trkpt>
      <trkpt lat="-37.94572859050162" lon="176.148643906161">
        <ele>478</ele>
      </trkpt>
      <trkpt lat="-37.94576578294869" lon="176.148737364105">
        <ele>479</ele>
      </trkpt>
      <trkpt lat="-37.9457562464238" lon="176.148838451268">
        <ele>479</ele>
      </trkpt>
      <trkpt lat="-37.94570761014686" lon="176.1489080679">
        <ele>479</ele>
      </trkpt>
      <trkpt lat="-37.94569330535952" lon="176.148974823574">
        <ele>479</ele>
      </trkpt>
      <trkpt lat="-37.94571047110433" lon="176.149045393859">
        <ele>479</ele>
      </trkpt>
      <trkpt lat="-37.94572763684913" lon="176.149115964143">
        <ele>479</ele>
      </trkpt>
      <trkpt lat="-37.94575147816136" lon="176.14914552737">
        <ele>479</ele>
      </trkpt>
      <trkpt lat="-37.94577627312607" lon="176.149155063895">
        <ele>479</ele>
      </trkpt>
      <trkpt lat="-37.94584398245279" lon="176.149150295632">
        <ele>480</ele>
      </trkpt>
      <trkpt lat="-37.94587259202746" lon="176.149139805455">
        <ele>480</ele>
      </trkpt>
      <trkpt lat="-37.94590310890711" lon="176.149120732405">
        <ele>479</ele>
      </trkpt>
      <trkpt lat="-37.9459212283044" lon="176.14909212283">
        <ele>479</ele>
      </trkpt>
      <trkpt lat="-37.9459212283044" lon="176.149054930383">
        <ele>479</ele>
      </trkpt>
      <trkpt lat="-37.94591073812703" lon="176.149024413504">
        <ele>479</ele>
      </trkpt>
      <trkpt lat="-37.94584875071524" lon="176.148976730879">
        <ele>479</ele>
      </trkpt>
      <trkpt lat="-37.9458430288003" lon="176.148954796872">
        <ele>479</ele>
      </trkpt>
      <trkpt lat="-37.94584875071524" lon="176.14887755102">
        <ele>479</ele>
      </trkpt>
      <trkpt lat="-37.94586019454511" lon="176.148863246233">
        <ele>479</ele>
      </trkpt>
      <trkpt lat="-37.94589834064467" lon="176.148861338928">
        <ele>479</ele>
      </trkpt>
      <trkpt lat="-37.94592599656685" lon="176.148848941446">
        <ele>478</ele>
      </trkpt>
      <trkpt lat="-37.94595460614152" lon="176.148847034141">
        <ele>478</ele>
      </trkpt>
      <trkpt lat="-37.94598607667366" lon="176.148850848751">
        <ele>478</ele>
      </trkpt>
      <trkpt lat="-37.94600324241846" lon="176.148867060843">
        <ele>478</ele>
      </trkpt>
      <trkpt lat="-37.94603280564562" lon="176.148864199886">
        <ele>478</ele>
      </trkpt>
      <trkpt lat="-37.94605473965287" lon="176.148827961091">
        <ele>478</ele>
      </trkpt>
      <trkpt lat="-37.9460690444402" lon="176.148818424566">
        <ele>478</ele>
      </trkpt>
      <trkpt lat="-37.94608239557505" lon="176.148820331871">
        <ele>478</ele>
      </trkpt>
      <trkpt lat="-37.94614438298684" lon="176.148773602899">
        <ele>477</ele>
      </trkpt>
      <trkpt lat="-37.9461567804692" lon="176.148758344459">
        <ele>477</ele>
      </trkpt>
      <trkpt lat="-37.946173946214" lon="176.148700171657">
        <ele>477</ele>
      </trkpt>
      <trkpt lat="-37.94620255578867" lon="176.148677283998">
        <ele>477</ele>
      </trkpt>
      <trkpt lat="-37.94622830440587" lon="176.148665840168">
        <ele>477</ele>
      </trkpt>
      <trkpt lat="-37.94630173564752" lon="176.148680144955">
        <ele>476</ele>
      </trkpt>
      <trkpt lat="-37.94637516688918" lon="176.148694449743">
        <ele>476</ele>
      </trkpt>
      <trkpt lat="-37.94641998855617" lon="176.148740225062">
        <ele>476</ele>
      </trkpt>
      <trkpt lat="-37.94644001525844" lon="176.148813656304">
        <ele>477</ele>
      </trkpt>
      <trkpt lat="-37.94646004196071" lon="176.148887087545">
        <ele>477</ele>
      </trkpt>
      <trkpt lat="-37.94648292962044" lon="176.149143620065">
        <ele>478</ele>
      </trkpt>
      <trkpt lat="-37.9465220293725" lon="176.149224680526">
        <ele>478</ele>
      </trkpt>
      <trkpt lat="-37.94656017547205" lon="176.149306694641">
        <ele>479</ele>
      </trkpt>
      <trkpt lat="-37.94658687774174" lon="176.149398245279">
        <ele>479</ele>
      </trkpt>
      <trkpt lat="-37.94658401678428" lon="176.149462139996">
        <ele>479</ele>
      </trkpt>
      <trkpt lat="-37.9465468243372" lon="176.149547015068">
        <ele>479</ele>
      </trkpt>
      <trkpt lat="-37.94634083539957" lon="176.149840740034">
        <ele>481</ele>
      </trkpt>
      <trkpt lat="-37.94631794773984" lon="176.149923707801">
        <ele>481</ele>
      </trkpt>
      <trkpt lat="-37.94630936486744" lon="176.150013351135">
        <ele>482</ele>
      </trkpt>
      <trkpt lat="-37.94630078199503" lon="176.150102994469">
        <ele>482</ele>
      </trkpt>
      <trkpt lat="-37.94625882128552" lon="176.150209803548">
        <ele>482</ele>
      </trkpt>
      <trkpt lat="-37.94619492656875" lon="176.150323288194">
        <ele>483</ele>
      </trkpt>
      <trkpt lat="-37.9461300781995" lon="176.15043677284">
        <ele>483</ele>
      </trkpt>
      <trkpt lat="-37.94610242227732" lon="176.150544535571">
        <ele>484</ele>
      </trkpt>
      <trkpt lat="-37.94609383940492" lon="176.150634178905">
        <ele>484</ele>
      </trkpt>
      <trkpt lat="-37.94608430288002" lon="176.150723822239">
        <ele>484</ele>
      </trkpt>
      <trkpt lat="-37.94604043486553" lon="176.150818233836">
        <ele>485</ele>
      </trkpt>
      <trkpt lat="-37.94602899103566" lon="176.15086210185">
        <ele>485</ele>
      </trkpt>
      <trkpt lat="-37.94600133511348" lon="176.151163456037">
        <ele>485</ele>
      </trkpt>
      <trkpt lat="-37.94597940110624" lon="176.151278847988">
        <ele>485</ele>
      </trkpt>
      <trkpt lat="-37.94599656685104" lon="176.151385657067">
        <ele>485</ele>
      </trkpt>
      <trkpt lat="-37.94601373259584" lon="176.151493419798">
        <ele>485</ele>
      </trkpt>
      <trkpt lat="-37.94604043486553" lon="176.151567804692">
        <ele>485</ele>
      </trkpt>
      <trkpt lat="-37.94603662025558" lon="176.151591646004">
        <ele>485</ele>
      </trkpt>
      <trkpt lat="-37.94600610337593" lon="176.151650772459">
        <ele>485</ele>
      </trkpt>
      <trkpt lat="-37.94599179858859" lon="176.151694640473">
        <ele>485</ele>
      </trkpt>
      <trkpt lat="-37.94599370589357" lon="176.15170513065">
        <ele>485</ele>
      </trkpt>
      <trkpt lat="-37.94600324241846" lon="176.151707991608">
        <ele>485</ele>
      </trkpt>
      <trkpt lat="-37.94603757390806" lon="176.151679382033">
        <ele>485</ele>
      </trkpt>
      <trkpt lat="-37.94606522983025" lon="176.151677474728">
        <ele>485</ele>
      </trkpt>
      <trkpt lat="-37.94608811748999" lon="176.151678428381">
        <ele>485</ele>
      </trkpt>
      <trkpt lat="-37.94609670036238" lon="176.151692733168">
        <ele>485</ele>
      </trkpt>
      <trkpt lat="-37.94609670036238" lon="176.151692733168">
        <ele>485</ele>
      </trkpt>
      <trkpt lat="-37.94612244897959" lon="176.151757581537">
        <ele>485</ele>
      </trkpt>
      <trkpt lat="-37.94612244897959" lon="176.151757581537">
        <ele>485</ele>
      </trkpt>
      <trkpt lat="-37.94620923135609" lon="176.151871066184">
        <ele>484</ele>
      </trkpt>
      <trkpt lat="-37.94620923135609" lon="176.151871066184">
        <ele>484</ele>
      </trkpt>
      <trkpt lat="-37.94623879458325" lon="176.152127598703">
        <ele>484</ele>
      </trkpt>
      <trkpt lat="-37.94626549685294" lon="176.152244897959">
        <ele>484</ele>
      </trkpt>
      <trkpt lat="-37.94629219912264" lon="176.152318329201">
        <ele>484</ele>
      </trkpt>
      <trkpt lat="-37.94632462330726" lon="176.152387945833">
        <ele>484</ele>
      </trkpt>
      <trkpt lat="-37.94641045203127" lon="176.152498569521">
        <ele>484</ele>
      </trkpt>
      <trkpt lat="-37.9464695784856" lon="176.152550066756">
        <ele>484</ele>
      </trkpt>
      <trkpt lat="-37.94653728781232" lon="176.15259012016">
        <ele>484</ele>
      </trkpt>
      <trkpt lat="-37.94660499713904" lon="176.152631127217">
        <ele>485</ele>
      </trkpt>
      <trkpt lat="-37.94667842838069" lon="176.152661644097">
        <ele>485</ele>
      </trkpt>
      <trkpt lat="-37.9467642571047" lon="176.152683578104">
        <ele>485</ele>
      </trkpt>
      <trkpt lat="-37.94684817852374" lon="176.152691207324">
        <ele>486</ele>
      </trkpt>
      <trkpt lat="-37.94692447072286" lon="176.152681670799">
        <ele>486</ele>
      </trkpt>
      <trkpt lat="-37.9470427236315" lon="176.152655922182">
        <ele>486</ele>
      </trkpt>
      <trkpt lat="-37.94716002288766" lon="176.152630173565">
        <ele>487</ele>
      </trkpt>
      <trkpt lat="-37.94722296395193" lon="176.152630173565">
        <ele>487</ele>
      </trkpt>
      <trkpt lat="-37.94729734884608" lon="176.152645432005">
        <ele>487</ele>
      </trkpt>
      <trkpt lat="-37.94760633225253" lon="176.152744611863">
        <ele>488</ele>
      </trkpt>
      <trkpt lat="-37.94760633225253" lon="176.152744611863">
        <ele>488</ele>
      </trkpt>
      <trkpt lat="-37.9475824909403" lon="176.152813274843">
        <ele>488</ele>
      </trkpt>
      <trkpt lat="-37.94755769597558" lon="176.152881937822">
        <ele>489</ele>
      </trkpt>
      <trkpt lat="-37.94751687973527" lon="176.153041753523">
        <ele>489</ele>
      </trkpt>
      <trkpt lat="-37.94751382796109" lon="176.15304215144">
        <ele>489</ele>
      </trkpt>
      <trkpt lat="-37.94720675185962" lon="176.153082204845">
        <ele>488</ele>
      </trkpt>
      <trkpt lat="-37.94713808888041" lon="176.153119397292">
        <ele>488</ele>
      </trkpt>
      <trkpt lat="-37.9471123402632" lon="176.153151821476">
        <ele>488</ele>
      </trkpt>
      <trkpt lat="-37.94709708182338" lon="176.153193782186">
        <ele>488</ele>
      </trkpt>
      <trkpt lat="-37.94709612817089" lon="176.153243372115">
        <ele>488</ele>
      </trkpt>
      <trkpt lat="-37.9471037573908" lon="176.153297730307">
        <ele>488</ele>
      </trkpt>
      <trkpt lat="-37.94711806217814" lon="176.153336830059">
        <ele>488</ele>
      </trkpt>
      <trkpt lat="-37.94714094983787" lon="176.153375929811">
        <ele>488</ele>
      </trkpt>
      <trkpt lat="-37.94714094983787" lon="176.153375929811">
        <ele>488</ele>
      </trkpt>
      <trkpt lat="-37.94709612817089" lon="176.153534236124">
        <ele>488</ele>
      </trkpt>
      <trkpt lat="-37.94709612817089" lon="176.153534236124">
        <ele>488</ele>
      </trkpt>
      <trkpt lat="-37.94707324051115" lon="176.153600038146">
        <ele>487</ele>
      </trkpt>
      <trkpt lat="-37.94705035285142" lon="176.153665840168">
        <ele>487</ele>
      </trkpt>
      <trkpt lat="-37.94700743848941" lon="176.153742132367">
        <ele>487</ele>
      </trkpt>
      <trkpt lat="-37.94696357047491" lon="176.153818424566">
        <ele>487</ele>
      </trkpt>
      <trkpt lat="-37.94691398054548" lon="176.15388899485">
        <ele>487</ele>
      </trkpt>
      <trkpt lat="-37.94686439061606" lon="176.153959565134">
        <ele>486</ele>
      </trkpt>
      <trkpt lat="-37.94681098607667" lon="176.154020598894">
        <ele>486</ele>
      </trkpt>
      <trkpt lat="-37.94676616440969" lon="176.154058744993">
        <ele>486</ele>
      </trkpt>
      <trkpt lat="-37.94671085256532" lon="176.154083539958">
        <ele>486</ele>
      </trkpt>
      <trkpt lat="-37.94664505054358" lon="176.15409593744">
        <ele>486</ele>
      </trkpt>
      <trkpt lat="-37.94658020217432" lon="176.15413789815">
        <ele>486</ele>
      </trkpt>
      <trkpt lat="-37.94653156589738" lon="176.154195117299">
        <ele>486</ele>
      </trkpt>
      <trkpt lat="-37.94650486362769" lon="176.154275224108">
        <ele>485</ele>
      </trkpt>
      <trkpt lat="-37.94650486362769" lon="176.154316231165">
        <ele>485</ele>
      </trkpt>
      <trkpt lat="-37.94650486362769" lon="176.154364867442">
        <ele>485</ele>
      </trkpt>
      <trkpt lat="-37.9465220293725" lon="176.154444020599">
        <ele>485</ele>
      </trkpt>
      <trkpt lat="-37.94652584398245" lon="176.154520312798">
        <ele>484</ele>
      </trkpt>
      <trkpt lat="-37.94651535380507" lon="176.154603280565">
        <ele>484</ele>
      </trkpt>
      <trkpt lat="-37.94648102231547" lon="176.154715811558">
        <ele>483</ele>
      </trkpt>
      <trkpt lat="-37.94643906160594" lon="176.154803547587">
        <ele>483</ele>
      </trkpt>
      <trkpt lat="-37.94643906160594" lon="176.154803547587">
        <ele>483</ele>
      </trkpt>
      <trkpt lat="-37.94641522029372" lon="176.154909403014">
        <ele>482</ele>
      </trkpt>
      <trkpt lat="-37.9464097760921" lon="176.154933575269">
        <ele>482</ele>
      </trkpt>
    </trkseg>
  </trk>
</gpx>