<?xml version="1.0" encoding="UTF-8" standalone="yes"?>
<gpx
 version="1.1"
 creator="Generated by MapOut iPhone App. See https://mapout.app"
 xmlns="http://www.topografix.com/GPX/1/1"
 xmlns:xsi="http://www.w3.org/2001/XMLSchema-instance"
 xmlns:gpxx="http://www.garmin.com/xmlschemas/GpxExtensions/v3"
 xmlns:mapout="https://mapout.app/xmlschemas/MapOutExtensions"
 xsi:schemaLocation="http://www.topografix.com/GPX/1/1 https://www.topografix.com/GPX/1/1/gpx.xsd http://www.garmin.com/xmlschemas/GpxExtensions/v3 https://www8.garmin.com/xmlschemas/GpxExtensionsv3.xsd https://mapout.app/xmlschemas/MapOutExtensions https://mapout.app/xmlschemas/MapOutExtensions.xsd">
  <metadata>
    <name>Ruakuri Bush Walk</name>
    <author><name>iPhone</name></author>
    <time>2026-05-31T07:59:34Z</time>
    <bounds minlat="-38.26653538050734" minlon="175.074863627694" maxlat="-38.26504178917398" maxlon="175.079839155782"/>
  </metadata>
  <wpt lat="-38.26561054795331" lon="175.075589616004">
    <ele>112</ele>
    <name>Natural Tunnel</name>
    <sym>Waypoint</sym>
    <extensions>
      <mapout:extension>
        <mapout:color>FF2E1B</mapout:color>
      </mapout:extension>
    </extensions>
  </wpt>
  <trk>
    <trkseg>
      <trkpt lat="-38.26529250194979" lon="175.079839155782">
        <ele>77</ele>
      </trkpt>
      <trkpt lat="-38.26527179095937" lon="175.079837879077">
        <ele>76</ele>
      </trkpt>
      <trkpt lat="-38.26527179095937" lon="175.079837879077">
        <ele>76</ele>
      </trkpt>
      <trkpt lat="-38.26519263780278" lon="175.079688155636">
        <ele>77</ele>
      </trkpt>
      <trkpt lat="-38.26519263780278" lon="175.079688155636">
        <ele>77</ele>
      </trkpt>
      <trkpt lat="-38.26520694259012" lon="175.079585161167">
        <ele>79</ele>
      </trkpt>
      <trkpt lat="-38.26522029372497" lon="175.079482166698">
        <ele>80</ele>
      </trkpt>
      <trkpt lat="-38.26522506198741" lon="175.079374403967">
        <ele>81</ele>
      </trkpt>
      <trkpt lat="-38.2652431813847" lon="175.079272363151">
        <ele>82</ele>
      </trkpt>
      <trkpt lat="-38.26527369826435" lon="175.079199885562">
        <ele>83</ele>
      </trkpt>
      <trkpt lat="-38.26530326149151" lon="175.079128361625">
        <ele>85</ele>
      </trkpt>
      <trkpt lat="-38.26541102422277" lon="175.079053023078">
        <ele>87</ele>
      </trkpt>
      <trkpt lat="-38.26546538241465" lon="175.078973869922">
        <ele>89</ele>
      </trkpt>
      <trkpt lat="-38.26551878695403" lon="175.078894716765">
        <ele>90</ele>
      </trkpt>
      <trkpt lat="-38.26558744993324" lon="175.078857524318">
        <ele>91</ele>
      </trkpt>
      <trkpt lat="-38.26565611291245" lon="175.078821285524">
        <ele>90</ele>
      </trkpt>
      <trkpt lat="-38.26569998092695" lon="175.078753576197">
        <ele>91</ele>
      </trkpt>
      <trkpt lat="-38.26574384894144" lon="175.07868586687">
        <ele>92</ele>
      </trkpt>
      <trkpt lat="-38.26580965096318" lon="175.078600038146">
        <ele>92</ele>
      </trkpt>
      <trkpt lat="-38.26587545298493" lon="175.078515163075">
        <ele>94</ele>
      </trkpt>
      <trkpt lat="-38.26600705702842" lon="175.078173755484">
        <ele>103</ele>
      </trkpt>
      <trkpt lat="-38.26598893763112" lon="175.078067900057">
        <ele>103</ele>
      </trkpt>
      <trkpt lat="-38.26597081823383" lon="175.077962998283">
        <ele>103</ele>
      </trkpt>
      <trkpt lat="-38.26598035475872" lon="175.077897196262">
        <ele>104</ele>
      </trkpt>
      <trkpt lat="-38.26598893763112" lon="175.07783139424">
        <ele>105</ele>
      </trkpt>
      <trkpt lat="-38.26609002479496" lon="175.077768453176">
        <ele>108</ele>
      </trkpt>
      <trkpt lat="-38.26619015830631" lon="175.077705512111">
        <ele>111</ele>
      </trkpt>
      <trkpt lat="-38.26622448979592" lon="175.07763589548">
        <ele>112</ele>
      </trkpt>
      <trkpt lat="-38.26625882128552" lon="175.0775672325">
        <ele>113</ele>
      </trkpt>
      <trkpt lat="-38.26626835781041" lon="175.077491893954">
        <ele>114</ele>
      </trkpt>
      <trkpt lat="-38.2662778943353" lon="175.077416555407">
        <ele>114</ele>
      </trkpt>
      <trkpt lat="-38.26627217242036" lon="175.077322143811">
        <ele>113</ele>
      </trkpt>
      <trkpt lat="-38.26626549685295" lon="175.077227732214">
        <ele>113</ele>
      </trkpt>
      <trkpt lat="-38.2663036429525" lon="175.077136181575">
        <ele>113</ele>
      </trkpt>
      <trkpt lat="-38.26634083539957" lon="175.077044630936">
        <ele>113</ele>
      </trkpt>
      <trkpt lat="-38.26640663742132" lon="175.076925424375">
        <ele>113</ele>
      </trkpt>
      <trkpt lat="-38.26647243944306" lon="175.076806217814">
        <ele>113</ele>
      </trkpt>
      <trkpt lat="-38.2665039099752" lon="175.076736601183">
        <ele>113</ele>
      </trkpt>
      <trkpt lat="-38.26653538050734" lon="175.076667938203">
        <ele>112</ele>
      </trkpt>
      <trkpt lat="-38.26653251954987" lon="175.076586877742">
        <ele>112</ele>
      </trkpt>
      <trkpt lat="-38.26652870493992" lon="175.07650581728">
        <ele>113</ele>
      </trkpt>
      <trkpt lat="-38.26649341979782" lon="175.076422849514">
        <ele>113</ele>
      </trkpt>
      <trkpt lat="-38.26645718100324" lon="175.0763408354">
        <ele>113</ele>
      </trkpt>
      <trkpt lat="-38.26635227922944" lon="175.076219721533">
        <ele>113</ele>
      </trkpt>
      <trkpt lat="-38.26645336639329" lon="175.076102422277">
        <ele>114</ele>
      </trkpt>
      <trkpt lat="-38.26634941827198" lon="175.07606141522">
        <ele>113</ele>
      </trkpt>
      <trkpt lat="-38.26628170894526" lon="175.076079534618">
        <ele>113</ele>
      </trkpt>
      <trkpt lat="-38.26621399961854" lon="175.076098607667">
        <ele>112</ele>
      </trkpt>
      <trkpt lat="-38.26620637039862" lon="175.076035666603">
        <ele>112</ele>
      </trkpt>
      <trkpt lat="-38.26624642380316" lon="175.075978447454">
        <ele>113</ele>
      </trkpt>
      <trkpt lat="-38.26621399961854" lon="175.07587736029">
        <ele>112</ele>
      </trkpt>
      <trkpt lat="-38.26612054167461" lon="175.075838260538">
        <ele>112</ele>
      </trkpt>
      <trkpt lat="-38.26602994468815" lon="175.075857333588">
        <ele>111</ele>
      </trkpt>
      <trkpt lat="-38.26596891092885" lon="175.075828724013">
        <ele>110</ele>
      </trkpt>
      <trkpt lat="-38.26590692351706" lon="175.075800114438">
        <ele>109</ele>
      </trkpt>
      <trkpt lat="-38.26584398245279" lon="175.075761968339">
        <ele>108</ele>
      </trkpt>
      <trkpt lat="-38.26578104138851" lon="175.075724775892">
        <ele>109</ele>
      </trkpt>
      <trkpt lat="-38.26578104138851" lon="175.075724775892">
        <ele>109</ele>
      </trkpt>
      <trkpt lat="-38.26578104138851" lon="175.075642761778">
        <ele>108</ele>
      </trkpt>
      <trkpt lat="-38.26574861720389" lon="175.075600801068">
        <ele>109</ele>
      </trkpt>
      <trkpt lat="-38.26572572954415" lon="175.075547396529">
        <ele>109</ele>
      </trkpt>
      <trkpt lat="-38.26572477589166" lon="175.075485409117">
        <ele>108</ele>
      </trkpt>
      <trkpt lat="-38.26584588975777" lon="175.075525462521">
        <ele>106</ele>
      </trkpt>
      <trkpt lat="-38.26590024794965" lon="175.075582681671">
        <ele>108</ele>
      </trkpt>
      <trkpt lat="-38.26593267213427" lon="175.075585542628">
        <ele>108</ele>
      </trkpt>
      <trkpt lat="-38.26596891092885" lon="175.075533091741">
        <ele>108</ele>
      </trkpt>
      <trkpt lat="-38.26601563990081" lon="175.075514018692">
        <ele>109</ele>
      </trkpt>
      <trkpt lat="-38.26605760061033" lon="175.075433911882">
        <ele>110</ele>
      </trkpt>
      <trkpt lat="-38.26609956131985" lon="175.075354758726">
        <ele>110</ele>
      </trkpt>
      <trkpt lat="-38.26606332252527" lon="175.075287049399">
        <ele>109</ele>
      </trkpt>
      <trkpt lat="-38.2660165935533" lon="175.075288003052">
        <ele>108</ele>
      </trkpt>
      <trkpt lat="-38.26593648674422" lon="175.075236505817">
        <ele>106</ele>
      </trkpt>
      <trkpt lat="-38.26585637993514" lon="175.075185008583">
        <ele>103</ele>
      </trkpt>
      <trkpt lat="-38.26584398245279" lon="175.075073431242">
        <ele>102</ele>
      </trkpt>
      <trkpt lat="-38.26581155826816" lon="175.075004768262">
        <ele>102</ele>
      </trkpt>
      <trkpt lat="-38.26577055121113" lon="175.074938966241">
        <ele>103</ele>
      </trkpt>
      <trkpt lat="-38.26572954415411" lon="175.074874117871">
        <ele>104</ele>
      </trkpt>
      <trkpt lat="-38.26571047110433" lon="175.074866488652">
        <ele>104</ele>
      </trkpt>
      <trkpt lat="-38.26565134465" lon="175.074863627694">
        <ele>105</ele>
      </trkpt>
      <trkpt lat="-38.26563131794774" lon="175.074891283616">
        <ele>106</ele>
      </trkpt>
      <trkpt lat="-38.26567423230974" lon="175.074935151631">
        <ele>105</ele>
      </trkpt>
      <trkpt lat="-38.26569807362197" lon="175.074986648865">
        <ele>104</ele>
      </trkpt>
      <trkpt lat="-38.26568090787717" lon="175.075049589929">
        <ele>105</ele>
      </trkpt>
      <trkpt lat="-38.26563513255769" lon="175.075127789434">
        <ele>107</ele>
      </trkpt>
      <trkpt lat="-38.26557505245088" lon="175.075166889186">
        <ele>109</ele>
      </trkpt>
      <trkpt lat="-38.26551592599656" lon="175.075220293725">
        <ele>110</ele>
      </trkpt>
      <trkpt lat="-38.26547205798207" lon="175.075301354187">
        <ele>112</ele>
      </trkpt>
      <trkpt lat="-38.26547968720198" lon="175.07541388518">
        <ele>113</ele>
      </trkpt>
      <trkpt lat="-38.26549876025176" lon="175.075475872592">
        <ele>113</ele>
      </trkpt>
      <trkpt lat="-38.26551687964905" lon="175.075537860004">
        <ele>113</ele>
      </trkpt>
      <trkpt lat="-38.26559317184817" lon="175.075497806599">
        <ele>111</ele>
      </trkpt>
      <trkpt lat="-38.26559317184817" lon="175.075497806599">
        <ele>111</ele>
      </trkpt>
      <trkpt lat="-38.26565515925996" lon="175.075481594507">
        <ele>110</ele>
      </trkpt>
      <trkpt lat="-38.26572477589166" lon="175.075485409117">
        <ele>108</ele>
      </trkpt>
      <trkpt lat="-38.26572477589166" lon="175.075485409117">
        <ele>108</ele>
      </trkpt>
      <trkpt lat="-38.26572572954415" lon="175.075547396529">
        <ele>109</ele>
      </trkpt>
      <trkpt lat="-38.26574861720389" lon="175.075600801068">
        <ele>109</ele>
      </trkpt>
      <trkpt lat="-38.26578104138851" lon="175.075642761778">
        <ele>108</ele>
      </trkpt>
      <trkpt lat="-38.26578104138851" lon="175.075724775892">
        <ele>109</ele>
      </trkpt>
      <trkpt lat="-38.26583635323288" lon="175.075787716956">
        <ele>109</ele>
      </trkpt>
      <trkpt lat="-38.26589166507724" lon="175.07585065802">
        <ele>110</ele>
      </trkpt>
      <trkpt lat="-38.26600801068091" lon="175.075920274652">
        <ele>111</ele>
      </trkpt>
      <trkpt lat="-38.26612435628456" lon="175.075989891284">
        <ele>112</ele>
      </trkpt>
      <trkpt lat="-38.26612626358954" lon="175.076058554263">
        <ele>112</ele>
      </trkpt>
      <trkpt lat="-38.26612721724203" lon="175.076127217242">
        <ele>112</ele>
      </trkpt>
      <trkpt lat="-38.26614438298684" lon="175.076210185009">
        <ele>112</ele>
      </trkpt>
      <trkpt lat="-38.26614438298684" lon="175.076275033378">
        <ele>112</ele>
      </trkpt>
      <trkpt lat="-38.26614438298684" lon="175.0763408354">
        <ele>112</ele>
      </trkpt>
      <trkpt lat="-38.26614438298684" lon="175.0763408354">
        <ele>112</ele>
      </trkpt>
      <trkpt lat="-38.26613293915697" lon="175.076395193591">
        <ele>112</ele>
      </trkpt>
      <trkpt lat="-38.26613293915697" lon="175.076395193591">
        <ele>112</ele>
      </trkpt>
      <trkpt lat="-38.26618539004387" lon="175.076416173946">
        <ele>112</ele>
      </trkpt>
      <trkpt lat="-38.26612054167461" lon="175.076611672706">
        <ele>112</ele>
      </trkpt>
      <trkpt lat="-38.26598035475872" lon="175.076831012779">
        <ele>111</ele>
      </trkpt>
      <trkpt lat="-38.26582490940301" lon="175.077259202747">
        <ele>106</ele>
      </trkpt>
      <trkpt lat="-38.26584016784283" lon="175.07739843601">
        <ele>105</ele>
      </trkpt>
      <trkpt lat="-38.26582300209803" lon="175.077652107572">
        <ele>103</ele>
      </trkpt>
      <trkpt lat="-38.26579725348083" lon="175.077883845127">
        <ele>101</ele>
      </trkpt>
      <trkpt lat="-38.26597081823383" lon="175.077962998283">
        <ele>103</ele>
      </trkpt>
      <trkpt lat="-38.26597081823383" lon="175.077962998283">
        <ele>103</ele>
      </trkpt>
      <trkpt lat="-38.26598893763112" lon="175.078067900057">
        <ele>103</ele>
      </trkpt>
      <trkpt lat="-38.26600705702842" lon="175.078173755484">
        <ele>103</ele>
      </trkpt>
      <trkpt lat="-38.26587545298493" lon="175.078515163075">
        <ele>94</ele>
      </trkpt>
      <trkpt lat="-38.26580965096318" lon="175.078600038146">
        <ele>92</ele>
      </trkpt>
      <trkpt lat="-38.26574384894144" lon="175.07868586687">
        <ele>92</ele>
      </trkpt>
      <trkpt lat="-38.26569998092695" lon="175.078753576197">
        <ele>91</ele>
      </trkpt>
      <trkpt lat="-38.26565611291245" lon="175.078821285524">
        <ele>90</ele>
      </trkpt>
      <trkpt lat="-38.26558744993324" lon="175.078857524318">
        <ele>91</ele>
      </trkpt>
      <trkpt lat="-38.26551878695403" lon="175.078894716765">
        <ele>90</ele>
      </trkpt>
      <trkpt lat="-38.26546538241465" lon="175.078973869922">
        <ele>89</ele>
      </trkpt>
      <trkpt lat="-38.26541102422277" lon="175.079053023078">
        <ele>87</ele>
      </trkpt>
      <trkpt lat="-38.26530326149151" lon="175.079128361625">
        <ele>85</ele>
      </trkpt>
      <trkpt lat="-38.26527369826435" lon="175.079199885562">
        <ele>83</ele>
      </trkpt>
      <trkpt lat="-38.2652431813847" lon="175.079272363151">
        <ele>82</ele>
      </trkpt>
      <trkpt lat="-38.26522506198741" lon="175.079374403967">
        <ele>81</ele>
      </trkpt>
      <trkpt lat="-38.26522029372497" lon="175.079482166698">
        <ele>80</ele>
      </trkpt>
      <trkpt lat="-38.26520694259012" lon="175.079585161167">
        <ele>79</ele>
      </trkpt>
      <trkpt lat="-38.26519263780278" lon="175.079688155636">
        <ele>77</ele>
      </trkpt>
      <trkpt lat="-38.26519263780278" lon="175.079688155636">
        <ele>77</ele>
      </trkpt>
      <trkpt lat="-38.26504178917398" lon="175.079818307355">
        <ele>75</ele>
      </trkpt>
    </trkseg>
  </trk>
</gpx>