<?xml version="1.0" encoding="UTF-8" standalone="yes"?>
<gpx
 version="1.1"
 creator="Generated by MapOut iPhone App. See https://mapout.app"
 xmlns="http://www.topografix.com/GPX/1/1"
 xmlns:xsi="http://www.w3.org/2001/XMLSchema-instance"
 xmlns:gpxx="http://www.garmin.com/xmlschemas/GpxExtensions/v3"
 xmlns:mapout="https://mapout.app/xmlschemas/MapOutExtensions"
 xsi:schemaLocation="http://www.topografix.com/GPX/1/1 https://www.topografix.com/GPX/1/1/gpx.xsd http://www.garmin.com/xmlschemas/GpxExtensions/v3 https://www8.garmin.com/xmlschemas/GpxExtensionsv3.xsd https://mapout.app/xmlschemas/MapOutExtensions https://mapout.app/xmlschemas/MapOutExtensions.xsd">
  <metadata>
    <name>Okere Falls</name>
    <author><name>iPhone</name></author>
    <time>2026-05-11T02:02:24Z</time>
    <bounds minlat="-38.01423662283437" minlon="176.342345031471" maxlat="-38.00764161739462" maxlon="176.344437345031"/>
  </metadata>
  <trk>
    <name>Okere Falls</name>
    <trkseg>
      <trkpt lat="-38.01423662283437" lon="176.343789834639">
        <ele>303</ele>
      </trkpt>
      <trkpt lat="-38.0142328365894" lon="176.343879590917">
        <ele>303</ele>
      </trkpt>
      <trkpt lat="-38.01423283645539" lon="176.343879591036">
        <ele>303</ele>
      </trkpt>
      <trkpt lat="-38.0141216860576" lon="176.343976730879">
        <ele>302</ele>
      </trkpt>
      <trkpt lat="-38.01403299637612" lon="176.344026320809">
        <ele>302</ele>
      </trkpt>
      <trkpt lat="-38.01394430669464" lon="176.344076864391">
        <ele>302</ele>
      </trkpt>
      <trkpt lat="-38.01385657066565" lon="176.344081632653">
        <ele>302</ele>
      </trkpt>
      <trkpt lat="-38.01376120541674" lon="176.344064466908">
        <ele>303</ele>
      </trkpt>
      <trkpt lat="-38.01367346938775" lon="176.344022506199">
        <ele>303</ele>
      </trkpt>
      <trkpt lat="-38.01361434293343" lon="176.343956704177">
        <ele>304</ele>
      </trkpt>
      <trkpt lat="-38.01356952126645" lon="176.343859431623">
        <ele>305</ele>
      </trkpt>
      <trkpt lat="-38.01352469959946" lon="176.343762159069">
        <ele>307</ele>
      </trkpt>
      <trkpt lat="-38.01349990463475" lon="176.343691588785">
        <ele>308</ele>
      </trkpt>
      <trkpt lat="-38.01347415601754" lon="176.343621972153">
        <ele>309</ele>
      </trkpt>
      <trkpt lat="-38.01341312225825" lon="176.343598130841">
        <ele>309</ele>
      </trkpt>
      <trkpt lat="-38.01337780660149" lon="176.343653377116">
        <ele>309</ele>
      </trkpt>
      <trkpt lat="-38.01337780686341" lon="176.343653376418">
        <ele>309</ele>
      </trkpt>
      <trkpt lat="-38.01335781041389" lon="176.343609574671">
        <ele>309</ele>
      </trkpt>
      <trkpt lat="-38.01334445927904" lon="176.343541865344">
        <ele>310</ele>
      </trkpt>
      <trkpt lat="-38.01335494945641" lon="176.343512302117">
        <ele>311</ele>
      </trkpt>
      <trkpt lat="-38.01334255197406" lon="176.343461758535">
        <ele>311</ele>
      </trkpt>
      <trkpt lat="-38.01329391569712" lon="176.343418844173">
        <ele>312</ele>
      </trkpt>
      <trkpt lat="-38.01327293534236" lon="176.343381651726">
        <ele>313</ele>
      </trkpt>
      <trkpt lat="-38.01326625977494" lon="176.343273888995">
        <ele>313</ele>
      </trkpt>
      <trkpt lat="-38.01324718672515" lon="176.343228113675">
        <ele>313</ele>
      </trkpt>
      <trkpt lat="-38.01322048445546" lon="176.343196643143">
        <ele>313</ele>
      </trkpt>
      <trkpt lat="-38.01320522601564" lon="176.343142284951">
        <ele>313</ele>
      </trkpt>
      <trkpt lat="-38.0132090406256" lon="176.343048827007">
        <ele>312</ele>
      </trkpt>
      <trkpt lat="-38.01313084112149" lon="176.34301926378">
        <ele>312</ele>
      </trkpt>
      <trkpt lat="-38.01308315849704" lon="176.342927713141">
        <ele>311</ele>
      </trkpt>
      <trkpt lat="-38.01300495899294" lon="176.342893381652">
        <ele>311</ele>
      </trkpt>
      <trkpt lat="-38.012956322716" lon="176.342855235552">
        <ele>311</ele>
      </trkpt>
      <trkpt lat="-38.01291817661644" lon="176.342853328247">
        <ele>310</ele>
      </trkpt>
      <trkpt lat="-38.01291913026893" lon="176.34286954034">
        <ele>311</ele>
      </trkpt>
      <trkpt lat="-38.01293152775128" lon="176.342889567042">
        <ele>311</ele>
      </trkpt>
      <trkpt lat="-38.01292008392141" lon="176.342908640092">
        <ele>311</ele>
      </trkpt>
      <trkpt lat="-38.01290482548159" lon="176.342907686439">
        <ele>311</ele>
      </trkpt>
      <trkpt lat="-38.01289242799923" lon="176.342917222964">
        <ele>311</ele>
      </trkpt>
      <trkpt lat="-38.01288479877933" lon="176.342997329773">
        <ele>312</ele>
      </trkpt>
      <trkpt lat="-38.01288861338928" lon="176.343026893">
        <ele>312</ele>
      </trkpt>
      <trkpt lat="-38.01291626931146" lon="176.343059317185">
        <ele>312</ele>
      </trkpt>
      <trkpt lat="-38.01292485218386" lon="176.343126072859">
        <ele>313</ele>
      </trkpt>
      <trkpt lat="-38.01293343505626" lon="176.343193782186">
        <ele>314</ele>
      </trkpt>
      <trkpt lat="-38.01292771314133" lon="176.343218577151">
        <ele>314</ele>
      </trkpt>
      <trkpt lat="-38.01288765973679" lon="176.34328724013">
        <ele>315</ele>
      </trkpt>
      <trkpt lat="-38.0128695403395" lon="176.343289147435">
        <ele>315</ele>
      </trkpt>
      <trkpt lat="-38.01283520884989" lon="176.343270074385">
        <ele>315</ele>
      </trkpt>
      <trkpt lat="-38.01282185771505" lon="176.343236696548">
        <ele>314</ele>
      </trkpt>
      <trkpt lat="-38.0128085065802" lon="176.343227160023">
        <ele>314</ele>
      </trkpt>
      <trkpt lat="-38.01277036048064" lon="176.343238603853">
        <ele>315</ele>
      </trkpt>
      <trkpt lat="-38.0127388899485" lon="176.343230974633">
        <ele>315</ele>
      </trkpt>
      <trkpt lat="-38.01270932672134" lon="176.343184245661">
        <ele>314</ele>
      </trkpt>
      <trkpt lat="-38.01269311462903" lon="176.343176616441">
        <ele>314</ele>
      </trkpt>
      <trkpt lat="-38.01267118062178" lon="176.343198550448">
        <ele>314</ele>
      </trkpt>
      <trkpt lat="-38.01264447835209" lon="176.343242418463">
        <ele>315</ele>
      </trkpt>
      <trkpt lat="-38.0126263589548" lon="176.343255769598">
        <ele>315</ele>
      </trkpt>
      <trkpt lat="-38.01260633225252" lon="176.343259584208">
        <ele>315</ele>
      </trkpt>
      <trkpt lat="-38.0125653251955" lon="176.343243372115">
        <ele>315</ele>
      </trkpt>
      <trkpt lat="-38.01254434484074" lon="176.343247186725">
        <ele>315</ele>
      </trkpt>
      <trkpt lat="-38.01252622544344" lon="176.343262445165">
        <ele>316</ele>
      </trkpt>
      <trkpt lat="-38.01250047682624" lon="176.34327198169">
        <ele>316</ele>
      </trkpt>
      <trkpt lat="-38.01239748235743" lon="176.343282471867">
        <ele>316</ele>
      </trkpt>
      <trkpt lat="-38.01234407781804" lon="176.343308220484">
        <ele>316</ele>
      </trkpt>
      <trkpt lat="-38.01231642189586" lon="176.343312988747">
        <ele>316</ele>
      </trkpt>
      <trkpt lat="-38.01228495136372" lon="176.343310127789">
        <ele>316</ele>
      </trkpt>
      <trkpt lat="-38.01222487125691" lon="176.343292008392">
        <ele>316</ele>
      </trkpt>
      <trkpt lat="-38.01210471104329" lon="176.34328724013">
        <ele>316</ele>
      </trkpt>
      <trkpt lat="-38.01203318710662" lon="176.343259584208">
        <ele>315</ele>
      </trkpt>
      <trkpt lat="-38.01196166316994" lon="176.343178523746">
        <ele>314</ele>
      </trkpt>
      <trkpt lat="-38.01192256341789" lon="176.343155636086">
        <ele>313</ele>
      </trkpt>
      <trkpt lat="-38.01190062941064" lon="176.343133702079">
        <ele>313</ele>
      </trkpt>
      <trkpt lat="-38.01187678809841" lon="176.343095555979">
        <ele>312</ele>
      </trkpt>
      <trkpt lat="-38.01186629792104" lon="176.34306122449">
        <ele>312</ele>
      </trkpt>
      <trkpt lat="-38.01185103948121" lon="176.343047873355">
        <ele>311</ele>
      </trkpt>
      <trkpt lat="-38.01183101277894" lon="176.343059317185">
        <ele>312</ele>
      </trkpt>
      <trkpt lat="-38.01179382033187" lon="176.343123211902">
        <ele>313</ele>
      </trkpt>
      <trkpt lat="-38.01177093267214" lon="176.343139423994">
        <ele>313</ele>
      </trkpt>
      <trkpt lat="-38.01174041579248" lon="176.343142284951">
        <ele>313</ele>
      </trkpt>
      <trkpt lat="-38.01169273316803" lon="176.343173755484">
        <ele>313</ele>
      </trkpt>
      <trkpt lat="-38.01166793820332" lon="176.343183292008">
        <ele>313</ele>
      </trkpt>
      <trkpt lat="-38.011608811749" lon="176.343176616441">
        <ele>313</ele>
      </trkpt>
      <trkpt lat="-38.01158592408926" lon="176.343181384703">
        <ele>313</ele>
      </trkpt>
      <trkpt lat="-38.01156971199695" lon="176.343198550448">
        <ele>313</ele>
      </trkpt>
      <trkpt lat="-38.01152870493992" lon="176.343266259775">
        <ele>314</ele>
      </trkpt>
      <trkpt lat="-38.01150581728018" lon="176.34328342552">
        <ele>314</ele>
      </trkpt>
      <trkpt lat="-38.01147625405302" lon="176.343290101087">
        <ele>314</ele>
      </trkpt>
      <trkpt lat="-38.01141045203128" lon="176.343323478924">
        <ele>314</ele>
      </trkpt>
      <trkpt lat="-38.01134369635705" lon="176.343357810414">
        <ele>314</ele>
      </trkpt>
      <trkpt lat="-38.01130650390997" lon="176.343384512684">
        <ele>313</ele>
      </trkpt>
      <trkpt lat="-38.01129124547015" lon="176.343386419989">
        <ele>313</ele>
      </trkpt>
      <trkpt lat="-38.0112778943353" lon="176.343376883464">
        <ele>313</ele>
      </trkpt>
      <trkpt lat="-38.0112435628457" lon="176.343333015449">
        <ele>314</ele>
      </trkpt>
      <trkpt lat="-38.01121304596604" lon="176.343345412932">
        <ele>314</ele>
      </trkpt>
      <trkpt lat="-38.01117299256151" lon="176.343374976159">
        <ele>313</ele>
      </trkpt>
      <trkpt lat="-38.01115487316422" lon="176.343375929811">
        <ele>313</ele>
      </trkpt>
      <trkpt lat="-38.01111863436963" lon="176.343365439634">
        <ele>313</ele>
      </trkpt>
      <trkpt lat="-38.01108239557505" lon="176.343345412932">
        <ele>313</ele>
      </trkpt>
      <trkpt lat="-38.01105283234789" lon="176.343320617967">
        <ele>313</ele>
      </trkpt>
      <trkpt lat="-38.01100324241846" lon="176.343261491513">
        <ele>312</ele>
      </trkpt>
      <trkpt lat="-38.01097463284379" lon="176.343236696548">
        <ele>311</ele>
      </trkpt>
      <trkpt lat="-38.01092313560938" lon="176.343207133321">
        <ele>310</ele>
      </trkpt>
      <trkpt lat="-38.01090883082205" lon="176.343202365058">
        <ele>310</ele>
      </trkpt>
      <trkpt lat="-38.01090787716956" lon="176.343215716193">
        <ele>310</ele>
      </trkpt>
      <trkpt lat="-38.01093362578676" lon="176.34324146481">
        <ele>311</ele>
      </trkpt>
      <trkpt lat="-38.01093267213427" lon="176.343258630555">
        <ele>311</ele>
      </trkpt>
      <trkpt lat="-38.01091550638947" lon="176.343267213427">
        <ele>311</ele>
      </trkpt>
      <trkpt lat="-38.01088880411978" lon="176.343259584208">
        <ele>311</ele>
      </trkpt>
      <trkpt lat="-38.01086210185009" lon="176.343240511158">
        <ele>311</ele>
      </trkpt>
      <trkpt lat="-38.0107905779134" lon="176.343181384703">
        <ele>309</ele>
      </trkpt>
      <trkpt lat="-38.01075147816135" lon="176.343174709136">
        <ele>309</ele>
      </trkpt>
      <trkpt lat="-38.01072096128171" lon="176.343175662788">
        <ele>308</ele>
      </trkpt>
      <trkpt lat="-38.01070188823193" lon="176.343165172611">
        <ele>308</ele>
      </trkpt>
      <trkpt lat="-38.01068758344459" lon="176.343144192256">
        <ele>308</ele>
      </trkpt>
      <trkpt lat="-38.01067900057219" lon="176.343102231547">
        <ele>307</ele>
      </trkpt>
      <trkpt lat="-38.0106694640473" lon="176.343094602327">
        <ele>307</ele>
      </trkpt>
      <trkpt lat="-38.01063417890521" lon="176.343115582682">
        <ele>307</ele>
      </trkpt>
      <trkpt lat="-38.01055025748617" lon="176.343206179668">
        <ele>307</ele>
      </trkpt>
      <trkpt lat="-38.01044917032233" lon="176.343255769598">
        <ele>307</ele>
      </trkpt>
      <trkpt lat="-38.01033759298112" lon="176.343293915697">
        <ele>307</ele>
      </trkpt>
      <trkpt lat="-38.01031851993133" lon="176.343292008392">
        <ele>307</ele>
      </trkpt>
      <trkpt lat="-38.01023745946977" lon="176.343255769598">
        <ele>305</ele>
      </trkpt>
      <trkpt lat="-38.01020884989509" lon="176.34326053786">
        <ele>305</ele>
      </trkpt>
      <trkpt lat="-38.01018596223536" lon="176.343277703605">
        <ele>305</ele>
      </trkpt>
      <trkpt lat="-38.01016402822811" lon="176.343309174137">
        <ele>306</ele>
      </trkpt>
      <trkpt lat="-38.01014304787336" lon="176.343314896052">
        <ele>306</ele>
      </trkpt>
      <trkpt lat="-38.01012588212855" lon="176.343295823002">
        <ele>305</ele>
      </trkpt>
      <trkpt lat="-38.01008296776654" lon="176.343225252718">
        <ele>304</ele>
      </trkpt>
      <trkpt lat="-38.01006294106428" lon="176.34322620637">
        <ele>303</ele>
      </trkpt>
      <trkpt lat="-38.01001335113484" lon="176.34325290864">
        <ele>303</ele>
      </trkpt>
      <trkpt lat="-38.00999237078008" lon="176.343293915697">
        <ele>304</ele>
      </trkpt>
      <trkpt lat="-38.00997425138279" lon="176.343357810414">
        <ele>304</ele>
      </trkpt>
      <trkpt lat="-38.0099561319855" lon="176.343421705131">
        <ele>303</ele>
      </trkpt>
      <trkpt lat="-38.00991798588594" lon="176.34348273889">
        <ele>302</ele>
      </trkpt>
      <trkpt lat="-38.00988842265878" lon="176.343479877933">
        <ele>302</ele>
      </trkpt>
      <trkpt lat="-38.00987697882891" lon="176.3434865535">
        <ele>301</ele>
      </trkpt>
      <trkpt lat="-38.00987507152394" lon="176.343503719245">
        <ele>301</ele>
      </trkpt>
      <trkpt lat="-38.00985123021171" lon="176.343519931337">
        <ele>301</ele>
      </trkpt>
      <trkpt lat="-38.00981308411215" lon="176.343538050734">
        <ele>300</ele>
      </trkpt>
      <trkpt lat="-38.00978161358001" lon="176.343542818997">
        <ele>299</ele>
      </trkpt>
      <trkpt lat="-38.00975586496281" lon="176.343536143429">
        <ele>299</ele>
      </trkpt>
      <trkpt lat="-38.00971104329582" lon="176.343510394812">
        <ele>299</ele>
      </trkpt>
      <trkpt lat="-38.00965000953652" lon="176.343503719245">
        <ele>298</ele>
      </trkpt>
      <trkpt lat="-38.00960614152203" lon="176.343484646195">
        <ele>298</ele>
      </trkpt>
      <trkpt lat="-38.00955750524508" lon="176.343418844173">
        <ele>298</ele>
      </trkpt>
      <trkpt lat="-38.00952126645051" lon="176.343396910166">
        <ele>297</ele>
      </trkpt>
      <trkpt lat="-38.00949742513828" lon="176.343373068854">
        <ele>297</ele>
      </trkpt>
      <trkpt lat="-38.00943639137898" lon="176.343255769598">
        <ele>296</ele>
      </trkpt>
      <trkpt lat="-38.00940968910928" lon="176.343228113675">
        <ele>295</ele>
      </trkpt>
      <trkpt lat="-38.00930955559794" lon="176.343166126264">
        <ele>293</ele>
      </trkpt>
      <trkpt lat="-38.00928857524318" lon="176.343142284951">
        <ele>292</ele>
      </trkpt>
      <trkpt lat="-38.00928189967576" lon="176.343121304597">
        <ele>292</ele>
      </trkpt>
      <trkpt lat="-38.00928476063322" lon="176.343081251192">
        <ele>291</ele>
      </trkpt>
      <trkpt lat="-38.00927999237078" lon="176.343064085447">
        <ele>291</ele>
      </trkpt>
      <trkpt lat="-38.00927045584589" lon="176.343058363532">
        <ele>291</ele>
      </trkpt>
      <trkpt lat="-38.00924947549113" lon="176.34305740988">
        <ele>291</ele>
      </trkpt>
      <trkpt lat="-38.00923421705131" lon="176.343098416937">
        <ele>291</ele>
      </trkpt>
      <trkpt lat="-38.00924375357619" lon="176.343168987221">
        <ele>292</ele>
      </trkpt>
      <trkpt lat="-38.00923421705131" lon="176.343188060271">
        <ele>292</ele>
      </trkpt>
      <trkpt lat="-38.00922277322144" lon="176.343195689491">
        <ele>292</ele>
      </trkpt>
      <trkpt lat="-38.00917795155445" lon="176.343167079916">
        <ele>291</ele>
      </trkpt>
      <trkpt lat="-38.00915506389472" lon="176.343129887469">
        <ele>290</ele>
      </trkpt>
      <trkpt lat="-38.00915601754721" lon="176.343026893">
        <ele>289</ele>
      </trkpt>
      <trkpt lat="-38.00913599084493" lon="176.342999237078">
        <ele>288</ele>
      </trkpt>
      <trkpt lat="-38.0091045203128" lon="176.342971581156">
        <ele>287</ele>
      </trkpt>
      <trkpt lat="-38.00905874499333" lon="176.342944878886">
        <ele>286</ele>
      </trkpt>
      <trkpt lat="-38.00903108907114" lon="176.342901964524">
        <ele>286</ele>
      </trkpt>
      <trkpt lat="-38.00903108907114" lon="176.342859050162">
        <ele>285</ele>
      </trkpt>
      <trkpt lat="-38.00904539385848" lon="176.342811367538">
        <ele>285</ele>
      </trkpt>
      <trkpt lat="-38.00904920846843" lon="176.342761777608">
        <ele>284</ele>
      </trkpt>
      <trkpt lat="-38.00906255960328" lon="176.342717909594">
        <ele>284</ele>
      </trkpt>
      <trkpt lat="-38.00902345985123" lon="176.342661644097">
        <ele>283</ele>
      </trkpt>
      <trkpt lat="-38.00903013541865" lon="176.34261682243">
        <ele>282</ele>
      </trkpt>
      <trkpt lat="-38.00902822811367" lon="176.342594888423">
        <ele>282</ele>
      </trkpt>
      <trkpt lat="-38.00902059889376" lon="176.342576769025">
        <ele>282</ele>
      </trkpt>
      <trkpt lat="-38.00900438680145" lon="176.3425672325">
        <ele>281</ele>
      </trkpt>
      <trkpt lat="-38.00898912836162" lon="176.342572000763">
        <ele>281</ele>
      </trkpt>
      <trkpt lat="-38.00896814800686" lon="176.342607285905">
        <ele>281</ele>
      </trkpt>
      <trkpt lat="-38.00895575052451" lon="176.34261682243">
        <ele>281</ele>
      </trkpt>
      <trkpt lat="-38.00894144573717" lon="176.34261300782">
        <ele>281</ele>
      </trkpt>
      <trkpt lat="-38.00892523364486" lon="176.34259774938">
        <ele>281</ele>
      </trkpt>
      <trkpt lat="-38.00891378981499" lon="176.342527179096">
        <ele>280</ele>
      </trkpt>
      <trkpt lat="-38.00892427999237" lon="176.342459469769">
        <ele>279</ele>
      </trkpt>
      <trkpt lat="-38.00890806790005" lon="176.342443257677">
        <ele>279</ele>
      </trkpt>
      <trkpt lat="-38.00889280946023" lon="176.342453747854">
        <ele>279</ele>
      </trkpt>
      <trkpt lat="-38.00886610719053" lon="176.342494754911">
        <ele>279</ele>
      </trkpt>
      <trkpt lat="-38.00882510013351" lon="176.342502384131">
        <ele>279</ele>
      </trkpt>
      <trkpt lat="-38.00881556360862" lon="176.342494754911">
        <ele>278</ele>
      </trkpt>
      <trkpt lat="-38.00880698073622" lon="176.342466145337">
        <ele>278</ele>
      </trkpt>
      <trkpt lat="-38.00881365630364" lon="176.342443257677">
        <ele>278</ele>
      </trkpt>
      <trkpt lat="-38.00883272935342" lon="176.342426091932">
        <ele>278</ele>
      </trkpt>
      <trkpt lat="-38.00888613389281" lon="176.342427999237">
        <ele>278</ele>
      </trkpt>
      <trkpt lat="-38.00889471676521" lon="176.342418462712">
        <ele>278</ele>
      </trkpt>
      <trkpt lat="-38.00888994850276" lon="176.342404157925">
        <ele>278</ele>
      </trkpt>
      <trkpt lat="-38.00887659736792" lon="176.342392714095">
        <ele>278</ele>
      </trkpt>
      <trkpt lat="-38.00886133892809" lon="176.342384131223">
        <ele>278</ele>
      </trkpt>
      <trkpt lat="-38.00881842456609" lon="176.342387945833">
        <ele>277</ele>
      </trkpt>
      <trkpt lat="-38.00876597367919" lon="176.342357428953">
        <ele>276</ele>
      </trkpt>
      <trkpt lat="-38.00873259584208" lon="176.342363150868">
        <ele>276</ele>
      </trkpt>
      <trkpt lat="-38.00870112530993" lon="176.342401296967">
        <ele>276</ele>
      </trkpt>
      <trkpt lat="-38.00869254243754" lon="176.342431813847">
        <ele>276</ele>
      </trkpt>
      <trkpt lat="-38.00870017165744" lon="176.342488079344">
        <ele>277</ele>
      </trkpt>
      <trkpt lat="-38.00869254243754" lon="176.342499523174">
        <ele>277</ele>
      </trkpt>
      <trkpt lat="-38.00866774747282" lon="176.342500476826">
        <ele>277</ele>
      </trkpt>
      <trkpt lat="-38.00863913789815" lon="176.342471867252">
        <ele>276</ele>
      </trkpt>
      <trkpt lat="-38.00861243562846" lon="176.342416555407">
        <ele>275</ele>
      </trkpt>
      <trkpt lat="-38.00859717718863" lon="176.342405111577">
        <ele>275</ele>
      </trkpt>
      <trkpt lat="-38.00858001144383" lon="176.342407972535">
        <ele>275</ele>
      </trkpt>
      <trkpt lat="-38.00856952126645" lon="176.34242513828">
        <ele>275</ele>
      </trkpt>
      <trkpt lat="-38.00856570665649" lon="176.342453747854">
        <ele>275</ele>
      </trkpt>
      <trkpt lat="-38.00856570665649" lon="176.342542437536">
        <ele>276</ele>
      </trkpt>
      <trkpt lat="-38.00855998474156" lon="176.342551974061">
        <ele>276</ele>
      </trkpt>
      <trkpt lat="-38.00854281899676" lon="176.342558649628">
        <ele>276</ele>
      </trkpt>
      <trkpt lat="-38.00851134846462" lon="176.342535761968">
        <ele>275</ele>
      </trkpt>
      <trkpt lat="-38.00850658020217" lon="176.342558649628">
        <ele>275</ele>
      </trkpt>
      <trkpt lat="-38.00850944115964" lon="176.342646385657">
        <ele>276</ele>
      </trkpt>
      <trkpt lat="-38.00849418271982" lon="176.342699790196">
        <ele>276</ele>
      </trkpt>
      <trkpt lat="-38.00845889757772" lon="176.342755102041">
        <ele>276</ele>
      </trkpt>
      <trkpt lat="-38.00845876623514" lon="176.342755307673">
        <ele>276</ele>
      </trkpt>
      <trkpt lat="-38.00844936105283" lon="176.342750333778">
        <ele>276</ele>
      </trkpt>
      <trkpt lat="-38.00838641998855" lon="176.342747472821">
        <ele>275</ele>
      </trkpt>
      <trkpt lat="-38.00832061796681" lon="176.342775128743">
        <ele>275</ele>
      </trkpt>
      <trkpt lat="-38.00826244516498" lon="176.34285809651">
        <ele>274</ele>
      </trkpt>
      <trkpt lat="-38.00820427236315" lon="176.342941064276">
        <ele>274</ele>
      </trkpt>
      <trkpt lat="-38.00820427236315" lon="176.342941064276">
        <ele>274</ele>
      </trkpt>
      <trkpt lat="-38.00817757009346" lon="176.342829486935">
        <ele>273</ele>
      </trkpt>
      <trkpt lat="-38.00815086782377" lon="176.342718863246">
        <ele>272</ele>
      </trkpt>
      <trkpt lat="-38.0081470532138" lon="176.342642571047">
        <ele>271</ele>
      </trkpt>
      <trkpt lat="-38.00815372878123" lon="176.342589166508">
        <ele>271</ele>
      </trkpt>
      <trkpt lat="-38.00819187488079" lon="176.342501430479">
        <ele>271</ele>
      </trkpt>
      <trkpt lat="-38.00823002098036" lon="176.342414648102">
        <ele>271</ele>
      </trkpt>
      <trkpt lat="-38.00811176807171" lon="176.342385084875">
        <ele>269</ele>
      </trkpt>
      <trkpt lat="-38.00799065420561" lon="176.342372687393">
        <ele>267</ele>
      </trkpt>
      <trkpt lat="-38.0078695403395" lon="176.34236028991">
        <ele>265</ele>
      </trkpt>
      <trkpt lat="-38.00777703604806" lon="176.342345031471">
        <ele>264</ele>
      </trkpt>
      <trkpt lat="-38.00774079725348" lon="176.342368872783">
        <ele>264</ele>
      </trkpt>
      <trkpt lat="-38.00777652971121" lon="176.342483478105">
        <ele>264</ele>
      </trkpt>
      <trkpt lat="-38.00777512874308" lon="176.342484264734">
        <ele>264</ele>
      </trkpt>
      <trkpt lat="-38.00772077055121" lon="176.342514781614">
        <ele>263</ele>
      </trkpt>
      <trkpt lat="-38.00772077055121" lon="176.342514781614">
        <ele>263</ele>
      </trkpt>
      <trkpt lat="-38.00764161739462" lon="176.3425672325">
        <ele>263</ele>
      </trkpt>
      <trkpt lat="-38.00764161739462" lon="176.3425672325">
        <ele>263</ele>
      </trkpt>
      <trkpt lat="-38.00772077055121" lon="176.342514781614">
        <ele>263</ele>
      </trkpt>
      <trkpt lat="-38.00772077055121" lon="176.342514781614">
        <ele>263</ele>
      </trkpt>
      <trkpt lat="-38.00777512874308" lon="176.342484264734">
        <ele>264</ele>
      </trkpt>
      <trkpt lat="-38.00777652971121" lon="176.342483478105">
        <ele>264</ele>
      </trkpt>
      <trkpt lat="-38.00781899675758" lon="176.342619683387">
        <ele>266</ele>
      </trkpt>
      <trkpt lat="-38.00785523555216" lon="176.342720770551">
        <ele>267</ele>
      </trkpt>
      <trkpt lat="-38.00789147434675" lon="176.342821857715">
        <ele>269</ele>
      </trkpt>
      <trkpt lat="-38.00789910356666" lon="176.342921037574">
        <ele>269</ele>
      </trkpt>
      <trkpt lat="-38.00789624260919" lon="176.34302307839">
        <ele>270</ele>
      </trkpt>
      <trkpt lat="-38.00789338165173" lon="176.343125119207">
        <ele>271</ele>
      </trkpt>
      <trkpt lat="-38.00785332824719" lon="176.343197596796">
        <ele>271</ele>
      </trkpt>
      <trkpt lat="-38.0078867060843" lon="176.3432757963">
        <ele>272</ele>
      </trkpt>
      <trkpt lat="-38.00796967385084" lon="176.343355903109">
        <ele>274</ele>
      </trkpt>
      <trkpt lat="-38.00801354186535" lon="176.343409307648">
        <ele>274</ele>
      </trkpt>
      <trkpt lat="-38.0080516879649" lon="176.343419797826">
        <ele>275</ele>
      </trkpt>
      <trkpt lat="-38.00809269502193" lon="176.343415983216">
        <ele>275</ele>
      </trkpt>
      <trkpt lat="-38.00821190158306" lon="176.343362578676">
        <ele>277</ele>
      </trkpt>
      <trkpt lat="-38.00822429906542" lon="176.343297730307">
        <ele>277</ele>
      </trkpt>
      <trkpt lat="-38.0081995041007" lon="176.343182338356">
        <ele>276</ele>
      </trkpt>
      <trkpt lat="-38.00820236505817" lon="176.34306122449">
        <ele>275</ele>
      </trkpt>
      <trkpt lat="-38.00820427236315" lon="176.342941064276">
        <ele>274</ele>
      </trkpt>
      <trkpt lat="-38.00826244516498" lon="176.34285809651">
        <ele>274</ele>
      </trkpt>
      <trkpt lat="-38.00832061796681" lon="176.342775128743">
        <ele>275</ele>
      </trkpt>
      <trkpt lat="-38.00838641998855" lon="176.342747472821">
        <ele>275</ele>
      </trkpt>
      <trkpt lat="-38.00844936105283" lon="176.342750333778">
        <ele>276</ele>
      </trkpt>
      <trkpt lat="-38.00854854091169" lon="176.342802784665">
        <ele>278</ele>
      </trkpt>
      <trkpt lat="-38.00860099179859" lon="176.342874308602">
        <ele>279</ele>
      </trkpt>
      <trkpt lat="-38.008652489033" lon="176.342945832539">
        <ele>281</ele>
      </trkpt>
      <trkpt lat="-38.00868300591264" lon="176.343008773603">
        <ele>282</ele>
      </trkpt>
      <trkpt lat="-38.00871352279229" lon="176.34307266832">
        <ele>283</ele>
      </trkpt>
      <trkpt lat="-38.00869635704749" lon="176.343137516689">
        <ele>283</ele>
      </trkpt>
      <trkpt lat="-38.0086782376502" lon="176.343203318711">
        <ele>283</ele>
      </trkpt>
      <trkpt lat="-38.00859336257867" lon="176.343303452222">
        <ele>283</ele>
      </trkpt>
      <trkpt lat="-38.00850753385466" lon="176.343403585733">
        <ele>281</ele>
      </trkpt>
      <trkpt lat="-38.00837306885371" lon="176.343783139424">
        <ele>277</ele>
      </trkpt>
      <trkpt lat="-38.00840740034332" lon="176.343878504673">
        <ele>278</ele>
      </trkpt>
      <trkpt lat="-38.00844077818043" lon="176.343973869922">
        <ele>278</ele>
      </trkpt>
      <trkpt lat="-38.00871543009727" lon="176.344184627122">
        <ele>280</ele>
      </trkpt>
      <trkpt lat="-38.00880507343124" lon="176.344202746519">
        <ele>281</ele>
      </trkpt>
      <trkpt lat="-38.00886324623307" lon="176.344209422087">
        <ele>282</ele>
      </trkpt>
      <trkpt lat="-38.00898054548922" lon="176.344135037192">
        <ele>283</ele>
      </trkpt>
      <trkpt lat="-38.00908258630555" lon="176.344057791341">
        <ele>285</ele>
      </trkpt>
      <trkpt lat="-38.00920465382414" lon="176.343807934389">
        <ele>289</ele>
      </trkpt>
      <trkpt lat="-38.00917604424947" lon="176.343736410452">
        <ele>289</ele>
      </trkpt>
      <trkpt lat="-38.00914648102231" lon="176.343665840168">
        <ele>290</ele>
      </trkpt>
      <trkpt lat="-38.00924756818615" lon="176.343405493038">
        <ele>293</ele>
      </trkpt>
      <trkpt lat="-38.00932862864772" lon="176.34347892428">
        <ele>294</ele>
      </trkpt>
      <trkpt lat="-38.00931146290291" lon="176.343558077437">
        <ele>293</ele>
      </trkpt>
      <trkpt lat="-38.00929334350563" lon="176.343637230593">
        <ele>292</ele>
      </trkpt>
      <trkpt lat="-38.00933244325768" lon="176.34368968148">
        <ele>292</ele>
      </trkpt>
      <trkpt lat="-38.00940587449933" lon="176.343644859813">
        <ele>293</ele>
      </trkpt>
      <trkpt lat="-38.0094783520885" lon="176.343600038146">
        <ele>295</ele>
      </trkpt>
      <trkpt lat="-38.00951745184054" lon="176.34368968148">
        <ele>294</ele>
      </trkpt>
      <trkpt lat="-38.0095565515926" lon="176.343779324814">
        <ele>294</ele>
      </trkpt>
      <trkpt lat="-38.00962998283426" lon="176.343847034141">
        <ele>294</ele>
      </trkpt>
      <trkpt lat="-38.00970246042342" lon="176.34391569712">
        <ele>294</ele>
      </trkpt>
      <trkpt lat="-38.01000572191493" lon="176.344071142476">
        <ele>297</ele>
      </trkpt>
      <trkpt lat="-38.0100867823765" lon="176.344072096128">
        <ele>297</ele>
      </trkpt>
      <trkpt lat="-38.01016784283807" lon="176.344073049781">
        <ele>298</ele>
      </trkpt>
      <trkpt lat="-38.01026702269693" lon="176.34416460042">
        <ele>297</ele>
      </trkpt>
      <trkpt lat="-38.0103652489033" lon="176.344257104711">
        <ele>298</ele>
      </trkpt>
      <trkpt lat="-38.01048064085447" lon="176.344280946023">
        <ele>298</ele>
      </trkpt>
      <trkpt lat="-38.01055979401106" lon="176.344215144002">
        <ele>299</ele>
      </trkpt>
      <trkpt lat="-38.01063799351516" lon="176.34414934198">
        <ele>300</ele>
      </trkpt>
      <trkpt lat="-38.01055407209613" lon="176.34367823765">
        <ele>305</ele>
      </trkpt>
      <trkpt lat="-38.01060270837306" lon="176.343632462331">
        <ele>306</ele>
      </trkpt>
      <trkpt lat="-38.01088785046728" lon="176.343850848751">
        <ele>305</ele>
      </trkpt>
      <trkpt lat="-38.01094601095848" lon="176.344016606151">
        <ele>304</ele>
      </trkpt>
      <trkpt lat="-38.01094602326912" lon="176.344016784284">
        <ele>304</ele>
      </trkpt>
      <trkpt lat="-38.01096700362388" lon="176.344320999428">
        <ele>300</ele>
      </trkpt>
      <trkpt lat="-38.01103948121305" lon="176.3443295823">
        <ele>300</ele>
      </trkpt>
      <trkpt lat="-38.01111768071714" lon="176.344437345031">
        <ele>300</ele>
      </trkpt>
      <trkpt lat="-38.01118348273889" lon="176.344404920847">
        <ele>300</ele>
      </trkpt>
      <trkpt lat="-38.01125023841312" lon="176.344287621591">
        <ele>302</ele>
      </trkpt>
      <trkpt lat="-38.01134083539958" lon="176.344312416555">
        <ele>302</ele>
      </trkpt>
      <trkpt lat="-38.01143143238604" lon="176.344338165173">
        <ele>302</ele>
      </trkpt>
      <trkpt lat="-38.01143143238604" lon="176.344338165173">
        <ele>302</ele>
      </trkpt>
      <trkpt lat="-38.01134083539958" lon="176.344312416555">
        <ele>302</ele>
      </trkpt>
      <trkpt lat="-38.01125023841312" lon="176.344287621591">
        <ele>302</ele>
      </trkpt>
      <trkpt lat="-38.01118348273889" lon="176.344404920847">
        <ele>300</ele>
      </trkpt>
      <trkpt lat="-38.01111768071714" lon="176.344437345031">
        <ele>300</ele>
      </trkpt>
      <trkpt lat="-38.01103948121305" lon="176.3443295823">
        <ele>300</ele>
      </trkpt>
      <trkpt lat="-38.01096700362388" lon="176.344320999428">
        <ele>300</ele>
      </trkpt>
      <trkpt lat="-38.01094602326912" lon="176.344016784284">
        <ele>304</ele>
      </trkpt>
      <trkpt lat="-38.01094601095848" lon="176.344016606151">
        <ele>304</ele>
      </trkpt>
      <trkpt lat="-38.01098321571619" lon="176.34412263971">
        <ele>302</ele>
      </trkpt>
      <trkpt lat="-38.01106904444021" lon="176.344094983788">
        <ele>303</ele>
      </trkpt>
      <trkpt lat="-38.01115391951173" lon="176.344067327866">
        <ele>304</ele>
      </trkpt>
      <trkpt lat="-38.01124642380316" lon="176.344129315278">
        <ele>304</ele>
      </trkpt>
      <trkpt lat="-38.0113389280946" lon="176.344192256342">
        <ele>303</ele>
      </trkpt>
      <trkpt lat="-38.01143715430097" lon="176.344229448789">
        <ele>303</ele>
      </trkpt>
      <trkpt lat="-38.01153538050734" lon="176.344266641236">
        <ele>303</ele>
      </trkpt>
      <trkpt lat="-38.01182719816899" lon="176.344146481022">
        <ele>306</ele>
      </trkpt>
      <trkpt lat="-38.011913026893" lon="176.344096891093">
        <ele>306</ele>
      </trkpt>
      <trkpt lat="-38.01199885561701" lon="176.344047301163">
        <ele>307</ele>
      </trkpt>
      <trkpt lat="-38.0122344077818" lon="176.343750715239">
        <ele>311</ele>
      </trkpt>
      <trkpt lat="-38.01235075338546" lon="176.343775510204">
        <ele>311</ele>
      </trkpt>
      <trkpt lat="-38.01246709898913" lon="176.343800305169">
        <ele>311</ele>
      </trkpt>
      <trkpt lat="-38.01267594888422" lon="176.344226587831">
        <ele>305</ele>
      </trkpt>
      <trkpt lat="-38.01275987030326" lon="176.344209422087">
        <ele>304</ele>
      </trkpt>
      <trkpt lat="-38.01298588594316" lon="176.343903299638">
        <ele>307</ele>
      </trkpt>
      <trkpt lat="-38.01310318519931" lon="176.343901392333">
        <ele>307</ele>
      </trkpt>
      <trkpt lat="-38.01322048445546" lon="176.343899485028">
        <ele>306</ele>
      </trkpt>
      <trkpt lat="-38.01341312225825" lon="176.343598130841">
        <ele>309</ele>
      </trkpt>
      <trkpt lat="-38.01347415601754" lon="176.343621972153">
        <ele>309</ele>
      </trkpt>
      <trkpt lat="-38.01349990463475" lon="176.343691588785">
        <ele>308</ele>
      </trkpt>
      <trkpt lat="-38.01352469959946" lon="176.343762159069">
        <ele>307</ele>
      </trkpt>
      <trkpt lat="-38.01356952126645" lon="176.343859431623">
        <ele>305</ele>
      </trkpt>
      <trkpt lat="-38.01361434293343" lon="176.343956704177">
        <ele>304</ele>
      </trkpt>
      <trkpt lat="-38.01367346938775" lon="176.344022506199">
        <ele>303</ele>
      </trkpt>
      <trkpt lat="-38.01376120541674" lon="176.344064466908">
        <ele>303</ele>
      </trkpt>
      <trkpt lat="-38.01385657066565" lon="176.344081632653">
        <ele>302</ele>
      </trkpt>
      <trkpt lat="-38.01393337315965" lon="176.344077458604">
        <ele>302</ele>
      </trkpt>
      <trkpt lat="-38.01393337315965" lon="176.344077458604">
        <ele>302</ele>
      </trkpt>
      <trkpt lat="-38.01394430669464" lon="176.344076864391">
        <ele>302</ele>
      </trkpt>
      <trkpt lat="-38.01394430669464" lon="176.344076864391">
        <ele>302</ele>
      </trkpt>
      <trkpt lat="-38.01395002860957" lon="176.34414171276">
        <ele>301</ele>
      </trkpt>
      <trkpt lat="-38.01394144573717" lon="176.344205607477">
        <ele>301</ele>
      </trkpt>
      <trkpt lat="-38.01393286286477" lon="176.344270455846">
        <ele>300</ele>
      </trkpt>
      <trkpt lat="-38.01387133434531" lon="176.344331984365">
        <ele>300</ele>
      </trkpt>
      <trkpt lat="-38.01387133434531" lon="176.344331984365">
        <ele>300</ele>
      </trkpt>
      <trkpt lat="-38.01393286286477" lon="176.344270455846">
        <ele>300</ele>
      </trkpt>
      <trkpt lat="-38.01394144573717" lon="176.344205607477">
        <ele>301</ele>
      </trkpt>
      <trkpt lat="-38.01395002860957" lon="176.34414171276">
        <ele>301</ele>
      </trkpt>
      <trkpt lat="-38.01394430669464" lon="176.344076864391">
        <ele>302</ele>
      </trkpt>
      <trkpt lat="-38.01394430669464" lon="176.344076864391">
        <ele>302</ele>
      </trkpt>
      <trkpt lat="-38.01403299637612" lon="176.344026320809">
        <ele>302</ele>
      </trkpt>
      <trkpt lat="-38.0141216860576" lon="176.343976730879">
        <ele>302</ele>
      </trkpt>
      <trkpt lat="-38.01423283645539" lon="176.343879591036">
        <ele>303</ele>
      </trkpt>
      <trkpt lat="-38.0142328365894" lon="176.343879590917">
        <ele>303</ele>
      </trkpt>
      <trkpt lat="-38.01422642908665" lon="176.344031486423">
        <ele>302</ele>
      </trkpt>
    </trkseg>
  </trk>
</gpx>