<?xml version="1.0" encoding="UTF-8" standalone="yes"?>
<gpx
 version="1.1"
 creator="Generated by MapOut iPhone App. See https://mapout.app"
 xmlns="http://www.topografix.com/GPX/1/1"
 xmlns:xsi="http://www.w3.org/2001/XMLSchema-instance"
 xmlns:gpxx="http://www.garmin.com/xmlschemas/GpxExtensions/v3"
 xmlns:mapout="https://mapout.app/xmlschemas/MapOutExtensions"
 xsi:schemaLocation="http://www.topografix.com/GPX/1/1 https://www.topografix.com/GPX/1/1/gpx.xsd http://www.garmin.com/xmlschemas/GpxExtensions/v3 https://www8.garmin.com/xmlschemas/GpxExtensionsv3.xsd https://mapout.app/xmlschemas/MapOutExtensions https://mapout.app/xmlschemas/MapOutExtensions.xsd">
  <metadata>
    <name>Longer Loop</name>
    <author><name>iPhone</name></author>
    <time>2026-05-26T01:04:40Z</time>
    <bounds minlat="-39.3239869753791" minlon="174.095220293725" maxlat="-39.30963189013924" maxlon="174.115717146672"/>
  </metadata>
  <trk>
    <name>Longer Loop</name>
    <trkseg>
      <trkpt lat="-39.32357480264496" lon="174.103397304055">
        <ele>906</ele>
      </trkpt>
      <trkpt lat="-39.32356379935151" lon="174.103409307648">
        <ele>906</ele>
      </trkpt>
      <trkpt lat="-39.32362674041579" lon="174.103488460805">
        <ele>904</ele>
      </trkpt>
      <trkpt lat="-39.32366393286286" lon="174.103514209422">
        <ele>903</ele>
      </trkpt>
      <trkpt lat="-39.32372496662216" lon="174.103621018501">
        <ele>902</ele>
      </trkpt>
      <trkpt lat="-39.32372496662216" lon="174.103621018501">
        <ele>902</ele>
      </trkpt>
      <trkpt lat="-39.32362292580584" lon="174.103705893572">
        <ele>903</ele>
      </trkpt>
      <trkpt lat="-39.32362292580584" lon="174.103705893572">
        <ele>903</ele>
      </trkpt>
      <trkpt lat="-39.3234951363723" lon="174.104052069426">
        <ele>901</ele>
      </trkpt>
      <trkpt lat="-39.32345508296776" lon="174.104125500668">
        <ele>901</ele>
      </trkpt>
      <trkpt lat="-39.32341502956323" lon="174.104198931909">
        <ele>901</ele>
      </trkpt>
      <trkpt lat="-39.32331966431432" lon="174.104271409498">
        <ele>901</ele>
      </trkpt>
      <trkpt lat="-39.32324146481022" lon="174.104287621591">
        <ele>901</ele>
      </trkpt>
      <trkpt lat="-39.32316231165363" lon="174.104304787336">
        <ele>901</ele>
      </trkpt>
      <trkpt lat="-39.32308983406447" lon="174.104305740988">
        <ele>902</ele>
      </trkpt>
      <trkpt lat="-39.32301640282281" lon="174.10430669464">
        <ele>902</ele>
      </trkpt>
      <trkpt lat="-39.32298588594316" lon="174.104332443258">
        <ele>902</ele>
      </trkpt>
      <trkpt lat="-39.32296585924089" lon="174.104374403967">
        <ele>902</ele>
      </trkpt>
      <trkpt lat="-39.32295250810604" lon="174.104431623117">
        <ele>902</ele>
      </trkpt>
      <trkpt lat="-39.32297158115583" lon="174.104486934961">
        <ele>901</ele>
      </trkpt>
      <trkpt lat="-39.32297158115583" lon="174.104486934961">
        <ele>901</ele>
      </trkpt>
      <trkpt lat="-39.32290101087164" lon="174.104602326912">
        <ele>901</ele>
      </trkpt>
      <trkpt lat="-39.32293534236124" lon="174.104771123403">
        <ele>900</ele>
      </trkpt>
      <trkpt lat="-39.32295727636849" lon="174.104956131986">
        <ele>900</ele>
      </trkpt>
      <trkpt lat="-39.32301926378027" lon="174.105205988938">
        <ele>897</ele>
      </trkpt>
      <trkpt lat="-39.32301926378027" lon="174.105205988938">
        <ele>897</ele>
      </trkpt>
      <trkpt lat="-39.32295727636849" lon="174.105168796491">
        <ele>898</ele>
      </trkpt>
      <trkpt lat="-39.32293152775129" lon="174.105175472058">
        <ele>898</ele>
      </trkpt>
      <trkpt lat="-39.32293629601373" lon="174.10522983025">
        <ele>898</ele>
      </trkpt>
      <trkpt lat="-39.32291913026893" lon="174.105270837307">
        <ele>898</ele>
      </trkpt>
      <trkpt lat="-39.32291913026893" lon="174.105270837307">
        <ele>898</ele>
      </trkpt>
      <trkpt lat="-39.32288861338928" lon="174.105301354187">
        <ele>898</ele>
      </trkpt>
      <trkpt lat="-39.32288861338928" lon="174.105301354187">
        <ele>898</ele>
      </trkpt>
      <trkpt lat="-39.32283806980736" lon="174.105340453939">
        <ele>898</ele>
      </trkpt>
      <trkpt lat="-39.32277608239557" lon="174.105304215144">
        <ele>899</ele>
      </trkpt>
      <trkpt lat="-39.32274175090597" lon="174.105371924471">
        <ele>899</ele>
      </trkpt>
      <trkpt lat="-39.32274175090597" lon="174.105435819188">
        <ele>898</ele>
      </trkpt>
      <trkpt lat="-39.32268453175663" lon="174.105409116918">
        <ele>899</ele>
      </trkpt>
      <trkpt lat="-39.32258630555025" lon="174.105288003052">
        <ele>901</ele>
      </trkpt>
      <trkpt lat="-39.32257104711043" lon="174.105224108335">
        <ele>901</ele>
      </trkpt>
      <trkpt lat="-39.32255578867061" lon="174.105160213618">
        <ele>902</ele>
      </trkpt>
      <trkpt lat="-39.32249380125882" lon="174.105113484646">
        <ele>902</ele>
      </trkpt>
      <trkpt lat="-39.32243086019454" lon="174.105067709327">
        <ele>903</ele>
      </trkpt>
      <trkpt lat="-39.32240225061987" lon="174.104967575815">
        <ele>904</ele>
      </trkpt>
      <trkpt lat="-39.32232881937821" lon="174.104910356666">
        <ele>905</ele>
      </trkpt>
      <trkpt lat="-39.32223726873927" lon="174.104872210566">
        <ele>906</ele>
      </trkpt>
      <trkpt lat="-39.32214571810032" lon="174.104835018119">
        <ele>908</ele>
      </trkpt>
      <trkpt lat="-39.32210471104329" lon="174.104765401488">
        <ele>909</ele>
      </trkpt>
      <trkpt lat="-39.32206370398627" lon="174.104696738508">
        <ele>910</ele>
      </trkpt>
      <trkpt lat="-39.32197119969483" lon="174.104610909784">
        <ele>912</ele>
      </trkpt>
      <trkpt lat="-39.32169273316804" lon="174.104539385848">
        <ele>917</ele>
      </trkpt>
      <trkpt lat="-39.32159736791913" lon="174.104495517833">
        <ele>918</ele>
      </trkpt>
      <trkpt lat="-39.32150200267022" lon="174.104452603471">
        <ele>919</ele>
      </trkpt>
      <trkpt lat="-39.32096700362388" lon="174.103602899104">
        <ele>930</ele>
      </trkpt>
      <trkpt lat="-39.32096891092885" lon="174.10349418272">
        <ele>931</ele>
      </trkpt>
      <trkpt lat="-39.32097081823383" lon="174.103386419989">
        <ele>933</ele>
      </trkpt>
      <trkpt lat="-39.32095937440396" lon="174.10330249857">
        <ele>933</ele>
      </trkpt>
      <trkpt lat="-39.32094697692161" lon="174.103219530803">
        <ele>934</ele>
      </trkpt>
      <trkpt lat="-39.32072000762922" lon="174.10279324814">
        <ele>939</ele>
      </trkpt>
      <trkpt lat="-39.32038432195308" lon="174.102456608812">
        <ele>946</ele>
      </trkpt>
      <trkpt lat="-39.32027942017928" lon="174.10240606523">
        <ele>948</ele>
      </trkpt>
      <trkpt lat="-39.32017451840549" lon="174.1023564753">
        <ele>950</ele>
      </trkpt>
      <trkpt lat="-39.32008773602899" lon="174.102261110052">
        <ele>951</ele>
      </trkpt>
      <trkpt lat="-39.32" lon="174.102166698455">
        <ele>953</ele>
      </trkpt>
      <trkpt lat="-39.32" lon="174.102166698455">
        <ele>953</ele>
      </trkpt>
      <trkpt lat="-39.31935342361244" lon="174.101399961854">
        <ele>963</ele>
      </trkpt>
      <trkpt lat="-39.31924470722869" lon="174.101170131604">
        <ele>965</ele>
      </trkpt>
      <trkpt lat="-39.31914171275987" lon="174.101035666603">
        <ele>967</ele>
      </trkpt>
      <trkpt lat="-39.31900152584399" lon="174.101020408163">
        <ele>970</ele>
      </trkpt>
      <trkpt lat="-39.3186439061606" lon="174.100588403586">
        <ele>976</ele>
      </trkpt>
      <trkpt lat="-39.31850848750715" lon="174.100462521457">
        <ele>978</ele>
      </trkpt>
      <trkpt lat="-39.31848941445737" lon="174.100293724967">
        <ele>978</ele>
      </trkpt>
      <trkpt lat="-39.31830535952699" lon="174.100126835781">
        <ele>982</ele>
      </trkpt>
      <trkpt lat="-39.31803738317758" lon="174.100143047873">
        <ele>988</ele>
      </trkpt>
      <trkpt lat="-39.31786381842457" lon="174.1">
        <ele>992</ele>
      </trkpt>
      <trkpt lat="-39.31786381842457" lon="174.1">
        <ele>992</ele>
      </trkpt>
      <trkpt lat="-39.3175920274652" lon="174.09976254053">
        <ele>995</ele>
      </trkpt>
      <trkpt lat="-39.31748140377647" lon="174.099746328438">
        <ele>997</ele>
      </trkpt>
      <trkpt lat="-39.31696833873737" lon="174.099441159641">
        <ele>1007</ele>
      </trkpt>
      <trkpt lat="-39.31696833873737" lon="174.099441159641">
        <ele>1007</ele>
      </trkpt>
      <trkpt lat="-39.31644096891093" lon="174.099093076483">
        <ele>1017</ele>
      </trkpt>
      <trkpt lat="-39.31611958802213" lon="174.098512302117">
        <ele>1023</ele>
      </trkpt>
      <trkpt lat="-39.31580106809079" lon="174.098244325768">
        <ele>1034</ele>
      </trkpt>
      <trkpt lat="-39.31565992752241" lon="174.098022124738">
        <ele>1033</ele>
      </trkpt>
      <trkpt lat="-39.31543295823003" lon="174.097702651154">
        <ele>1035</ele>
      </trkpt>
      <trkpt lat="-39.31541293152775" lon="174.097435628457">
        <ele>1035</ele>
      </trkpt>
      <trkpt lat="-39.31525081060462" lon="174.097215334732">
        <ele>1038</ele>
      </trkpt>
      <trkpt lat="-39.31491989319093" lon="174.096825290864">
        <ele>1044</ele>
      </trkpt>
      <trkpt lat="-39.31469006294107" lon="174.096597367919">
        <ele>1048</ele>
      </trkpt>
      <trkpt lat="-39.31420942208659" lon="174.096187297349">
        <ele>1057</ele>
      </trkpt>
      <trkpt lat="-39.31400629410643" lon="174.095889757772">
        <ele>1061</ele>
      </trkpt>
      <trkpt lat="-39.31381842456609" lon="174.095753385466">
        <ele>1063</ele>
      </trkpt>
      <trkpt lat="-39.31374880793439" lon="174.09561701316">
        <ele>1064</ele>
      </trkpt>
      <trkpt lat="-39.31359622353614" lon="174.095600801068">
        <ele>1065</ele>
      </trkpt>
      <trkpt lat="-39.31356761396147" lon="174.095500667557">
        <ele>1066</ele>
      </trkpt>
      <trkpt lat="-39.31357047491894" lon="174.095362387946">
        <ele>1068</ele>
      </trkpt>
      <trkpt lat="-39.31349227541484" lon="174.095263208087">
        <ele>1069</ele>
      </trkpt>
      <trkpt lat="-39.31349227541484" lon="174.095263208087">
        <ele>1069</ele>
      </trkpt>
      <trkpt lat="-39.3134007247759" lon="174.095313751669">
        <ele>1069</ele>
      </trkpt>
      <trkpt lat="-39.31331203509441" lon="174.095308029754">
        <ele>1071</ele>
      </trkpt>
      <trkpt lat="-39.31320141140569" lon="174.095294678619">
        <ele>1073</ele>
      </trkpt>
      <trkpt lat="-39.31308983406447" lon="174.095281327484">
        <ele>1076</ele>
      </trkpt>
      <trkpt lat="-39.31299923707801" lon="174.095220293725">
        <ele>1078</ele>
      </trkpt>
      <trkpt lat="-39.3129219912264" lon="174.09524508869">
        <ele>1080</ele>
      </trkpt>
      <trkpt lat="-39.3128437917223" lon="174.095270837307">
        <ele>1081</ele>
      </trkpt>
      <trkpt lat="-39.31277798970056" lon="174.095331871066">
        <ele>1082</ele>
      </trkpt>
      <trkpt lat="-39.31279038718291" lon="174.095407209613">
        <ele>1082</ele>
      </trkpt>
      <trkpt lat="-39.31286000381461" lon="174.095498760252">
        <ele>1080</ele>
      </trkpt>
      <trkpt lat="-39.31290196452413" lon="174.095588403586">
        <ele>1078</ele>
      </trkpt>
      <trkpt lat="-39.31294392523365" lon="174.09567804692">
        <ele>1077</ele>
      </trkpt>
      <trkpt lat="-39.31298874690063" lon="174.095940301354">
        <ele>1074</ele>
      </trkpt>
      <trkpt lat="-39.31298111768072" lon="174.096023269121">
        <ele>1073</ele>
      </trkpt>
      <trkpt lat="-39.31292008392142" lon="174.096020408163">
        <ele>1075</ele>
      </trkpt>
      <trkpt lat="-39.312825672325" lon="174.095976540149">
        <ele>1078</ele>
      </trkpt>
      <trkpt lat="-39.3127303070761" lon="174.095933625787">
        <ele>1081</ele>
      </trkpt>
      <trkpt lat="-39.31269788289148" lon="174.095963189014">
        <ele>1082</ele>
      </trkpt>
      <trkpt lat="-39.31269692923899" lon="174.096066183483">
        <ele>1080</ele>
      </trkpt>
      <trkpt lat="-39.31270837306886" lon="174.096164409689">
        <ele>1079</ele>
      </trkpt>
      <trkpt lat="-39.312782757963" lon="174.096411405684">
        <ele>1074</ele>
      </trkpt>
      <trkpt lat="-39.31277512874309" lon="174.096471485791">
        <ele>1073</ele>
      </trkpt>
      <trkpt lat="-39.31272744611864" lon="174.096485790578">
        <ele>1074</ele>
      </trkpt>
      <trkpt lat="-39.31263208086973" lon="174.096441922563">
        <ele>1077</ele>
      </trkpt>
      <trkpt lat="-39.31253576196834" lon="174.096398054549">
        <ele>1080</ele>
      </trkpt>
      <trkpt lat="-39.31251096700363" lon="174.096456227351">
        <ele>1080</ele>
      </trkpt>
      <trkpt lat="-39.31252717909594" lon="174.096557314515">
        <ele>1078</ele>
      </trkpt>
      <trkpt lat="-39.31255197406065" lon="174.096645050544">
        <ele>1076</ele>
      </trkpt>
      <trkpt lat="-39.31257581537288" lon="174.096732786573">
        <ele>1074</ele>
      </trkpt>
      <trkpt lat="-39.31255769597559" lon="174.096834827389">
        <ele>1072</ele>
      </trkpt>
      <trkpt lat="-39.31257295441542" lon="174.096901583063">
        <ele>1070</ele>
      </trkpt>
      <trkpt lat="-39.31258821285524" lon="174.096968338737">
        <ele>1068</ele>
      </trkpt>
      <trkpt lat="-39.31256723250048" lon="174.097032233454">
        <ele>1067</ele>
      </trkpt>
      <trkpt lat="-39.31253194735839" lon="174.097019835972">
        <ele>1068</ele>
      </trkpt>
      <trkpt lat="-39.31248235742896" lon="174.097029372497">
        <ele>1068</ele>
      </trkpt>
      <trkpt lat="-39.31241369444975" lon="174.096991226397">
        <ele>1070</ele>
      </trkpt>
      <trkpt lat="-39.31233168033569" lon="174.096869158879">
        <ele>1073</ele>
      </trkpt>
      <trkpt lat="-39.31206370398627" lon="174.09671275987">
        <ele>1078</ele>
      </trkpt>
      <trkpt lat="-39.31196261682243" lon="174.096598321572">
        <ele>1081</ele>
      </trkpt>
      <trkpt lat="-39.31191684150296" lon="174.096495327103">
        <ele>1084</ele>
      </trkpt>
      <trkpt lat="-39.31187106618349" lon="174.096393286287">
        <ele>1087</ele>
      </trkpt>
      <trkpt lat="-39.31180526416174" lon="174.096400915506">
        <ele>1087</ele>
      </trkpt>
      <trkpt lat="-39.31171562082777" lon="174.096398054549">
        <ele>1088</ele>
      </trkpt>
      <trkpt lat="-39.31163646767119" lon="174.096305550258">
        <ele>1091</ele>
      </trkpt>
      <trkpt lat="-39.31158020217433" lon="174.096309364867">
        <ele>1091</ele>
      </trkpt>
      <trkpt lat="-39.31147434674805" lon="174.096217814229">
        <ele>1095</ele>
      </trkpt>
      <trkpt lat="-39.31140186915888" lon="174.096229258058">
        <ele>1095</ele>
      </trkpt>
      <trkpt lat="-39.31132843791723" lon="174.096240701888">
        <ele>1095</ele>
      </trkpt>
      <trkpt lat="-39.31125309937059" lon="174.096198741179">
        <ele>1097</ele>
      </trkpt>
      <trkpt lat="-39.31117680717147" lon="174.096157734122">
        <ele>1098</ele>
      </trkpt>
      <trkpt lat="-39.31109956131986" lon="174.096191111959">
        <ele>1098</ele>
      </trkpt>
      <trkpt lat="-39.31103280564562" lon="174.09609574671">
        <ele>1100</ele>
      </trkpt>
      <trkpt lat="-39.3109650963189" lon="174.096001335114">
        <ele>1101</ele>
      </trkpt>
      <trkpt lat="-39.31085447263018" lon="174.095899294297">
        <ele>1103</ele>
      </trkpt>
      <trkpt lat="-39.31074289528896" lon="174.095798207133">
        <ele>1108</ele>
      </trkpt>
      <trkpt lat="-39.31062750333778" lon="174.095714285714">
        <ele>1113</ele>
      </trkpt>
      <trkpt lat="-39.31051211138661" lon="174.095630364295">
        <ele>1118</ele>
      </trkpt>
      <trkpt lat="-39.31046442876216" lon="174.095702841884">
        <ele>1117</ele>
      </trkpt>
      <trkpt lat="-39.31041579248522" lon="174.095775319474">
        <ele>1116</ele>
      </trkpt>
      <trkpt lat="-39.31029753957658" lon="174.095675185962">
        <ele>1121</ele>
      </trkpt>
      <trkpt lat="-39.31025939347702" lon="174.095718100324">
        <ele>1121</ele>
      </trkpt>
      <trkpt lat="-39.31028037383178" lon="174.095792485218">
        <ele>1119</ele>
      </trkpt>
      <trkpt lat="-39.31032710280374" lon="174.095905016212">
        <ele>1116</ele>
      </trkpt>
      <trkpt lat="-39.31037287812321" lon="174.096017547206">
        <ele>1115</ele>
      </trkpt>
      <trkpt lat="-39.31049303833683" lon="174.0962645432">
        <ele>1110</ele>
      </trkpt>
      <trkpt lat="-39.31053309174137" lon="174.096367537669">
        <ele>1108</ele>
      </trkpt>
      <trkpt lat="-39.31057314514591" lon="174.096471485791">
        <ele>1106</ele>
      </trkpt>
      <trkpt lat="-39.31062368872783" lon="174.096510585543">
        <ele>1104</ele>
      </trkpt>
      <trkpt lat="-39.31059507915316" lon="174.096597367919">
        <ele>1104</ele>
      </trkpt>
      <trkpt lat="-39.31055121113867" lon="174.096659355331">
        <ele>1106</ele>
      </trkpt>
      <trkpt lat="-39.31050734312416" lon="174.096721342743">
        <ele>1108</ele>
      </trkpt>
      <trkpt lat="-39.31052355521648" lon="174.09676997902">
        <ele>1108</ele>
      </trkpt>
      <trkpt lat="-39.31060461567805" lon="174.096848178524">
        <ele>1105</ele>
      </trkpt>
      <trkpt lat="-39.3106875834446" lon="174.096869158879">
        <ele>1102</ele>
      </trkpt>
      <trkpt lat="-39.31075910738127" lon="174.096841502956">
        <ele>1098</ele>
      </trkpt>
      <trkpt lat="-39.31083063131795" lon="174.096814800687">
        <ele>1095</ele>
      </trkpt>
      <trkpt lat="-39.31092695021934" lon="174.096833873736">
        <ele>1093</ele>
      </trkpt>
      <trkpt lat="-39.31096891092886" lon="174.096951172993">
        <ele>1093</ele>
      </trkpt>
      <trkpt lat="-39.31101087163838" lon="174.097068472249">
        <ele>1093</ele>
      </trkpt>
      <trkpt lat="-39.31098893763113" lon="174.097136181575">
        <ele>1094</ele>
      </trkpt>
      <trkpt lat="-39.31096604997139" lon="174.097204844555">
        <ele>1095</ele>
      </trkpt>
      <trkpt lat="-39.31106427617776" lon="174.097272553881">
        <ele>1092</ele>
      </trkpt>
      <trkpt lat="-39.31112435628457" lon="174.097565325196">
        <ele>1091</ele>
      </trkpt>
      <trkpt lat="-39.31109479305741" lon="174.097649246615">
        <ele>1091</ele>
      </trkpt>
      <trkpt lat="-39.31099942780851" lon="174.097715048636">
        <ele>1094</ele>
      </trkpt>
      <trkpt lat="-39.31091932099943" lon="174.097699790196">
        <ele>1097</ele>
      </trkpt>
      <trkpt lat="-39.3108611481976" lon="174.097579629983">
        <ele>1100</ele>
      </trkpt>
      <trkpt lat="-39.31078962426092" lon="174.097517642571">
        <ele>1103</ele>
      </trkpt>
      <trkpt lat="-39.31071810032424" lon="174.097456608812">
        <ele>1106</ele>
      </trkpt>
      <trkpt lat="-39.31065992752242" lon="174.097503337784">
        <ele>1108</ele>
      </trkpt>
      <trkpt lat="-39.31064562273508" lon="174.097596795728">
        <ele>1108</ele>
      </trkpt>
      <trkpt lat="-39.31061224489796" lon="174.097636849132">
        <ele>1109</ele>
      </trkpt>
      <trkpt lat="-39.3105044821667" lon="174.097672134274">
        <ele>1113</ele>
      </trkpt>
      <trkpt lat="-39.31042723631509" lon="174.097790387183">
        <ele>1114</ele>
      </trkpt>
      <trkpt lat="-39.31033091741369" lon="174.097874308602">
        <ele>1117</ele>
      </trkpt>
      <trkpt lat="-39.3102345985123" lon="174.097959183674">
        <ele>1119</ele>
      </trkpt>
      <trkpt lat="-39.31017070379554" lon="174.098071714667">
        <ele>1120</ele>
      </trkpt>
      <trkpt lat="-39.31010585542629" lon="174.098184245661">
        <ele>1121</ele>
      </trkpt>
      <trkpt lat="-39.31008964333397" lon="174.09829868396">
        <ele>1119</ele>
      </trkpt>
      <trkpt lat="-39.31003147053214" lon="174.098378790769">
        <ele>1121</ele>
      </trkpt>
      <trkpt lat="-39.30999809269503" lon="174.0984484074">
        <ele>1121</ele>
      </trkpt>
      <trkpt lat="-39.30996471485791" lon="174.098518024032">
        <ele>1122</ele>
      </trkpt>
      <trkpt lat="-39.30996852946787" lon="174.098617203891">
        <ele>1121</ele>
      </trkpt>
      <trkpt lat="-39.30995994659546" lon="174.098702078962">
        <ele>1120</ele>
      </trkpt>
      <trkpt lat="-39.30991512492848" lon="174.098758344459">
        <ele>1122</ele>
      </trkpt>
      <trkpt lat="-39.30982071333207" lon="174.098787907686">
        <ele>1125</ele>
      </trkpt>
      <trkpt lat="-39.30979019645242" lon="174.098846080488">
        <ele>1125</ele>
      </trkpt>
      <trkpt lat="-39.30979019645242" lon="174.098913789815">
        <ele>1125</ele>
      </trkpt>
      <trkpt lat="-39.30984455464429" lon="174.098991035667">
        <ele>1122</ele>
      </trkpt>
      <trkpt lat="-39.30986267404158" lon="174.099108334923">
        <ele>1120</ele>
      </trkpt>
      <trkpt lat="-39.30985409116918" lon="174.099170322335">
        <ele>1120</ele>
      </trkpt>
      <trkpt lat="-39.30984550829678" lon="174.099232309746">
        <ele>1120</ele>
      </trkpt>
      <trkpt lat="-39.30980736219722" lon="174.099316231165">
        <ele>1121</ele>
      </trkpt>
      <trkpt lat="-39.3097215334732" lon="174.09938680145">
        <ele>1124</ele>
      </trkpt>
      <trkpt lat="-39.30967671180622" lon="174.099489795918">
        <ele>1125</ele>
      </trkpt>
      <trkpt lat="-39.30963189013924" lon="174.09959374404">
        <ele>1126</ele>
      </trkpt>
      <trkpt lat="-39.30963189013924" lon="174.09959374404">
        <ele>1126</ele>
      </trkpt>
      <trkpt lat="-39.309869349609" lon="174.1">
        <ele>1120</ele>
      </trkpt>
      <trkpt lat="-39.309869349609" lon="174.1">
        <ele>1120</ele>
      </trkpt>
      <trkpt lat="-39.31000095365249" lon="174.100204081633">
        <ele>1117</ele>
      </trkpt>
      <trkpt lat="-39.31011539195118" lon="174.100270837307">
        <ele>1113</ele>
      </trkpt>
      <trkpt lat="-39.31061510585543" lon="174.101030898341">
        <ele>1104</ele>
      </trkpt>
      <trkpt lat="-39.31102231546824" lon="174.102100896433">
        <ele>1101</ele>
      </trkpt>
      <trkpt lat="-39.31113675376693" lon="174.102341216861">
        <ele>1100</ele>
      </trkpt>
      <trkpt lat="-39.31125691398055" lon="174.102395575052">
        <ele>1097</ele>
      </trkpt>
      <trkpt lat="-39.31150772458516" lon="174.102796109098">
        <ele>1094</ele>
      </trkpt>
      <trkpt lat="-39.31159069235171" lon="174.102915315659">
        <ele>1094</ele>
      </trkpt>
      <trkpt lat="-39.3116173946214" lon="174.103031661263">
        <ele>1096</ele>
      </trkpt>
      <trkpt lat="-39.31178523745947" lon="174.1032757963">
        <ele>1094</ele>
      </trkpt>
      <trkpt lat="-39.31190062941064" lon="174.103354949456">
        <ele>1090</ele>
      </trkpt>
      <trkpt lat="-39.312000762922" lon="174.103338737364">
        <ele>1086</ele>
      </trkpt>
      <trkpt lat="-39.3121218767881" lon="174.1034484074">
        <ele>1081</ele>
      </trkpt>
      <trkpt lat="-39.31241846271219" lon="174.104506008011">
        <ele>1077</ele>
      </trkpt>
      <trkpt lat="-39.3124957085638" lon="174.104929429716">
        <ele>1075</ele>
      </trkpt>
      <trkpt lat="-39.31235933625787" lon="174.106186343696">
        <ele>1049</ele>
      </trkpt>
      <trkpt lat="-39.31186725157353" lon="174.106770932672">
        <ele>1035</ele>
      </trkpt>
      <trkpt lat="-39.31170799160786" lon="174.107276368491">
        <ele>1031</ele>
      </trkpt>
      <trkpt lat="-39.31185485409117" lon="174.107773221438">
        <ele>1025</ele>
      </trkpt>
      <trkpt lat="-39.31224203700172" lon="174.108662025558">
        <ele>1009</ele>
      </trkpt>
      <trkpt lat="-39.31225061987412" lon="174.109336257868">
        <ele>1003</ele>
      </trkpt>
      <trkpt lat="-39.31218577150486" lon="174.109738699218">
        <ele>998</ele>
      </trkpt>
      <trkpt lat="-39.31228876597368" lon="174.110570284188">
        <ele>988</ele>
      </trkpt>
      <trkpt lat="-39.31241560175472" lon="174.110948884227">
        <ele>985</ele>
      </trkpt>
      <trkpt lat="-39.31239557505246" lon="174.111301735648">
        <ele>981</ele>
      </trkpt>
      <trkpt lat="-39.31246423803167" lon="174.111659355331">
        <ele>979</ele>
      </trkpt>
      <trkpt lat="-39.31288575243182" lon="174.111881556361">
        <ele>964</ele>
      </trkpt>
      <trkpt lat="-39.31312130459661" lon="174.112392714095">
        <ele>947</ele>
      </trkpt>
      <trkpt lat="-39.31332538622926" lon="174.113442685485">
        <ele>915</ele>
      </trkpt>
      <trkpt lat="-39.31348846080488" lon="174.113955750525">
        <ele>890</ele>
      </trkpt>
      <trkpt lat="-39.31362483311081" lon="174.11453652489">
        <ele>876</ele>
      </trkpt>
      <trkpt lat="-39.3140349036811" lon="174.115111577341">
        <ele>866</ele>
      </trkpt>
      <trkpt lat="-39.31440778180431" lon="174.115300400534">
        <ele>857</ele>
      </trkpt>
      <trkpt lat="-39.31440778180431" lon="174.115300400534">
        <ele>857</ele>
      </trkpt>
      <trkpt lat="-39.31454320045776" lon="174.115238413122">
        <ele>855</ele>
      </trkpt>
      <trkpt lat="-39.3146614533664" lon="174.115121113866">
        <ele>852</ele>
      </trkpt>
      <trkpt lat="-39.31501525843983" lon="174.114636658402">
        <ele>846</ele>
      </trkpt>
      <trkpt lat="-39.31519359145528" lon="174.114539385848">
        <ele>849</ele>
      </trkpt>
      <trkpt lat="-39.3153137516689" lon="174.114507915316">
        <ele>850</ele>
      </trkpt>
      <trkpt lat="-39.31540053404539" lon="174.114519359146">
        <ele>851</ele>
      </trkpt>
      <trkpt lat="-39.31548159450696" lon="174.114562273508">
        <ele>851</ele>
      </trkpt>
      <trkpt lat="-39.31577627312608" lon="174.11480068663">
        <ele>848</ele>
      </trkpt>
      <trkpt lat="-39.31588785046729" lon="174.114833110814">
        <ele>848</ele>
      </trkpt>
      <trkpt lat="-39.31596509631891" lon="174.114814037765">
        <ele>848</ele>
      </trkpt>
      <trkpt lat="-39.31607095174519" lon="174.114753957658">
        <ele>850</ele>
      </trkpt>
      <trkpt lat="-39.3161825290864" lon="174.114733930956">
        <ele>851</ele>
      </trkpt>
      <trkpt lat="-39.31629029181767" lon="174.114744421133">
        <ele>851</ele>
      </trkpt>
      <trkpt lat="-39.3163999618539" lon="174.11478161358">
        <ele>850</ele>
      </trkpt>
      <trkpt lat="-39.316782376502" lon="174.114999046348">
        <ele>846</ele>
      </trkpt>
      <trkpt lat="-39.31687774175091" lon="174.115020980355">
        <ele>845</ele>
      </trkpt>
      <trkpt lat="-39.31718195689491" lon="174.115036238795">
        <ele>842</ele>
      </trkpt>
      <trkpt lat="-39.31728113675377" lon="174.115078199504">
        <ele>841</ele>
      </trkpt>
      <trkpt lat="-39.31757486172039" lon="174.115290864009">
        <ele>838</ele>
      </trkpt>
      <trkpt lat="-39.31772267785619" lon="174.115470150677">
        <ele>837</ele>
      </trkpt>
      <trkpt lat="-39.31784188441732" lon="174.115663742132">
        <ele>836</ele>
      </trkpt>
      <trkpt lat="-39.3179391569712" lon="174.115711424757">
        <ele>836</ele>
      </trkpt>
      <trkpt lat="-39.31807076101469" lon="174.115717146672">
        <ele>837</ele>
      </trkpt>
      <trkpt lat="-39.3182786572573" lon="174.115621781423">
        <ele>839</ele>
      </trkpt>
      <trkpt lat="-39.31835399580393" lon="174.115561701316">
        <ele>840</ele>
      </trkpt>
      <trkpt lat="-39.31840740034332" lon="174.115487316422">
        <ele>841</ele>
      </trkpt>
      <trkpt lat="-39.31845889757773" lon="174.115354758726">
        <ele>842</ele>
      </trkpt>
      <trkpt lat="-39.31849513637231" lon="174.115063894717">
        <ele>844</ele>
      </trkpt>
      <trkpt lat="-39.31848846080489" lon="174.114903681099">
        <ele>845</ele>
      </trkpt>
      <trkpt lat="-39.31839786381843" lon="174.114595651345">
        <ele>849</ele>
      </trkpt>
      <trkpt lat="-39.31836925424376" lon="174.114358191875">
        <ele>851</ele>
      </trkpt>
      <trkpt lat="-39.3183654396338" lon="174.11391188251">
        <ele>853</ele>
      </trkpt>
      <trkpt lat="-39.31838069807363" lon="174.113695403395">
        <ele>853</ele>
      </trkpt>
      <trkpt lat="-39.31837306885371" lon="174.113617203891">
        <ele>853</ele>
      </trkpt>
      <trkpt lat="-39.31831108144193" lon="174.113388327294">
        <ele>853</ele>
      </trkpt>
      <trkpt lat="-39.31827198168988" lon="174.113073621972">
        <ele>854</ele>
      </trkpt>
      <trkpt lat="-39.31827388899485" lon="174.112569139805">
        <ele>856</ele>
      </trkpt>
      <trkpt lat="-39.31825386229259" lon="174.112445164982">
        <ele>857</ele>
      </trkpt>
      <trkpt lat="-39.318086973107" lon="174.111704176998">
        <ele>866</ele>
      </trkpt>
      <trkpt lat="-39.31799446881556" lon="174.111403776464">
        <ele>869</ele>
      </trkpt>
      <trkpt lat="-39.31795060080107" lon="174.111158687774">
        <ele>871</ele>
      </trkpt>
      <trkpt lat="-39.31789338165173" lon="174.111005149723">
        <ele>873</ele>
      </trkpt>
      <trkpt lat="-39.31781232119016" lon="174.110691398055">
        <ele>877</ele>
      </trkpt>
      <trkpt lat="-39.31779229448789" lon="174.110452984932">
        <ele>879</ele>
      </trkpt>
      <trkpt lat="-39.31768262445165" lon="174.109905588404">
        <ele>883</ele>
      </trkpt>
      <trkpt lat="-39.31750715239367" lon="174.109392523365">
        <ele>889</ele>
      </trkpt>
      <trkpt lat="-39.3173822239176" lon="174.109180812512">
        <ele>891</ele>
      </trkpt>
      <trkpt lat="-39.31735266069045" lon="174.10909975205">
        <ele>892</ele>
      </trkpt>
      <trkpt lat="-39.31721628838451" lon="174.108571428571">
        <ele>897</ele>
      </trkpt>
      <trkpt lat="-39.31714285714286" lon="174.108458897578">
        <ele>898</ele>
      </trkpt>
      <trkpt lat="-39.31703604806409" lon="174.108337783712">
        <ele>900</ele>
      </trkpt>
      <trkpt lat="-39.31699694831204" lon="174.108263398817">
        <ele>901</ele>
      </trkpt>
      <trkpt lat="-39.31687488079344" lon="174.107881937822">
        <ele>904</ele>
      </trkpt>
      <trkpt lat="-39.31685866870113" lon="174.107655922182">
        <ele>906</ele>
      </trkpt>
      <trkpt lat="-39.31691016593553" lon="174.107353614343">
        <ele>908</ele>
      </trkpt>
      <trkpt lat="-39.31697596795728" lon="174.10716479115">
        <ele>909</ele>
      </trkpt>
      <trkpt lat="-39.3171132939157" lon="174.106939729163">
        <ele>911</ele>
      </trkpt>
      <trkpt lat="-39.3171132939157" lon="174.106939729163">
        <ele>911</ele>
      </trkpt>
      <trkpt lat="-39.31717814228495" lon="174.106893000191">
        <ele>911</ele>
      </trkpt>
      <trkpt lat="-39.31724299065421" lon="174.106846271219">
        <ele>911</ele>
      </trkpt>
      <trkpt lat="-39.31724299065421" lon="174.106846271219">
        <ele>911</ele>
      </trkpt>
      <trkpt lat="-39.3175395765783" lon="174.106621209231">
        <ele>912</ele>
      </trkpt>
      <trkpt lat="-39.31730307076101" lon="174.106121495327">
        <ele>919</ele>
      </trkpt>
      <trkpt lat="-39.31703604806409" lon="174.105711424757">
        <ele>924</ele>
      </trkpt>
      <trkpt lat="-39.31680335685677" lon="174.105375739081">
        <ele>928</ele>
      </trkpt>
      <trkpt lat="-39.31647530040053" lon="174.105316612626">
        <ele>929</ele>
      </trkpt>
      <trkpt lat="-39.31633511348465" lon="174.105208849895">
        <ele>931</ele>
      </trkpt>
      <trkpt lat="-39.31609670036239" lon="174.104902727446">
        <ele>936</ele>
      </trkpt>
      <trkpt lat="-39.31594888422659" lon="174.104697692161">
        <ele>940</ele>
      </trkpt>
      <trkpt lat="-39.31594888422659" lon="174.10433339691">
        <ele>946</ele>
      </trkpt>
      <trkpt lat="-39.31603566660309" lon="174.104054930383">
        <ele>950</ele>
      </trkpt>
      <trkpt lat="-39.31603566660309" lon="174.104054930383">
        <ele>950</ele>
      </trkpt>
      <trkpt lat="-39.31604901773794" lon="174.104019645241">
        <ele>951</ele>
      </trkpt>
      <trkpt lat="-39.31604901773794" lon="174.104019645241">
        <ele>951</ele>
      </trkpt>
      <trkpt lat="-39.31606904444021" lon="174.104001525844">
        <ele>951</ele>
      </trkpt>
      <trkpt lat="-39.3160347129506" lon="174.103870875453">
        <ele>953</ele>
      </trkpt>
      <trkpt lat="-39.31596223536144" lon="174.10366297921">
        <ele>955</ele>
      </trkpt>
      <trkpt lat="-39.31591264543201" lon="174.103437917223">
        <ele>958</ele>
      </trkpt>
      <trkpt lat="-39.31591264543201" lon="174.103437917223">
        <ele>958</ele>
      </trkpt>
      <trkpt lat="-39.31584207514782" lon="174.10324146481">
        <ele>960</ele>
      </trkpt>
      <trkpt lat="-39.31577531947359" lon="174.102970627503">
        <ele>964</ele>
      </trkpt>
      <trkpt lat="-39.31568376883464" lon="174.102691207324">
        <ele>969</ele>
      </trkpt>
      <trkpt lat="-39.31569044440207" lon="174.102564371543">
        <ele>971</ele>
      </trkpt>
      <trkpt lat="-39.31575338546634" lon="174.102351707038">
        <ele>974</ele>
      </trkpt>
      <trkpt lat="-39.31572096128171" lon="174.102186725157">
        <ele>977</ele>
      </trkpt>
      <trkpt lat="-39.31565325195499" lon="174.101909212283">
        <ele>981</ele>
      </trkpt>
      <trkpt lat="-39.31549780659928" lon="174.101744230402">
        <ele>983</ele>
      </trkpt>
      <trkpt lat="-39.31542246805265" lon="174.101598321572">
        <ele>985</ele>
      </trkpt>
      <trkpt lat="-39.31543391188251" lon="174.101433339691">
        <ele>987</ele>
      </trkpt>
      <trkpt lat="-39.31550638947168" lon="174.101290291818">
        <ele>989</ele>
      </trkpt>
      <trkpt lat="-39.31551497234408" lon="174.101093839405">
        <ele>992</ele>
      </trkpt>
      <trkpt lat="-39.31544821666985" lon="174.10090024795">
        <ele>994</ele>
      </trkpt>
      <trkpt lat="-39.31540339500286" lon="174.100680907877">
        <ele>996</ele>
      </trkpt>
      <trkpt lat="-39.31542532901011" lon="174.100618920465">
        <ele>998</ele>
      </trkpt>
      <trkpt lat="-39.31553595269884" lon="174.100473011635">
        <ele>1001</ele>
      </trkpt>
      <trkpt lat="-39.31557600610338" lon="174.100217432768">
        <ele>1006</ele>
      </trkpt>
      <trkpt lat="-39.31562750333779" lon="174.1">
        <ele>1010</ele>
      </trkpt>
      <trkpt lat="-39.31562750333779" lon="174.1">
        <ele>1010</ele>
      </trkpt>
      <trkpt lat="-39.31572668319664" lon="174.099595651345">
        <ele>1018</ele>
      </trkpt>
      <trkpt lat="-39.31577401280608" lon="174.099268020165">
        <ele>1024</ele>
      </trkpt>
      <trkpt lat="-39.31577401280608" lon="174.099268020165">
        <ele>1024</ele>
      </trkpt>
      <trkpt lat="-39.31582490940301" lon="174.09891569712">
        <ele>1028</ele>
      </trkpt>
      <trkpt lat="-39.31580106809079" lon="174.098687774175">
        <ele>1031</ele>
      </trkpt>
      <trkpt lat="-39.31579057791341" lon="174.098460804883">
        <ele>1033</ele>
      </trkpt>
      <trkpt lat="-39.31580106809079" lon="174.098244325768">
        <ele>1034</ele>
      </trkpt>
      <trkpt lat="-39.31580106809079" lon="174.098244325768">
        <ele>1034</ele>
      </trkpt>
      <trkpt lat="-39.31611958802213" lon="174.098512302117">
        <ele>1023</ele>
      </trkpt>
      <trkpt lat="-39.31644096891093" lon="174.099093076483">
        <ele>1017</ele>
      </trkpt>
      <trkpt lat="-39.31696833873737" lon="174.099441159641">
        <ele>1007</ele>
      </trkpt>
      <trkpt lat="-39.31696833873737" lon="174.099441159641">
        <ele>1007</ele>
      </trkpt>
      <trkpt lat="-39.31748140377647" lon="174.099746328438">
        <ele>997</ele>
      </trkpt>
      <trkpt lat="-39.3175920274652" lon="174.09976254053">
        <ele>995</ele>
      </trkpt>
      <trkpt lat="-39.31786381842457" lon="174.1">
        <ele>992</ele>
      </trkpt>
      <trkpt lat="-39.31786381842457" lon="174.1">
        <ele>992</ele>
      </trkpt>
      <trkpt lat="-39.31803738317758" lon="174.100143047873">
        <ele>988</ele>
      </trkpt>
      <trkpt lat="-39.31830535952699" lon="174.100126835781">
        <ele>982</ele>
      </trkpt>
      <trkpt lat="-39.31848941445737" lon="174.100293724967">
        <ele>978</ele>
      </trkpt>
      <trkpt lat="-39.31850848750715" lon="174.100462521457">
        <ele>978</ele>
      </trkpt>
      <trkpt lat="-39.3186439061606" lon="174.100588403586">
        <ele>976</ele>
      </trkpt>
      <trkpt lat="-39.31900152584399" lon="174.101020408163">
        <ele>970</ele>
      </trkpt>
      <trkpt lat="-39.31914171275987" lon="174.101035666603">
        <ele>967</ele>
      </trkpt>
      <trkpt lat="-39.31924470722869" lon="174.101170131604">
        <ele>965</ele>
      </trkpt>
      <trkpt lat="-39.31935342361244" lon="174.101399961854">
        <ele>963</ele>
      </trkpt>
      <trkpt lat="-39.32" lon="174.102166698455">
        <ele>953</ele>
      </trkpt>
      <trkpt lat="-39.32" lon="174.102166698455">
        <ele>953</ele>
      </trkpt>
      <trkpt lat="-39.32008773602899" lon="174.102261110052">
        <ele>951</ele>
      </trkpt>
      <trkpt lat="-39.32017451840549" lon="174.1023564753">
        <ele>950</ele>
      </trkpt>
      <trkpt lat="-39.32027942017928" lon="174.10240606523">
        <ele>948</ele>
      </trkpt>
      <trkpt lat="-39.32038432195308" lon="174.102456608812">
        <ele>946</ele>
      </trkpt>
      <trkpt lat="-39.32072000762922" lon="174.10279324814">
        <ele>939</ele>
      </trkpt>
      <trkpt lat="-39.32094697692161" lon="174.103219530803">
        <ele>934</ele>
      </trkpt>
      <trkpt lat="-39.32095937440396" lon="174.10330249857">
        <ele>933</ele>
      </trkpt>
      <trkpt lat="-39.32097081823383" lon="174.103386419989">
        <ele>933</ele>
      </trkpt>
      <trkpt lat="-39.32096891092885" lon="174.10349418272">
        <ele>931</ele>
      </trkpt>
      <trkpt lat="-39.32096700362388" lon="174.103602899104">
        <ele>930</ele>
      </trkpt>
      <trkpt lat="-39.32150200267022" lon="174.104452603471">
        <ele>919</ele>
      </trkpt>
      <trkpt lat="-39.32159736791913" lon="174.104495517833">
        <ele>918</ele>
      </trkpt>
      <trkpt lat="-39.32169273316804" lon="174.104539385848">
        <ele>917</ele>
      </trkpt>
      <trkpt lat="-39.32197119969483" lon="174.104610909784">
        <ele>912</ele>
      </trkpt>
      <trkpt lat="-39.32206370398627" lon="174.104696738508">
        <ele>910</ele>
      </trkpt>
      <trkpt lat="-39.32210471104329" lon="174.104765401488">
        <ele>909</ele>
      </trkpt>
      <trkpt lat="-39.32214571810032" lon="174.104835018119">
        <ele>908</ele>
      </trkpt>
      <trkpt lat="-39.32223726873927" lon="174.104872210566">
        <ele>906</ele>
      </trkpt>
      <trkpt lat="-39.32232881937821" lon="174.104910356666">
        <ele>905</ele>
      </trkpt>
      <trkpt lat="-39.32240225061987" lon="174.104967575815">
        <ele>904</ele>
      </trkpt>
      <trkpt lat="-39.32243086019454" lon="174.105067709327">
        <ele>903</ele>
      </trkpt>
      <trkpt lat="-39.32249380125882" lon="174.105113484646">
        <ele>902</ele>
      </trkpt>
      <trkpt lat="-39.32255578867061" lon="174.105160213618">
        <ele>902</ele>
      </trkpt>
      <trkpt lat="-39.32257104711043" lon="174.105224108335">
        <ele>901</ele>
      </trkpt>
      <trkpt lat="-39.32258630555025" lon="174.105288003052">
        <ele>901</ele>
      </trkpt>
      <trkpt lat="-39.32268453175663" lon="174.105409116918">
        <ele>899</ele>
      </trkpt>
      <trkpt lat="-39.32274175090597" lon="174.105435819188">
        <ele>898</ele>
      </trkpt>
      <trkpt lat="-39.32274175090597" lon="174.105371924471">
        <ele>899</ele>
      </trkpt>
      <trkpt lat="-39.32277608239557" lon="174.105304215144">
        <ele>899</ele>
      </trkpt>
      <trkpt lat="-39.32283806980736" lon="174.105340453939">
        <ele>898</ele>
      </trkpt>
      <trkpt lat="-39.32288861338928" lon="174.105301354187">
        <ele>898</ele>
      </trkpt>
      <trkpt lat="-39.32288861338928" lon="174.105301354187">
        <ele>898</ele>
      </trkpt>
      <trkpt lat="-39.32291913026893" lon="174.105270837307">
        <ele>898</ele>
      </trkpt>
      <trkpt lat="-39.32291913026893" lon="174.105270837307">
        <ele>898</ele>
      </trkpt>
      <trkpt lat="-39.32293629601373" lon="174.10522983025">
        <ele>898</ele>
      </trkpt>
      <trkpt lat="-39.32293152775129" lon="174.105175472058">
        <ele>898</ele>
      </trkpt>
      <trkpt lat="-39.32295727636849" lon="174.105168796491">
        <ele>898</ele>
      </trkpt>
      <trkpt lat="-39.32301926378027" lon="174.105205988938">
        <ele>897</ele>
      </trkpt>
      <trkpt lat="-39.32301926378027" lon="174.105205988938">
        <ele>897</ele>
      </trkpt>
      <trkpt lat="-39.32295727636849" lon="174.104956131986">
        <ele>900</ele>
      </trkpt>
      <trkpt lat="-39.32293534236124" lon="174.104771123403">
        <ele>900</ele>
      </trkpt>
      <trkpt lat="-39.32290101087164" lon="174.104602326912">
        <ele>901</ele>
      </trkpt>
      <trkpt lat="-39.32297158115583" lon="174.104486934961">
        <ele>901</ele>
      </trkpt>
      <trkpt lat="-39.32297158115583" lon="174.104486934961">
        <ele>901</ele>
      </trkpt>
      <trkpt lat="-39.32295250810604" lon="174.104431623117">
        <ele>902</ele>
      </trkpt>
      <trkpt lat="-39.32296585924089" lon="174.104374403967">
        <ele>902</ele>
      </trkpt>
      <trkpt lat="-39.32298588594316" lon="174.104332443258">
        <ele>902</ele>
      </trkpt>
      <trkpt lat="-39.32301640282281" lon="174.10430669464">
        <ele>902</ele>
      </trkpt>
      <trkpt lat="-39.32308983406447" lon="174.104305740988">
        <ele>902</ele>
      </trkpt>
      <trkpt lat="-39.32316231165363" lon="174.104304787336">
        <ele>901</ele>
      </trkpt>
      <trkpt lat="-39.32324146481022" lon="174.104287621591">
        <ele>901</ele>
      </trkpt>
      <trkpt lat="-39.32331966431432" lon="174.104271409498">
        <ele>901</ele>
      </trkpt>
      <trkpt lat="-39.32341502956323" lon="174.104198931909">
        <ele>901</ele>
      </trkpt>
      <trkpt lat="-39.32345508296776" lon="174.104125500668">
        <ele>901</ele>
      </trkpt>
      <trkpt lat="-39.3234951363723" lon="174.104052069426">
        <ele>901</ele>
      </trkpt>
      <trkpt lat="-39.32362292580584" lon="174.103705893572">
        <ele>903</ele>
      </trkpt>
      <trkpt lat="-39.32362292580584" lon="174.103705893572">
        <ele>903</ele>
      </trkpt>
      <trkpt lat="-39.32372496662216" lon="174.103621018501">
        <ele>902</ele>
      </trkpt>
      <trkpt lat="-39.32384131222582" lon="174.103589547969">
        <ele>900</ele>
      </trkpt>
      <trkpt lat="-39.32395670417699" lon="174.103559031089">
        <ele>899</ele>
      </trkpt>
      <trkpt lat="-39.3239869753791" lon="174.103599862013">
        <ele>898</ele>
      </trkpt>
    </trkseg>
  </trk>
</gpx>