<?xml version="1.0" encoding="UTF-8" standalone="yes"?>
<gpx
 version="1.1"
 creator="Generated by MapOut iPhone App. See https://mapout.app"
 xmlns="http://www.topografix.com/GPX/1/1"
 xmlns:xsi="http://www.w3.org/2001/XMLSchema-instance"
 xmlns:gpxx="http://www.garmin.com/xmlschemas/GpxExtensions/v3"
 xmlns:mapout="https://mapout.app/xmlschemas/MapOutExtensions"
 xsi:schemaLocation="http://www.topografix.com/GPX/1/1 https://www.topografix.com/GPX/1/1/gpx.xsd http://www.garmin.com/xmlschemas/GpxExtensions/v3 https://www8.garmin.com/xmlschemas/GpxExtensionsv3.xsd https://mapout.app/xmlschemas/MapOutExtensions https://mapout.app/xmlschemas/MapOutExtensions.xsd">
  <metadata>
    <name>Whale Watching Kaikoura</name>
    <desc></desc>
    <author><name>iPhone</name></author>
    <time>2026-09-22T23:02:11Z</time>
    <bounds minlat="-42.49262168750227" minlon="173.541475369942" maxlat="-42.42342838069807" maxlon="173.68182469771"/>
  </metadata>
  <wpt lat="-42.47937993234986" lon="173.613574168503">
    <ele>0</ele>
    <name>Whales</name>
    <sym>Circle</sym>
    <extensions>
      <mapout:extension>
        <mapout:color>0054FF</mapout:color>
      </mapout:extension>
    </extensions>
  </wpt>
  <trk>
    <extensions>
      <gpxx:TrackExtension>
        <gpxx:DisplayColor>Blue</gpxx:DisplayColor>
      </gpxx:TrackExtension>
    </extensions>
    <trkseg>
      <trkpt lat="-42.42342838069807" lon="173.680799160786">
        <ele>2</ele>
      </trkpt>
      <trkpt lat="-42.42358623162671" lon="173.675353272695">
        <ele>0</ele>
      </trkpt>
      <trkpt lat="-42.42409700617954" lon="173.672813651029">
        <ele>0</ele>
      </trkpt>
      <trkpt lat="-42.42525785692796" lon="173.669512144167">
        <ele>0</ele>
      </trkpt>
      <trkpt lat="-42.42637227379545" lon="173.666274125564">
        <ele>0</ele>
      </trkpt>
      <trkpt lat="-42.42748669066295" lon="173.662909127648">
        <ele>0</ele>
      </trkpt>
      <trkpt lat="-42.42785816310733" lon="173.661067902453">
        <ele>0</ele>
      </trkpt>
      <trkpt lat="-42.4289261460939" lon="173.657512432539">
        <ele>0</ele>
      </trkpt>
      <trkpt lat="-42.43073707327075" lon="173.653639509859">
        <ele>0</ele>
      </trkpt>
      <trkpt lat="-42.43226939657997" lon="173.648814229171">
        <ele>0</ele>
      </trkpt>
      <trkpt lat="-42.43296590712215" lon="173.646655551034">
        <ele>0</ele>
      </trkpt>
      <trkpt lat="-42.43366241763523" lon="173.643861967947">
        <ele>0</ele>
      </trkpt>
      <trkpt lat="-42.43435892816287" lon="173.642528666991">
        <ele>0</ele>
      </trkpt>
      <trkpt lat="-42.43486970258472" lon="173.641068383928">
        <ele>0</ele>
      </trkpt>
      <trkpt lat="-42.43533404296558" lon="173.638401781085">
        <ele>0</ele>
      </trkpt>
      <trkpt lat="-42.43658776182509" lon="173.633766972336">
        <ele>0</ele>
      </trkpt>
      <trkpt lat="-42.43760931069791" lon="173.630401973489">
        <ele>0</ele>
      </trkpt>
      <trkpt lat="-42.43784148080103" lon="173.629132163587">
        <ele>0</ele>
      </trkpt>
      <trkpt lat="-42.43983902069277" lon="173.625196045455">
        <ele>0</ele>
      </trkpt>
      <trkpt lat="-42.44137421991312" lon="173.62011284446">
        <ele>0</ele>
      </trkpt>
      <trkpt lat="-42.44202959189874" lon="173.617673332948">
        <ele>0</ele>
      </trkpt>
      <trkpt lat="-42.44219633807771" lon="173.6167173313">
        <ele>0</ele>
      </trkpt>
      <trkpt lat="-42.44243045070785" lon="173.615614578589">
        <ele>0</ele>
      </trkpt>
      <trkpt lat="-42.44275603696725" lon="173.613689525828">
        <ele>0</ele>
      </trkpt>
      <trkpt lat="-42.4430086485207" lon="173.61185330441">
        <ele>0</ele>
      </trkpt>
      <trkpt lat="-42.44312662775343" lon="173.611200815837">
        <ele>0</ele>
      </trkpt>
      <trkpt lat="-42.4433686059786" lon="173.609600144926">
        <ele>0</ele>
      </trkpt>
      <trkpt lat="-42.44362243855337" lon="173.608318848107">
        <ele>0</ele>
      </trkpt>
      <trkpt lat="-42.44402322832717" lon="173.606725107386">
        <ele>0</ele>
      </trkpt>
      <trkpt lat="-42.44424528090532" lon="173.60560516872">
        <ele>0</ele>
      </trkpt>
      <trkpt lat="-42.44449976330161" lon="173.604694181529">
        <ele>0</ele>
      </trkpt>
      <trkpt lat="-42.44467473344624" lon="173.604162428213">
        <ele>0</ele>
      </trkpt>
      <trkpt lat="-42.44488065238018" lon="173.603263440625">
        <ele>0</ele>
      </trkpt>
      <trkpt lat="-42.44520037421595" lon="173.602447764602">
        <ele>0</ele>
      </trkpt>
      <trkpt lat="-42.44541140037056" lon="173.602085447437">
        <ele>0</ele>
      </trkpt>
      <trkpt lat="-42.44562453005143" lon="173.601796465597">
        <ele>0</ele>
      </trkpt>
      <trkpt lat="-42.44582231759857" lon="173.601615903883">
        <ele>0</ele>
      </trkpt>
      <trkpt lat="-42.44622744860451" lon="173.601346778224">
        <ele>0</ele>
      </trkpt>
      <trkpt lat="-42.44717241436101" lon="173.600573769766">
        <ele>0</ele>
      </trkpt>
      <trkpt lat="-42.44746243526815" lon="173.600304779424">
        <ele>0</ele>
      </trkpt>
      <trkpt lat="-42.44786063470576" lon="173.599859586622">
        <ele>0</ele>
      </trkpt>
      <trkpt lat="-42.44882301724984" lon="173.599025823807">
        <ele>0</ele>
      </trkpt>
      <trkpt lat="-42.45062109939445" lon="173.597703927398">
        <ele>0</ele>
      </trkpt>
      <trkpt lat="-42.45278589337826" lon="173.595587632456">
        <ele>0</ele>
      </trkpt>
      <trkpt lat="-42.45465054311877" lon="173.594192251943">
        <ele>0</ele>
      </trkpt>
      <trkpt lat="-42.45526411884172" lon="173.593955390595">
        <ele>0</ele>
      </trkpt>
      <trkpt lat="-42.45595838295637" lon="173.593819560337">
        <ele>0</ele>
      </trkpt>
      <trkpt lat="-42.45670850318113" lon="173.593573584564">
        <ele>0</ele>
      </trkpt>
      <trkpt lat="-42.45758821076807" lon="173.593344482645">
        <ele>0</ele>
      </trkpt>
      <trkpt lat="-42.45909271184435" lon="173.593357254959">
        <ele>0</ele>
      </trkpt>
      <trkpt lat="-42.46023505799428" lon="173.593483571558">
        <ele>0</ele>
      </trkpt>
      <trkpt lat="-42.46093847347195" lon="173.593481784473">
        <ele>0</ele>
      </trkpt>
      <trkpt lat="-42.46098112583768" lon="173.593484191704">
        <ele>0</ele>
      </trkpt>
      <trkpt lat="-42.46173739987407" lon="173.59351072148">
        <ele>0</ele>
      </trkpt>
      <trkpt lat="-42.46211472707684" lon="173.593587830604">
        <ele>0</ele>
      </trkpt>
      <trkpt lat="-42.46272217531786" lon="173.593790515279">
        <ele>0</ele>
      </trkpt>
      <trkpt lat="-42.46310253584821" lon="173.593896103495">
        <ele>0</ele>
      </trkpt>
      <trkpt lat="-42.46356739649963" lon="173.593983928986">
        <ele>0</ele>
      </trkpt>
      <trkpt lat="-42.46390328878795" lon="173.594063986894">
        <ele>0</ele>
      </trkpt>
      <trkpt lat="-42.46436154295957" lon="173.594153976969">
        <ele>0</ele>
      </trkpt>
      <trkpt lat="-42.4644488987194" lon="173.594185799125">
        <ele>0</ele>
      </trkpt>
      <trkpt lat="-42.46448818158847" lon="173.594199568564">
        <ele>0</ele>
      </trkpt>
      <trkpt lat="-42.46498196446434" lon="173.594371315502">
        <ele>0</ele>
      </trkpt>
      <trkpt lat="-42.46535979429346" lon="173.594489545752">
        <ele>0</ele>
      </trkpt>
      <trkpt lat="-42.4655641901906" lon="173.594568432345">
        <ele>0</ele>
      </trkpt>
      <trkpt lat="-42.46580782591624" lon="173.594655593983">
        <ele>0</ele>
      </trkpt>
      <trkpt lat="-42.46584918017434" lon="173.594673476001">
        <ele>0</ele>
      </trkpt>
      <trkpt lat="-42.4660970799905" lon="173.594762162695">
        <ele>0</ele>
      </trkpt>
      <trkpt lat="-42.46613743792354" lon="173.594780025485">
        <ele>0</ele>
      </trkpt>
      <trkpt lat="-42.46618148179098" lon="173.594794895343">
        <ele>0</ele>
      </trkpt>
      <trkpt lat="-42.46676813958121" lon="173.595040471232">
        <ele>0</ele>
      </trkpt>
      <trkpt lat="-42.46685163910475" lon="173.595068581349">
        <ele>0</ele>
      </trkpt>
      <trkpt lat="-42.46738067322717" lon="173.595253580463">
        <ele>0</ele>
      </trkpt>
      <trkpt lat="-42.46779882115921" lon="173.595373203732">
        <ele>0</ele>
      </trkpt>
      <trkpt lat="-42.46845994327521" lon="173.595577430874">
        <ele>0</ele>
      </trkpt>
      <trkpt lat="-42.46858495424185" lon="173.595600482162">
        <ele>0</ele>
      </trkpt>
      <trkpt lat="-42.46861612823261" lon="173.595619650359">
        <ele>0</ele>
      </trkpt>
      <trkpt lat="-42.46874914258603" lon="173.595656931727">
        <ele>0</ele>
      </trkpt>
      <trkpt lat="-42.46879216340061" lon="173.5957170903">
        <ele>0</ele>
      </trkpt>
      <trkpt lat="-42.46883487072995" lon="173.595692910818">
        <ele>0</ele>
      </trkpt>
      <trkpt lat="-42.46904649720928" lon="173.595707042577">
        <ele>0</ele>
      </trkpt>
      <trkpt lat="-42.46913400437631" lon="173.595730216624">
        <ele>0</ele>
      </trkpt>
      <trkpt lat="-42.46938665173544" lon="173.595737648806">
        <ele>0</ele>
      </trkpt>
      <trkpt lat="-42.46976751351563" lon="173.595774789939">
        <ele>0</ele>
      </trkpt>
      <trkpt lat="-42.47011047436031" lon="173.595771894068">
        <ele>0</ele>
      </trkpt>
      <trkpt lat="-42.47108642180547" lon="173.595715325774">
        <ele>0</ele>
      </trkpt>
      <trkpt lat="-42.47116232564343" lon="173.595693637406">
        <ele>0</ele>
      </trkpt>
      <trkpt lat="-42.47119585584151" lon="173.595704594415">
        <ele>0</ele>
      </trkpt>
      <trkpt lat="-42.47144659910725" lon="173.595694968565">
        <ele>0</ele>
      </trkpt>
      <trkpt lat="-42.47148919791108" lon="173.595695582497">
        <ele>0</ele>
      </trkpt>
      <trkpt lat="-42.47160840824326" lon="173.595694824871">
        <ele>0</ele>
      </trkpt>
      <trkpt lat="-42.47216326400093" lon="173.595758663262">
        <ele>0</ele>
      </trkpt>
      <trkpt lat="-42.47246839191918" lon="173.595772366162">
        <ele>0</ele>
      </trkpt>
      <trkpt lat="-42.47304111914473" lon="173.595701249786">
        <ele>0</ele>
      </trkpt>
      <trkpt lat="-42.47343994231406" lon="173.595545737968">
        <ele>0</ele>
      </trkpt>
      <trkpt lat="-42.47357877041874" lon="173.595407421133">
        <ele>0</ele>
      </trkpt>
      <trkpt lat="-42.47371955698537" lon="173.595152420795">
        <ele>0</ele>
      </trkpt>
      <trkpt lat="-42.47397793024577" lon="173.594363814152">
        <ele>0</ele>
      </trkpt>
      <trkpt lat="-42.47404485103888" lon="173.594273377887">
        <ele>0</ele>
      </trkpt>
      <trkpt lat="-42.47421814109609" lon="173.59419606458">
        <ele>0</ele>
      </trkpt>
      <trkpt lat="-42.47434297268254" lon="173.594225630791">
        <ele>0</ele>
      </trkpt>
      <trkpt lat="-42.47472019138636" lon="173.594474469106">
        <ele>0</ele>
      </trkpt>
      <trkpt lat="-42.47527914755658" lon="173.594949673041">
        <ele>0</ele>
      </trkpt>
      <trkpt lat="-42.47540453508871" lon="173.595010007991">
        <ele>0</ele>
      </trkpt>
      <trkpt lat="-42.47620175944756" lon="173.595099375688">
        <ele>0</ele>
      </trkpt>
      <trkpt lat="-42.47642860839366" lon="173.595191039814">
        <ele>0</ele>
      </trkpt>
      <trkpt lat="-42.47752856414018" lon="173.596828513884">
        <ele>0</ele>
      </trkpt>
      <trkpt lat="-42.47766122795844" lon="173.596964017201">
        <ele>0</ele>
      </trkpt>
      <trkpt lat="-42.4777866192617" lon="173.597239665048">
        <ele>0</ele>
      </trkpt>
      <trkpt lat="-42.47907695587158" lon="173.599282343281">
        <ele>0</ele>
      </trkpt>
      <trkpt lat="-42.47934723073928" lon="173.599650516965">
        <ele>0</ele>
      </trkpt>
      <trkpt lat="-42.47940737427074" lon="173.59968099102">
        <ele>0</ele>
      </trkpt>
      <trkpt lat="-42.4799236198049" lon="173.600415240159">
        <ele>0</ele>
      </trkpt>
      <trkpt lat="-42.48022068543234" lon="173.600701153372">
        <ele>0</ele>
      </trkpt>
      <trkpt lat="-42.4805848400412" lon="173.600973892082">
        <ele>0</ele>
      </trkpt>
      <trkpt lat="-42.48086506819303" lon="173.60127595721">
        <ele>0</ele>
      </trkpt>
      <trkpt lat="-42.48098949286711" lon="173.601594935673">
        <ele>0</ele>
      </trkpt>
      <trkpt lat="-42.48096843937036" lon="173.601846618806">
        <ele>0</ele>
      </trkpt>
      <trkpt lat="-42.48084563314797" lon="173.601889636714">
        <ele>0</ele>
      </trkpt>
      <trkpt lat="-42.48068545023631" lon="173.602077821788">
        <ele>0</ele>
      </trkpt>
      <trkpt lat="-42.48059658738185" lon="173.602073940642">
        <ele>0</ele>
      </trkpt>
      <trkpt lat="-42.48045349133206" lon="173.601976294841">
        <ele>0</ele>
      </trkpt>
      <trkpt lat="-42.48043908458968" lon="173.602136740405">
        <ele>0</ele>
      </trkpt>
      <trkpt lat="-42.48051106240818" lon="173.602210148896">
        <ele>0</ele>
      </trkpt>
      <trkpt lat="-42.48059929336502" lon="173.602393213572">
        <ele>0</ele>
      </trkpt>
      <trkpt lat="-42.48087891572372" lon="173.60353265978">
        <ele>0</ele>
      </trkpt>
      <trkpt lat="-42.48090351770474" lon="173.604330999873">
        <ele>0</ele>
      </trkpt>
      <trkpt lat="-42.4808491961971" lon="173.605807861478">
        <ele>0</ele>
      </trkpt>
      <trkpt lat="-42.48092431767936" lon="173.606606254148">
        <ele>0</ele>
      </trkpt>
      <trkpt lat="-42.4810162703511" lon="173.607109098028">
        <ele>0</ele>
      </trkpt>
      <trkpt lat="-42.48118214108501" lon="173.607690401057">
        <ele>0</ele>
      </trkpt>
      <trkpt lat="-42.48142298871062" lon="173.608261177047">
        <ele>0</ele>
      </trkpt>
      <trkpt lat="-42.48162159304577" lon="173.608406912083">
        <ele>0</ele>
      </trkpt>
      <trkpt lat="-42.48188078156159" lon="173.608439526305">
        <ele>0</ele>
      </trkpt>
      <trkpt lat="-42.48197761780298" lon="173.608368205783">
        <ele>0</ele>
      </trkpt>
      <trkpt lat="-42.48168379634151" lon="173.608143100491">
        <ele>0</ele>
      </trkpt>
      <trkpt lat="-42.48144199918202" lon="173.608103582488">
        <ele>0</ele>
      </trkpt>
      <trkpt lat="-42.48119492830618" lon="173.607488493337">
        <ele>0</ele>
      </trkpt>
      <trkpt lat="-42.48119105784762" lon="173.607522989998">
        <ele>0</ele>
      </trkpt>
      <trkpt lat="-42.48126014448167" lon="173.607289819603">
        <ele>0</ele>
      </trkpt>
      <trkpt lat="-42.48174764122034" lon="173.606891604944">
        <ele>0</ele>
      </trkpt>
      <trkpt lat="-42.48194321657958" lon="173.606864063448">
        <ele>0</ele>
      </trkpt>
      <trkpt lat="-42.48216872224722" lon="173.606984502476">
        <ele>0</ele>
      </trkpt>
      <trkpt lat="-42.48216449647396" lon="173.607125146293">
        <ele>0</ele>
      </trkpt>
      <trkpt lat="-42.48208642712721" lon="173.607229794467">
        <ele>0</ele>
      </trkpt>
      <trkpt lat="-42.48213412877298" lon="173.607310335117">
        <ele>0</ele>
      </trkpt>
      <trkpt lat="-42.4817781148375" lon="173.607361202809">
        <ele>0</ele>
      </trkpt>
      <trkpt lat="-42.48114692575535" lon="173.607289032019">
        <ele>0</ele>
      </trkpt>
      <trkpt lat="-42.48172657526985" lon="173.60753833533">
        <ele>0</ele>
      </trkpt>
      <trkpt lat="-42.48188504796329" lon="173.607522249643">
        <ele>0</ele>
      </trkpt>
      <trkpt lat="-42.48190018553849" lon="173.607493153466">
        <ele>0</ele>
      </trkpt>
      <trkpt lat="-42.48188603087947" lon="173.607456827811">
        <ele>0</ele>
      </trkpt>
      <trkpt lat="-42.48178595052121" lon="173.60738471761">
        <ele>0</ele>
      </trkpt>
      <trkpt lat="-42.48176301366222" lon="173.607338475208">
        <ele>0</ele>
      </trkpt>
      <trkpt lat="-42.48175637001328" lon="173.607276826013">
        <ele>0</ele>
      </trkpt>
      <trkpt lat="-42.48169533677661" lon="173.607214777728">
        <ele>0</ele>
      </trkpt>
      <trkpt lat="-42.48161426486726" lon="173.607176201958">
        <ele>0</ele>
      </trkpt>
      <trkpt lat="-42.48159383627067" lon="173.607075121418">
        <ele>0</ele>
      </trkpt>
      <trkpt lat="-42.48149317805624" lon="173.606986938411">
        <ele>0</ele>
      </trkpt>
      <trkpt lat="-42.48145631224094" lon="173.606971909438">
        <ele>0</ele>
      </trkpt>
      <trkpt lat="-42.48141360379486" lon="173.606938970239">
        <ele>0</ele>
      </trkpt>
      <trkpt lat="-42.48125513678627" lon="173.606849630206">
        <ele>0</ele>
      </trkpt>
      <trkpt lat="-42.48120863995491" lon="173.606834531492">
        <ele>0</ele>
      </trkpt>
      <trkpt lat="-42.48116456700309" lon="173.606701814626">
        <ele>0</ele>
      </trkpt>
      <trkpt lat="-42.48116516010534" lon="173.606601562025">
        <ele>0</ele>
      </trkpt>
      <trkpt lat="-42.48101692632981" lon="173.606449942027">
        <ele>0</ele>
      </trkpt>
      <trkpt lat="-42.48098200784867" lon="173.606440052481">
        <ele>0</ele>
      </trkpt>
      <trkpt lat="-42.48091673968857" lon="173.606390827319">
        <ele>0</ele>
      </trkpt>
      <trkpt lat="-42.48074691114568" lon="173.606334020225">
        <ele>0</ele>
      </trkpt>
      <trkpt lat="-42.48070155701544" lon="173.606301803504">
        <ele>0</ele>
      </trkpt>
      <trkpt lat="-42.48067778857752" lon="173.606169745155">
        <ele>0</ele>
      </trkpt>
      <trkpt lat="-42.48058659146636" lon="173.606069578506">
        <ele>0</ele>
      </trkpt>
      <trkpt lat="-42.48038181345984" lon="173.605993533431">
        <ele>0</ele>
      </trkpt>
      <trkpt lat="-42.48023376684715" lon="173.606020289961">
        <ele>0</ele>
      </trkpt>
      <trkpt lat="-42.48015845349251" lon="173.606068886551">
        <ele>0</ele>
      </trkpt>
      <trkpt lat="-42.48004480924511" lon="173.606238730414">
        <ele>0</ele>
      </trkpt>
      <trkpt lat="-42.48002844929112" lon="173.606481724563">
        <ele>0</ele>
      </trkpt>
      <trkpt lat="-42.48001315628553" lon="173.606523766299">
        <ele>0</ele>
      </trkpt>
      <trkpt lat="-42.48006152765859" lon="173.607563779722">
        <ele>0</ele>
      </trkpt>
      <trkpt lat="-42.4800660175982" lon="173.608108298677">
        <ele>0</ele>
      </trkpt>
      <trkpt lat="-42.48012195879814" lon="173.608366128091">
        <ele>0</ele>
      </trkpt>
      <trkpt lat="-42.48015990086734" lon="173.608442994735">
        <ele>0</ele>
      </trkpt>
      <trkpt lat="-42.48027171904181" lon="173.608574867974">
        <ele>0</ele>
      </trkpt>
      <trkpt lat="-42.4805719394433" lon="173.608812151955">
        <ele>0</ele>
      </trkpt>
      <trkpt lat="-42.48071842012377" lon="173.608864861359">
        <ele>0</ele>
      </trkpt>
      <trkpt lat="-42.48083036989306" lon="173.608892663731">
        <ele>0</ele>
      </trkpt>
      <trkpt lat="-42.48092636" lon="173.60892587745">
        <ele>0</ele>
      </trkpt>
      <trkpt lat="-42.48116904861047" lon="173.608998461906">
        <ele>0</ele>
      </trkpt>
      <trkpt lat="-42.48141691885519" lon="173.609124195421">
        <ele>0</ele>
      </trkpt>
      <trkpt lat="-42.48153243262892" lon="173.609140249473">
        <ele>0</ele>
      </trkpt>
      <trkpt lat="-42.48155558439822" lon="173.609123399172">
        <ele>0</ele>
      </trkpt>
      <trkpt lat="-42.48155525139742" lon="173.609090881477">
        <ele>0</ele>
      </trkpt>
      <trkpt lat="-42.48145041641239" lon="173.609032097651">
        <ele>0</ele>
      </trkpt>
      <trkpt lat="-42.48129157978027" lon="173.60892330667">
        <ele>0</ele>
      </trkpt>
      <trkpt lat="-42.48124721416922" lon="173.608911394791">
        <ele>0</ele>
      </trkpt>
      <trkpt lat="-42.48120161109512" lon="173.608881716898">
        <ele>0</ele>
      </trkpt>
      <trkpt lat="-42.48119621075318" lon="173.608795654571">
        <ele>0</ele>
      </trkpt>
      <trkpt lat="-42.48123505728503" lon="173.60873399594">
        <ele>0</ele>
      </trkpt>
      <trkpt lat="-42.48130660679699" lon="173.608524784977">
        <ele>0</ele>
      </trkpt>
      <trkpt lat="-42.48130325212725" lon="173.60843544469">
        <ele>0</ele>
      </trkpt>
      <trkpt lat="-42.48122246769208" lon="173.608358496441">
        <ele>0</ele>
      </trkpt>
      <trkpt lat="-42.48108667587093" lon="173.608269773239">
        <ele>0</ele>
      </trkpt>
      <trkpt lat="-42.48106982005702" lon="173.608253040226">
        <ele>0</ele>
      </trkpt>
      <trkpt lat="-42.48104091288938" lon="173.608238488972">
        <ele>0</ele>
      </trkpt>
      <trkpt lat="-42.48099496173308" lon="173.608206425015">
        <ele>0</ele>
      </trkpt>
      <trkpt lat="-42.48061877484133" lon="173.608054717119">
        <ele>0</ele>
      </trkpt>
      <trkpt lat="-42.48049974123781" lon="173.608028916694">
        <ele>0</ele>
      </trkpt>
      <trkpt lat="-42.48045634356728" lon="173.608005139542">
        <ele>0</ele>
      </trkpt>
      <trkpt lat="-42.48021002644968" lon="173.607977807832">
        <ele>0</ele>
      </trkpt>
      <trkpt lat="-42.48006022687396" lon="173.608056051373">
        <ele>0</ele>
      </trkpt>
      <trkpt lat="-42.47989052842127" lon="173.608084347462">
        <ele>0</ele>
      </trkpt>
      <trkpt lat="-42.47994260209107" lon="173.608776930264">
        <ele>0</ele>
      </trkpt>
      <trkpt lat="-42.48008798747773" lon="173.609649716233">
        <ele>0</ele>
      </trkpt>
      <trkpt lat="-42.48015351864782" lon="173.60985514674">
        <ele>0</ele>
      </trkpt>
      <trkpt lat="-42.48031396874003" lon="173.610154157272">
        <ele>0</ele>
      </trkpt>
      <trkpt lat="-42.48049248239899" lon="173.610360508897">
        <ele>0</ele>
      </trkpt>
      <trkpt lat="-42.48083954038668" lon="173.610436175523">
        <ele>0</ele>
      </trkpt>
      <trkpt lat="-42.48107963766655" lon="173.610302706824">
        <ele>0</ele>
      </trkpt>
      <trkpt lat="-42.48142727897469" lon="173.609932491542">
        <ele>0</ele>
      </trkpt>
      <trkpt lat="-42.48147475339659" lon="173.609798642204">
        <ele>0</ele>
      </trkpt>
      <trkpt lat="-42.48121802351643" lon="173.609580562705">
        <ele>0</ele>
      </trkpt>
      <trkpt lat="-42.48098651635335" lon="173.609491671525">
        <ele>0</ele>
      </trkpt>
      <trkpt lat="-42.48095596190404" lon="173.60944296679">
        <ele>0</ele>
      </trkpt>
      <trkpt lat="-42.48122637210703" lon="173.608376921979">
        <ele>0</ele>
      </trkpt>
      <trkpt lat="-42.4811834519802" lon="173.608268341081">
        <ele>0</ele>
      </trkpt>
      <trkpt lat="-42.48082794851017" lon="173.608282058447">
        <ele>0</ele>
      </trkpt>
      <trkpt lat="-42.48059929756276" lon="173.608435194477">
        <ele>0</ele>
      </trkpt>
      <trkpt lat="-42.48053597981522" lon="173.608574472957">
        <ele>0</ele>
      </trkpt>
      <trkpt lat="-42.48022573121754" lon="173.608618008772">
        <ele>0</ele>
      </trkpt>
      <trkpt lat="-42.48015353166521" lon="173.608692649773">
        <ele>0</ele>
      </trkpt>
      <trkpt lat="-42.48013125656296" lon="173.608865207119">
        <ele>0</ele>
      </trkpt>
      <trkpt lat="-42.47993024606385" lon="173.609052669416">
        <ele>0</ele>
      </trkpt>
      <trkpt lat="-42.4796241779211" lon="173.609078538767">
        <ele>0</ele>
      </trkpt>
      <trkpt lat="-42.47940167559474" lon="173.608751074444">
        <ele>0</ele>
      </trkpt>
      <trkpt lat="-42.47906880160765" lon="173.608632127845">
        <ele>0</ele>
      </trkpt>
      <trkpt lat="-42.47883091860759" lon="173.608695610374">
        <ele>0</ele>
      </trkpt>
      <trkpt lat="-42.4781758197289" lon="173.609186281589">
        <ele>0</ele>
      </trkpt>
      <trkpt lat="-42.47746272286305" lon="173.609549044952">
        <ele>0</ele>
      </trkpt>
      <trkpt lat="-42.4774329946194" lon="173.609694129858">
        <ele>0</ele>
      </trkpt>
      <trkpt lat="-42.47702318522528" lon="173.610147551708">
        <ele>0</ele>
      </trkpt>
      <trkpt lat="-42.47645367084884" lon="173.61062988328">
        <ele>0</ele>
      </trkpt>
      <trkpt lat="-42.47599891124012" lon="173.611399802658">
        <ele>0</ele>
      </trkpt>
      <trkpt lat="-42.47756631039019" lon="173.610269500548">
        <ele>0</ele>
      </trkpt>
      <trkpt lat="-42.47805980851497" lon="173.609676837304">
        <ele>0</ele>
      </trkpt>
      <trkpt lat="-42.47827063641086" lon="173.609127755979">
        <ele>0</ele>
      </trkpt>
      <trkpt lat="-42.47822447801454" lon="173.608817598501">
        <ele>0</ele>
      </trkpt>
      <trkpt lat="-42.47808130179001" lon="173.608662006449">
        <ele>0</ele>
      </trkpt>
      <trkpt lat="-42.47802572365012" lon="173.608663605022">
        <ele>0</ele>
      </trkpt>
      <trkpt lat="-42.47779732111485" lon="173.608911486097">
        <ele>0</ele>
      </trkpt>
      <trkpt lat="-42.47772425826034" lon="173.608912128293">
        <ele>0</ele>
      </trkpt>
      <trkpt lat="-42.47764123564539" lon="173.608803672833">
        <ele>0</ele>
      </trkpt>
      <trkpt lat="-42.47755867719564" lon="173.608349792823">
        <ele>0</ele>
      </trkpt>
      <trkpt lat="-42.47759356909797" lon="173.606404853147">
        <ele>0</ele>
      </trkpt>
      <trkpt lat="-42.4779126517634" lon="173.605117127983">
        <ele>0</ele>
      </trkpt>
      <trkpt lat="-42.478862870114" lon="173.603010896954">
        <ele>0</ele>
      </trkpt>
      <trkpt lat="-42.48117835951292" lon="173.596100811652">
        <ele>0</ele>
      </trkpt>
      <trkpt lat="-42.48198773413775" lon="173.593081549222">
        <ele>0</ele>
      </trkpt>
      <trkpt lat="-42.48246633627357" lon="173.591732156041">
        <ele>0</ele>
      </trkpt>
      <trkpt lat="-42.48269959081599" lon="173.590892269282">
        <ele>0</ele>
      </trkpt>
      <trkpt lat="-42.48296208288215" lon="173.589623167368">
        <ele>0</ele>
      </trkpt>
      <trkpt lat="-42.48299232336196" lon="173.589238508454">
        <ele>0</ele>
      </trkpt>
      <trkpt lat="-42.48293006121678" lon="173.588538689398">
        <ele>0</ele>
      </trkpt>
      <trkpt lat="-42.482949360698" lon="173.588216729102">
        <ele>0</ele>
      </trkpt>
      <trkpt lat="-42.48301775089205" lon="173.587886665214">
        <ele>0</ele>
      </trkpt>
      <trkpt lat="-42.48320110079364" lon="173.587319375301">
        <ele>0</ele>
      </trkpt>
      <trkpt lat="-42.48386950775078" lon="173.584828834134">
        <ele>0</ele>
      </trkpt>
      <trkpt lat="-42.48396124934453" lon="173.584542975256">
        <ele>0</ele>
      </trkpt>
      <trkpt lat="-42.48437631837066" lon="173.582784639523">
        <ele>0</ele>
      </trkpt>
      <trkpt lat="-42.48479295834871" lon="173.581648497947">
        <ele>0</ele>
      </trkpt>
      <trkpt lat="-42.48550940364398" lon="173.579210489898">
        <ele>0</ele>
      </trkpt>
      <trkpt lat="-42.48622629169918" lon="173.575999580624">
        <ele>0</ele>
      </trkpt>
      <trkpt lat="-42.48653654297465" lon="173.574855497566">
        <ele>0</ele>
      </trkpt>
      <trkpt lat="-42.48673354012499" lon="173.573971949832">
        <ele>0</ele>
      </trkpt>
      <trkpt lat="-42.48703333755888" lon="173.572804723825">
        <ele>0</ele>
      </trkpt>
      <trkpt lat="-42.4873611938751" lon="173.571811194583">
        <ele>0</ele>
      </trkpt>
      <trkpt lat="-42.48783003666978" lon="173.570578812726">
        <ele>0</ele>
      </trkpt>
      <trkpt lat="-42.48841601244807" lon="173.568676980594">
        <ele>0</ele>
      </trkpt>
      <trkpt lat="-42.48873005517644" lon="173.567110708955">
        <ele>0</ele>
      </trkpt>
      <trkpt lat="-42.48930169581377" lon="173.56471562939">
        <ele>0</ele>
      </trkpt>
      <trkpt lat="-42.48964154275875" lon="173.562693578444">
        <ele>0</ele>
      </trkpt>
      <trkpt lat="-42.48971962397628" lon="173.561607394494">
        <ele>0</ele>
      </trkpt>
      <trkpt lat="-42.48991224444408" lon="173.560367182141">
        <ele>0</ele>
      </trkpt>
      <trkpt lat="-42.48991666260709" lon="173.560053498517">
        <ele>0</ele>
      </trkpt>
      <trkpt lat="-42.48976338135328" lon="173.558208869809">
        <ele>0</ele>
      </trkpt>
      <trkpt lat="-42.48949051849824" lon="173.55704519113">
        <ele>0</ele>
      </trkpt>
      <trkpt lat="-42.48936169295661" lon="173.555733926359">
        <ele>0</ele>
      </trkpt>
      <trkpt lat="-42.48942836432234" lon="173.554114111601">
        <ele>0</ele>
      </trkpt>
      <trkpt lat="-42.48956028646239" lon="173.553143049181">
        <ele>0</ele>
      </trkpt>
      <trkpt lat="-42.48962503737194" lon="173.552856948661">
        <ele>0</ele>
      </trkpt>
      <trkpt lat="-42.48989636064824" lon="173.552116262288">
        <ele>0</ele>
      </trkpt>
      <trkpt lat="-42.49025776053882" lon="173.551281289101">
        <ele>0</ele>
      </trkpt>
      <trkpt lat="-42.49040644540087" lon="173.550805619243">
        <ele>0</ele>
      </trkpt>
      <trkpt lat="-42.49061361835593" lon="173.549871757753">
        <ele>0</ele>
      </trkpt>
      <trkpt lat="-42.49147978705236" lon="173.547288302834">
        <ele>0</ele>
      </trkpt>
      <trkpt lat="-42.49178158742118" lon="173.546666004105">
        <ele>0</ele>
      </trkpt>
      <trkpt lat="-42.49188183616138" lon="173.546566100884">
        <ele>0</ele>
      </trkpt>
      <trkpt lat="-42.49199326178272" lon="173.546273210574">
        <ele>0</ele>
      </trkpt>
      <trkpt lat="-42.49229434331475" lon="173.545097278303">
        <ele>0</ele>
      </trkpt>
      <trkpt lat="-42.49256835120782" lon="173.543565481499">
        <ele>0</ele>
      </trkpt>
      <trkpt lat="-42.49262168750227" lon="173.542773475555">
        <ele>0</ele>
      </trkpt>
      <trkpt lat="-42.49258413809755" lon="173.542431444841">
        <ele>0</ele>
      </trkpt>
      <trkpt lat="-42.49249121008511" lon="173.542196022985">
        <ele>0</ele>
      </trkpt>
      <trkpt lat="-42.49235554333571" lon="173.541982664125">
        <ele>0</ele>
      </trkpt>
      <trkpt lat="-42.49212682454836" lon="173.541753059929">
        <ele>0</ele>
      </trkpt>
      <trkpt lat="-42.49155469036093" lon="173.541505582266">
        <ele>0</ele>
      </trkpt>
      <trkpt lat="-42.49087154372721" lon="173.541475369942">
        <ele>0</ele>
      </trkpt>
      <trkpt lat="-42.49020993561324" lon="173.541597430148">
        <ele>0</ele>
      </trkpt>
      <trkpt lat="-42.48973310601617" lon="173.541767717034">
        <ele>0</ele>
      </trkpt>
      <trkpt lat="-42.48799431437192" lon="173.542651702514">
        <ele>0</ele>
      </trkpt>
      <trkpt lat="-42.48726194026012" lon="173.543189430901">
        <ele>0</ele>
      </trkpt>
      <trkpt lat="-42.4863354543461" lon="173.543970844915">
        <ele>0</ele>
      </trkpt>
      <trkpt lat="-42.485700493845" lon="173.544425592584">
        <ele>0</ele>
      </trkpt>
      <trkpt lat="-42.48514475933463" lon="173.544895641998">
        <ele>0</ele>
      </trkpt>
      <trkpt lat="-42.48348400443079" lon="173.546026428952">
        <ele>0</ele>
      </trkpt>
      <trkpt lat="-42.48239800170386" lon="173.547037622335">
        <ele>0</ele>
      </trkpt>
      <trkpt lat="-42.47876419828757" lon="173.549720268424">
        <ele>0</ele>
      </trkpt>
      <trkpt lat="-42.47805078547955" lon="173.550299099666">
        <ele>0</ele>
      </trkpt>
      <trkpt lat="-42.4777144136109" lon="173.550636420547">
        <ele>0</ele>
      </trkpt>
      <trkpt lat="-42.47709123027015" lon="173.551186020615">
        <ele>0</ele>
      </trkpt>
      <trkpt lat="-42.47675557999219" lon="173.551296020186">
        <ele>0</ele>
      </trkpt>
      <trkpt lat="-42.47655559589065" lon="173.551309159776">
        <ele>0</ele>
      </trkpt>
      <trkpt lat="-42.47560521536715" lon="173.551185483269">
        <ele>0</ele>
      </trkpt>
      <trkpt lat="-42.47507738192151" lon="173.551198595561">
        <ele>0</ele>
      </trkpt>
      <trkpt lat="-42.47464923808692" lon="173.551347442135">
        <ele>0</ele>
      </trkpt>
      <trkpt lat="-42.47426304337161" lon="173.551566586044">
        <ele>0</ele>
      </trkpt>
      <trkpt lat="-42.47355682384737" lon="173.552068623566">
        <ele>0</ele>
      </trkpt>
      <trkpt lat="-42.47283994122525" lon="173.552729619765">
        <ele>0</ele>
      </trkpt>
      <trkpt lat="-42.47234655601967" lon="173.553102275857">
        <ele>0</ele>
      </trkpt>
      <trkpt lat="-42.47176252348371" lon="173.55365366242">
        <ele>0</ele>
      </trkpt>
      <trkpt lat="-42.4711901268092" lon="173.554292206001">
        <ele>0</ele>
      </trkpt>
      <trkpt lat="-42.47079960929019" lon="173.554828972241">
        <ele>0</ele>
      </trkpt>
      <trkpt lat="-42.47053159359451" lon="173.555274972766">
        <ele>0</ele>
      </trkpt>
      <trkpt lat="-42.47010675314664" lon="173.555778934552">
        <ele>0</ele>
      </trkpt>
      <trkpt lat="-42.46982058082416" lon="173.555995710934">
        <ele>0</ele>
      </trkpt>
      <trkpt lat="-42.4686729966518" lon="173.556588520548">
        <ele>0</ele>
      </trkpt>
      <trkpt lat="-42.46730128791768" lon="173.557048649728">
        <ele>0</ele>
      </trkpt>
      <trkpt lat="-42.46553043610297" lon="173.557338851276">
        <ele>0</ele>
      </trkpt>
      <trkpt lat="-42.46487673744608" lon="173.557411181306">
        <ele>0</ele>
      </trkpt>
      <trkpt lat="-42.46398939430169" lon="173.55760973893">
        <ele>0</ele>
      </trkpt>
      <trkpt lat="-42.46274345011084" lon="173.557614291842">
        <ele>1</ele>
      </trkpt>
      <trkpt lat="-42.4623595530735" lon="173.557533804285">
        <ele>1</ele>
      </trkpt>
      <trkpt lat="-42.46198163911243" lon="173.557381239553">
        <ele>3</ele>
      </trkpt>
      <trkpt lat="-42.46124650897902" lon="173.556947647097">
        <ele>5</ele>
      </trkpt>
      <trkpt lat="-42.46099994026096" lon="173.556936538777">
        <ele>5</ele>
      </trkpt>
      <trkpt lat="-42.46085082092462" lon="173.557029222366">
        <ele>4</ele>
      </trkpt>
      <trkpt lat="-42.4606644304824" lon="173.557296847015">
        <ele>3</ele>
      </trkpt>
      <trkpt lat="-42.46058781135099" lon="173.557652598769">
        <ele>2</ele>
      </trkpt>
      <trkpt lat="-42.46068229602535" lon="173.558333072998">
        <ele>-1</ele>
      </trkpt>
      <trkpt lat="-42.46064010390707" lon="173.558373229245">
        <ele>-1</ele>
      </trkpt>
      <trkpt lat="-42.46072518398925" lon="173.558843244571">
        <ele>-1</ele>
      </trkpt>
      <trkpt lat="-42.46078842504481" lon="173.560276834268">
        <ele>-0</ele>
      </trkpt>
      <trkpt lat="-42.46061547003674" lon="173.562104898701">
        <ele>-2</ele>
      </trkpt>
      <trkpt lat="-42.46016285446494" lon="173.565074588154">
        <ele>-0</ele>
      </trkpt>
      <trkpt lat="-42.45996867686299" lon="173.565943235383">
        <ele>0</ele>
      </trkpt>
      <trkpt lat="-42.45926236355734" lon="173.568348618767">
        <ele>0</ele>
      </trkpt>
      <trkpt lat="-42.45826869068161" lon="173.572278290738">
        <ele>0</ele>
      </trkpt>
      <trkpt lat="-42.45772565939438" lon="173.57492948166">
        <ele>0</ele>
      </trkpt>
      <trkpt lat="-42.45733441977297" lon="173.57620815103">
        <ele>0</ele>
      </trkpt>
      <trkpt lat="-42.45689823977807" lon="173.577786062763">
        <ele>0</ele>
      </trkpt>
      <trkpt lat="-42.45672831641023" lon="173.578302843416">
        <ele>0</ele>
      </trkpt>
      <trkpt lat="-42.45637301518004" lon="173.57918501761">
        <ele>0</ele>
      </trkpt>
      <trkpt lat="-42.45620487514018" lon="173.579793858689">
        <ele>0</ele>
      </trkpt>
      <trkpt lat="-42.45609472370269" lon="173.580782023895">
        <ele>0</ele>
      </trkpt>
      <trkpt lat="-42.45611283194102" lon="173.581032374608">
        <ele>0</ele>
      </trkpt>
      <trkpt lat="-42.4561899377819" lon="173.581330533368">
        <ele>0</ele>
      </trkpt>
      <trkpt lat="-42.45636280624504" lon="173.581643250096">
        <ele>0</ele>
      </trkpt>
      <trkpt lat="-42.45648907962754" lon="173.581802593935">
        <ele>0</ele>
      </trkpt>
      <trkpt lat="-42.45714522389333" lon="173.582354900297">
        <ele>0</ele>
      </trkpt>
      <trkpt lat="-42.45727248186923" lon="173.582511099565">
        <ele>0</ele>
      </trkpt>
      <trkpt lat="-42.45730072920358" lon="173.582623991077">
        <ele>0</ele>
      </trkpt>
      <trkpt lat="-42.45715616543748" lon="173.582465887398">
        <ele>0</ele>
      </trkpt>
      <trkpt lat="-42.45710825816811" lon="173.58247998401">
        <ele>0</ele>
      </trkpt>
      <trkpt lat="-42.45705611150863" lon="173.582569414401">
        <ele>0</ele>
      </trkpt>
      <trkpt lat="-42.4570696225449" lon="173.582667278773">
        <ele>0</ele>
      </trkpt>
      <trkpt lat="-42.4570639104023" lon="173.582614974483">
        <ele>0</ele>
      </trkpt>
      <trkpt lat="-42.45700255984016" lon="173.582571985531">
        <ele>0</ele>
      </trkpt>
      <trkpt lat="-42.45684970190592" lon="173.582600900702">
        <ele>0</ele>
      </trkpt>
      <trkpt lat="-42.45674117622122" lon="173.582664706621">
        <ele>0</ele>
      </trkpt>
      <trkpt lat="-42.45652080833537" lon="173.582709556465">
        <ele>0</ele>
      </trkpt>
      <trkpt lat="-42.45637442979061" lon="173.582831975582">
        <ele>0</ele>
      </trkpt>
      <trkpt lat="-42.45627594944158" lon="173.582969268904">
        <ele>0</ele>
      </trkpt>
      <trkpt lat="-42.45602134601592" lon="173.583679773176">
        <ele>0</ele>
      </trkpt>
      <trkpt lat="-42.4557372467185" lon="173.584233346984">
        <ele>0</ele>
      </trkpt>
      <trkpt lat="-42.45551246727444" lon="173.585760957789">
        <ele>0</ele>
      </trkpt>
      <trkpt lat="-42.45517351626659" lon="173.587011974098">
        <ele>0</ele>
      </trkpt>
      <trkpt lat="-42.4543107235086" lon="173.590958957501">
        <ele>0</ele>
      </trkpt>
      <trkpt lat="-42.45408098038066" lon="173.591747191261">
        <ele>0</ele>
      </trkpt>
      <trkpt lat="-42.45303900070958" lon="173.59502351478">
        <ele>0</ele>
      </trkpt>
      <trkpt lat="-42.45284171393245" lon="173.595695047785">
        <ele>0</ele>
      </trkpt>
      <trkpt lat="-42.45256097445648" lon="173.5968643087">
        <ele>0</ele>
      </trkpt>
      <trkpt lat="-42.45211332045989" lon="173.598348463541">
        <ele>0</ele>
      </trkpt>
      <trkpt lat="-42.45122980864461" lon="173.600921329294">
        <ele>0</ele>
      </trkpt>
      <trkpt lat="-42.45089519572189" lon="173.602055591371">
        <ele>0</ele>
      </trkpt>
      <trkpt lat="-42.45060373562546" lon="173.603205014767">
        <ele>0</ele>
      </trkpt>
      <trkpt lat="-42.4501506867915" lon="173.604867161594">
        <ele>0</ele>
      </trkpt>
      <trkpt lat="-42.4497595927158" lon="173.606457688371">
        <ele>0</ele>
      </trkpt>
      <trkpt lat="-42.44939603226005" lon="173.60783832725">
        <ele>0</ele>
      </trkpt>
      <trkpt lat="-42.4491672522947" lon="173.608893909725">
        <ele>0</ele>
      </trkpt>
      <trkpt lat="-42.44777411189766" lon="173.6140001417">
        <ele>0</ele>
      </trkpt>
      <trkpt lat="-42.44681935644724" lon="173.617842456885">
        <ele>0</ele>
      </trkpt>
      <trkpt lat="-42.44595804037804" lon="173.620697159415">
        <ele>0</ele>
      </trkpt>
      <trkpt lat="-42.44546767456584" lon="173.622708525216">
        <ele>0</ele>
      </trkpt>
      <trkpt lat="-42.4452801258263" lon="173.623387378367">
        <ele>0</ele>
      </trkpt>
      <trkpt lat="-42.44266132005296" lon="173.631388998253">
        <ele>0</ele>
      </trkpt>
      <trkpt lat="-42.44247255104619" lon="173.6320392563">
        <ele>0</ele>
      </trkpt>
      <trkpt lat="-42.4422493186129" lon="173.632666880824">
        <ele>0</ele>
      </trkpt>
      <trkpt lat="-42.44186097503771" lon="173.633980775786">
        <ele>0</ele>
      </trkpt>
      <trkpt lat="-42.44129332507181" lon="173.63565711538">
        <ele>0</ele>
      </trkpt>
      <trkpt lat="-42.4411609147619" lon="173.636149252525">
        <ele>0</ele>
      </trkpt>
      <trkpt lat="-42.44067119773842" lon="173.637810291115">
        <ele>0</ele>
      </trkpt>
      <trkpt lat="-42.44045341408197" lon="173.638850651866">
        <ele>0</ele>
      </trkpt>
      <trkpt lat="-42.44002066612735" lon="173.640529140692">
        <ele>0</ele>
      </trkpt>
      <trkpt lat="-42.43954548665099" lon="173.642195494125">
        <ele>0</ele>
      </trkpt>
      <trkpt lat="-42.43934078575432" lon="173.643044265209">
        <ele>0</ele>
      </trkpt>
      <trkpt lat="-42.43840675919232" lon="173.646102812308">
        <ele>0</ele>
      </trkpt>
      <trkpt lat="-42.43795845626181" lon="173.647359448211">
        <ele>0</ele>
      </trkpt>
      <trkpt lat="-42.43761858191822" lon="173.648509515202">
        <ele>0</ele>
      </trkpt>
      <trkpt lat="-42.43658403218614" lon="173.651622887052">
        <ele>0</ele>
      </trkpt>
      <trkpt lat="-42.4356450987224" lon="173.654059979262">
        <ele>0</ele>
      </trkpt>
      <trkpt lat="-42.43503840887036" lon="173.65581748597">
        <ele>0</ele>
      </trkpt>
      <trkpt lat="-42.43446932484127" lon="173.657328676012">
        <ele>0</ele>
      </trkpt>
      <trkpt lat="-42.43395281449085" lon="173.658450471579">
        <ele>0</ele>
      </trkpt>
      <trkpt lat="-42.43361273825689" lon="173.659245218374">
        <ele>0</ele>
      </trkpt>
      <trkpt lat="-42.43299409092509" lon="173.661243274699">
        <ele>0</ele>
      </trkpt>
      <trkpt lat="-42.43134628862062" lon="173.665901013544">
        <ele>0</ele>
      </trkpt>
      <trkpt lat="-42.43081597137676" lon="173.667582274366">
        <ele>0</ele>
      </trkpt>
      <trkpt lat="-42.43033709743917" lon="173.668866301772">
        <ele>0</ele>
      </trkpt>
      <trkpt lat="-42.4298138398537" lon="173.670530703436">
        <ele>0</ele>
      </trkpt>
      <trkpt lat="-42.42919941814014" lon="173.672297599248">
        <ele>0</ele>
      </trkpt>
      <trkpt lat="-42.42790473959401" lon="173.675220411293">
        <ele>0</ele>
      </trkpt>
      <trkpt lat="-42.42748871566294" lon="173.676361446144">
        <ele>0</ele>
      </trkpt>
      <trkpt lat="-42.42718840877284" lon="173.676943614142">
        <ele>0</ele>
      </trkpt>
      <trkpt lat="-42.42680512164127" lon="173.677798736679">
        <ele>0</ele>
      </trkpt>
      <trkpt lat="-42.42549443421828" lon="173.68112778598">
        <ele>1</ele>
      </trkpt>
      <trkpt lat="-42.42552069731833" lon="173.681282737734">
        <ele>2</ele>
      </trkpt>
      <trkpt lat="-42.4256450982896" lon="173.681359337909">
        <ele>2</ele>
      </trkpt>
      <trkpt lat="-42.42579265119719" lon="173.681222342808">
        <ele>1</ele>
      </trkpt>
      <trkpt lat="-42.42585686361343" lon="173.6810704501">
        <ele>1</ele>
      </trkpt>
      <trkpt lat="-42.42597660316929" lon="173.681100778567">
        <ele>1</ele>
      </trkpt>
      <trkpt lat="-42.42602155854441" lon="173.681063747527">
        <ele>1</ele>
      </trkpt>
      <trkpt lat="-42.42619575314973" lon="173.681366192186">
        <ele>1</ele>
      </trkpt>
      <trkpt lat="-42.42616437640649" lon="173.681513013463">
        <ele>2</ele>
      </trkpt>
      <trkpt lat="-42.4261859627595" lon="173.681800512537">
        <ele>2</ele>
      </trkpt>
      <trkpt lat="-42.42617594222494" lon="173.68182469771">
        <ele>2</ele>
      </trkpt>
    </trkseg>
  </trk>
</gpx>