<?xml version="1.0" encoding="UTF-8" standalone="yes"?>
<gpx
 version="1.1"
 creator="Generated by MapOut iPhone App. See https://mapout.app"
 xmlns="http://www.topografix.com/GPX/1/1"
 xmlns:xsi="http://www.w3.org/2001/XMLSchema-instance"
 xmlns:gpxx="http://www.garmin.com/xmlschemas/GpxExtensions/v3"
 xmlns:mapout="https://mapout.app/xmlschemas/MapOutExtensions"
 xsi:schemaLocation="http://www.topografix.com/GPX/1/1 https://www.topografix.com/GPX/1/1/gpx.xsd http://www.garmin.com/xmlschemas/GpxExtensions/v3 https://www8.garmin.com/xmlschemas/GpxExtensionsv3.xsd https://mapout.app/xmlschemas/MapOutExtensions https://mapout.app/xmlschemas/MapOutExtensions.xsd">
  <metadata>
    <name>Tokaanu Geothermal Walk</name>
    <author><name>iPhone</name></author>
    <time>2026-05-19T02:48:26Z</time>
    <bounds minlat="-38.96866202555788" minlon="175.762163837498" maxlat="-38.96715103128997" maxlon="175.764861809022"/>
  </metadata>
  <trk>
    <name>Tokaanu Geothermal Walk</name>
    <trkseg>
      <trkpt lat="-38.96715103128997" lon="175.764861809022">
        <ele>362</ele>
      </trkpt>
      <trkpt lat="-38.9671647911501" lon="175.764797825672">
        <ele>362</ele>
      </trkpt>
      <trkpt lat="-38.96719053976731" lon="175.764629982834">
        <ele>362</ele>
      </trkpt>
      <trkpt lat="-38.96719053976731" lon="175.764629982834">
        <ele>362</ele>
      </trkpt>
      <trkpt lat="-38.9672258249094" lon="175.76456704177">
        <ele>362</ele>
      </trkpt>
      <trkpt lat="-38.96726015639901" lon="175.764505054358">
        <ele>362</ele>
      </trkpt>
      <trkpt lat="-38.96726015639901" lon="175.764505054358">
        <ele>362</ele>
      </trkpt>
      <trkpt lat="-38.9674089261873" lon="175.764445927904">
        <ele>362</ele>
      </trkpt>
      <trkpt lat="-38.9674089261873" lon="175.764445927904">
        <ele>362</ele>
      </trkpt>
      <trkpt lat="-38.9674871256914" lon="175.764425901202">
        <ele>362</ele>
      </trkpt>
      <trkpt lat="-38.96753671562082" lon="175.764345794393">
        <ele>363</ele>
      </trkpt>
      <trkpt lat="-38.96758821285523" lon="175.764239938966">
        <ele>363</ele>
      </trkpt>
      <trkpt lat="-38.96760251764257" lon="175.764184627122">
        <ele>363</ele>
      </trkpt>
      <trkpt lat="-38.9675824909403" lon="175.764069235171">
        <ele>363</ele>
      </trkpt>
      <trkpt lat="-38.96758916650772" lon="175.764001525844">
        <ele>363</ele>
      </trkpt>
      <trkpt lat="-38.96759488842266" lon="175.76393477017">
        <ele>363</ele>
      </trkpt>
      <trkpt lat="-38.96761586877741" lon="175.763868968148">
        <ele>363</ele>
      </trkpt>
      <trkpt lat="-38.96763684913218" lon="175.763803166126">
        <ele>363</ele>
      </trkpt>
      <trkpt lat="-38.96769406828152" lon="175.763711615487">
        <ele>363</ele>
      </trkpt>
      <trkpt lat="-38.96776368491322" lon="175.763633415983">
        <ele>363</ele>
      </trkpt>
      <trkpt lat="-38.96783520884989" lon="175.763570474919">
        <ele>364</ele>
      </trkpt>
      <trkpt lat="-38.96790673278657" lon="175.763507533855">
        <ele>364</ele>
      </trkpt>
      <trkpt lat="-38.96793820331871" lon="175.763445546443">
        <ele>364</ele>
      </trkpt>
      <trkpt lat="-38.96795155445356" lon="175.763356856761">
        <ele>364</ele>
      </trkpt>
      <trkpt lat="-38.96801068090787" lon="175.763104138852">
        <ele>365</ele>
      </trkpt>
      <trkpt lat="-38.96805264161739" lon="175.763022124738">
        <ele>365</ele>
      </trkpt>
      <trkpt lat="-38.96812416555407" lon="175.762940110624">
        <ele>365</ele>
      </trkpt>
      <trkpt lat="-38.96816612626359" lon="175.762864772077">
        <ele>365</ele>
      </trkpt>
      <trkpt lat="-38.96818710661834" lon="175.762777989701">
        <ele>366</ele>
      </trkpt>
      <trkpt lat="-38.96819187488079" lon="175.762695021934">
        <ele>366</ele>
      </trkpt>
      <trkpt lat="-38.96819664314324" lon="175.762612054167">
        <ele>366</ele>
      </trkpt>
      <trkpt lat="-38.96818615296586" lon="175.762503337784">
        <ele>366</ele>
      </trkpt>
      <trkpt lat="-38.96820427236315" lon="175.762447072287">
        <ele>366</ele>
      </trkpt>
      <trkpt lat="-38.9682691207324" lon="175.7623564753">
        <ele>367</ele>
      </trkpt>
      <trkpt lat="-38.96827770360481" lon="175.762325004768">
        <ele>367</ele>
      </trkpt>
      <trkpt lat="-38.96824623307267" lon="175.762234407782">
        <ele>367</ele>
      </trkpt>
      <trkpt lat="-38.96824527942018" lon="175.76220293725">
        <ele>367</ele>
      </trkpt>
      <trkpt lat="-38.96825863055503" lon="175.762181956895">
        <ele>368</ele>
      </trkpt>
      <trkpt lat="-38.96829773030707" lon="175.76216860576">
        <ele>368</ele>
      </trkpt>
      <trkpt lat="-38.96838451268358" lon="175.762163837498">
        <ele>369</ele>
      </trkpt>
      <trkpt lat="-38.96845031470532" lon="175.76217242037">
        <ele>369</ele>
      </trkpt>
      <trkpt lat="-38.96850562654969" lon="175.762212473775">
        <ele>370</ele>
      </trkpt>
      <trkpt lat="-38.96857333587641" lon="175.762272553881">
        <ele>370</ele>
      </trkpt>
      <trkpt lat="-38.96864009155064" lon="175.762333587641">
        <ele>370</ele>
      </trkpt>
      <trkpt lat="-38.96866202555788" lon="175.76238317757">
        <ele>370</ele>
      </trkpt>
      <trkpt lat="-38.96866107190539" lon="175.762426091932">
        <ele>370</ele>
      </trkpt>
      <trkpt lat="-38.96864962807553" lon="175.762472820904">
        <ele>370</ele>
      </trkpt>
      <trkpt lat="-38.96859622353615" lon="175.762555788671">
        <ele>369</ele>
      </trkpt>
      <trkpt lat="-38.96855617013161" lon="175.762676902537">
        <ele>368</ele>
      </trkpt>
      <trkpt lat="-38.96851611672707" lon="175.762798016403">
        <ele>368</ele>
      </trkpt>
      <trkpt lat="-38.96846843410261" lon="175.76286191112">
        <ele>367</ele>
      </trkpt>
      <trkpt lat="-38.96843791722296" lon="175.762939156971">
        <ele>367</ele>
      </trkpt>
      <trkpt lat="-38.96843028800305" lon="175.76301926378">
        <ele>367</ele>
      </trkpt>
      <trkpt lat="-38.96842170513065" lon="175.763099370589">
        <ele>366</ele>
      </trkpt>
      <trkpt lat="-38.96838928094602" lon="175.763217623498">
        <ele>366</ele>
      </trkpt>
      <trkpt lat="-38.96835590310891" lon="175.763335876407">
        <ele>365</ele>
      </trkpt>
      <trkpt lat="-38.96834541293153" lon="175.763416936868">
        <ele>365</ele>
      </trkpt>
      <trkpt lat="-38.96833492275415" lon="175.76349799733">
        <ele>365</ele>
      </trkpt>
      <trkpt lat="-38.96830631317948" lon="175.763565706656">
        <ele>365</ele>
      </trkpt>
      <trkpt lat="-38.96827770360481" lon="175.763634369636">
        <ele>365</ele>
      </trkpt>
      <trkpt lat="-38.96825958420752" lon="175.763739271409">
        <ele>365</ele>
      </trkpt>
      <trkpt lat="-38.96824051115773" lon="175.763844173183">
        <ele>365</ele>
      </trkpt>
      <trkpt lat="-38.96823383559031" lon="175.7639080679">
        <ele>365</ele>
      </trkpt>
      <trkpt lat="-38.9682262063704" lon="175.763971962617">
        <ele>365</ele>
      </trkpt>
      <trkpt lat="-38.96820427236315" lon="175.764034903681">
        <ele>364</ele>
      </trkpt>
      <trkpt lat="-38.9681823383559" lon="175.764097844745">
        <ele>364</ele>
      </trkpt>
      <trkpt lat="-38.96814705321381" lon="175.764176997902">
        <ele>364</ele>
      </trkpt>
      <trkpt lat="-38.96811081441923" lon="175.764256151059">
        <ele>364</ele>
      </trkpt>
      <trkpt lat="-38.96806217814228" lon="175.764326721343">
        <ele>364</ele>
      </trkpt>
      <trkpt lat="-38.96802403204272" lon="175.764410642762">
        <ele>364</ele>
      </trkpt>
      <trkpt lat="-38.96796013732596" lon="175.764510776273">
        <ele>363</ele>
      </trkpt>
      <trkpt lat="-38.96789052069425" lon="175.764554644288">
        <ele>363</ele>
      </trkpt>
      <trkpt lat="-38.96778752622544" lon="175.764600419607">
        <ele>363</ele>
      </trkpt>
      <trkpt lat="-38.96774556551593" lon="175.764604234217">
        <ele>363</ele>
      </trkpt>
      <trkpt lat="-38.96765020026702" lon="175.764571810032">
        <ele>363</ele>
      </trkpt>
      <trkpt lat="-38.96755292771314" lon="175.764524127408">
        <ele>363</ele>
      </trkpt>
      <trkpt lat="-38.96745470150677" lon="175.764476444783">
        <ele>362</ele>
      </trkpt>
      <trkpt lat="-38.96744840572018" lon="175.764472247592">
        <ele>362</ele>
      </trkpt>
    </trkseg>
  </trk>
</gpx>