<?xml version="1.0" encoding="UTF-8" standalone="yes"?>
<gpx
 version="1.1"
 creator="Generated by MapOut iPhone App. See https://mapout.app"
 xmlns="http://www.topografix.com/GPX/1/1"
 xmlns:xsi="http://www.w3.org/2001/XMLSchema-instance"
 xmlns:gpxx="http://www.garmin.com/xmlschemas/GpxExtensions/v3"
 xmlns:mapout="https://mapout.app/xmlschemas/MapOutExtensions"
 xsi:schemaLocation="http://www.topografix.com/GPX/1/1 https://www.topografix.com/GPX/1/1/gpx.xsd http://www.garmin.com/xmlschemas/GpxExtensions/v3 https://www8.garmin.com/xmlschemas/GpxExtensionsv3.xsd https://mapout.app/xmlschemas/MapOutExtensions https://mapout.app/xmlschemas/MapOutExtensions.xsd">
  <metadata>
    <name>Veronica Track</name>
    <author><name>iPhone</name></author>
    <time>2026-05-29T02:05:42Z</time>
    <bounds minlat="-39.2779524635432" minlon="174.08632557696" maxlat="-39.26944688155636" maxlon="174.094606204238"/>
  </metadata>
  <trk>
    <name>Veronica Track</name>
    <trkseg>
      <trkpt lat="-39.27111075516058" lon="174.094606204238">
        <ele>958</ele>
      </trkpt>
      <trkpt lat="-39.27144859813084" lon="174.094295250811">
        <ele>965</ele>
      </trkpt>
      <trkpt lat="-39.27152775128743" lon="174.094259965669">
        <ele>966</ele>
      </trkpt>
      <trkpt lat="-39.27158973869921" lon="174.094243753576">
        <ele>967</ele>
      </trkpt>
      <trkpt lat="-39.27166698455083" lon="174.09415315659">
        <ele>970</ele>
      </trkpt>
      <trkpt lat="-39.2717566278848" lon="174.094057791341">
        <ele>970</ele>
      </trkpt>
      <trkpt lat="-39.27184627121876" lon="174.093962426092">
        <ele>971</ele>
      </trkpt>
      <trkpt lat="-39.27194259012015" lon="174.093930001907">
        <ele>971</ele>
      </trkpt>
      <trkpt lat="-39.27203509441159" lon="174.093809841694">
        <ele>973</ele>
      </trkpt>
      <trkpt lat="-39.2723040244135" lon="174.093695403395">
        <ele>975</ele>
      </trkpt>
      <trkpt lat="-39.27240797253481" lon="174.093605760061">
        <ele>977</ele>
      </trkpt>
      <trkpt lat="-39.27251192065611" lon="174.093516116727">
        <ele>979</ele>
      </trkpt>
      <trkpt lat="-39.27258439824528" lon="174.093484646195">
        <ele>979</ele>
      </trkpt>
      <trkpt lat="-39.27265687583444" lon="174.093454129315">
        <ele>979</ele>
      </trkpt>
      <trkpt lat="-39.27292580583635" lon="174.093173755484">
        <ele>984</ele>
      </trkpt>
      <trkpt lat="-39.27302403204272" lon="174.093118443639">
        <ele>985</ele>
      </trkpt>
      <trkpt lat="-39.2731213045966" lon="174.093063131795">
        <ele>986</ele>
      </trkpt>
      <trkpt lat="-39.27322239176044" lon="174.092953461759">
        <ele>989</ele>
      </trkpt>
      <trkpt lat="-39.27332252527179" lon="174.092844745375">
        <ele>992</ele>
      </trkpt>
      <trkpt lat="-39.27359050162121" lon="174.092528132748">
        <ele>998</ele>
      </trkpt>
      <trkpt lat="-39.27360671371352" lon="174.092423230975">
        <ele>1001</ele>
      </trkpt>
      <trkpt lat="-39.27364199885562" lon="174.092336448598">
        <ele>1002</ele>
      </trkpt>
      <trkpt lat="-39.2737211520122" lon="174.092267785619">
        <ele>1003</ele>
      </trkpt>
      <trkpt lat="-39.27380698073622" lon="174.092235361434">
        <ele>1003</ele>
      </trkpt>
      <trkpt lat="-39.27391092885752" lon="174.092113293916">
        <ele>1006</ele>
      </trkpt>
      <trkpt lat="-39.27397577722677" lon="174.092006484837">
        <ele>1009</ele>
      </trkpt>
      <trkpt lat="-39.27403967194354" lon="174.091900629411">
        <ele>1013</ele>
      </trkpt>
      <trkpt lat="-39.27410261300781" lon="174.091830059126">
        <ele>1015</ele>
      </trkpt>
      <trkpt lat="-39.27417318329201" lon="174.091767118062">
        <ele>1017</ele>
      </trkpt>
      <trkpt lat="-39.27424279992371" lon="174.091704176998">
        <ele>1019</ele>
      </trkpt>
      <trkpt lat="-39.27435437726492" lon="174.091621209231">
        <ele>1022</ele>
      </trkpt>
      <trkpt lat="-39.27443543772649" lon="174.091577341217">
        <ele>1023</ele>
      </trkpt>
      <trkpt lat="-39.27451554453557" lon="174.091534426855">
        <ele>1024</ele>
      </trkpt>
      <trkpt lat="-39.27460518786954" lon="174.091456227351">
        <ele>1027</ele>
      </trkpt>
      <trkpt lat="-39.27469387755102" lon="174.091378027847">
        <ele>1030</ele>
      </trkpt>
      <trkpt lat="-39.27476730879267" lon="174.09129124547">
        <ele>1033</ele>
      </trkpt>
      <trkpt lat="-39.27483978638184" lon="174.091204463094">
        <ele>1036</ele>
      </trkpt>
      <trkpt lat="-39.27489891283616" lon="174.091196833874">
        <ele>1037</ele>
      </trkpt>
      <trkpt lat="-39.27496376120541" lon="174.091214953271">
        <ele>1037</ele>
      </trkpt>
      <trkpt lat="-39.27502765592218" lon="174.091234026321">
        <ele>1036</ele>
      </trkpt>
      <trkpt lat="-39.27510967003624" lon="174.091195880221">
        <ele>1036</ele>
      </trkpt>
      <trkpt lat="-39.27519168415029" lon="174.091158687774">
        <ele>1036</ele>
      </trkpt>
      <trkpt lat="-39.2752689300019" lon="174.091066183483">
        <ele>1038</ele>
      </trkpt>
      <trkpt lat="-39.27534522220103" lon="174.090973679191">
        <ele>1040</ele>
      </trkpt>
      <trkpt lat="-39.27538718291054" lon="174.090893572382">
        <ele>1042</ele>
      </trkpt>
      <trkpt lat="-39.2753738317757" lon="174.090807743658">
        <ele>1045</ele>
      </trkpt>
      <trkpt lat="-39.27531184436391" lon="174.090788670608">
        <ele>1047</ele>
      </trkpt>
      <trkpt lat="-39.27521647911501" lon="174.090807743658">
        <ele>1048</ele>
      </trkpt>
      <trkpt lat="-39.27515925996566" lon="174.090787716956">
        <ele>1050</ele>
      </trkpt>
      <trkpt lat="-39.27512874308601" lon="174.090720961282">
        <ele>1052</ele>
      </trkpt>
      <trkpt lat="-39.27512778943353" lon="174.09065134465">
        <ele>1053</ele>
      </trkpt>
      <trkpt lat="-39.27516688918558" lon="174.090557886706">
        <ele>1054</ele>
      </trkpt>
      <trkpt lat="-39.2752431813847" lon="174.090552164791">
        <ele>1053</ele>
      </trkpt>
      <trkpt lat="-39.27531851993133" lon="174.090546442876">
        <ele>1052</ele>
      </trkpt>
      <trkpt lat="-39.27535952698836" lon="174.090481594507">
        <ele>1053</ele>
      </trkpt>
      <trkpt lat="-39.27538622925805" lon="174.090411977875">
        <ele>1055</ele>
      </trkpt>
      <trkpt lat="-39.27541197787526" lon="174.090343314896">
        <ele>1057</ele>
      </trkpt>
      <trkpt lat="-39.27548254815945" lon="174.09022601564">
        <ele>1059</ele>
      </trkpt>
      <trkpt lat="-39.27555311844363" lon="174.090108716384">
        <ele>1063</ele>
      </trkpt>
      <trkpt lat="-39.27567327865725" lon="174.089773030708">
        <ele>1071</ele>
      </trkpt>
      <trkpt lat="-39.27586687011253" lon="174.089507915316">
        <ele>1079</ele>
      </trkpt>
      <trkpt lat="-39.27592027465191" lon="174.089428762159">
        <ele>1080</ele>
      </trkpt>
      <trkpt lat="-39.2759736791913" lon="174.089349609003">
        <ele>1081</ele>
      </trkpt>
      <trkpt lat="-39.27600991798588" lon="174.089060652298">
        <ele>1086</ele>
      </trkpt>
      <trkpt lat="-39.27602994468815" lon="174.088971962617">
        <ele>1087</ele>
      </trkpt>
      <trkpt lat="-39.27604997139042" lon="174.088884226588">
        <ele>1088</ele>
      </trkpt>
      <trkpt lat="-39.2761043295823" lon="174.088819378219">
        <ele>1088</ele>
      </trkpt>
      <trkpt lat="-39.27615773412168" lon="174.088755483502">
        <ele>1089</ele>
      </trkpt>
      <trkpt lat="-39.27620446309364" lon="174.088680144955">
        <ele>1091</ele>
      </trkpt>
      <trkpt lat="-39.27625023841312" lon="174.088604806409">
        <ele>1093</ele>
      </trkpt>
      <trkpt lat="-39.2763303452222" lon="174.088571428571">
        <ele>1095</ele>
      </trkpt>
      <trkpt lat="-39.27641045203128" lon="174.088538050734">
        <ele>1097</ele>
      </trkpt>
      <trkpt lat="-39.27649341979782" lon="174.088492275415">
        <ele>1100</ele>
      </trkpt>
      <trkpt lat="-39.27657543391188" lon="174.088447453748">
        <ele>1103</ele>
      </trkpt>
      <trkpt lat="-39.27667938203318" lon="174.088354949456">
        <ele>1109</ele>
      </trkpt>
      <trkpt lat="-39.276782376502" lon="174.088262445165">
        <ele>1109</ele>
      </trkpt>
      <trkpt lat="-39.276782376502" lon="174.088262445165">
        <ele>1109</ele>
      </trkpt>
      <trkpt lat="-39.27678911749334" lon="174.088238360165">
        <ele>1109</ele>
      </trkpt>
      <trkpt lat="-39.27678911749334" lon="174.088238360165">
        <ele>1109</ele>
      </trkpt>
      <trkpt lat="-39.27688374537932" lon="174.088213573574">
        <ele>1108</ele>
      </trkpt>
      <trkpt lat="-39.27720780029152" lon="174.087843227914">
        <ele>1115</ele>
      </trkpt>
      <trkpt lat="-39.27730631320695" lon="174.087417061572">
        <ele>1127</ele>
      </trkpt>
      <trkpt lat="-39.27760261889738" lon="174.086943185845">
        <ele>1139</ele>
      </trkpt>
      <trkpt lat="-39.27792491449758" lon="174.086537518728">
        <ele>1147</ele>
      </trkpt>
      <trkpt lat="-39.27794884582066" lon="174.086464611625">
        <ele>1148</ele>
      </trkpt>
      <trkpt lat="-39.2779524635432" lon="174.0864102411">
        <ele>1149</ele>
      </trkpt>
      <trkpt lat="-39.2771476254053" lon="174.086378027847">
        <ele>1123</ele>
      </trkpt>
      <trkpt lat="-39.2771476254053" lon="174.086378027847">
        <ele>1123</ele>
      </trkpt>
      <trkpt lat="-39.27711710852565" lon="174.08632557696">
        <ele>1121</ele>
      </trkpt>
      <trkpt lat="-39.27702841884417" lon="174.086342742705">
        <ele>1117</ele>
      </trkpt>
      <trkpt lat="-39.27696643143238" lon="174.086399961854">
        <ele>1115</ele>
      </trkpt>
      <trkpt lat="-39.27690444402059" lon="174.086457181003">
        <ele>1113</ele>
      </trkpt>
      <trkpt lat="-39.27685390043867" lon="174.08651726111">
        <ele>1112</ele>
      </trkpt>
      <trkpt lat="-39.27683959565134" lon="174.08656303643">
        <ele>1113</ele>
      </trkpt>
      <trkpt lat="-39.27677665458707" lon="174.086638374976">
        <ele>1111</ele>
      </trkpt>
      <trkpt lat="-39.27671371352279" lon="174.086714667175">
        <ele>1110</ele>
      </trkpt>
      <trkpt lat="-39.27664505054358" lon="174.086778561892">
        <ele>1107</ele>
      </trkpt>
      <trkpt lat="-39.27657543391188" lon="174.086843410261">
        <ele>1104</ele>
      </trkpt>
      <trkpt lat="-39.27636944497425" lon="174.087087545299">
        <ele>1098</ele>
      </trkpt>
      <trkpt lat="-39.27629124547015" lon="174.087142857143">
        <ele>1097</ele>
      </trkpt>
      <trkpt lat="-39.27627407972535" lon="174.087222963952">
        <ele>1097</ele>
      </trkpt>
      <trkpt lat="-39.27621304596605" lon="174.087260156399">
        <ele>1096</ele>
      </trkpt>
      <trkpt lat="-39.27615487316422" lon="174.087370780088">
        <ele>1096</ele>
      </trkpt>
      <trkpt lat="-39.27604520312798" lon="174.08742513828">
        <ele>1094</ele>
      </trkpt>
      <trkpt lat="-39.27593553309174" lon="174.087480450124">
        <ele>1093</ele>
      </trkpt>
      <trkpt lat="-39.27567137135227" lon="174.087604424948">
        <ele>1086</ele>
      </trkpt>
      <trkpt lat="-39.27535475872592" lon="174.087667366012">
        <ele>1077</ele>
      </trkpt>
      <trkpt lat="-39.27499237078008" lon="174.087631127217">
        <ele>1068</ele>
      </trkpt>
      <trkpt lat="-39.27465096318901" lon="174.087762731261">
        <ele>1062</ele>
      </trkpt>
      <trkpt lat="-39.27458992942971" lon="174.087751287431">
        <ele>1061</ele>
      </trkpt>
      <trkpt lat="-39.27452889567041" lon="174.087740797254">
        <ele>1060</ele>
      </trkpt>
      <trkpt lat="-39.27444211329392" lon="174.087762731261">
        <ele>1059</ele>
      </trkpt>
      <trkpt lat="-39.27437440396719" lon="174.087824718673">
        <ele>1058</ele>
      </trkpt>
      <trkpt lat="-39.27430669464047" lon="174.087886706084">
        <ele>1058</ele>
      </trkpt>
      <trkpt lat="-39.2742170513065" lon="174.087897196262">
        <ele>1057</ele>
      </trkpt>
      <trkpt lat="-39.27412645432004" lon="174.087907686439">
        <ele>1055</ele>
      </trkpt>
      <trkpt lat="-39.27402632080869" lon="174.087958230021">
        <ele>1052</ele>
      </trkpt>
      <trkpt lat="-39.27392618729734" lon="174.088008773603">
        <ele>1050</ele>
      </trkpt>
      <trkpt lat="-39.27388231928285" lon="174.088045012398">
        <ele>1049</ele>
      </trkpt>
      <trkpt lat="-39.27385275605569" lon="174.088101277894">
        <ele>1049</ele>
      </trkpt>
      <trkpt lat="-39.27376120541674" lon="174.088193782186">
        <ele>1048</ele>
      </trkpt>
      <trkpt lat="-39.2736687011253" lon="174.088286286477">
        <ele>1048</ele>
      </trkpt>
      <trkpt lat="-39.27334159832157" lon="174.088367346939">
        <ele>1040</ele>
      </trkpt>
      <trkpt lat="-39.27307934388708" lon="174.088543772649">
        <ele>1031</ele>
      </trkpt>
      <trkpt lat="-39.27297539576578" lon="174.088580965096">
        <ele>1027</ele>
      </trkpt>
      <trkpt lat="-39.27287049399199" lon="174.088619111196">
        <ele>1024</ele>
      </trkpt>
      <trkpt lat="-39.27279229448789" lon="174.088588594316">
        <ele>1021</ele>
      </trkpt>
      <trkpt lat="-39.27271409498378" lon="174.088559031089">
        <ele>1018</ele>
      </trkpt>
      <trkpt lat="-39.27261777608239" lon="174.088583826054">
        <ele>1015</ele>
      </trkpt>
      <trkpt lat="-39.27254243753575" lon="174.088672515735">
        <ele>1015</ele>
      </trkpt>
      <trkpt lat="-39.27246709898913" lon="174.088762159069">
        <ele>1014</ele>
      </trkpt>
      <trkpt lat="-39.27236028991035" lon="174.088876597368">
        <ele>1011</ele>
      </trkpt>
      <trkpt lat="-39.27233930955559" lon="174.088977684532">
        <ele>1013</ele>
      </trkpt>
      <trkpt lat="-39.27231737554835" lon="174.089079725348">
        <ele>1014</ele>
      </trkpt>
      <trkpt lat="-39.27227922944878" lon="174.089181766164">
        <ele>1014</ele>
      </trkpt>
      <trkpt lat="-39.27224108334922" lon="174.089283806981">
        <ele>1012</ele>
      </trkpt>
      <trkpt lat="-39.27204176997902" lon="174.089529849323">
        <ele>1005</ele>
      </trkpt>
      <trkpt lat="-39.27197882891474" lon="174.08957467099">
        <ele>1003</ele>
      </trkpt>
      <trkpt lat="-39.27191493419797" lon="174.089620446309">
        <ele>1001</ele>
      </trkpt>
      <trkpt lat="-39.27159546061415" lon="174.089951363723">
        <ele>998</ele>
      </trkpt>
      <trkpt lat="-39.27148579057791" lon="174.089938966241">
        <ele>995</ele>
      </trkpt>
      <trkpt lat="-39.27137516688918" lon="174.089926568758">
        <ele>993</ele>
      </trkpt>
      <trkpt lat="-39.27126740415792" lon="174.089939919893">
        <ele>991</ele>
      </trkpt>
      <trkpt lat="-39.27115868777417" lon="174.089953271028">
        <ele>989</ele>
      </trkpt>
      <trkpt lat="-39.2707562464238" lon="174.089852183864">
        <ele>978</ele>
      </trkpt>
      <trkpt lat="-39.27050162120923" lon="174.089874117871">
        <ele>976</ele>
      </trkpt>
      <trkpt lat="-39.27020122067518" lon="174.089818806027">
        <ele>970</ele>
      </trkpt>
      <trkpt lat="-39.27008106046156" lon="174.089776845318">
        <ele>967</ele>
      </trkpt>
      <trkpt lat="-39.26995994659546" lon="174.089734884608">
        <ele>964</ele>
      </trkpt>
      <trkpt lat="-39.26989223726873" lon="174.089683387374">
        <ele>961</ele>
      </trkpt>
      <trkpt lat="-39.26982357428952" lon="174.089632843792">
        <ele>958</ele>
      </trkpt>
      <trkpt lat="-39.26977207705512" lon="174.089552736983">
        <ele>954</ele>
      </trkpt>
      <trkpt lat="-39.26967480450124" lon="174.089567995422">
        <ele>953</ele>
      </trkpt>
      <trkpt lat="-39.26963761205416" lon="174.089658592409">
        <ele>957</ele>
      </trkpt>
      <trkpt lat="-39.26963761205416" lon="174.089658592409">
        <ele>957</ele>
      </trkpt>
      <trkpt lat="-39.26944688155636" lon="174.09046728972">
        <ele>968</ele>
      </trkpt>
      <trkpt lat="-39.26945546442876" lon="174.090856379935">
        <ele>965</ele>
      </trkpt>
      <trkpt lat="-39.26960614152203" lon="174.09131413313">
        <ele>961</ele>
      </trkpt>
      <trkpt lat="-39.26975777226778" lon="174.091193019264">
        <ele>964</ele>
      </trkpt>
      <trkpt lat="-39.26974060652298" lon="174.091326530612">
        <ele>962</ele>
      </trkpt>
      <trkpt lat="-39.26967671180621" lon="174.091427617776">
        <ele>960</ele>
      </trkpt>
      <trkpt lat="-39.26972439443067" lon="174.091730879268">
        <ele>956</ele>
      </trkpt>
      <trkpt lat="-39.26981499141712" lon="174.091790005722">
        <ele>956</ele>
      </trkpt>
      <trkpt lat="-39.26988270074384" lon="174.09173946214">
        <ele>958</ele>
      </trkpt>
      <trkpt lat="-39.27010585542628" lon="174.091855807744">
        <ele>959</ele>
      </trkpt>
      <trkpt lat="-39.27007533854663" lon="174.092028418844">
        <ele>956</ele>
      </trkpt>
      <trkpt lat="-39.27049113103185" lon="174.092500476826">
        <ele>956</ele>
      </trkpt>
      <trkpt lat="-39.27046156780469" lon="174.09262063704">
        <ele>956</ele>
      </trkpt>
      <trkpt lat="-39.27046156780469" lon="174.09262063704">
        <ele>956</ele>
      </trkpt>
      <trkpt lat="-39.27037192447072" lon="174.092636849132">
        <ele>954</ele>
      </trkpt>
      <trkpt lat="-39.27037192447072" lon="174.092636849132">
        <ele>954</ele>
      </trkpt>
      <trkpt lat="-39.2703213808888" lon="174.092656875834">
        <ele>954</ele>
      </trkpt>
      <trkpt lat="-39.27020884989509" lon="174.09303452222">
        <ele>951</ele>
      </trkpt>
      <trkpt lat="-39.27016975014305" lon="174.093276749952">
        <ele>950</ele>
      </trkpt>
      <trkpt lat="-39.27018405493038" lon="174.093417890521">
        <ele>950</ele>
      </trkpt>
      <trkpt lat="-39.27018405493038" lon="174.093417890521">
        <ele>950</ele>
      </trkpt>
      <trkpt lat="-39.27020408163265" lon="174.093464619493">
        <ele>951</ele>
      </trkpt>
      <trkpt lat="-39.27020408163265" lon="174.093464619493">
        <ele>951</ele>
      </trkpt>
      <trkpt lat="-39.27026416173945" lon="174.093625786763">
        <ele>952</ele>
      </trkpt>
      <trkpt lat="-39.27036334159832" lon="174.093733549495">
        <ele>954</ele>
      </trkpt>
      <trkpt lat="-39.27056360862102" lon="174.093758344459">
        <ele>958</ele>
      </trkpt>
      <trkpt lat="-39.27058458897577" lon="174.093816517261">
        <ele>958</ele>
      </trkpt>
      <trkpt lat="-39.27058458897577" lon="174.093816517261">
        <ele>958</ele>
      </trkpt>
      <trkpt lat="-39.27053404539385" lon="174.093897577723">
        <ele>957</ele>
      </trkpt>
      <trkpt lat="-39.27053404539385" lon="174.093897577723">
        <ele>957</ele>
      </trkpt>
      <trkpt lat="-39.27040720961281" lon="174.093970055312">
        <ele>954</ele>
      </trkpt>
      <trkpt lat="-39.27054548922372" lon="174.094057791341">
        <ele>957</ele>
      </trkpt>
      <trkpt lat="-39.27049876025176" lon="174.094174136945">
        <ele>956</ele>
      </trkpt>
      <trkpt lat="-39.27070093457944" lon="174.094369635705">
        <ele>958</ele>
      </trkpt>
      <trkpt lat="-39.27070188823193" lon="174.094452603471">
        <ele>957</ele>
      </trkpt>
    </trkseg>
  </trk>
</gpx>