<?xml version="1.0" encoding="UTF-8" standalone="yes"?>
<gpx
 version="1.1"
 creator="Generated by MapOut iPhone App. See https://mapout.app"
 xmlns="http://www.topografix.com/GPX/1/1"
 xmlns:xsi="http://www.w3.org/2001/XMLSchema-instance"
 xmlns:gpxx="http://www.garmin.com/xmlschemas/GpxExtensions/v3"
 xmlns:mapout="https://mapout.app/xmlschemas/MapOutExtensions"
 xsi:schemaLocation="http://www.topografix.com/GPX/1/1 https://www.topografix.com/GPX/1/1/gpx.xsd http://www.garmin.com/xmlschemas/GpxExtensions/v3 https://www8.garmin.com/xmlschemas/GpxExtensionsv3.xsd https://mapout.app/xmlschemas/MapOutExtensions https://mapout.app/xmlschemas/MapOutExtensions.xsd">
  <metadata>
    <name>Orokawa Bay</name>
    <author><name>iPhone</name></author>
    <time>2026-04-02T01:57:11Z</time>
    <bounds minlat="-37.39518392831371" minlon="175.938150767015" maxlat="-37.38589105229557" maxlon="175.942289719626"/>
  </metadata>
  <trk>
    <name>Orokawa Bay</name>
    <trkseg>
      <trkpt lat="-37.39518392831371" lon="175.938150767015">
        <ele>14</ele>
      </trkpt>
      <trkpt lat="-37.39484074003433" lon="175.938421705131">
        <ele>16</ele>
      </trkpt>
      <trkpt lat="-37.39403585733359" lon="175.938751668892">
        <ele>33</ele>
      </trkpt>
      <trkpt lat="-37.3937478542819" lon="175.939086400915">
        <ele>37</ele>
      </trkpt>
      <trkpt lat="-37.39367537669273" lon="175.939343887088">
        <ele>34</ele>
      </trkpt>
      <trkpt lat="-37.39371829105474" lon="175.939628075529">
        <ele>28</ele>
      </trkpt>
      <trkpt lat="-37.39365439633797" lon="175.94">
        <ele>24</ele>
      </trkpt>
      <trkpt lat="-37.39365439633797" lon="175.94">
        <ele>24</ele>
      </trkpt>
      <trkpt lat="-37.39358382605378" lon="175.940092504291">
        <ele>27</ele>
      </trkpt>
      <trkpt lat="-37.39350944115964" lon="175.940108716384">
        <ele>29</ele>
      </trkpt>
      <trkpt lat="-37.39343410261301" lon="175.940124928476">
        <ele>32</ele>
      </trkpt>
      <trkpt lat="-37.39337688346367" lon="175.940175472058">
        <ele>34</ele>
      </trkpt>
      <trkpt lat="-37.39341884417318" lon="175.940255578867">
        <ele>33</ele>
      </trkpt>
      <trkpt lat="-37.3934608048827" lon="175.940336639329">
        <ele>32</ele>
      </trkpt>
      <trkpt lat="-37.39347320236506" lon="175.940452984932">
        <ele>32</ele>
      </trkpt>
      <trkpt lat="-37.39348559984742" lon="175.940569330536">
        <ele>32</ele>
      </trkpt>
      <trkpt lat="-37.39345317566279" lon="175.940688537097">
        <ele>34</ele>
      </trkpt>
      <trkpt lat="-37.39341979782567" lon="175.940808697311">
        <ele>36</ele>
      </trkpt>
      <trkpt lat="-37.39318519931337" lon="175.941066183483">
        <ele>36</ele>
      </trkpt>
      <trkpt lat="-37.39286191111959" lon="175.94132176235">
        <ele>33</ele>
      </trkpt>
      <trkpt lat="-37.39278943353042" lon="175.941337974442">
        <ele>33</ele>
      </trkpt>
      <trkpt lat="-37.39274461186344" lon="175.941255006676">
        <ele>36</ele>
      </trkpt>
      <trkpt lat="-37.39269883654396" lon="175.941172992561">
        <ele>39</ele>
      </trkpt>
      <trkpt lat="-37.39268834636658" lon="175.94107285905">
        <ele>43</ele>
      </trkpt>
      <trkpt lat="-37.39267690253671" lon="175.940972725539">
        <ele>46</ele>
      </trkpt>
      <trkpt lat="-37.39262921991227" lon="175.940890711425">
        <ele>49</ele>
      </trkpt>
      <trkpt lat="-37.39258058363532" lon="175.940809650963">
        <ele>52</ele>
      </trkpt>
      <trkpt lat="-37.39233740225062" lon="175.940725729544">
        <ele>53</ele>
      </trkpt>
      <trkpt lat="-37.39224871256914" lon="175.940686629792">
        <ele>53</ele>
      </trkpt>
      <trkpt lat="-37.39215906923517" lon="175.940648483693">
        <ele>53</ele>
      </trkpt>
      <trkpt lat="-37.39207037955369" lon="175.940548350181">
        <ele>54</ele>
      </trkpt>
      <trkpt lat="-37.39205130650391" lon="175.940461567805">
        <ele>55</ele>
      </trkpt>
      <trkpt lat="-37.39203127980164" lon="175.940374785428">
        <ele>56</ele>
      </trkpt>
      <trkpt lat="-37.39197596795728" lon="175.940364295251">
        <ele>56</ele>
      </trkpt>
      <trkpt lat="-37.39195689490749" lon="175.940458706847">
        <ele>55</ele>
      </trkpt>
      <trkpt lat="-37.39193686820523" lon="175.940554072096">
        <ele>53</ele>
      </trkpt>
      <trkpt lat="-37.391913026893" lon="175.94086973107">
        <ele>47</ele>
      </trkpt>
      <trkpt lat="-37.3918958611482" lon="175.940943162312">
        <ele>44</ele>
      </trkpt>
      <trkpt lat="-37.3918786954034" lon="175.941017547206">
        <ele>41</ele>
      </trkpt>
      <trkpt lat="-37.39179382033187" lon="175.94109574671">
        <ele>37</ele>
      </trkpt>
      <trkpt lat="-37.39172992561511" lon="175.941074766355">
        <ele>38</ele>
      </trkpt>
      <trkpt lat="-37.39171752813275" lon="175.940966049971">
        <ele>42</ele>
      </trkpt>
      <trkpt lat="-37.39170513065039" lon="175.940857333588">
        <ele>46</ele>
      </trkpt>
      <trkpt lat="-37.39174136944497" lon="175.940739080679">
        <ele>49</ele>
      </trkpt>
      <trkpt lat="-37.39169845508297" lon="175.94042532901">
        <ele>55</ele>
      </trkpt>
      <trkpt lat="-37.39161262635896" lon="175.940122067519">
        <ele>59</ele>
      </trkpt>
      <trkpt lat="-37.39156685103949" lon="175.94">
        <ele>61</ele>
      </trkpt>
      <trkpt lat="-37.39156685103949" lon="175.94">
        <ele>61</ele>
      </trkpt>
      <trkpt lat="-37.39153156589739" lon="175.939904634751">
        <ele>64</ele>
      </trkpt>
      <trkpt lat="-37.3913656303643" lon="175.939813084112">
        <ele>66</ele>
      </trkpt>
      <trkpt lat="-37.39109288575244" lon="175.939813084112">
        <ele>64</ele>
      </trkpt>
      <trkpt lat="-37.39084112149533" lon="175.939898912836">
        <ele>58</ele>
      </trkpt>
      <trkpt lat="-37.3906780469197" lon="175.94">
        <ele>51</ele>
      </trkpt>
      <trkpt lat="-37.3906780469197" lon="175.94">
        <ele>51</ele>
      </trkpt>
      <trkpt lat="-37.39063227160023" lon="175.940027655922">
        <ele>49</ele>
      </trkpt>
      <trkpt lat="-37.39053976730879" lon="175.940165935533">
        <ele>44</ele>
      </trkpt>
      <trkpt lat="-37.3904606141522" lon="175.940308029754">
        <ele>39</ele>
      </trkpt>
      <trkpt lat="-37.39038718291055" lon="175.940357619683">
        <ele>37</ele>
      </trkpt>
      <trkpt lat="-37.39035094411597" lon="175.940320427236">
        <ele>38</ele>
      </trkpt>
      <trkpt lat="-37.39026893000191" lon="175.94">
        <ele>45</ele>
      </trkpt>
      <trkpt lat="-37.39026893000191" lon="175.94">
        <ele>45</ele>
      </trkpt>
      <trkpt lat="-37.39023555216479" lon="175.939867442304">
        <ele>48</ele>
      </trkpt>
      <trkpt lat="-37.39015258439824" lon="175.939756818615">
        <ele>49</ele>
      </trkpt>
      <trkpt lat="-37.39001049017738" lon="175.939550829678">
        <ele>49</ele>
      </trkpt>
      <trkpt lat="-37.38996948312035" lon="175.939395384322">
        <ele>51</ele>
      </trkpt>
      <trkpt lat="-37.38997139042533" lon="175.939218004959">
        <ele>54</ele>
      </trkpt>
      <trkpt lat="-37.38985409116918" lon="175.939003433149">
        <ele>57</ele>
      </trkpt>
      <trkpt lat="-37.38979019645242" lon="175.938778371162">
        <ele>59</ele>
      </trkpt>
      <trkpt lat="-37.38976254053023" lon="175.93849418272">
        <ele>63</ele>
      </trkpt>
      <trkpt lat="-37.38975872592027" lon="175.938303452222">
        <ele>65</ele>
      </trkpt>
      <trkpt lat="-37.38971008964334" lon="175.938207133321">
        <ele>66</ele>
      </trkpt>
      <trkpt lat="-37.38962521457181" lon="175.938255769598">
        <ele>65</ele>
      </trkpt>
      <trkpt lat="-37.38956990272744" lon="175.938365439634">
        <ele>63</ele>
      </trkpt>
      <trkpt lat="-37.38941636467671" lon="175.938408353996">
        <ele>61</ele>
      </trkpt>
      <trkpt lat="-37.38931337020789" lon="175.938541865344">
        <ele>59</ele>
      </trkpt>
      <trkpt lat="-37.38916078580965" lon="175.938634369636">
        <ele>57</ele>
      </trkpt>
      <trkpt lat="-37.38909879839787" lon="175.938751668892">
        <ele>58</ele>
      </trkpt>
      <trkpt lat="-37.38913312988747" lon="175.938969101659">
        <ele>55</ele>
      </trkpt>
      <trkpt lat="-37.38905302307839" lon="175.939255197406">
        <ele>56</ele>
      </trkpt>
      <trkpt lat="-37.38906446690826" lon="175.9395403395">
        <ele>55</ele>
      </trkpt>
      <trkpt lat="-37.38889757772268" lon="175.939858859432">
        <ele>59</ele>
      </trkpt>
      <trkpt lat="-37.38890520694259" lon="175.94">
        <ele>58</ele>
      </trkpt>
      <trkpt lat="-37.38890520694259" lon="175.94">
        <ele>58</ele>
      </trkpt>
      <trkpt lat="-37.38891855807744" lon="175.940253671562">
        <ele>59</ele>
      </trkpt>
      <trkpt lat="-37.38891474346748" lon="175.940350944116">
        <ele>59</ele>
      </trkpt>
      <trkpt lat="-37.38890997520504" lon="175.940449170322">
        <ele>59</ele>
      </trkpt>
      <trkpt lat="-37.3888346366584" lon="175.940493038337">
        <ele>62</ele>
      </trkpt>
      <trkpt lat="-37.38875929811177" lon="175.940537860004">
        <ele>64</ele>
      </trkpt>
      <trkpt lat="-37.38873354949457" lon="175.940601754721">
        <ele>65</ele>
      </trkpt>
      <trkpt lat="-37.38870780087736" lon="175.94066660309">
        <ele>66</ele>
      </trkpt>
      <trkpt lat="-37.38871161548732" lon="175.940782948693">
        <ele>66</ele>
      </trkpt>
      <trkpt lat="-37.38871447644478" lon="175.940899294297">
        <ele>65</ele>
      </trkpt>
      <trkpt lat="-37.38878027846653" lon="175.941006103376">
        <ele>63</ele>
      </trkpt>
      <trkpt lat="-37.38884608048827" lon="175.941113866107">
        <ele>61</ele>
      </trkpt>
      <trkpt lat="-37.38884798779325" lon="175.941180621781">
        <ele>61</ele>
      </trkpt>
      <trkpt lat="-37.38884894144574" lon="175.941248331108">
        <ele>60</ele>
      </trkpt>
      <trkpt lat="-37.38882891474347" lon="175.941355140187">
        <ele>60</ele>
      </trkpt>
      <trkpt lat="-37.38880793438871" lon="175.941462902918">
        <ele>61</ele>
      </trkpt>
      <trkpt lat="-37.38884608048827" lon="175.94174709136">
        <ele>56</ele>
      </trkpt>
      <trkpt lat="-37.38872305931719" lon="175.942165744803">
        <ele>49</ele>
      </trkpt>
      <trkpt lat="-37.38866202555788" lon="175.942227732214">
        <ele>49</ele>
      </trkpt>
      <trkpt lat="-37.38857905779134" lon="175.94217242037">
        <ele>53</ele>
      </trkpt>
      <trkpt lat="-37.38849513637231" lon="175.942118062178">
        <ele>58</ele>
      </trkpt>
      <trkpt lat="-37.38843314896052" lon="175.942099942781">
        <ele>60</ele>
      </trkpt>
      <trkpt lat="-37.38837116154873" lon="175.942082777036">
        <ele>63</ele>
      </trkpt>
      <trkpt lat="-37.38828342551974" lon="175.942069425901">
        <ele>64</ele>
      </trkpt>
      <trkpt lat="-37.38819473583826" lon="175.942056074766">
        <ele>62</ele>
      </trkpt>
      <trkpt lat="-37.38811939729163" lon="175.942107572001">
        <ele>59</ele>
      </trkpt>
      <trkpt lat="-37.38804310509251" lon="175.942160022888">
        <ele>56</ele>
      </trkpt>
      <trkpt lat="-37.3879916078581" lon="175.942224871257">
        <ele>52</ele>
      </trkpt>
      <trkpt lat="-37.3879391569712" lon="175.942289719626">
        <ele>49</ele>
      </trkpt>
      <trkpt lat="-37.38783806980737" lon="175.942281136754">
        <ele>47</ele>
      </trkpt>
      <trkpt lat="-37.38758344459279" lon="175.942008392142">
        <ele>50</ele>
      </trkpt>
      <trkpt lat="-37.38755769597559" lon="175.941896814801">
        <ele>53</ele>
      </trkpt>
      <trkpt lat="-37.38753194735838" lon="175.941785237459">
        <ele>56</ele>
      </trkpt>
      <trkpt lat="-37.38745946976922" lon="175.941511539195">
        <ele>56</ele>
      </trkpt>
      <trkpt lat="-37.38747282090407" lon="175.941246423803">
        <ele>57</ele>
      </trkpt>
      <trkpt lat="-37.38751001335113" lon="175.941131031852">
        <ele>58</ele>
      </trkpt>
      <trkpt lat="-37.38754720579821" lon="175.941015639901">
        <ele>59</ele>
      </trkpt>
      <trkpt lat="-37.38761110051497" lon="175.94068567614">
        <ele>59</ele>
      </trkpt>
      <trkpt lat="-37.38762349799733" lon="175.940610337593">
        <ele>60</ele>
      </trkpt>
      <trkpt lat="-37.3876349418272" lon="175.940535952699">
        <ele>60</ele>
      </trkpt>
      <trkpt lat="-37.38763208086973" lon="175.940414838833">
        <ele>59</ele>
      </trkpt>
      <trkpt lat="-37.38756818615297" lon="175.940355712378">
        <ele>57</ele>
      </trkpt>
      <trkpt lat="-37.38750905969864" lon="175.94039862674">
        <ele>56</ele>
      </trkpt>
      <trkpt lat="-37.38745374785428" lon="175.940450123975">
        <ele>54</ele>
      </trkpt>
      <trkpt lat="-37.38739843600992" lon="175.940428189968">
        <ele>52</ele>
      </trkpt>
      <trkpt lat="-37.38734884608049" lon="175.940350944116">
        <ele>50</ele>
      </trkpt>
      <trkpt lat="-37.38734884608049" lon="175.940285142094">
        <ele>50</ele>
      </trkpt>
      <trkpt lat="-37.38734884608049" lon="175.940219340072">
        <ele>50</ele>
      </trkpt>
      <trkpt lat="-37.38740701888232" lon="175.940123021171">
        <ele>52</ele>
      </trkpt>
      <trkpt lat="-37.3873917604425" lon="175.940058172802">
        <ele>51</ele>
      </trkpt>
      <trkpt lat="-37.38731069998093" lon="175.940039099752">
        <ele>48</ele>
      </trkpt>
      <trkpt lat="-37.38725920274652" lon="175.94003433149">
        <ele>46</ele>
      </trkpt>
      <trkpt lat="-37.38725729544154" lon="175.94">
        <ele>46</ele>
      </trkpt>
      <trkpt lat="-37.38725729544154" lon="175.94">
        <ele>46</ele>
      </trkpt>
      <trkpt lat="-37.38725538813657" lon="175.939975205035">
        <ele>46</ele>
      </trkpt>
      <trkpt lat="-37.38732309746329" lon="175.939878886134">
        <ele>48</ele>
      </trkpt>
      <trkpt lat="-37.3873307266832" lon="175.939813084112">
        <ele>49</ele>
      </trkpt>
      <trkpt lat="-37.38733835590311" lon="175.93974728209">
        <ele>49</ele>
      </trkpt>
      <trkpt lat="-37.38730307076101" lon="175.939639519359">
        <ele>47</ele>
      </trkpt>
      <trkpt lat="-37.38726683196643" lon="175.939531756628">
        <ele>46</ele>
      </trkpt>
      <trkpt lat="-37.3872439443067" lon="175.939413503719">
        <ele>45</ele>
      </trkpt>
      <trkpt lat="-37.38721533473203" lon="175.939320999428">
        <ele>44</ele>
      </trkpt>
      <trkpt lat="-37.38718672515736" lon="175.939229448789">
        <ele>43</ele>
      </trkpt>
      <trkpt lat="-37.38717909593744" lon="175.939125500668">
        <ele>43</ele>
      </trkpt>
      <trkpt lat="-37.38717146671753" lon="175.939022506199">
        <ele>44</ele>
      </trkpt>
      <trkpt lat="-37.38711996948312" lon="175.93893095556">
        <ele>43</ele>
      </trkpt>
      <trkpt lat="-37.38701316040435" lon="175.93893858478">
        <ele>39</ele>
      </trkpt>
      <trkpt lat="-37.38695212664505" lon="175.938998664887">
        <ele>37</ele>
      </trkpt>
      <trkpt lat="-37.38689013923327" lon="175.939059698646">
        <ele>35</ele>
      </trkpt>
      <trkpt lat="-37.38677474728209" lon="175.939086400915">
        <ele>31</ele>
      </trkpt>
      <trkpt lat="-37.38668796490559" lon="175.939053976731">
        <ele>29</ele>
      </trkpt>
      <trkpt lat="-37.38667461377074" lon="175.93893858478">
        <ele>30</ele>
      </trkpt>
      <trkpt lat="-37.38665554072096" lon="175.938834636658">
        <ele>31</ele>
      </trkpt>
      <trkpt lat="-37.38656780469197" lon="175.938794583254">
        <ele>30</ele>
      </trkpt>
      <trkpt lat="-37.38646767118063" lon="175.938815563609">
        <ele>29</ele>
      </trkpt>
      <trkpt lat="-37.38644096891093" lon="175.93893095556">
        <ele>27</ele>
      </trkpt>
      <trkpt lat="-37.38641426664124" lon="175.939046347511">
        <ele>25</ele>
      </trkpt>
      <trkpt lat="-37.38636276940683" lon="175.939162693115">
        <ele>23</ele>
      </trkpt>
      <trkpt lat="-37.38631031851993" lon="175.939279992371">
        <ele>22</ele>
      </trkpt>
      <trkpt lat="-37.3862082777036" lon="175.939227541484">
        <ele>21</ele>
      </trkpt>
      <trkpt lat="-37.38610623688728" lon="175.939175090597">
        <ele>20</ele>
      </trkpt>
      <trkpt lat="-37.38600705702842" lon="175.93909593744">
        <ele>20</ele>
      </trkpt>
      <trkpt lat="-37.38590692351707" lon="175.939016784284">
        <ele>20</ele>
      </trkpt>
      <trkpt lat="-37.38589105229557" lon="175.939006902202">
        <ele>20</ele>
      </trkpt>
    </trkseg>
  </trk>
</gpx>