<?xml version="1.0" encoding="UTF-8" standalone="yes"?>
<gpx
 version="1.1"
 creator="Generated by MapOut iPhone App. See https://mapout.app"
 xmlns="http://www.topografix.com/GPX/1/1"
 xmlns:xsi="http://www.w3.org/2001/XMLSchema-instance"
 xmlns:gpxx="http://www.garmin.com/xmlschemas/GpxExtensions/v3"
 xmlns:mapout="https://mapout.app/xmlschemas/MapOutExtensions"
 xsi:schemaLocation="http://www.topografix.com/GPX/1/1 https://www.topografix.com/GPX/1/1/gpx.xsd http://www.garmin.com/xmlschemas/GpxExtensions/v3 https://www8.garmin.com/xmlschemas/GpxExtensionsv3.xsd https://mapout.app/xmlschemas/MapOutExtensions https://mapout.app/xmlschemas/MapOutExtensions.xsd">
  <metadata>
    <name>Castle Rock</name>
    <author><name>iPhone</name></author>
    <time>2026-06-21T06:20:46Z</time>
    <bounds minlat="-40.91214101211387" minlon="176.216929627828" maxlat="-40.90340774582987" maxlon="176.226886324623"/>
  </metadata>
  <trk>
    <name>Castle Rock</name>
    <trkseg>
      <trkpt lat="-40.90340774582987" lon="176.226714886384">
        <ele>10</ele>
      </trkpt>
      <trkpt lat="-40.90344650009536" lon="176.226663169941">
        <ele>9</ele>
      </trkpt>
      <trkpt lat="-40.90344650009536" lon="176.226663169941">
        <ele>9</ele>
      </trkpt>
      <trkpt lat="-40.90345191357496" lon="176.226642500292">
        <ele>10</ele>
      </trkpt>
      <trkpt lat="-40.90345317566278" lon="176.226644096891">
        <ele>10</ele>
      </trkpt>
      <trkpt lat="-40.90353232881937" lon="176.226744230402">
        <ele>8</ele>
      </trkpt>
      <trkpt lat="-40.90353232881937" lon="176.226744230402">
        <ele>8</ele>
      </trkpt>
      <trkpt lat="-40.90364199885561" lon="176.226737554835">
        <ele>6</ele>
      </trkpt>
      <trkpt lat="-40.90386610719054" lon="176.226886324623">
        <ele>3</ele>
      </trkpt>
      <trkpt lat="-40.90386610719054" lon="176.226886324623">
        <ele>3</ele>
      </trkpt>
      <trkpt lat="-40.9040692351707" lon="176.226492466145">
        <ele>3</ele>
      </trkpt>
      <trkpt lat="-40.90442399389662" lon="176.226027083731">
        <ele>5</ele>
      </trkpt>
      <trkpt lat="-40.9046433339691" lon="176.22564753004">
        <ele>6</ele>
      </trkpt>
      <trkpt lat="-40.90480259393477" lon="176.225307076102">
        <ele>7</ele>
      </trkpt>
      <trkpt lat="-40.90492656875834" lon="176.22498474156">
        <ele>7</ele>
      </trkpt>
      <trkpt lat="-40.90525462521457" lon="176.224251382796">
        <ele>11</ele>
      </trkpt>
      <trkpt lat="-40.90537573908068" lon="176.223958611482">
        <ele>10</ele>
      </trkpt>
      <trkpt lat="-40.90550066755674" lon="176.223633415983">
        <ele>7</ele>
      </trkpt>
      <trkpt lat="-40.90582014114057" lon="176.222667366012">
        <ele>1</ele>
      </trkpt>
      <trkpt lat="-40.90591359908449" lon="176.222485218386">
        <ele>1</ele>
      </trkpt>
      <trkpt lat="-40.90598798397863" lon="176.222355521648">
        <ele>1</ele>
      </trkpt>
      <trkpt lat="-40.90603185199313" lon="176.222245851612">
        <ele>1</ele>
      </trkpt>
      <trkpt lat="-40.90606236887278" lon="176.221993133702">
        <ele>1</ele>
      </trkpt>
      <trkpt lat="-40.90606522983025" lon="176.221876788098">
        <ele>1</ele>
      </trkpt>
      <trkpt lat="-40.90605664695784" lon="176.22153633416">
        <ele>1</ele>
      </trkpt>
      <trkpt lat="-40.90607381270265" lon="176.221397100896">
        <ele>2</ele>
      </trkpt>
      <trkpt lat="-40.90610146862483" lon="176.221311272172">
        <ele>2</ele>
      </trkpt>
      <trkpt lat="-40.90615487316422" lon="176.221244516498">
        <ele>2</ele>
      </trkpt>
      <trkpt lat="-40.90628266259775" lon="176.22111100515">
        <ele>1</ele>
      </trkpt>
      <trkpt lat="-40.90630555025749" lon="176.221063322525">
        <ele>1</ele>
      </trkpt>
      <trkpt lat="-40.90636563036429" lon="176.220795346176">
        <ele>1</ele>
      </trkpt>
      <trkpt lat="-40.90640473011634" lon="176.220672325005">
        <ele>1</ele>
      </trkpt>
      <trkpt lat="-40.90644859813084" lon="176.220606522983">
        <ele>0</ele>
      </trkpt>
      <trkpt lat="-40.90657829486935" lon="176.220487316422">
        <ele>-1</ele>
      </trkpt>
      <trkpt lat="-40.90666507724585" lon="176.220346175854">
        <ele>-2</ele>
      </trkpt>
      <trkpt lat="-40.90668319664314" lon="176.220292771314">
        <ele>-2</ele>
      </trkpt>
      <trkpt lat="-40.90673660118252" lon="176.22">
        <ele>-2</ele>
      </trkpt>
      <trkpt lat="-40.90673660118252" lon="176.22">
        <ele>-2</ele>
      </trkpt>
      <trkpt lat="-40.90676616440969" lon="176.219896051879">
        <ele>-1</ele>
      </trkpt>
      <trkpt lat="-40.90682242990654" lon="176.21979305741">
        <ele>0</ele>
      </trkpt>
      <trkpt lat="-40.90687869540339" lon="176.219726301736">
        <ele>1</ele>
      </trkpt>
      <trkpt lat="-40.90695975586496" lon="176.219658592409">
        <ele>1</ele>
      </trkpt>
      <trkpt lat="-40.90704081632653" lon="176.219591836735">
        <ele>1</ele>
      </trkpt>
      <trkpt lat="-40.90713332061797" lon="176.219503147053">
        <ele>2</ele>
      </trkpt>
      <trkpt lat="-40.90724489795918" lon="176.219442113294">
        <ele>1</ele>
      </trkpt>
      <trkpt lat="-40.90734598512302" lon="176.21935246996">
        <ele>1</ele>
      </trkpt>
      <trkpt lat="-40.90739462139996" lon="176.219279992371">
        <ele>1</ele>
      </trkpt>
      <trkpt lat="-40.90744230402441" lon="176.219207514782">
        <ele>1</ele>
      </trkpt>
      <trkpt lat="-40.9074947549113" lon="176.21916460042">
        <ele>0</ele>
      </trkpt>
      <trkpt lat="-40.90788861338928" lon="176.218978638184">
        <ele>5</ele>
      </trkpt>
      <trkpt lat="-40.90797921037574" lon="176.21895002861">
        <ele>5</ele>
      </trkpt>
      <trkpt lat="-40.90803642952508" lon="176.218944306695">
        <ele>6</ele>
      </trkpt>
      <trkpt lat="-40.90811176807171" lon="176.218962426092">
        <ele>6</ele>
      </trkpt>
      <trkpt lat="-40.90817661644097" lon="176.218970055312">
        <ele>6</ele>
      </trkpt>
      <trkpt lat="-40.90822525271791" lon="176.218958611482">
        <ele>6</ele>
      </trkpt>
      <trkpt lat="-40.90831203509441" lon="176.218913789815">
        <ele>7</ele>
      </trkpt>
      <trkpt lat="-40.90841121495327" lon="176.21888136563">
        <ele>9</ele>
      </trkpt>
      <trkpt lat="-40.90849132176235" lon="176.218875643715">
        <ele>10</ele>
      </trkpt>
      <trkpt lat="-40.90855903108907" lon="176.21889280946">
        <ele>11</ele>
      </trkpt>
      <trkpt lat="-40.90867537669273" lon="176.218948121305">
        <ele>12</ele>
      </trkpt>
      <trkpt lat="-40.90869731069998" lon="176.218951935915">
        <ele>12</ele>
      </trkpt>
      <trkpt lat="-40.90869731069998" lon="176.218951935915">
        <ele>12</ele>
      </trkpt>
      <trkpt lat="-40.90871638374976" lon="176.218961472439">
        <ele>13</ele>
      </trkpt>
      <trkpt lat="-40.90871638374976" lon="176.218961472439">
        <ele>13</ele>
      </trkpt>
      <trkpt lat="-40.90880221247377" lon="176.219030135419">
        <ele>13</ele>
      </trkpt>
      <trkpt lat="-40.90881842456609" lon="176.219037764639">
        <ele>14</ele>
      </trkpt>
      <trkpt lat="-40.90883654396337" lon="176.219033950029">
        <ele>14</ele>
      </trkpt>
      <trkpt lat="-40.90883654396337" lon="176.219033950029">
        <ele>14</ele>
      </trkpt>
      <trkpt lat="-40.90886610719053" lon="176.219017737936">
        <ele>14</ele>
      </trkpt>
      <trkpt lat="-40.90886610719053" lon="176.219017737936">
        <ele>14</ele>
      </trkpt>
      <trkpt lat="-40.90887850467289" lon="176.219013923326">
        <ele>15</ele>
      </trkpt>
      <trkpt lat="-40.90887850467289" lon="176.219013923326">
        <ele>15</ele>
      </trkpt>
      <trkpt lat="-40.90890139233263" lon="176.219011062369">
        <ele>15</ele>
      </trkpt>
      <trkpt lat="-40.90890139233263" lon="176.219011062369">
        <ele>15</ele>
      </trkpt>
      <trkpt lat="-40.90894430669464" lon="176.219023459851">
        <ele>16</ele>
      </trkpt>
      <trkpt lat="-40.90894430669464" lon="176.219023459851">
        <ele>16</ele>
      </trkpt>
      <trkpt lat="-40.90897386992179" lon="176.219032042724">
        <ele>16</ele>
      </trkpt>
      <trkpt lat="-40.90897386992179" lon="176.219032042724">
        <ele>16</ele>
      </trkpt>
      <trkpt lat="-40.90898912836162" lon="176.219034903681">
        <ele>16</ele>
      </trkpt>
      <trkpt lat="-40.90898912836162" lon="176.219034903681">
        <ele>16</ele>
      </trkpt>
      <trkpt lat="-40.90901392332633" lon="176.219039671944">
        <ele>17</ele>
      </trkpt>
      <trkpt lat="-40.90901392332633" lon="176.219039671944">
        <ele>17</ele>
      </trkpt>
      <trkpt lat="-40.90903585733358" lon="176.219056837688">
        <ele>17</ele>
      </trkpt>
      <trkpt lat="-40.90903585733358" lon="176.219056837688">
        <ele>17</ele>
      </trkpt>
      <trkpt lat="-40.90905397673087" lon="176.219082586306">
        <ele>17</ele>
      </trkpt>
      <trkpt lat="-40.90905397673087" lon="176.219082586306">
        <ele>17</ele>
      </trkpt>
      <trkpt lat="-40.90910928857524" lon="176.219146481022">
        <ele>17</ele>
      </trkpt>
      <trkpt lat="-40.90914075910738" lon="176.219165554072">
        <ele>18</ele>
      </trkpt>
      <trkpt lat="-40.90914075910738" lon="176.219165554072">
        <ele>18</ele>
      </trkpt>
      <trkpt lat="-40.90916364676711" lon="176.219176044249">
        <ele>18</ele>
      </trkpt>
      <trkpt lat="-40.90916364676711" lon="176.219176044249">
        <ele>18</ele>
      </trkpt>
      <trkpt lat="-40.90918081251192" lon="176.219178905207">
        <ele>19</ele>
      </trkpt>
      <trkpt lat="-40.90918081251192" lon="176.219178905207">
        <ele>19</ele>
      </trkpt>
      <trkpt lat="-40.9091998855617" lon="176.219178905207">
        <ele>20</ele>
      </trkpt>
      <trkpt lat="-40.9091998855617" lon="176.219178905207">
        <ele>20</ele>
      </trkpt>
      <trkpt lat="-40.90921991226396" lon="176.219178905207">
        <ele>20</ele>
      </trkpt>
      <trkpt lat="-40.90921991226396" lon="176.219178905207">
        <ele>20</ele>
      </trkpt>
      <trkpt lat="-40.90924470722868" lon="176.219177951554">
        <ele>21</ele>
      </trkpt>
      <trkpt lat="-40.90924470722868" lon="176.219177951554">
        <ele>21</ele>
      </trkpt>
      <trkpt lat="-40.90926282662598" lon="176.219188441732">
        <ele>22</ele>
      </trkpt>
      <trkpt lat="-40.90926854854091" lon="176.219204653824">
        <ele>22</ele>
      </trkpt>
      <trkpt lat="-40.90926854854091" lon="176.219204653824">
        <ele>22</ele>
      </trkpt>
      <trkpt lat="-40.90927522410833" lon="176.219227541484">
        <ele>22</ele>
      </trkpt>
      <trkpt lat="-40.90927522410833" lon="176.219227541484">
        <ele>22</ele>
      </trkpt>
      <trkpt lat="-40.90929429715811" lon="176.219274270456">
        <ele>23</ele>
      </trkpt>
      <trkpt lat="-40.90929429715811" lon="176.219274270456">
        <ele>23</ele>
      </trkpt>
      <trkpt lat="-40.90930669464047" lon="176.219300019073">
        <ele>23</ele>
      </trkpt>
      <trkpt lat="-40.90930669464047" lon="176.219300019073">
        <ele>23</ele>
      </trkpt>
      <trkpt lat="-40.90932099942781" lon="176.219326721343">
        <ele>24</ele>
      </trkpt>
      <trkpt lat="-40.90932099942781" lon="176.219326721343">
        <ele>24</ele>
      </trkpt>
      <trkpt lat="-40.90932481403776" lon="176.219304787335">
        <ele>24</ele>
      </trkpt>
      <trkpt lat="-40.90932481403776" lon="176.219304787335">
        <ele>24</ele>
      </trkpt>
      <trkpt lat="-40.90934197978256" lon="176.219277131413">
        <ele>25</ele>
      </trkpt>
      <trkpt lat="-40.90938012588212" lon="176.219249475491">
        <ele>26</ele>
      </trkpt>
      <trkpt lat="-40.90938012588212" lon="176.219249475491">
        <ele>26</ele>
      </trkpt>
      <trkpt lat="-40.90938870875453" lon="176.219239938966">
        <ele>27</ele>
      </trkpt>
      <trkpt lat="-40.90938870875453" lon="176.219239938966">
        <ele>27</ele>
      </trkpt>
      <trkpt lat="-40.90941159641427" lon="176.219209422087">
        <ele>28</ele>
      </trkpt>
      <trkpt lat="-40.90941159641427" lon="176.219209422087">
        <ele>28</ele>
      </trkpt>
      <trkpt lat="-40.90942017928666" lon="176.219195117299">
        <ele>28</ele>
      </trkpt>
      <trkpt lat="-40.90942017928666" lon="176.219195117299">
        <ele>28</ele>
      </trkpt>
      <trkpt lat="-40.90944115964142" lon="176.219166507725">
        <ele>30</ele>
      </trkpt>
      <trkpt lat="-40.90944115964142" lon="176.219166507725">
        <ele>30</ele>
      </trkpt>
      <trkpt lat="-40.90947263017356" lon="176.219136944497">
        <ele>31</ele>
      </trkpt>
      <trkpt lat="-40.90947263017356" lon="176.219136944497">
        <ele>31</ele>
      </trkpt>
      <trkpt lat="-40.90949742513828" lon="176.219113103185">
        <ele>32</ele>
      </trkpt>
      <trkpt lat="-40.90949742513828" lon="176.219113103185">
        <ele>32</ele>
      </trkpt>
      <trkpt lat="-40.90952031279802" lon="176.219079725348">
        <ele>33</ele>
      </trkpt>
      <trkpt lat="-40.90952031279802" lon="176.219079725348">
        <ele>33</ele>
      </trkpt>
      <trkpt lat="-40.90954510776272" lon="176.219056837688">
        <ele>34</ele>
      </trkpt>
      <trkpt lat="-40.90954510776272" lon="176.219056837688">
        <ele>34</ele>
      </trkpt>
      <trkpt lat="-40.90961090978447" lon="176.218971962617">
        <ele>37</ele>
      </trkpt>
      <trkpt lat="-40.90961090978447" lon="176.218971962617">
        <ele>37</ele>
      </trkpt>
      <trkpt lat="-40.90964047301163" lon="176.218951935915">
        <ele>39</ele>
      </trkpt>
      <trkpt lat="-40.90964047301163" lon="176.218951935915">
        <ele>39</ele>
      </trkpt>
      <trkpt lat="-40.9096604997139" lon="176.218936677475">
        <ele>39</ele>
      </trkpt>
      <trkpt lat="-40.9096604997139" lon="176.218936677475">
        <ele>39</ele>
      </trkpt>
      <trkpt lat="-40.90969006294106" lon="176.218916650772">
        <ele>41</ele>
      </trkpt>
      <trkpt lat="-40.90969006294106" lon="176.218916650772">
        <ele>41</ele>
      </trkpt>
      <trkpt lat="-40.9097215334732" lon="176.21891188251">
        <ele>42</ele>
      </trkpt>
      <trkpt lat="-40.9097215334732" lon="176.21891188251">
        <ele>42</ele>
      </trkpt>
      <trkpt lat="-40.90975681861529" lon="176.2189080679">
        <ele>43</ele>
      </trkpt>
      <trkpt lat="-40.90975681861529" lon="176.2189080679">
        <ele>43</ele>
      </trkpt>
      <trkpt lat="-40.90981594506961" lon="176.218870875453">
        <ele>46</ele>
      </trkpt>
      <trkpt lat="-40.90981594506961" lon="176.218870875453">
        <ele>46</ele>
      </trkpt>
      <trkpt lat="-40.90984646194926" lon="176.218856570666">
        <ele>47</ele>
      </trkpt>
      <trkpt lat="-40.90984646194926" lon="176.218856570666">
        <ele>47</ele>
      </trkpt>
      <trkpt lat="-40.90986267404158" lon="176.218846080488">
        <ele>48</ele>
      </trkpt>
      <trkpt lat="-40.90986267404158" lon="176.218846080488">
        <ele>48</ele>
      </trkpt>
      <trkpt lat="-40.90988460804882" lon="176.218819378219">
        <ele>49</ele>
      </trkpt>
      <trkpt lat="-40.90988460804882" lon="176.218819378219">
        <ele>49</ele>
      </trkpt>
      <trkpt lat="-40.90991131031851" lon="176.218796490559">
        <ele>50</ele>
      </trkpt>
      <trkpt lat="-40.90991131031851" lon="176.218796490559">
        <ele>50</ele>
      </trkpt>
      <trkpt lat="-40.90994087354568" lon="176.218769788289">
        <ele>51</ele>
      </trkpt>
      <trkpt lat="-40.90994087354568" lon="176.218769788289">
        <ele>51</ele>
      </trkpt>
      <trkpt lat="-40.90998569521266" lon="176.218732595842">
        <ele>53</ele>
      </trkpt>
      <trkpt lat="-40.90998569521266" lon="176.218732595842">
        <ele>53</ele>
      </trkpt>
      <trkpt lat="-40.9100085828724" lon="176.218710661835">
        <ele>54</ele>
      </trkpt>
      <trkpt lat="-40.9100085828724" lon="176.218710661835">
        <ele>54</ele>
      </trkpt>
      <trkpt lat="-40.91002384131222" lon="176.218684913218">
        <ele>54</ele>
      </trkpt>
      <trkpt lat="-40.91002384131222" lon="176.218658210948">
        <ele>54</ele>
      </trkpt>
      <trkpt lat="-40.91003814609956" lon="176.218605760061">
        <ele>54</ele>
      </trkpt>
      <trkpt lat="-40.91004863627694" lon="176.218516116727">
        <ele>55</ele>
      </trkpt>
      <trkpt lat="-40.91007152393667" lon="176.21843696357">
        <ele>56</ele>
      </trkpt>
      <trkpt lat="-40.91008487507152" lon="176.218414075911">
        <ele>56</ele>
      </trkpt>
      <trkpt lat="-40.9100953652489" lon="176.218407400343">
        <ele>57</ele>
      </trkpt>
      <trkpt lat="-40.9101211138661" lon="176.218416936868">
        <ele>57</ele>
      </trkpt>
      <trkpt lat="-40.91012969673851" lon="176.218411214953">
        <ele>58</ele>
      </trkpt>
      <trkpt lat="-40.91014400152584" lon="176.218371161549">
        <ele>58</ele>
      </trkpt>
      <trkpt lat="-40.91015544535571" lon="176.218363532329">
        <ele>59</ele>
      </trkpt>
      <trkpt lat="-40.91016975014305" lon="176.218366393286">
        <ele>59</ele>
      </trkpt>
      <trkpt lat="-40.91018786954034" lon="176.218380698074">
        <ele>60</ele>
      </trkpt>
      <trkpt lat="-40.91021552546252" lon="176.218374976159">
        <ele>60</ele>
      </trkpt>
      <trkpt lat="-40.91023555216479" lon="176.218392141903">
        <ele>61</ele>
      </trkpt>
      <trkpt lat="-40.91024699599465" lon="176.218391188251">
        <ele>61</ele>
      </trkpt>
      <trkpt lat="-40.91026988365439" lon="176.218366393286">
        <ele>62</ele>
      </trkpt>
      <trkpt lat="-40.91028132748426" lon="176.218333969102">
        <ele>63</ele>
      </trkpt>
      <trkpt lat="-40.91028323478924" lon="176.218316803357">
        <ele>63</ele>
      </trkpt>
      <trkpt lat="-40.91026702269693" lon="176.218212855236">
        <ele>63</ele>
      </trkpt>
      <trkpt lat="-40.91027179095937" lon="176.218173755483">
        <ele>63</ele>
      </trkpt>
      <trkpt lat="-40.91028895670417" lon="176.218161358001">
        <ele>64</ele>
      </trkpt>
      <trkpt lat="-40.91039862674041" lon="176.218159450696">
        <ele>67</ele>
      </trkpt>
      <trkpt lat="-40.91041293152774" lon="176.218111768072">
        <ele>67</ele>
      </trkpt>
      <trkpt lat="-40.91046252145718" lon="176.217736982644">
        <ele>69</ele>
      </trkpt>
      <trkpt lat="-40.91044726301735" lon="176.217631127217">
        <ele>69</ele>
      </trkpt>
      <trkpt lat="-40.91045012397482" lon="176.217612054167">
        <ele>69</ele>
      </trkpt>
      <trkpt lat="-40.91048922372687" lon="176.217572954415">
        <ele>70</ele>
      </trkpt>
      <trkpt lat="-40.91050829677665" lon="176.217516688919">
        <ele>70</ele>
      </trkpt>
      <trkpt lat="-40.91050066755674" lon="176.217453747854">
        <ele>70</ele>
      </trkpt>
      <trkpt lat="-40.91049303833682" lon="176.217391760442">
        <ele>69</ele>
      </trkpt>
      <trkpt lat="-40.91044630936486" lon="176.217311653633">
        <ele>68</ele>
      </trkpt>
      <trkpt lat="-40.9103995803929" lon="176.217231546824">
        <ele>67</ele>
      </trkpt>
      <trkpt lat="-40.91035189776845" lon="176.217178142285">
        <ele>66</ele>
      </trkpt>
      <trkpt lat="-40.91031184436391" lon="176.217115201221">
        <ele>65</ele>
      </trkpt>
      <trkpt lat="-40.91027179095937" lon="176.217053213809">
        <ele>64</ele>
      </trkpt>
      <trkpt lat="-40.91027179095937" lon="176.217053213809">
        <ele>64</ele>
      </trkpt>
      <trkpt lat="-40.91028132748426" lon="176.217042723631">
        <ele>64</ele>
      </trkpt>
      <trkpt lat="-40.91030326149151" lon="176.217035094412">
        <ele>65</ele>
      </trkpt>
      <trkpt lat="-40.91042437535761" lon="176.217142857143">
        <ele>66</ele>
      </trkpt>
      <trkpt lat="-40.91044630936486" lon="176.217150486363">
        <ele>67</ele>
      </trkpt>
      <trkpt lat="-40.91051687964905" lon="176.217151440015">
        <ele>68</ele>
      </trkpt>
      <trkpt lat="-40.91057409879839" lon="176.21717242037">
        <ele>69</ele>
      </trkpt>
      <trkpt lat="-40.91061224489795" lon="176.217205798207">
        <ele>70</ele>
      </trkpt>
      <trkpt lat="-40.91063990082014" lon="176.217245851612">
        <ele>70</ele>
      </trkpt>
      <trkpt lat="-40.91073335876406" lon="176.217317375548">
        <ele>73</ele>
      </trkpt>
      <trkpt lat="-40.91077245851611" lon="176.217340263208">
        <ele>74</ele>
      </trkpt>
      <trkpt lat="-40.91081632653061" lon="176.21738699218">
        <ele>75</ele>
      </trkpt>
      <trkpt lat="-40.9108258630555" lon="176.21742513828">
        <ele>76</ele>
      </trkpt>
      <trkpt lat="-40.91082395575052" lon="176.217468052642">
        <ele>77</ele>
      </trkpt>
      <trkpt lat="-40.91079725348083" lon="176.217548159451">
        <ele>77</ele>
      </trkpt>
      <trkpt lat="-40.91081060461568" lon="176.217579629983">
        <ele>77</ele>
      </trkpt>
      <trkpt lat="-40.91081251192065" lon="176.217637802785">
        <ele>78</ele>
      </trkpt>
      <trkpt lat="-40.91084493610528" lon="176.217698836544">
        <ele>78</ele>
      </trkpt>
      <trkpt lat="-40.91085447263017" lon="176.217733168034">
        <ele>78</ele>
      </trkpt>
      <trkpt lat="-40.91084493610528" lon="176.217757009346">
        <ele>78</ele>
      </trkpt>
      <trkpt lat="-40.91084684341025" lon="176.21778180431">
        <ele>78</ele>
      </trkpt>
      <trkpt lat="-40.91083635323288" lon="176.21780850658">
        <ele>78</ele>
      </trkpt>
      <trkpt lat="-40.91084207514781" lon="176.217913408354">
        <ele>78</ele>
      </trkpt>
      <trkpt lat="-40.91085351897768" lon="176.217932481404">
        <ele>78</ele>
      </trkpt>
      <trkpt lat="-40.91085637993515" lon="176.217952508106">
        <ele>78</ele>
      </trkpt>
      <trkpt lat="-40.91084398245279" lon="176.218036429525">
        <ele>79</ele>
      </trkpt>
      <trkpt lat="-40.91084684341025" lon="176.218066946405">
        <ele>78</ele>
      </trkpt>
      <trkpt lat="-40.91086591646004" lon="176.218077436582">
        <ele>78</ele>
      </trkpt>
      <trkpt lat="-40.9108601945451" lon="176.218126072859">
        <ele>78</ele>
      </trkpt>
      <trkpt lat="-40.91087068472248" lon="176.218149914171">
        <ele>77</ele>
      </trkpt>
      <trkpt lat="-40.91086400915506" lon="176.218180431051">
        <ele>78</ele>
      </trkpt>
      <trkpt lat="-40.9108783139424" lon="176.218211901583">
        <ele>77</ele>
      </trkpt>
      <trkpt lat="-40.91087545298493" lon="176.218248140378">
        <ele>77</ele>
      </trkpt>
      <trkpt lat="-40.91088498950982" lon="176.218302498569">
        <ele>77</ele>
      </trkpt>
      <trkpt lat="-40.91089643333969" lon="176.218329200839">
        <ele>76</ele>
      </trkpt>
      <trkpt lat="-40.9108954796872" lon="176.218350181194">
        <ele>76</ele>
      </trkpt>
      <trkpt lat="-40.91090692351707" lon="176.218361625024">
        <ele>75</ele>
      </trkpt>
      <trkpt lat="-40.9109040625596" lon="176.218391188251">
        <ele>74</ele>
      </trkpt>
      <trkpt lat="-40.91092504291436" lon="176.218496090025">
        <ele>69</ele>
      </trkpt>
      <trkpt lat="-40.91092695021933" lon="176.218559984742">
        <ele>66</ele>
      </trkpt>
      <trkpt lat="-40.91092790387182" lon="176.218623879458">
        <ele>64</ele>
      </trkpt>
      <trkpt lat="-40.91091550638946" lon="176.2186973107">
        <ele>61</ele>
      </trkpt>
      <trkpt lat="-40.91091359908449" lon="176.218759298112">
        <ele>59</ele>
      </trkpt>
      <trkpt lat="-40.91091073812702" lon="176.218822239176">
        <ele>57</ele>
      </trkpt>
      <trkpt lat="-40.91091646004196" lon="176.218889948503">
        <ele>54</ele>
      </trkpt>
      <trkpt lat="-40.91094506961663" lon="176.218985313752">
        <ele>49</ele>
      </trkpt>
      <trkpt lat="-40.91096318901392" lon="176.218989128362">
        <ele>48</ele>
      </trkpt>
      <trkpt lat="-40.91099370589357" lon="176.218916650772">
        <ele>49</ele>
      </trkpt>
      <trkpt lat="-40.91102422277322" lon="176.218844173183">
        <ele>51</ele>
      </trkpt>
      <trkpt lat="-40.9110347129506" lon="176.218798397864">
        <ele>52</ele>
      </trkpt>
      <trkpt lat="-40.91105569330536" lon="176.218745946977">
        <ele>53</ele>
      </trkpt>
      <trkpt lat="-40.91118825100133" lon="176.21846366584">
        <ele>56</ele>
      </trkpt>
      <trkpt lat="-40.91121018500858" lon="176.218378790769">
        <ele>58</ele>
      </trkpt>
      <trkpt lat="-40.91124165554072" lon="176.218316803357">
        <ele>58</ele>
      </trkpt>
      <trkpt lat="-40.91127217242037" lon="176.218255769598">
        <ele>57</ele>
      </trkpt>
      <trkpt lat="-40.91129315277512" lon="176.218189967576">
        <ele>57</ele>
      </trkpt>
      <trkpt lat="-40.91129982834255" lon="176.218116536334">
        <ele>58</ele>
      </trkpt>
      <trkpt lat="-40.91131699408735" lon="176.218026893">
        <ele>59</ele>
      </trkpt>
      <trkpt lat="-40.91137230593171" lon="176.217943925234">
        <ele>58</ele>
      </trkpt>
      <trkpt lat="-40.91139328628648" lon="176.217934388709">
        <ele>58</ele>
      </trkpt>
      <trkpt lat="-40.9114257104711" lon="176.217891474347">
        <ele>57</ele>
      </trkpt>
      <trkpt lat="-40.91144096891092" lon="176.217891474347">
        <ele>57</ele>
      </trkpt>
      <trkpt lat="-40.91144096891092" lon="176.217891474347">
        <ele>57</ele>
      </trkpt>
      <trkpt lat="-40.91147339309556" lon="176.217919130269">
        <ele>55</ele>
      </trkpt>
      <trkpt lat="-40.91147339309556" lon="176.217919130269">
        <ele>55</ele>
      </trkpt>
      <trkpt lat="-40.91150295632271" lon="176.217883845127">
        <ele>55</ele>
      </trkpt>
      <trkpt lat="-40.9115563608621" lon="176.217873354949">
        <ele>53</ele>
      </trkpt>
      <trkpt lat="-40.91158973869921" lon="176.217791340835">
        <ele>55</ele>
      </trkpt>
      <trkpt lat="-40.91160308983406" lon="176.217775128743">
        <ele>55</ele>
      </trkpt>
      <trkpt lat="-40.91165363341598" lon="176.217754148388">
        <ele>54</ele>
      </trkpt>
      <trkpt lat="-40.91165363341598" lon="176.217754148388">
        <ele>54</ele>
      </trkpt>
      <trkpt lat="-40.9116860576006" lon="176.217695975586">
        <ele>54</ele>
      </trkpt>
      <trkpt lat="-40.91176807171466" lon="176.217579629983">
        <ele>53</ele>
      </trkpt>
      <trkpt lat="-40.91181956894907" lon="176.217516688919">
        <ele>52</ele>
      </trkpt>
      <trkpt lat="-40.91187011253099" lon="176.217453747854">
        <ele>51</ele>
      </trkpt>
      <trkpt lat="-40.91192447072287" lon="176.217396528705">
        <ele>48</ele>
      </trkpt>
      <trkpt lat="-40.91197787526225" lon="176.217287812321">
        <ele>47</ele>
      </trkpt>
      <trkpt lat="-40.91203127980164" lon="176.217179095937">
        <ele>45</ele>
      </trkpt>
      <trkpt lat="-40.91207228685867" lon="176.217079916079">
        <ele>44</ele>
      </trkpt>
      <trkpt lat="-40.91211234026321" lon="176.216981689872">
        <ele>43</ele>
      </trkpt>
      <trkpt lat="-40.91214101211387" lon="176.216929627828">
        <ele>42</ele>
      </trkpt>
      <trkpt lat="-40.91214101211387" lon="176.216929627828">
        <ele>42</ele>
      </trkpt>
      <trkpt lat="-40.91211234026321" lon="176.216981689872">
        <ele>43</ele>
      </trkpt>
      <trkpt lat="-40.91207228685867" lon="176.217079916079">
        <ele>44</ele>
      </trkpt>
      <trkpt lat="-40.91203127980164" lon="176.217179095937">
        <ele>45</ele>
      </trkpt>
      <trkpt lat="-40.91197787526225" lon="176.217287812321">
        <ele>47</ele>
      </trkpt>
      <trkpt lat="-40.91192447072287" lon="176.217396528705">
        <ele>48</ele>
      </trkpt>
      <trkpt lat="-40.91187011253099" lon="176.217453747854">
        <ele>51</ele>
      </trkpt>
      <trkpt lat="-40.91181956894907" lon="176.217516688919">
        <ele>52</ele>
      </trkpt>
      <trkpt lat="-40.91176807171466" lon="176.217579629983">
        <ele>53</ele>
      </trkpt>
      <trkpt lat="-40.9116860576006" lon="176.217695975586">
        <ele>54</ele>
      </trkpt>
      <trkpt lat="-40.91165363341598" lon="176.217754148388">
        <ele>54</ele>
      </trkpt>
      <trkpt lat="-40.91165363341598" lon="176.217754148388">
        <ele>54</ele>
      </trkpt>
      <trkpt lat="-40.91160308983406" lon="176.217775128743">
        <ele>55</ele>
      </trkpt>
      <trkpt lat="-40.91158973869921" lon="176.217791340835">
        <ele>55</ele>
      </trkpt>
      <trkpt lat="-40.9115563608621" lon="176.217873354949">
        <ele>53</ele>
      </trkpt>
      <trkpt lat="-40.91150295632271" lon="176.217883845127">
        <ele>55</ele>
      </trkpt>
      <trkpt lat="-40.91147339309556" lon="176.217919130269">
        <ele>55</ele>
      </trkpt>
      <trkpt lat="-40.91147339309556" lon="176.217919130269">
        <ele>55</ele>
      </trkpt>
      <trkpt lat="-40.91144096891092" lon="176.217891474347">
        <ele>57</ele>
      </trkpt>
      <trkpt lat="-40.91144096891092" lon="176.217891474347">
        <ele>57</ele>
      </trkpt>
      <trkpt lat="-40.9114257104711" lon="176.217891474347">
        <ele>57</ele>
      </trkpt>
      <trkpt lat="-40.91139328628648" lon="176.217934388709">
        <ele>58</ele>
      </trkpt>
      <trkpt lat="-40.91137230593171" lon="176.217943925234">
        <ele>58</ele>
      </trkpt>
      <trkpt lat="-40.91131699408735" lon="176.218026893">
        <ele>59</ele>
      </trkpt>
      <trkpt lat="-40.91129982834255" lon="176.218116536334">
        <ele>58</ele>
      </trkpt>
      <trkpt lat="-40.91129315277512" lon="176.218189967576">
        <ele>57</ele>
      </trkpt>
      <trkpt lat="-40.91127217242037" lon="176.218255769598">
        <ele>57</ele>
      </trkpt>
      <trkpt lat="-40.91124165554072" lon="176.218316803357">
        <ele>58</ele>
      </trkpt>
      <trkpt lat="-40.91121018500858" lon="176.218378790769">
        <ele>58</ele>
      </trkpt>
      <trkpt lat="-40.91118825100133" lon="176.21846366584">
        <ele>56</ele>
      </trkpt>
      <trkpt lat="-40.91118805884769" lon="176.218464075031">
        <ele>56</ele>
      </trkpt>
      <trkpt lat="-40.91118805884769" lon="176.218464075031">
        <ele>56</ele>
      </trkpt>
      <trkpt lat="-40.91118825100133" lon="176.21846366584">
        <ele>56</ele>
      </trkpt>
      <trkpt lat="-40.91121018500858" lon="176.218378790769">
        <ele>58</ele>
      </trkpt>
      <trkpt lat="-40.91124165554072" lon="176.218316803357">
        <ele>58</ele>
      </trkpt>
      <trkpt lat="-40.91127217242037" lon="176.218255769598">
        <ele>57</ele>
      </trkpt>
      <trkpt lat="-40.91129315277512" lon="176.218189967576">
        <ele>57</ele>
      </trkpt>
      <trkpt lat="-40.91129982834255" lon="176.218116536334">
        <ele>58</ele>
      </trkpt>
      <trkpt lat="-40.91131699408735" lon="176.218026893">
        <ele>59</ele>
      </trkpt>
      <trkpt lat="-40.91137230593171" lon="176.217943925234">
        <ele>58</ele>
      </trkpt>
      <trkpt lat="-40.91139328628648" lon="176.217934388709">
        <ele>58</ele>
      </trkpt>
      <trkpt lat="-40.9114257104711" lon="176.217891474347">
        <ele>57</ele>
      </trkpt>
      <trkpt lat="-40.91144096891092" lon="176.217891474347">
        <ele>57</ele>
      </trkpt>
      <trkpt lat="-40.91144096891092" lon="176.217891474347">
        <ele>57</ele>
      </trkpt>
      <trkpt lat="-40.91147339309556" lon="176.217919130269">
        <ele>55</ele>
      </trkpt>
      <trkpt lat="-40.91147339309556" lon="176.217919130269">
        <ele>55</ele>
      </trkpt>
      <trkpt lat="-40.91150295632271" lon="176.217883845127">
        <ele>55</ele>
      </trkpt>
      <trkpt lat="-40.9115563608621" lon="176.217873354949">
        <ele>53</ele>
      </trkpt>
      <trkpt lat="-40.91158973869921" lon="176.217791340835">
        <ele>55</ele>
      </trkpt>
      <trkpt lat="-40.91160308983406" lon="176.217775128743">
        <ele>55</ele>
      </trkpt>
      <trkpt lat="-40.91165363341598" lon="176.217754148388">
        <ele>54</ele>
      </trkpt>
      <trkpt lat="-40.91165363341598" lon="176.217754148388">
        <ele>54</ele>
      </trkpt>
      <trkpt lat="-40.9116860576006" lon="176.217695975586">
        <ele>54</ele>
      </trkpt>
      <trkpt lat="-40.91176807171466" lon="176.217579629983">
        <ele>53</ele>
      </trkpt>
      <trkpt lat="-40.91181956894907" lon="176.217516688919">
        <ele>52</ele>
      </trkpt>
      <trkpt lat="-40.91187011253099" lon="176.217453747854">
        <ele>51</ele>
      </trkpt>
      <trkpt lat="-40.91192447072287" lon="176.217396528705">
        <ele>48</ele>
      </trkpt>
      <trkpt lat="-40.91197787526225" lon="176.217287812321">
        <ele>47</ele>
      </trkpt>
      <trkpt lat="-40.91203127980164" lon="176.217179095937">
        <ele>45</ele>
      </trkpt>
      <trkpt lat="-40.91207228685867" lon="176.217079916079">
        <ele>44</ele>
      </trkpt>
      <trkpt lat="-40.91210605412022" lon="176.21699710589">
        <ele>43</ele>
      </trkpt>
    </trkseg>
  </trk>
</gpx>