<?xml version="1.0" encoding="UTF-8" standalone="yes"?>
<gpx
 version="1.1"
 creator="Generated by MapOut iPhone App. See https://mapout.app"
 xmlns="http://www.topografix.com/GPX/1/1"
 xmlns:xsi="http://www.w3.org/2001/XMLSchema-instance"
 xmlns:gpxx="http://www.garmin.com/xmlschemas/GpxExtensions/v3"
 xmlns:mapout="https://mapout.app/xmlschemas/MapOutExtensions"
 xsi:schemaLocation="http://www.topografix.com/GPX/1/1 https://www.topografix.com/GPX/1/1/gpx.xsd http://www.garmin.com/xmlschemas/GpxExtensions/v3 https://www8.garmin.com/xmlschemas/GpxExtensionsv3.xsd https://mapout.app/xmlschemas/MapOutExtensions https://mapout.app/xmlschemas/MapOutExtensions.xsd">
  <metadata>
    <name>Taranaki Falls Walk</name>
    <author><name>iPhone</name></author>
    <time>2026-09-13T03:40:32Z</time>
    <bounds minlat="-39.2027570093458" minlon="175.541744230402" maxlat="-39.19183387373641" maxlon="175.565688537097"/>
  </metadata>
  <trk>
    <name>Taranaki Falls Walk</name>
    <trkseg>
      <trkpt lat="-39.1995737173374" lon="175.542874308602">
        <ele>1141</ele>
      </trkpt>
      <trkpt lat="-39.19956131985504" lon="175.542960137326">
        <ele>1141</ele>
      </trkpt>
      <trkpt lat="-39.19956131985504" lon="175.543066946405">
        <ele>1142</ele>
      </trkpt>
      <trkpt lat="-39.19948598130841" lon="175.543184245661">
        <ele>1142</ele>
      </trkpt>
      <trkpt lat="-39.19946404730116" lon="175.543240511158">
        <ele>1142</ele>
      </trkpt>
      <trkpt lat="-39.19945451077627" lon="175.543292962045">
        <ele>1142</ele>
      </trkpt>
      <trkpt lat="-39.19945832538622" lon="175.543374976159">
        <ele>1142</ele>
      </trkpt>
      <trkpt lat="-39.1994611863437" lon="175.543456990273">
        <ele>1143</ele>
      </trkpt>
      <trkpt lat="-39.19945069616632" lon="175.543518977685">
        <ele>1143</ele>
      </trkpt>
      <trkpt lat="-39.19944878886134" lon="175.543589547969">
        <ele>1143</ele>
      </trkpt>
      <trkpt lat="-39.19942876215907" lon="175.543686820523">
        <ele>1143</ele>
      </trkpt>
      <trkpt lat="-39.19942494754911" lon="175.543766927332">
        <ele>1144</ele>
      </trkpt>
      <trkpt lat="-39.19942017928667" lon="175.543847987793">
        <ele>1144</ele>
      </trkpt>
      <trkpt lat="-39.19939919893191" lon="175.543925233645">
        <ele>1144</ele>
      </trkpt>
      <trkpt lat="-39.19937726492466" lon="175.544003433149">
        <ele>1144</ele>
      </trkpt>
      <trkpt lat="-39.19936200648483" lon="175.544085447263">
        <ele>1144</ele>
      </trkpt>
      <trkpt lat="-39.19935056265496" lon="175.544190349037">
        <ele>1145</ele>
      </trkpt>
      <trkpt lat="-39.19930192637803" lon="175.544470722869">
        <ele>1146</ele>
      </trkpt>
      <trkpt lat="-39.19930001907305" lon="175.54457467099">
        <ele>1147</ele>
      </trkpt>
      <trkpt lat="-39.19931527751287" lon="175.544659546061">
        <ele>1148</ele>
      </trkpt>
      <trkpt lat="-39.19931909212283" lon="175.544720579821">
        <ele>1148</ele>
      </trkpt>
      <trkpt lat="-39.19932290673278" lon="175.544782567233">
        <ele>1149</ele>
      </trkpt>
      <trkpt lat="-39.19938298683959" lon="175.545094411596">
        <ele>1151</ele>
      </trkpt>
      <trkpt lat="-39.19940682815182" lon="175.545161167271">
        <ele>1151</ele>
      </trkpt>
      <trkpt lat="-39.19943066946404" lon="175.545228876597">
        <ele>1150</ele>
      </trkpt>
      <trkpt lat="-39.19945832538622" lon="175.545284188442">
        <ele>1150</ele>
      </trkpt>
      <trkpt lat="-39.19949361052832" lon="175.545325195499">
        <ele>1151</ele>
      </trkpt>
      <trkpt lat="-39.19951459088308" lon="175.545366202556">
        <ele>1151</ele>
      </trkpt>
      <trkpt lat="-39.19956227350753" lon="175.54547491894">
        <ele>1151</ele>
      </trkpt>
      <trkpt lat="-39.19960900247949" lon="175.545583635323">
        <ele>1151</ele>
      </trkpt>
      <trkpt lat="-39.19967003623879" lon="175.545704749189">
        <ele>1152</ele>
      </trkpt>
      <trkpt lat="-39.19973106999809" lon="175.545825863056">
        <ele>1152</ele>
      </trkpt>
      <trkpt lat="-39.19977589166508" lon="175.545891665077">
        <ele>1153</ele>
      </trkpt>
      <trkpt lat="-39.19981975967957" lon="175.545957467099">
        <ele>1153</ele>
      </trkpt>
      <trkpt lat="-39.19986839595651" lon="175.546045203128">
        <ele>1154</ele>
      </trkpt>
      <trkpt lat="-39.2" lon="175.546351325577">
        <ele>1154</ele>
      </trkpt>
      <trkpt lat="-39.2" lon="175.546351325577">
        <ele>1154</ele>
      </trkpt>
      <trkpt lat="-39.20011729925615" lon="175.546617394621">
        <ele>1155</ele>
      </trkpt>
      <trkpt lat="-39.20021838641999" lon="175.546878695403">
        <ele>1155</ele>
      </trkpt>
      <trkpt lat="-39.20027560556933" lon="175.546983597177">
        <ele>1156</ele>
      </trkpt>
      <trkpt lat="-39.20030612244898" lon="175.547028418844">
        <ele>1156</ele>
      </trkpt>
      <trkpt lat="-39.20034331489605" lon="175.547139996185">
        <ele>1156</ele>
      </trkpt>
      <trkpt lat="-39.2003824146481" lon="175.547228685867">
        <ele>1157</ele>
      </trkpt>
      <trkpt lat="-39.20042056074767" lon="175.547318329201">
        <ele>1157</ele>
      </trkpt>
      <trkpt lat="-39.20047968720198" lon="175.547424184627">
        <ele>1157</ele>
      </trkpt>
      <trkpt lat="-39.20053309174137" lon="175.547541483883">
        <ele>1158</ele>
      </trkpt>
      <trkpt lat="-39.20057886706084" lon="175.547617776082">
        <ele>1158</ele>
      </trkpt>
      <trkpt lat="-39.2006265496853" lon="175.547690253672">
        <ele>1159</ele>
      </trkpt>
      <trkpt lat="-39.20067423230974" lon="175.547751287431">
        <ele>1159</ele>
      </trkpt>
      <trkpt lat="-39.2007219149342" lon="175.54781232119">
        <ele>1160</ele>
      </trkpt>
      <trkpt lat="-39.20080679000572" lon="175.547898149914">
        <ele>1161</ele>
      </trkpt>
      <trkpt lat="-39.20089166507724" lon="175.547983978638">
        <ele>1162</ele>
      </trkpt>
      <trkpt lat="-39.20096795727637" lon="175.548047873355">
        <ele>1162</ele>
      </trkpt>
      <trkpt lat="-39.20105092504291" lon="175.548102231547">
        <ele>1163</ele>
      </trkpt>
      <trkpt lat="-39.20113389280946" lon="175.548145145909">
        <ele>1164</ele>
      </trkpt>
      <trkpt lat="-39.20123784093077" lon="175.548179477398">
        <ele>1164</ele>
      </trkpt>
      <trkpt lat="-39.20131604043487" lon="175.548178523746">
        <ele>1165</ele>
      </trkpt>
      <trkpt lat="-39.20142857142857" lon="175.548152775129">
        <ele>1167</ele>
      </trkpt>
      <trkpt lat="-39.20150581728019" lon="175.548147053214">
        <ele>1168</ele>
      </trkpt>
      <trkpt lat="-39.20153347320237" lon="175.548156589739">
        <ele>1168</ele>
      </trkpt>
      <trkpt lat="-39.2015649437345" lon="175.548184245661">
        <ele>1168</ele>
      </trkpt>
      <trkpt lat="-39.20162788479878" lon="175.54824909403">
        <ele>1168</ele>
      </trkpt>
      <trkpt lat="-39.20164028228114" lon="175.548272935342">
        <ele>1168</ele>
      </trkpt>
      <trkpt lat="-39.20164886515354" lon="175.548308220484">
        <ele>1167</ele>
      </trkpt>
      <trkpt lat="-39.20163932862865" lon="175.548347320237">
        <ele>1167</ele>
      </trkpt>
      <trkpt lat="-39.20156303642953" lon="175.548410261301">
        <ele>1167</ele>
      </trkpt>
      <trkpt lat="-39.20149628075529" lon="175.548426473393">
        <ele>1166</ele>
      </trkpt>
      <trkpt lat="-39.20142857142857" lon="175.548443639138">
        <ele>1166</ele>
      </trkpt>
      <trkpt lat="-39.20135800114438" lon="175.548488460805">
        <ele>1165</ele>
      </trkpt>
      <trkpt lat="-39.20128647720771" lon="175.548533282472">
        <ele>1165</ele>
      </trkpt>
      <trkpt lat="-39.20122162883845" lon="175.548587640664">
        <ele>1165</ele>
      </trkpt>
      <trkpt lat="-39.20115964142666" lon="175.548629601373">
        <ele>1164</ele>
      </trkpt>
      <trkpt lat="-39.2010957467099" lon="175.548688727828">
        <ele>1164</ele>
      </trkpt>
      <trkpt lat="-39.20103185199314" lon="175.548748807934">
        <ele>1164</ele>
      </trkpt>
      <trkpt lat="-39.20097940110624" lon="175.548772649247">
        <ele>1163</ele>
      </trkpt>
      <trkpt lat="-39.20091646004196" lon="175.548816517261">
        <ele>1163</ele>
      </trkpt>
      <trkpt lat="-39.20080106809079" lon="175.548879458325">
        <ele>1162</ele>
      </trkpt>
      <trkpt lat="-39.20068090787717" lon="175.54891569712">
        <ele>1161</ele>
      </trkpt>
      <trkpt lat="-39.20060366202556" lon="175.548951935915">
        <ele>1160</ele>
      </trkpt>
      <trkpt lat="-39.20055979401106" lon="175.548983406447">
        <ele>1160</ele>
      </trkpt>
      <trkpt lat="-39.20049876025176" lon="175.549041579249">
        <ele>1159</ele>
      </trkpt>
      <trkpt lat="-39.2004434484074" lon="175.549120732405">
        <ele>1159</ele>
      </trkpt>
      <trkpt lat="-39.20038813656303" lon="175.549200839214">
        <ele>1159</ele>
      </trkpt>
      <trkpt lat="-39.20034999046348" lon="175.549280946023">
        <ele>1159</ele>
      </trkpt>
      <trkpt lat="-39.20033091741369" lon="175.549365821095">
        <ele>1158</ele>
      </trkpt>
      <trkpt lat="-39.20032042723631" lon="175.549449742514">
        <ele>1158</ele>
      </trkpt>
      <trkpt lat="-39.20033759298112" lon="175.549722487126">
        <ele>1159</ele>
      </trkpt>
      <trkpt lat="-39.20039767308793" lon="175.550041007057">
        <ele>1160</ele>
      </trkpt>
      <trkpt lat="-39.2004091169178" lon="175.550134465001">
        <ele>1160</ele>
      </trkpt>
      <trkpt lat="-39.20041960709518" lon="175.550228876597">
        <ele>1160</ele>
      </trkpt>
      <trkpt lat="-39.20045012397483" lon="175.550341407591">
        <ele>1161</ele>
      </trkpt>
      <trkpt lat="-39.20047968720198" lon="175.550454892237">
        <ele>1161</ele>
      </trkpt>
      <trkpt lat="-39.20049780659927" lon="175.550565515926">
        <ele>1162</ele>
      </trkpt>
      <trkpt lat="-39.20051497234408" lon="175.550676139615">
        <ele>1162</ele>
      </trkpt>
      <trkpt lat="-39.20053690635132" lon="175.550738127027">
        <ele>1162</ele>
      </trkpt>
      <trkpt lat="-39.20063131794774" lon="175.551248331108">
        <ele>1164</ele>
      </trkpt>
      <trkpt lat="-39.20071905397673" lon="175.551633606714">
        <ele>1165</ele>
      </trkpt>
      <trkpt lat="-39.20072572954415" lon="175.551686057601">
        <ele>1165</ele>
      </trkpt>
      <trkpt lat="-39.20075243181385" lon="175.551749952317">
        <ele>1166</ele>
      </trkpt>
      <trkpt lat="-39.20077913408354" lon="175.551814800687">
        <ele>1166</ele>
      </trkpt>
      <trkpt lat="-39.20078485599848" lon="175.551843410261">
        <ele>1166</ele>
      </trkpt>
      <trkpt lat="-39.20078008773603" lon="175.551891092886">
        <ele>1166</ele>
      </trkpt>
      <trkpt lat="-39.20078676330346" lon="175.551926378028">
        <ele>1166</ele>
      </trkpt>
      <trkpt lat="-39.20081060461568" lon="175.552016021362">
        <ele>1166</ele>
      </trkpt>
      <trkpt lat="-39.2008344459279" lon="175.552105664696">
        <ele>1166</ele>
      </trkpt>
      <trkpt lat="-39.20093171848178" lon="175.55242132367">
        <ele>1168</ele>
      </trkpt>
      <trkpt lat="-39.20119301926378" lon="175.553021171085">
        <ele>1171</ele>
      </trkpt>
      <trkpt lat="-39.20122067518597" lon="175.553100324242">
        <ele>1171</ele>
      </trkpt>
      <trkpt lat="-39.20126549685295" lon="175.553190921228">
        <ele>1171</ele>
      </trkpt>
      <trkpt lat="-39.20130936486744" lon="175.553281518215">
        <ele>1171</ele>
      </trkpt>
      <trkpt lat="-39.20152870493992" lon="175.553914743467">
        <ele>1173</ele>
      </trkpt>
      <trkpt lat="-39.20156017547206" lon="175.554026320809">
        <ele>1173</ele>
      </trkpt>
      <trkpt lat="-39.2015916460042" lon="175.554138851802">
        <ele>1173</ele>
      </trkpt>
      <trkpt lat="-39.20171180621782" lon="175.554480259394">
        <ele>1176</ele>
      </trkpt>
      <trkpt lat="-39.20175090596987" lon="175.55454415411">
        <ele>1177</ele>
      </trkpt>
      <trkpt lat="-39.20176139614725" lon="175.554595651345">
        <ele>1178</ele>
      </trkpt>
      <trkpt lat="-39.20175185962236" lon="175.554698645813">
        <ele>1178</ele>
      </trkpt>
      <trkpt lat="-39.20174136944497" lon="175.554801640282">
        <ele>1178</ele>
      </trkpt>
      <trkpt lat="-39.20176330345222" lon="175.554919893191">
        <ele>1178</ele>
      </trkpt>
      <trkpt lat="-39.20178333015449" lon="175.554990463475">
        <ele>1179</ele>
      </trkpt>
      <trkpt lat="-39.20180717146672" lon="175.555046728972">
        <ele>1180</ele>
      </trkpt>
      <trkpt lat="-39.20184722487126" lon="175.555110623689">
        <ele>1181</ele>
      </trkpt>
      <trkpt lat="-39.2018872782758" lon="175.555147816136">
        <ele>1181</ele>
      </trkpt>
      <trkpt lat="-39.20195403395003" lon="175.55519168415">
        <ele>1183</ele>
      </trkpt>
      <trkpt lat="-39.20200553118444" lon="175.555215525463">
        <ele>1183</ele>
      </trkpt>
      <trkpt lat="-39.20207514781614" lon="175.555278466527">
        <ele>1185</ele>
      </trkpt>
      <trkpt lat="-39.20214381079535" lon="175.555341407591">
        <ele>1185</ele>
      </trkpt>
      <trkpt lat="-39.20220675185962" lon="175.555379553691">
        <ele>1186</ele>
      </trkpt>
      <trkpt lat="-39.2022696929239" lon="175.555418653443">
        <ele>1187</ele>
      </trkpt>
      <trkpt lat="-39.20235933625787" lon="175.555480640854">
        <ele>1188</ele>
      </trkpt>
      <trkpt lat="-39.20244802593935" lon="175.555543581919">
        <ele>1189</ele>
      </trkpt>
      <trkpt lat="-39.20255769597559" lon="175.555629410643">
        <ele>1190</ele>
      </trkpt>
      <trkpt lat="-39.20266641235933" lon="175.555715239367">
        <ele>1191</ele>
      </trkpt>
      <trkpt lat="-39.20275033377837" lon="175.555768643906">
        <ele>1193</ele>
      </trkpt>
      <trkpt lat="-39.2027570093458" lon="175.555787716956">
        <ele>1193</ele>
      </trkpt>
      <trkpt lat="-39.20272267785619" lon="175.555878313942">
        <ele>1192</ele>
      </trkpt>
      <trkpt lat="-39.20268834636659" lon="175.555969864581">
        <ele>1192</ele>
      </trkpt>
      <trkpt lat="-39.20267118062178" lon="175.555983215716">
        <ele>1191</ele>
      </trkpt>
      <trkpt lat="-39.20259488842266" lon="175.555982262064">
        <ele>1190</ele>
      </trkpt>
      <trkpt lat="-39.20251764257105" lon="175.555982262064">
        <ele>1188</ele>
      </trkpt>
      <trkpt lat="-39.20242323097463" lon="175.555965096319">
        <ele>1187</ele>
      </trkpt>
      <trkpt lat="-39.20237554835018" lon="175.555976540149">
        <ele>1187</ele>
      </trkpt>
      <trkpt lat="-39.20225634178905" lon="175.555982262064">
        <ele>1186</ele>
      </trkpt>
      <trkpt lat="-39.20213713522792" lon="175.555988937631">
        <ele>1185</ele>
      </trkpt>
      <trkpt lat="-39.20207896242609" lon="175.556008010681">
        <ele>1185</ele>
      </trkpt>
      <trkpt lat="-39.20203318710662" lon="175.556035666603">
        <ele>1185</ele>
      </trkpt>
      <trkpt lat="-39.20195021934008" lon="175.556155826817">
        <ele>1185</ele>
      </trkpt>
      <trkpt lat="-39.20189395384322" lon="175.556223536143">
        <ele>1185</ele>
      </trkpt>
      <trkpt lat="-39.20186534426855" lon="175.556332252527">
        <ele>1186</ele>
      </trkpt>
      <trkpt lat="-39.20185008582872" lon="175.556418081251">
        <ele>1186</ele>
      </trkpt>
      <trkpt lat="-39.2018519931337" lon="175.55650200267">
        <ele>1187</ele>
      </trkpt>
      <trkpt lat="-39.20185294678619" lon="175.556585924089">
        <ele>1188</ele>
      </trkpt>
      <trkpt lat="-39.20183387373641" lon="175.556677474728">
        <ele>1188</ele>
      </trkpt>
      <trkpt lat="-39.20183387373641" lon="175.55671275987">
        <ele>1188</ele>
      </trkpt>
      <trkpt lat="-39.20184627121877" lon="175.55675853519">
        <ele>1189</ele>
      </trkpt>
      <trkpt lat="-39.20185580774366" lon="175.556832920084">
        <ele>1189</ele>
      </trkpt>
      <trkpt lat="-39.20186534426855" lon="175.556907304978">
        <ele>1189</ele>
      </trkpt>
      <trkpt lat="-39.20195308029754" lon="175.557233454129">
        <ele>1192</ele>
      </trkpt>
      <trkpt lat="-39.20199027274461" lon="175.557325958421">
        <ele>1193</ele>
      </trkpt>
      <trkpt lat="-39.20200839214191" lon="175.557392714095">
        <ele>1193</ele>
      </trkpt>
      <trkpt lat="-39.20202555788671" lon="175.557459469769">
        <ele>1194</ele>
      </trkpt>
      <trkpt lat="-39.20203318710662" lon="175.55757486172">
        <ele>1194</ele>
      </trkpt>
      <trkpt lat="-39.20204653824147" lon="175.557629219912">
        <ele>1195</ele>
      </trkpt>
      <trkpt lat="-39.20202937249666" lon="175.557740797254">
        <ele>1195</ele>
      </trkpt>
      <trkpt lat="-39.20201125309937" lon="175.557852374595">
        <ele>1195</ele>
      </trkpt>
      <trkpt lat="-39.20201220675186" lon="175.557878123212">
        <ele>1195</ele>
      </trkpt>
      <trkpt lat="-39.20202746519168" lon="175.557917222964">
        <ele>1195</ele>
      </trkpt>
      <trkpt lat="-39.20205035285142" lon="175.557946786191">
        <ele>1196</ele>
      </trkpt>
      <trkpt lat="-39.20206465763876" lon="175.557995422468">
        <ele>1196</ele>
      </trkpt>
      <trkpt lat="-39.20210757200076" lon="175.558064085447">
        <ele>1197</ele>
      </trkpt>
      <trkpt lat="-39.20214953271028" lon="175.558132748426">
        <ele>1198</ele>
      </trkpt>
      <trkpt lat="-39.20220102994469" lon="175.558204272363">
        <ele>1199</ele>
      </trkpt>
      <trkpt lat="-39.20221819568949" lon="175.558242418463">
        <ele>1200</ele>
      </trkpt>
      <trkpt lat="-39.20224012969674" lon="175.558274842647">
        <ele>1200</ele>
      </trkpt>
      <trkpt lat="-39.20228399771123" lon="175.558314896052">
        <ele>1201</ele>
      </trkpt>
      <trkpt lat="-39.20231546824337" lon="175.558353042151">
        <ele>1202</ele>
      </trkpt>
      <trkpt lat="-39.2023564753004" lon="175.558415983216">
        <ele>1203</ele>
      </trkpt>
      <trkpt lat="-39.20239748235743" lon="175.558479877932">
        <ele>1204</ele>
      </trkpt>
      <trkpt lat="-39.20242227732214" lon="175.558532328819">
        <ele>1204</ele>
      </trkpt>
      <trkpt lat="-39.20243181384703" lon="175.558609574671">
        <ele>1205</ele>
      </trkpt>
      <trkpt lat="-39.20244039671944" lon="175.558687774175">
        <ele>1205</ele>
      </trkpt>
      <trkpt lat="-39.20240415792485" lon="175.558751668892">
        <ele>1205</ele>
      </trkpt>
      <trkpt lat="-39.20238127026511" lon="175.558766927332">
        <ele>1205</ele>
      </trkpt>
      <trkpt lat="-39.20235742895289" lon="175.558766927332">
        <ele>1205</ele>
      </trkpt>
      <trkpt lat="-39.20225824909403" lon="175.55869349609">
        <ele>1203</ele>
      </trkpt>
      <trkpt lat="-39.20222201029945" lon="175.558692542438">
        <ele>1203</ele>
      </trkpt>
      <trkpt lat="-39.20218100324242" lon="175.558705893572">
        <ele>1202</ele>
      </trkpt>
      <trkpt lat="-39.20212759870304" lon="175.558758344459">
        <ele>1202</ele>
      </trkpt>
      <trkpt lat="-39.20207228685867" lon="175.558800305169">
        <ele>1201</ele>
      </trkpt>
      <trkpt lat="-39.20205798207133" lon="175.558844173183">
        <ele>1201</ele>
      </trkpt>
      <trkpt lat="-39.20204558458898" lon="175.558936677475">
        <ele>1202</ele>
      </trkpt>
      <trkpt lat="-39.20202269692924" lon="175.559004386801">
        <ele>1202</ele>
      </trkpt>
      <trkpt lat="-39.20199885561701" lon="175.559072096128">
        <ele>1202</ele>
      </trkpt>
      <trkpt lat="-39.20199122639711" lon="175.559133129887">
        <ele>1203</ele>
      </trkpt>
      <trkpt lat="-39.20197215334732" lon="175.559206561129">
        <ele>1203</ele>
      </trkpt>
      <trkpt lat="-39.20195308029754" lon="175.559279992371">
        <ele>1203</ele>
      </trkpt>
      <trkpt lat="-39.20195975586496" lon="175.559347701698">
        <ele>1204</ele>
      </trkpt>
      <trkpt lat="-39.20198455082968" lon="175.559444974251">
        <ele>1205</ele>
      </trkpt>
      <trkpt lat="-39.20200839214191" lon="175.559542246805">
        <ele>1207</ele>
      </trkpt>
      <trkpt lat="-39.20202555788671" lon="175.559577531947">
        <ele>1207</ele>
      </trkpt>
      <trkpt lat="-39.20203986267404" lon="175.559696738509">
        <ele>1208</ele>
      </trkpt>
      <trkpt lat="-39.20204081632653" lon="175.559779706275">
        <ele>1209</ele>
      </trkpt>
      <trkpt lat="-39.20203414075911" lon="175.559826435247">
        <ele>1209</ele>
      </trkpt>
      <trkpt lat="-39.20201506770933" lon="175.559864581347">
        <ele>1210</ele>
      </trkpt>
      <trkpt lat="-39.20196261682243" lon="175.559881747091">
        <ele>1209</ele>
      </trkpt>
      <trkpt lat="-39.20193209994278" lon="175.559829296204">
        <ele>1208</ele>
      </trkpt>
      <trkpt lat="-39.20184245660882" lon="175.559780659928">
        <ele>1207</ele>
      </trkpt>
      <trkpt lat="-39.20175281327484" lon="175.559732023651">
        <ele>1206</ele>
      </trkpt>
      <trkpt lat="-39.20145718100324" lon="175.559741560175">
        <ele>1206</ele>
      </trkpt>
      <trkpt lat="-39.20138851802403" lon="175.559733930956">
        <ele>1206</ele>
      </trkpt>
      <trkpt lat="-39.20131985504482" lon="175.559726301736">
        <ele>1206</ele>
      </trkpt>
      <trkpt lat="-39.20122735075338" lon="175.559627121877">
        <ele>1205</ele>
      </trkpt>
      <trkpt lat="-39.2010957467099" lon="175.559376311272">
        <ele>1204</ele>
      </trkpt>
      <trkpt lat="-39.20101850085829" lon="175.559285714286">
        <ele>1203</ele>
      </trkpt>
      <trkpt lat="-39.20096986458135" lon="175.55932576769">
        <ele>1204</ele>
      </trkpt>
      <trkpt lat="-39.20090310890711" lon="175.559416364677">
        <ele>1205</ele>
      </trkpt>
      <trkpt lat="-39.2008783139424" lon="175.559488842266">
        <ele>1206</ele>
      </trkpt>
      <trkpt lat="-39.20082586305551" lon="175.559818806027">
        <ele>1209</ele>
      </trkpt>
      <trkpt lat="-39.20081632653061" lon="175.559909403014">
        <ele>1209</ele>
      </trkpt>
      <trkpt lat="-39.20080583635323" lon="175.56">
        <ele>1210</ele>
      </trkpt>
      <trkpt lat="-39.20080583635323" lon="175.56">
        <ele>1210</ele>
      </trkpt>
      <trkpt lat="-39.20079820713332" lon="175.560073431242">
        <ele>1210</ele>
      </trkpt>
      <trkpt lat="-39.20078962426092" lon="175.560147816136">
        <ele>1210</ele>
      </trkpt>
      <trkpt lat="-39.20081823383559" lon="175.56024508869">
        <ele>1210</ele>
      </trkpt>
      <trkpt lat="-39.20084684341026" lon="175.560343314896">
        <ele>1210</ele>
      </trkpt>
      <trkpt lat="-39.2008525653252" lon="175.56041007057">
        <ele>1210</ele>
      </trkpt>
      <trkpt lat="-39.20085828724013" lon="175.560477779897">
        <ele>1211</ele>
      </trkpt>
      <trkpt lat="-39.20082967766546" lon="175.560563608621">
        <ele>1210</ele>
      </trkpt>
      <trkpt lat="-39.20081632653061" lon="175.56063990082">
        <ele>1211</ele>
      </trkpt>
      <trkpt lat="-39.20074957085638" lon="175.560700934579">
        <ele>1211</ele>
      </trkpt>
      <trkpt lat="-39.20073526606905" lon="175.560779134084">
        <ele>1211</ele>
      </trkpt>
      <trkpt lat="-39.20068186152966" lon="175.56085065802">
        <ele>1211</ele>
      </trkpt>
      <trkpt lat="-39.20057886706084" lon="175.560816326531">
        <ele>1211</ele>
      </trkpt>
      <trkpt lat="-39.2005216479115" lon="175.560745756246">
        <ele>1211</ele>
      </trkpt>
      <trkpt lat="-39.20049494564181" lon="175.560690444402">
        <ele>1211</ele>
      </trkpt>
      <trkpt lat="-39.20044249475491" lon="175.560699980927">
        <ele>1212</ele>
      </trkpt>
      <trkpt lat="-39.20037955369064" lon="175.560782948693">
        <ele>1212</ele>
      </trkpt>
      <trkpt lat="-39.2" lon="175.561182529086">
        <ele>1216</ele>
      </trkpt>
      <trkpt lat="-39.2" lon="175.561182529086">
        <ele>1216</ele>
      </trkpt>
      <trkpt lat="-39.19962902918176" lon="175.561571619302">
        <ele>1218</ele>
      </trkpt>
      <trkpt lat="-39.1989385847797" lon="175.562370780088">
        <ele>1220</ele>
      </trkpt>
      <trkpt lat="-39.19831203509441" lon="175.563043105093">
        <ele>1216</ele>
      </trkpt>
      <trkpt lat="-39.19820331871066" lon="175.563128933817">
        <ele>1215</ele>
      </trkpt>
      <trkpt lat="-39.19809364867442" lon="175.563214762541">
        <ele>1214</ele>
      </trkpt>
      <trkpt lat="-39.197782757963" lon="175.563366393286">
        <ele>1211</ele>
      </trkpt>
      <trkpt lat="-39.19788479877932" lon="175.564040625596">
        <ele>1207</ele>
      </trkpt>
      <trkpt lat="-39.19788765973679" lon="175.564109288575">
        <ele>1206</ele>
      </trkpt>
      <trkpt lat="-39.19789052069426" lon="175.564177951554">
        <ele>1206</ele>
      </trkpt>
      <trkpt lat="-39.19790673278657" lon="175.564255197406">
        <ele>1206</ele>
      </trkpt>
      <trkpt lat="-39.19790291817662" lon="175.564376311272">
        <ele>1206</ele>
      </trkpt>
      <trkpt lat="-39.19789910356666" lon="175.564497425138">
        <ele>1207</ele>
      </trkpt>
      <trkpt lat="-39.19786191111959" lon="175.564575624642">
        <ele>1206</ele>
      </trkpt>
      <trkpt lat="-39.19782376502003" lon="175.564654777799">
        <ele>1206</ele>
      </trkpt>
      <trkpt lat="-39.19779897005531" lon="175.564691970246">
        <ele>1205</ele>
      </trkpt>
      <trkpt lat="-39.19781041388518" lon="175.56479687202">
        <ele>1206</ele>
      </trkpt>
      <trkpt lat="-39.19783425519741" lon="175.564866488652">
        <ele>1206</ele>
      </trkpt>
      <trkpt lat="-39.19785714285714" lon="175.564936105283">
        <ele>1206</ele>
      </trkpt>
      <trkpt lat="-39.19787526225443" lon="175.565024794965">
        <ele>1207</ele>
      </trkpt>
      <trkpt lat="-39.19789338165172" lon="175.565114438299">
        <ele>1208</ele>
      </trkpt>
      <trkpt lat="-39.19790196452413" lon="175.565217432767">
        <ele>1209</ele>
      </trkpt>
      <trkpt lat="-39.19786763303452" lon="175.565288956704">
        <ele>1209</ele>
      </trkpt>
      <trkpt lat="-39.19783616250238" lon="175.565315658974">
        <ele>1209</ele>
      </trkpt>
      <trkpt lat="-39.19781041388518" lon="175.565382414648">
        <ele>1209</ele>
      </trkpt>
      <trkpt lat="-39.19778371161549" lon="175.565490177379">
        <ele>1210</ele>
      </trkpt>
      <trkpt lat="-39.19779134083539" lon="175.565584588976">
        <ele>1211</ele>
      </trkpt>
      <trkpt lat="-39.19779897005531" lon="175.565679000572">
        <ele>1212</ele>
      </trkpt>
      <trkpt lat="-39.19771600228876" lon="175.565688537097">
        <ele>1211</ele>
      </trkpt>
      <trkpt lat="-39.19767690253671" lon="175.56567804692">
        <ele>1210</ele>
      </trkpt>
      <trkpt lat="-39.19766641235933" lon="175.56565134465">
        <ele>1210</ele>
      </trkpt>
      <trkpt lat="-39.19767499523174" lon="175.565625596033">
        <ele>1210</ele>
      </trkpt>
      <trkpt lat="-39.19765782948694" lon="175.565607476636">
        <ele>1210</ele>
      </trkpt>
      <trkpt lat="-39.19768167079916" lon="175.565590310891">
        <ele>1210</ele>
      </trkpt>
      <trkpt lat="-39.19769597558649" lon="175.565556933054">
        <ele>1210</ele>
      </trkpt>
      <trkpt lat="-39.19769120732405" lon="175.565520694259">
        <ele>1209</ele>
      </trkpt>
      <trkpt lat="-39.19770360480641" lon="175.565500667557">
        <ele>1209</ele>
      </trkpt>
      <trkpt lat="-39.19770074384894" lon="175.565470150677">
        <ele>1209</ele>
      </trkpt>
      <trkpt lat="-39.19764924661453" lon="175.56541007057">
        <ele>1208</ele>
      </trkpt>
      <trkpt lat="-39.19756913980545" lon="175.565371924471">
        <ele>1207</ele>
      </trkpt>
      <trkpt lat="-39.19751764257104" lon="175.565366202556">
        <ele>1206</ele>
      </trkpt>
      <trkpt lat="-39.19747472820904" lon="175.565338546634">
        <ele>1205</ele>
      </trkpt>
      <trkpt lat="-39.19745565515926" lon="175.565272744612">
        <ele>1205</ele>
      </trkpt>
      <trkpt lat="-39.19739557505245" lon="175.565169750143">
        <ele>1203</ele>
      </trkpt>
      <trkpt lat="-39.19732691207324" lon="175.565090596986">
        <ele>1202</ele>
      </trkpt>
      <trkpt lat="-39.19730688537097" lon="175.565049589929">
        <ele>1201</ele>
      </trkpt>
      <trkpt lat="-39.19731928285333" lon="175.565006675567">
        <ele>1201</ele>
      </trkpt>
      <trkpt lat="-39.19727160022887" lon="175.564950410071">
        <ele>1200</ele>
      </trkpt>
      <trkpt lat="-39.19725824909403" lon="175.564888422659">
        <ele>1199</ele>
      </trkpt>
      <trkpt lat="-39.19726587831394" lon="175.564857905779">
        <ele>1199</ele>
      </trkpt>
      <trkpt lat="-39.19730116345603" lon="175.564818806027">
        <ele>1199</ele>
      </trkpt>
      <trkpt lat="-39.1973126072859" lon="175.564732977303">
        <ele>1199</ele>
      </trkpt>
      <trkpt lat="-39.19732405111577" lon="175.564647148579">
        <ele>1199</ele>
      </trkpt>
      <trkpt lat="-39.19727541483883" lon="175.56459374404">
        <ele>1198</ele>
      </trkpt>
      <trkpt lat="-39.19719053976731" lon="175.564482166698">
        <ele>1196</ele>
      </trkpt>
      <trkpt lat="-39.19714953271028" lon="175.564412550067">
        <ele>1195</ele>
      </trkpt>
      <trkpt lat="-39.19710757200076" lon="175.564343887088">
        <ele>1194</ele>
      </trkpt>
      <trkpt lat="-39.19707228685866" lon="175.564255197406">
        <ele>1193</ele>
      </trkpt>
      <trkpt lat="-39.19703604806408" lon="175.564167461377">
        <ele>1192</ele>
      </trkpt>
      <trkpt lat="-39.19693114629029" lon="175.564055884036">
        <ele>1190</ele>
      </trkpt>
      <trkpt lat="-39.19687964905588" lon="175.563940492085">
        <ele>1190</ele>
      </trkpt>
      <trkpt lat="-39.19681480068662" lon="175.56390425329">
        <ele>1189</ele>
      </trkpt>
      <trkpt lat="-39.1967470913599" lon="175.563822239176">
        <ele>1188</ele>
      </trkpt>
      <trkpt lat="-39.1966870112531" lon="175.563826053786">
        <ele>1187</ele>
      </trkpt>
      <trkpt lat="-39.19660308983406" lon="175.563745946977">
        <ele>1187</ele>
      </trkpt>
      <trkpt lat="-39.19654968529468" lon="175.56367442304">
        <ele>1186</ele>
      </trkpt>
      <trkpt lat="-39.19646099561319" lon="175.563600991799">
        <ele>1186</ele>
      </trkpt>
      <trkpt lat="-39.19634178905207" lon="175.563530421514">
        <ele>1185</ele>
      </trkpt>
      <trkpt lat="-39.19628933816517" lon="175.563519931337">
        <ele>1184</ele>
      </trkpt>
      <trkpt lat="-39.19622353614343" lon="175.563434102613">
        <ele>1183</ele>
      </trkpt>
      <trkpt lat="-39.19612530993706" lon="175.563391188251">
        <ele>1182</ele>
      </trkpt>
      <trkpt lat="-39.196043295823" lon="175.563327293534">
        <ele>1181</ele>
      </trkpt>
      <trkpt lat="-39.19597081823383" lon="175.56329105474">
        <ele>1180</ele>
      </trkpt>
      <trkpt lat="-39.19589834064467" lon="175.563254815945">
        <ele>1180</ele>
      </trkpt>
      <trkpt lat="-39.19585542628266" lon="175.563212855236">
        <ele>1179</ele>
      </trkpt>
      <trkpt lat="-39.19581537287812" lon="175.563188060271">
        <ele>1179</ele>
      </trkpt>
      <trkpt lat="-39.19575529277131" lon="175.563116536334">
        <ele>1179</ele>
      </trkpt>
      <trkpt lat="-39.19569425901201" lon="175.563045012397">
        <ele>1179</ele>
      </trkpt>
      <trkpt lat="-39.19565134465001" lon="175.562976349418">
        <ele>1179</ele>
      </trkpt>
      <trkpt lat="-39.19560747663551" lon="175.562907686439">
        <ele>1179</ele>
      </trkpt>
      <trkpt lat="-39.19554167461377" lon="175.562880030517">
        <ele>1178</ele>
      </trkpt>
      <trkpt lat="-39.19550352851421" lon="175.562759870303">
        <ele>1178</ele>
      </trkpt>
      <trkpt lat="-39.19547301163456" lon="175.562693114629">
        <ele>1178</ele>
      </trkpt>
      <trkpt lat="-39.19543105092504" lon="175.562649246615">
        <ele>1178</ele>
      </trkpt>
      <trkpt lat="-39.19540339500286" lon="175.562600610338">
        <ele>1177</ele>
      </trkpt>
      <trkpt lat="-39.19531947358382" lon="175.562516688919">
        <ele>1176</ele>
      </trkpt>
      <trkpt lat="-39.19529944688156" lon="175.562487125691">
        <ele>1176</ele>
      </trkpt>
      <trkpt lat="-39.1952603471295" lon="175.562396528705">
        <ele>1176</ele>
      </trkpt>
      <trkpt lat="-39.19523269120732" lon="175.56237554835">
        <ele>1176</ele>
      </trkpt>
      <trkpt lat="-39.19514114056837" lon="175.56238317757">
        <ele>1175</ele>
      </trkpt>
      <trkpt lat="-39.19502765592218" lon="175.56236028991">
        <ele>1174</ele>
      </trkpt>
      <trkpt lat="-39.19492847606332" lon="175.562316421896">
        <ele>1173</ele>
      </trkpt>
      <trkpt lat="-39.19484741560175" lon="175.562286858669">
        <ele>1173</ele>
      </trkpt>
      <trkpt lat="-39.19476540148769" lon="175.562258249094">
        <ele>1173</ele>
      </trkpt>
      <trkpt lat="-39.19468910928857" lon="175.562220102994">
        <ele>1172</ele>
      </trkpt>
      <trkpt lat="-39.19461281708945" lon="175.562163837498">
        <ele>1172</ele>
      </trkpt>
      <trkpt lat="-39.19453557123784" lon="175.562054167461">
        <ele>1171</ele>
      </trkpt>
      <trkpt lat="-39.19448788861339" lon="175.56195403395">
        <ele>1170</ele>
      </trkpt>
      <trkpt lat="-39.19442494754911" lon="175.561868205226">
        <ele>1169</ele>
      </trkpt>
      <trkpt lat="-39.19438394049208" lon="175.561791913027">
        <ele>1168</ele>
      </trkpt>
      <trkpt lat="-39.19434293343505" lon="175.561715620828">
        <ele>1167</ele>
      </trkpt>
      <trkpt lat="-39.19430955559794" lon="175.561604043487">
        <ele>1167</ele>
      </trkpt>
      <trkpt lat="-39.19430764829296" lon="175.561530612245">
        <ele>1167</ele>
      </trkpt>
      <trkpt lat="-39.19430478733549" lon="175.561458134656">
        <ele>1167</ele>
      </trkpt>
      <trkpt lat="-39.19425519740606" lon="175.561210185009">
        <ele>1167</ele>
      </trkpt>
      <trkpt lat="-39.19431718481785" lon="175.561137707419">
        <ele>1168</ele>
      </trkpt>
      <trkpt lat="-39.19436200648484" lon="175.561101468625">
        <ele>1169</ele>
      </trkpt>
      <trkpt lat="-39.19435342361243" lon="175.561035666603">
        <ele>1169</ele>
      </trkpt>
      <trkpt lat="-39.19434388708754" lon="175.560969864581">
        <ele>1169</ele>
      </trkpt>
      <trkpt lat="-39.19429143620064" lon="175.56090406256">
        <ele>1169</ele>
      </trkpt>
      <trkpt lat="-39.19423898531375" lon="175.56083921419">
        <ele>1168</ele>
      </trkpt>
      <trkpt lat="-39.19414075910738" lon="175.560763875644">
        <ele>1166</ele>
      </trkpt>
      <trkpt lat="-39.19406351325577" lon="175.560746709899">
        <ele>1165</ele>
      </trkpt>
      <trkpt lat="-39.19400343314896" lon="175.560706656494">
        <ele>1164</ele>
      </trkpt>
      <trkpt lat="-39.193956704177" lon="175.56061701316">
        <ele>1164</ele>
      </trkpt>
      <trkpt lat="-39.19387564371543" lon="175.560534045394">
        <ele>1162</ele>
      </trkpt>
      <trkpt lat="-39.19379362960137" lon="175.560470150677">
        <ele>1161</ele>
      </trkpt>
      <trkpt lat="-39.19371161548732" lon="175.560420560748">
        <ele>1159</ele>
      </trkpt>
      <trkpt lat="-39.19364295250811" lon="175.56039481213">
        <ele>1158</ele>
      </trkpt>
      <trkpt lat="-39.19363532328819" lon="175.560315658974">
        <ele>1158</ele>
      </trkpt>
      <trkpt lat="-39.19356093839405" lon="175.560253671562">
        <ele>1156</ele>
      </trkpt>
      <trkpt lat="-39.19351516307457" lon="175.560144955178">
        <ele>1155</ele>
      </trkpt>
      <trkpt lat="-39.19352756055693" lon="175.560072477589">
        <ele>1155</ele>
      </trkpt>
      <trkpt lat="-39.1935390043868" lon="175.56">
        <ele>1156</ele>
      </trkpt>
      <trkpt lat="-39.1935390043868" lon="175.56">
        <ele>1156</ele>
      </trkpt>
      <trkpt lat="-39.19354663360671" lon="175.559897005531">
        <ele>1156</ele>
      </trkpt>
      <trkpt lat="-39.19354281899675" lon="175.55980068663">
        <ele>1157</ele>
      </trkpt>
      <trkpt lat="-39.19353614342933" lon="175.559738699218">
        <ele>1157</ele>
      </trkpt>
      <trkpt lat="-39.19352946786191" lon="175.559676711806">
        <ele>1157</ele>
      </trkpt>
      <trkpt lat="-39.19350848750715" lon="175.559616631699">
        <ele>1157</ele>
      </trkpt>
      <trkpt lat="-39.19345317566279" lon="175.559581346557">
        <ele>1156</ele>
      </trkpt>
      <trkpt lat="-39.19338165172611" lon="175.559471676521">
        <ele>1155</ele>
      </trkpt>
      <trkpt lat="-39.19331108144192" lon="175.559421132939">
        <ele>1154</ele>
      </trkpt>
      <trkpt lat="-39.19323478924279" lon="175.559335304215">
        <ele>1154</ele>
      </trkpt>
      <trkpt lat="-39.19322143810795" lon="175.559255197406">
        <ele>1154</ele>
      </trkpt>
      <trkpt lat="-39.19314800686629" lon="175.559192256342">
        <ele>1154</ele>
      </trkpt>
      <trkpt lat="-39.19306980736219" lon="175.55910738127">
        <ele>1153</ele>
      </trkpt>
      <trkpt lat="-39.1930516879649" lon="175.559043486554">
        <ele>1153</ele>
      </trkpt>
      <trkpt lat="-39.19303356856761" lon="175.558980545489">
        <ele>1153</ele>
      </trkpt>
      <trkpt lat="-39.19299351516307" lon="175.558913789815">
        <ele>1152</ele>
      </trkpt>
      <trkpt lat="-39.19299637612054" lon="175.558853709708">
        <ele>1152</ele>
      </trkpt>
      <trkpt lat="-39.19295060080107" lon="175.558744993324">
        <ele>1151</ele>
      </trkpt>
      <trkpt lat="-39.19293438870875" lon="175.558683005913">
        <ele>1151</ele>
      </trkpt>
      <trkpt lat="-39.19291817661644" lon="175.558621018501">
        <ele>1150</ele>
      </trkpt>
      <trkpt lat="-39.19291340835399" lon="175.558559031089">
        <ele>1150</ele>
      </trkpt>
      <trkpt lat="-39.19290864009155" lon="175.55849799733">
        <ele>1150</ele>
      </trkpt>
      <trkpt lat="-39.19288956704177" lon="175.558431241656">
        <ele>1149</ele>
      </trkpt>
      <trkpt lat="-39.19287049399199" lon="175.558365439634">
        <ele>1148</ele>
      </trkpt>
      <trkpt lat="-39.1928781232119" lon="175.55825672325">
        <ele>1148</ele>
      </trkpt>
      <trkpt lat="-39.19288479877932" lon="175.558148006866">
        <ele>1148</ele>
      </trkpt>
      <trkpt lat="-39.19286477207705" lon="175.558048827007">
        <ele>1147</ele>
      </trkpt>
      <trkpt lat="-39.19287430860194" lon="175.557984932291">
        <ele>1147</ele>
      </trkpt>
      <trkpt lat="-39.19288384512684" lon="175.557921037574">
        <ele>1147</ele>
      </trkpt>
      <trkpt lat="-39.1928695403395" lon="175.557859050162">
        <ele>1146</ele>
      </trkpt>
      <trkpt lat="-39.19285428189967" lon="175.557798016403">
        <ele>1146</ele>
      </trkpt>
      <trkpt lat="-39.19285332824718" lon="175.557732214381">
        <ele>1146</ele>
      </trkpt>
      <trkpt lat="-39.19282662597749" lon="175.557654014877">
        <ele>1145</ele>
      </trkpt>
      <trkpt lat="-39.192825672325" lon="175.557577722678">
        <ele>1144</ele>
      </trkpt>
      <trkpt lat="-39.19279038718291" lon="175.557477589167">
        <ele>1143</ele>
      </trkpt>
      <trkpt lat="-39.19280278466527" lon="175.55740225062">
        <ele>1144</ele>
      </trkpt>
      <trkpt lat="-39.19279229448789" lon="175.557299256151">
        <ele>1143</ele>
      </trkpt>
      <trkpt lat="-39.19276273126073" lon="175.557189586115">
        <ele>1143</ele>
      </trkpt>
      <trkpt lat="-39.19272363150868" lon="175.557173374023">
        <ele>1142</ele>
      </trkpt>
      <trkpt lat="-39.19271695594125" lon="175.557102803738">
        <ele>1142</ele>
      </trkpt>
      <trkpt lat="-39.19271028037383" lon="175.557033187107">
        <ele>1141</ele>
      </trkpt>
      <trkpt lat="-39.19265401487698" lon="175.556970246042">
        <ele>1140</ele>
      </trkpt>
      <trkpt lat="-39.19259488842265" lon="175.556866297921">
        <ele>1138</ele>
      </trkpt>
      <trkpt lat="-39.19253671562083" lon="175.556833873736">
        <ele>1136</ele>
      </trkpt>
      <trkpt lat="-39.19251096700362" lon="175.556769025367">
        <ele>1136</ele>
      </trkpt>
      <trkpt lat="-39.19248426473393" lon="175.556704176998">
        <ele>1135</ele>
      </trkpt>
      <trkpt lat="-39.1924346748045" lon="175.556639328629">
        <ele>1135</ele>
      </trkpt>
      <trkpt lat="-39.19240129696738" lon="175.556577341217">
        <ele>1135</ele>
      </trkpt>
      <trkpt lat="-39.19240701888231" lon="175.55650963189">
        <ele>1135</ele>
      </trkpt>
      <trkpt lat="-39.19221438107953" lon="175.556237840931">
        <ele>1135</ele>
      </trkpt>
      <trkpt lat="-39.19217718863246" lon="175.556139614724">
        <ele>1135</ele>
      </trkpt>
      <trkpt lat="-39.19213808888041" lon="175.55610337593">
        <ele>1135</ele>
      </trkpt>
      <trkpt lat="-39.19208945260347" lon="175.555996566851">
        <ele>1134</ele>
      </trkpt>
      <trkpt lat="-39.19210471104329" lon="175.555958420751">
        <ele>1134</ele>
      </trkpt>
      <trkpt lat="-39.19204939919893" lon="175.5558811749">
        <ele>1134</ele>
      </trkpt>
      <trkpt lat="-39.1920083921419" lon="175.555777226779">
        <ele>1133</ele>
      </trkpt>
      <trkpt lat="-39.19194259012016" lon="175.555658020217">
        <ele>1132</ele>
      </trkpt>
      <trkpt lat="-39.19190349036811" lon="175.555605569331">
        <ele>1132</ele>
      </trkpt>
      <trkpt lat="-39.19187964905588" lon="175.555530230784">
        <ele>1131</ele>
      </trkpt>
      <trkpt lat="-39.19185580774366" lon="175.55545584589">
        <ele>1130</ele>
      </trkpt>
      <trkpt lat="-39.19186439061605" lon="175.555373831776">
        <ele>1130</ele>
      </trkpt>
      <trkpt lat="-39.19184913217623" lon="175.555310890711">
        <ele>1130</ele>
      </trkpt>
      <trkpt lat="-39.19183387373641" lon="175.555247949647">
        <ele>1129</ele>
      </trkpt>
      <trkpt lat="-39.19184722487125" lon="175.55519931337">
        <ele>1129</ele>
      </trkpt>
      <trkpt lat="-39.1918777417509" lon="175.555168796491">
        <ele>1129</ele>
      </trkpt>
      <trkpt lat="-39.19191779515544" lon="175.555054358192">
        <ele>1129</ele>
      </trkpt>
      <trkpt lat="-39.1919731069998" lon="175.554941827198">
        <ele>1130</ele>
      </trkpt>
      <trkpt lat="-39.19202269692924" lon="175.554848369254">
        <ele>1131</ele>
      </trkpt>
      <trkpt lat="-39.19205893572382" lon="175.554797825672">
        <ele>1131</ele>
      </trkpt>
      <trkpt lat="-39.19209231356093" lon="175.554760633225">
        <ele>1131</ele>
      </trkpt>
      <trkpt lat="-39.19216955941255" lon="175.554764447835">
        <ele>1132</ele>
      </trkpt>
      <trkpt lat="-39.19214953271027" lon="175.554658592409">
        <ele>1132</ele>
      </trkpt>
      <trkpt lat="-39.19218863246233" lon="175.554644287622">
        <ele>1132</ele>
      </trkpt>
      <trkpt lat="-39.19217146671753" lon="175.554572763685">
        <ele>1132</ele>
      </trkpt>
      <trkpt lat="-39.19215334732024" lon="175.554501239748">
        <ele>1131</ele>
      </trkpt>
      <trkpt lat="-39.19210089643334" lon="175.554419225634">
        <ele>1131</ele>
      </trkpt>
      <trkpt lat="-39.19204844554644" lon="175.55433721152">
        <ele>1130</ele>
      </trkpt>
      <trkpt lat="-39.19199027274461" lon="175.554279992371">
        <ele>1130</ele>
      </trkpt>
      <trkpt lat="-39.19195975586496" lon="175.554190349037">
        <ele>1130</ele>
      </trkpt>
      <trkpt lat="-39.19192828533282" lon="175.554100705703">
        <ele>1129</ele>
      </trkpt>
      <trkpt lat="-39.1919216097654" lon="175.554032042724">
        <ele>1129</ele>
      </trkpt>
      <trkpt lat="-39.19191398054549" lon="175.553964333397">
        <ele>1129</ele>
      </trkpt>
      <trkpt lat="-39.19193686820523" lon="175.553863246233">
        <ele>1128</ele>
      </trkpt>
      <trkpt lat="-39.19192828533282" lon="175.553780278467">
        <ele>1128</ele>
      </trkpt>
      <trkpt lat="-39.19191970246042" lon="175.5536973107">
        <ele>1128</ele>
      </trkpt>
      <trkpt lat="-39.19192733168033" lon="175.553606713714">
        <ele>1127</ele>
      </trkpt>
      <trkpt lat="-39.19190921228304" lon="175.553521838642">
        <ele>1127</ele>
      </trkpt>
      <trkpt lat="-39.19189109288575" lon="175.553437917223">
        <ele>1127</ele>
      </trkpt>
      <trkpt lat="-39.19188155636086" lon="175.553358764066">
        <ele>1126</ele>
      </trkpt>
      <trkpt lat="-39.19188918558077" lon="175.55324146481">
        <ele>1126</ele>
      </trkpt>
      <trkpt lat="-39.1918958611482" lon="175.553124165554">
        <ele>1125</ele>
      </trkpt>
      <trkpt lat="-39.19191779515544" lon="175.553060270837">
        <ele>1125</ele>
      </trkpt>
      <trkpt lat="-39.19193972916269" lon="175.552996376121">
        <ele>1125</ele>
      </trkpt>
      <trkpt lat="-39.19194735838261" lon="175.552928666794">
        <ele>1124</ele>
      </trkpt>
      <trkpt lat="-39.19195498760251" lon="175.55286191112">
        <ele>1124</ele>
      </trkpt>
      <trkpt lat="-39.19194831203509" lon="175.552775128743">
        <ele>1124</ele>
      </trkpt>
      <trkpt lat="-39.19197024604234" lon="175.552704558459">
        <ele>1123</ele>
      </trkpt>
      <trkpt lat="-39.1919912263971" lon="175.552633988175">
        <ele>1123</ele>
      </trkpt>
      <trkpt lat="-39.19200553118444" lon="175.552511920656">
        <ele>1122</ele>
      </trkpt>
      <trkpt lat="-39.192043677284" lon="175.552408926187">
        <ele>1122</ele>
      </trkpt>
      <trkpt lat="-39.19208086973106" lon="175.552305931719">
        <ele>1121</ele>
      </trkpt>
      <trkpt lat="-39.19217242037001" lon="175.552233454129">
        <ele>1121</ele>
      </trkpt>
      <trkpt lat="-39.19226397100896" lon="175.552161930193">
        <ele>1120</ele>
      </trkpt>
      <trkpt lat="-39.19231642189586" lon="175.552101850086">
        <ele>1120</ele>
      </trkpt>
      <trkpt lat="-39.19232595842075" lon="175.552039862674">
        <ele>1119</ele>
      </trkpt>
      <trkpt lat="-39.19233454129315" lon="175.551977875262">
        <ele>1119</ele>
      </trkpt>
      <trkpt lat="-39.19235838260538" lon="175.551914934198">
        <ele>1118</ele>
      </trkpt>
      <trkpt lat="-39.1923822239176" lon="175.551852946786">
        <ele>1118</ele>
      </trkpt>
      <trkpt lat="-39.19245279420179" lon="175.55173183292">
        <ele>1117</ele>
      </trkpt>
      <trkpt lat="-39.19253290101087" lon="175.551371352279">
        <ele>1117</ele>
      </trkpt>
      <trkpt lat="-39.19249952317375" lon="175.551260728591">
        <ele>1116</ele>
      </trkpt>
      <trkpt lat="-39.19246614533664" lon="175.551150104902">
        <ele>1116</ele>
      </trkpt>
      <trkpt lat="-39.19242037001716" lon="175.551041388518">
        <ele>1116</ele>
      </trkpt>
      <trkpt lat="-39.19233930955559" lon="175.551008010681">
        <ele>1117</ele>
      </trkpt>
      <trkpt lat="-39.19232595842075" lon="175.550942208659">
        <ele>1117</ele>
      </trkpt>
      <trkpt lat="-39.19231165363341" lon="175.550876406637">
        <ele>1116</ele>
      </trkpt>
      <trkpt lat="-39.1922782757963" lon="175.550806790006">
        <ele>1116</ele>
      </trkpt>
      <trkpt lat="-39.19224489795918" lon="175.550737173374">
        <ele>1116</ele>
      </trkpt>
      <trkpt lat="-39.19219244707229" lon="175.55065515926">
        <ele>1115</ele>
      </trkpt>
      <trkpt lat="-39.19212759870303" lon="175.550576959756">
        <ele>1115</ele>
      </trkpt>
      <trkpt lat="-39.19207324051116" lon="175.550464428762">
        <ele>1114</ele>
      </trkpt>
      <trkpt lat="-39.19201888231928" lon="175.550351897768">
        <ele>1113</ele>
      </trkpt>
      <trkpt lat="-39.19199504100705" lon="175.550288956704">
        <ele>1113</ele>
      </trkpt>
      <trkpt lat="-39.19197119969483" lon="175.55022601564">
        <ele>1112</ele>
      </trkpt>
      <trkpt lat="-39.19188346366584" lon="175.550166889186">
        <ele>1111</ele>
      </trkpt>
      <trkpt lat="-39.19188155636086" lon="175.550086782377">
        <ele>1111</ele>
      </trkpt>
      <trkpt lat="-39.191913026893" lon="175.550014304787">
        <ele>1110</ele>
      </trkpt>
      <trkpt lat="-39.19198073621972" lon="175.549927522411">
        <ele>1110</ele>
      </trkpt>
      <trkpt lat="-39.19204844554644" lon="175.549840740034">
        <ele>1110</ele>
      </trkpt>
      <trkpt lat="-39.19216002288766" lon="175.549763494183">
        <ele>1110</ele>
      </trkpt>
      <trkpt lat="-39.19227064657638" lon="175.549687201984">
        <ele>1110</ele>
      </trkpt>
      <trkpt lat="-39.19226492466145" lon="175.549625214572">
        <ele>1110</ele>
      </trkpt>
      <trkpt lat="-39.1922868586687" lon="175.549565134465">
        <ele>1109</ele>
      </trkpt>
      <trkpt lat="-39.19234026320809" lon="175.549519359146">
        <ele>1109</ele>
      </trkpt>
      <trkpt lat="-39.19238889948502" lon="175.549423040244">
        <ele>1109</ele>
      </trkpt>
      <trkpt lat="-39.1924260919321" lon="175.549432576769">
        <ele>1109</ele>
      </trkpt>
      <trkpt lat="-39.19246805264162" lon="175.549483120351">
        <ele>1110</ele>
      </trkpt>
      <trkpt lat="-39.19250333778371" lon="175.54955178333">
        <ele>1110</ele>
      </trkpt>
      <trkpt lat="-39.19252908640091" lon="175.549611863437">
        <ele>1111</ele>
      </trkpt>
      <trkpt lat="-39.19252050352851" lon="175.549686248331">
        <ele>1111</ele>
      </trkpt>
      <trkpt lat="-39.19254529849323" lon="175.549756818615">
        <ele>1111</ele>
      </trkpt>
      <trkpt lat="-39.19259488842265" lon="175.549752050353">
        <ele>1111</ele>
      </trkpt>
      <trkpt lat="-39.19261777608239" lon="175.549685294679">
        <ele>1111</ele>
      </trkpt>
      <trkpt lat="-39.19263303452222" lon="175.549588022125">
        <ele>1111</ele>
      </trkpt>
      <trkpt lat="-39.19263112721724" lon="175.549502193401">
        <ele>1110</ele>
      </trkpt>
      <trkpt lat="-39.19262921991226" lon="175.549416364677">
        <ele>1110</ele>
      </trkpt>
      <trkpt lat="-39.1927036048064" lon="175.549331489605">
        <ele>1110</ele>
      </trkpt>
      <trkpt lat="-39.19274175090597" lon="175.549312416555">
        <ele>1110</ele>
      </trkpt>
      <trkpt lat="-39.19278752622544" lon="175.549218958612">
        <ele>1110</ele>
      </trkpt>
      <trkpt lat="-39.19286858668701" lon="175.549115964143">
        <ele>1110</ele>
      </trkpt>
      <trkpt lat="-39.19294869349608" lon="175.549013923326">
        <ele>1109</ele>
      </trkpt>
      <trkpt lat="-39.19304024413503" lon="175.548910928858">
        <ele>1109</ele>
      </trkpt>
      <trkpt lat="-39.19313084112149" lon="175.548807934389">
        <ele>1109</ele>
      </trkpt>
      <trkpt lat="-39.19320141140568" lon="175.548733549495">
        <ele>1109</ele>
      </trkpt>
      <trkpt lat="-39.19327198168987" lon="175.5486591646">
        <ele>1109</ele>
      </trkpt>
      <trkpt lat="-39.19330249856952" lon="175.548596223536">
        <ele>1109</ele>
      </trkpt>
      <trkpt lat="-39.19333206179668" lon="175.548533282472">
        <ele>1108</ele>
      </trkpt>
      <trkpt lat="-39.19344459279039" lon="175.548415983216">
        <ele>1107</ele>
      </trkpt>
      <trkpt lat="-39.19355712378409" lon="175.548299637612">
        <ele>1106</ele>
      </trkpt>
      <trkpt lat="-39.19360003814609" lon="175.5482376502">
        <ele>1106</ele>
      </trkpt>
      <trkpt lat="-39.19364199885562" lon="175.548175662788">
        <ele>1105</ele>
      </trkpt>
      <trkpt lat="-39.19370589357238" lon="175.548094602327">
        <ele>1105</ele>
      </trkpt>
      <trkpt lat="-39.19376978828915" lon="175.548013541865">
        <ele>1104</ele>
      </trkpt>
      <trkpt lat="-39.19385752431813" lon="175.547919130269">
        <ele>1104</ele>
      </trkpt>
      <trkpt lat="-39.19394526034713" lon="175.547824718673">
        <ele>1103</ele>
      </trkpt>
      <trkpt lat="-39.19397100896433" lon="175.54782757963">
        <ele>1103</ele>
      </trkpt>
      <trkpt lat="-39.19404825481594" lon="175.547885752432">
        <ele>1103</ele>
      </trkpt>
      <trkpt lat="-39.19408735456799" lon="175.547931527751">
        <ele>1103</ele>
      </trkpt>
      <trkpt lat="-39.19410833492275" lon="175.547932481404">
        <ele>1103</ele>
      </trkpt>
      <trkpt lat="-39.19411882510013" lon="175.547890520694">
        <ele>1102</ele>
      </trkpt>
      <trkpt lat="-39.19412931527751" lon="175.547886706084">
        <ele>1102</ele>
      </trkpt>
      <trkpt lat="-39.19414838832729" lon="175.547921037574">
        <ele>1102</ele>
      </trkpt>
      <trkpt lat="-39.19416746137707" lon="175.547921037574">
        <ele>1102</ele>
      </trkpt>
      <trkpt lat="-39.19417890520694" lon="175.547888613389">
        <ele>1102</ele>
      </trkpt>
      <trkpt lat="-39.19418653442685" lon="175.547825672325">
        <ele>1102</ele>
      </trkpt>
      <trkpt lat="-39.19419320999427" lon="175.547763684913">
        <ele>1102</ele>
      </trkpt>
      <trkpt lat="-39.19420751478161" lon="175.547746519168">
        <ele>1102</ele>
      </trkpt>
      <trkpt lat="-39.19423135609384" lon="175.547737936296">
        <ele>1102</ele>
      </trkpt>
      <trkpt lat="-39.19426378027846" lon="175.547751287431">
        <ele>1102</ele>
      </trkpt>
      <trkpt lat="-39.19428476063322" lon="175.547746519168">
        <ele>1102</ele>
      </trkpt>
      <trkpt lat="-39.19434102613008" lon="175.547674041579">
        <ele>1102</ele>
      </trkpt>
      <trkpt lat="-39.19436582109479" lon="175.547654968529">
        <ele>1102</ele>
      </trkpt>
      <trkpt lat="-39.19438012588213" lon="175.547650200267">
        <ele>1102</ele>
      </trkpt>
      <trkpt lat="-39.1944087354568" lon="175.547653061225">
        <ele>1102</ele>
      </trkpt>
      <trkpt lat="-39.19442304024413" lon="175.547649246615">
        <ele>1102</ele>
      </trkpt>
      <trkpt lat="-39.19445927903872" lon="175.547617776082">
        <ele>1102</ele>
      </trkpt>
      <trkpt lat="-39.19448884226588" lon="175.547610146862">
        <ele>1102</ele>
      </trkpt>
      <trkpt lat="-39.19453461758535" lon="175.54765115392">
        <ele>1102</ele>
      </trkpt>
      <trkpt lat="-39.19458039290483" lon="175.547666412359">
        <ele>1102</ele>
      </trkpt>
      <trkpt lat="-39.19464238031661" lon="175.547727446119">
        <ele>1103</ele>
      </trkpt>
      <trkpt lat="-39.19466240701888" lon="175.54779324814">
        <ele>1103</ele>
      </trkpt>
      <trkpt lat="-39.19467480450124" lon="175.547801831013">
        <ele>1103</ele>
      </trkpt>
      <trkpt lat="-39.19469101659355" lon="175.547716002289">
        <ele>1103</ele>
      </trkpt>
      <trkpt lat="-39.19471581155827" lon="175.547697882891">
        <ele>1103</ele>
      </trkpt>
      <trkpt lat="-39.19474251382796" lon="175.547725538814">
        <ele>1103</ele>
      </trkpt>
      <trkpt lat="-39.19475586496281" lon="175.547752241083">
        <ele>1103</ele>
      </trkpt>
      <trkpt lat="-39.19480450123974" lon="175.547757009346">
        <ele>1103</ele>
      </trkpt>
      <trkpt lat="-39.19487983978638" lon="175.547750333778">
        <ele>1103</ele>
      </trkpt>
      <trkpt lat="-39.19513255769597" lon="175.547748426473">
        <ele>1104</ele>
      </trkpt>
      <trkpt lat="-39.19517547205798" lon="175.547738889949">
        <ele>1105</ele>
      </trkpt>
      <trkpt lat="-39.1952517642571" lon="175.547772267786">
        <ele>1106</ele>
      </trkpt>
      <trkpt lat="-39.19532233454129" lon="175.547775128743">
        <ele>1106</ele>
      </trkpt>
      <trkpt lat="-39.1953566660309" lon="175.547758916651">
        <ele>1106</ele>
      </trkpt>
      <trkpt lat="-39.19539004386801" lon="175.547755102041">
        <ele>1107</ele>
      </trkpt>
      <trkpt lat="-39.19543581918749" lon="175.547786572573">
        <ele>1107</ele>
      </trkpt>
      <trkpt lat="-39.19546824337211" lon="175.54782376502">
        <ele>1108</ele>
      </trkpt>
      <trkpt lat="-39.19549780659927" lon="175.547825672325">
        <ele>1108</ele>
      </trkpt>
      <trkpt lat="-39.19551783330154" lon="175.5478161358">
        <ele>1108</ele>
      </trkpt>
      <trkpt lat="-39.19550829677665" lon="175.547788479878">
        <ele>1108</ele>
      </trkpt>
      <trkpt lat="-39.19556360862101" lon="175.547772267786">
        <ele>1108</ele>
      </trkpt>
      <trkpt lat="-39.19564180812512" lon="175.54781232119">
        <ele>1109</ele>
      </trkpt>
      <trkpt lat="-39.19571142475682" lon="175.54786572573">
        <ele>1110</ele>
      </trkpt>
      <trkpt lat="-39.19571619301926" lon="175.547855235552">
        <ele>1110</ele>
      </trkpt>
      <trkpt lat="-39.19569902727446" lon="175.54783902346">
        <ele>1110</ele>
      </trkpt>
      <trkpt lat="-39.1956952126645" lon="175.54781995041">
        <ele>1110</ele>
      </trkpt>
      <trkpt lat="-39.19571333206179" lon="175.547748426473">
        <ele>1109</ele>
      </trkpt>
      <trkpt lat="-39.19569044440206" lon="175.547708373069">
        <ele>1109</ele>
      </trkpt>
      <trkpt lat="-39.19569711996948" lon="175.547682624452">
        <ele>1109</ele>
      </trkpt>
      <trkpt lat="-39.19573526606904" lon="175.547674995232">
        <ele>1109</ele>
      </trkpt>
      <trkpt lat="-39.19576387564371" lon="175.547680717147">
        <ele>1109</ele>
      </trkpt>
      <trkpt lat="-39.19578867060843" lon="175.547654968529">
        <ele>1109</ele>
      </trkpt>
      <trkpt lat="-39.19583253862292" lon="175.54765115392">
        <ele>1110</ele>
      </trkpt>
      <trkpt lat="-39.19586114819759" lon="175.547668319664">
        <ele>1110</ele>
      </trkpt>
      <trkpt lat="-39.19591169177951" lon="175.547736028991">
        <ele>1111</ele>
      </trkpt>
      <trkpt lat="-39.19597177188632" lon="175.547779897006">
        <ele>1111</ele>
      </trkpt>
      <trkpt lat="-39.19600228876597" lon="175.547817089453">
        <ele>1112</ele>
      </trkpt>
      <trkpt lat="-39.19603566660309" lon="175.547836162502">
        <ele>1112</ele>
      </trkpt>
      <trkpt lat="-39.19610719053976" lon="175.547718863246">
        <ele>1111</ele>
      </trkpt>
      <trkpt lat="-39.19617776082395" lon="175.54760156399">
        <ele>1111</ele>
      </trkpt>
      <trkpt lat="-39.19623307266832" lon="175.547520503529">
        <ele>1111</ele>
      </trkpt>
      <trkpt lat="-39.19626740415792" lon="175.547451840549">
        <ele>1111</ele>
      </trkpt>
      <trkpt lat="-39.19630173564753" lon="175.547384131223">
        <ele>1111</ele>
      </trkpt>
      <trkpt lat="-39.19636944497425" lon="175.547274461186">
        <ele>1111</ele>
      </trkpt>
      <trkpt lat="-39.19643620064848" lon="175.54716479115">
        <ele>1111</ele>
      </trkpt>
      <trkpt lat="-39.1964953271028" lon="175.547082777036">
        <ele>1111</ele>
      </trkpt>
      <trkpt lat="-39.19655445355712" lon="175.547000762922">
        <ele>1111</ele>
      </trkpt>
      <trkpt lat="-39.19665649437345" lon="175.546896814801">
        <ele>1111</ele>
      </trkpt>
      <trkpt lat="-39.19675758153728" lon="175.546792866679">
        <ele>1111</ele>
      </trkpt>
      <trkpt lat="-39.19686248331108" lon="175.546707037955">
        <ele>1111</ele>
      </trkpt>
      <trkpt lat="-39.19696738508487" lon="175.546621209231">
        <ele>1112</ele>
      </trkpt>
      <trkpt lat="-39.1970255578867" lon="175.54656685104">
        <ele>1112</ele>
      </trkpt>
      <trkpt lat="-39.19708277703604" lon="175.546500095365">
        <ele>1112</ele>
      </trkpt>
      <trkpt lat="-39.19713332061797" lon="175.546457181003">
        <ele>1112</ele>
      </trkpt>
      <trkpt lat="-39.19721056646958" lon="175.546527751287">
        <ele>1113</ele>
      </trkpt>
      <trkpt lat="-39.1972429906542" lon="175.546492466145">
        <ele>1113</ele>
      </trkpt>
      <trkpt lat="-39.19726778561892" lon="175.546440015258">
        <ele>1113</ele>
      </trkpt>
      <trkpt lat="-39.19732500476826" lon="175.546417127599">
        <ele>1114</ele>
      </trkpt>
      <trkpt lat="-39.19743658210948" lon="175.546430478734">
        <ele>1114</ele>
      </trkpt>
      <trkpt lat="-39.19752431813847" lon="175.546449551783">
        <ele>1115</ele>
      </trkpt>
      <trkpt lat="-39.19761110051497" lon="175.546468624833">
        <ele>1116</ele>
      </trkpt>
      <trkpt lat="-39.19769406828151" lon="175.546478161358">
        <ele>1117</ele>
      </trkpt>
      <trkpt lat="-39.19770741941636" lon="175.546450505436">
        <ele>1117</ele>
      </trkpt>
      <trkpt lat="-39.19768739271409" lon="175.546362769407">
        <ele>1117</ele>
      </trkpt>
      <trkpt lat="-39.19768071714667" lon="175.546269311463">
        <ele>1117</ele>
      </trkpt>
      <trkpt lat="-39.19767308792676" lon="175.546176807171">
        <ele>1117</ele>
      </trkpt>
      <trkpt lat="-39.19771981689872" lon="175.545625596033">
        <ele>1119</ele>
      </trkpt>
      <trkpt lat="-39.19777894335304" lon="175.54503433149">
        <ele>1121</ele>
      </trkpt>
      <trkpt lat="-39.19783330154492" lon="175.544301926378">
        <ele>1125</ele>
      </trkpt>
      <trkpt lat="-39.19786667938203" lon="175.544207514782">
        <ele>1126</ele>
      </trkpt>
      <trkpt lat="-39.19789910356666" lon="175.544114056838">
        <ele>1127</ele>
      </trkpt>
      <trkpt lat="-39.19790005721914" lon="175.544040625596">
        <ele>1127</ele>
      </trkpt>
      <trkpt lat="-39.19788956704177" lon="175.543958611482">
        <ele>1126</ele>
      </trkpt>
      <trkpt lat="-39.19790482548159" lon="175.543857524318">
        <ele>1126</ele>
      </trkpt>
      <trkpt lat="-39.19802117108525" lon="175.543592408926">
        <ele>1127</ele>
      </trkpt>
      <trkpt lat="-39.19824623307267" lon="175.543128933817">
        <ele>1127</ele>
      </trkpt>
      <trkpt lat="-39.19835399580393" lon="175.543020217433">
        <ele>1128</ele>
      </trkpt>
      <trkpt lat="-39.19842075147816" lon="175.542933435056">
        <ele>1129</ele>
      </trkpt>
      <trkpt lat="-39.19848750715239" lon="175.542847606332">
        <ele>1129</ele>
      </trkpt>
      <trkpt lat="-39.19851802403204" lon="175.542729353424">
        <ele>1128</ele>
      </trkpt>
      <trkpt lat="-39.19855426282663" lon="175.54262826626">
        <ele>1128</ele>
      </trkpt>
      <trkpt lat="-39.19857619683387" lon="175.542591073813">
        <ele>1128</ele>
      </trkpt>
      <trkpt lat="-39.19863723059317" lon="175.54259774938">
        <ele>1129</ele>
      </trkpt>
      <trkpt lat="-39.19866870112531" lon="175.542563417891">
        <ele>1129</ele>
      </trkpt>
      <trkpt lat="-39.19872305931718" lon="175.54258249094">
        <ele>1130</ele>
      </trkpt>
      <trkpt lat="-39.19873927140949" lon="175.542561510586">
        <ele>1130</ele>
      </trkpt>
      <trkpt lat="-39.19870303261492" lon="175.542492847606">
        <ele>1129</ele>
      </trkpt>
      <trkpt lat="-39.19871066183482" lon="175.542471867252">
        <ele>1129</ele>
      </trkpt>
      <trkpt lat="-39.19878123211901" lon="175.542416555407">
        <ele>1130</ele>
      </trkpt>
      <trkpt lat="-39.19886419988556" lon="175.542304978066">
        <ele>1130</ele>
      </trkpt>
      <trkpt lat="-39.19892904825481" lon="175.542254434484">
        <ele>1130</ele>
      </trkpt>
      <trkpt lat="-39.19899294297158" lon="175.542204844555">
        <ele>1130</ele>
      </trkpt>
      <trkpt lat="-39.19905111577341" lon="175.54213427427">
        <ele>1131</ele>
      </trkpt>
      <trkpt lat="-39.19910833492276" lon="175.542063703986">
        <ele>1131</ele>
      </trkpt>
      <trkpt lat="-39.19918081251192" lon="175.541990272745">
        <ele>1131</ele>
      </trkpt>
      <trkpt lat="-39.19925233644859" lon="175.541916841503">
        <ele>1131</ele>
      </trkpt>
      <trkpt lat="-39.19932290673278" lon="175.541815754339">
        <ele>1131</ele>
      </trkpt>
      <trkpt lat="-39.19943257676902" lon="175.541806217814">
        <ele>1133</ele>
      </trkpt>
      <trkpt lat="-39.19953175662788" lon="175.541779515545">
        <ele>1133</ele>
      </trkpt>
      <trkpt lat="-39.19962998283425" lon="175.541753766927">
        <ele>1134</ele>
      </trkpt>
      <trkpt lat="-39.19969292389853" lon="175.54174709136">
        <ele>1135</ele>
      </trkpt>
      <trkpt lat="-39.19976158687774" lon="175.541744230402">
        <ele>1135</ele>
      </trkpt>
      <trkpt lat="-39.19984074003433" lon="175.54178142285">
        <ele>1136</ele>
      </trkpt>
    </trkseg>
  </trk>
</gpx>