<?xml version="1.0" encoding="UTF-8" standalone="yes"?>
<gpx
 version="1.1"
 creator="Generated by MapOut iPhone App. See https://mapout.app"
 xmlns="http://www.topografix.com/GPX/1/1"
 xmlns:xsi="http://www.w3.org/2001/XMLSchema-instance"
 xmlns:gpxx="http://www.garmin.com/xmlschemas/GpxExtensions/v3"
 xmlns:mapout="https://mapout.app/xmlschemas/MapOutExtensions"
 xsi:schemaLocation="http://www.topografix.com/GPX/1/1 https://www.topografix.com/GPX/1/1/gpx.xsd http://www.garmin.com/xmlschemas/GpxExtensions/v3 https://www8.garmin.com/xmlschemas/GpxExtensionsv3.xsd https://mapout.app/xmlschemas/MapOutExtensions https://mapout.app/xmlschemas/MapOutExtensions.xsd">
  <metadata>
    <name>Waipu Coastal Path</name>
    <author><name>iPhone</name></author>
    <time>2026-03-09T09:17:02Z</time>
    <bounds minlat="-36.04082263552912" minlon="174.508565023472" maxlat="-36.03031851993133" maxlon="174.530082967767"/>
  </metadata>
  <trk>
    <name>Waipu Coastal Path</name>
    <trkseg>
      <trkpt lat="-36.03046446105644" lon="174.508565023472">
        <ele>13</ele>
      </trkpt>
      <trkpt lat="-36.03045393858478" lon="174.508574289529">
        <ele>13</ele>
      </trkpt>
      <trkpt lat="-36.03039862674041" lon="174.508640091551">
        <ele>13</ele>
      </trkpt>
      <trkpt lat="-36.03034236124356" lon="174.508706847225">
        <ele>12</ele>
      </trkpt>
      <trkpt lat="-36.03033091741369" lon="174.508813656304">
        <ele>11</ele>
      </trkpt>
      <trkpt lat="-36.03031851993133" lon="174.508920465382">
        <ele>11</ele>
      </trkpt>
      <trkpt lat="-36.03033473202365" lon="174.509026320809">
        <ele>10</ele>
      </trkpt>
      <trkpt lat="-36.03034999046348" lon="174.509132176235">
        <ele>10</ele>
      </trkpt>
      <trkpt lat="-36.03037287812321" lon="174.509211329392">
        <ele>10</ele>
      </trkpt>
      <trkpt lat="-36.03040339500286" lon="174.509288575243">
        <ele>10</ele>
      </trkpt>
      <trkpt lat="-36.03043295823002" lon="174.509366774747">
        <ele>11</ele>
      </trkpt>
      <trkpt lat="-36.03042914362007" lon="174.509421132939">
        <ele>11</ele>
      </trkpt>
      <trkpt lat="-36.03043295823002" lon="174.509445927904">
        <ele>11</ele>
      </trkpt>
      <trkpt lat="-36.03048159450697" lon="174.509527942018">
        <ele>11</ele>
      </trkpt>
      <trkpt lat="-36.0304873164219" lon="174.50955178333">
        <ele>11</ele>
      </trkpt>
      <trkpt lat="-36.03048636276941" lon="174.509631890139">
        <ele>12</ele>
      </trkpt>
      <trkpt lat="-36.03051401869159" lon="174.509727255388">
        <ele>12</ele>
      </trkpt>
      <trkpt lat="-36.03054072096128" lon="174.50982357429">
        <ele>13</ele>
      </trkpt>
      <trkpt lat="-36.03054644287621" lon="174.509941827198">
        <ele>13</ele>
      </trkpt>
      <trkpt lat="-36.03057505245089" lon="174.510013351135">
        <ele>14</ele>
      </trkpt>
      <trkpt lat="-36.03059221819569" lon="174.510107762731">
        <ele>14</ele>
      </trkpt>
      <trkpt lat="-36.03061415220294" lon="174.510177379363">
        <ele>15</ele>
      </trkpt>
      <trkpt lat="-36.03065611291245" lon="174.510255578867">
        <ele>16</ele>
      </trkpt>
      <trkpt lat="-36.0307743658211" lon="174.510566469578">
        <ele>18</ele>
      </trkpt>
      <trkpt lat="-36.03085065802022" lon="174.510683768835">
        <ele>20</ele>
      </trkpt>
      <trkpt lat="-36.03086400915507" lon="174.510758153729">
        <ele>20</ele>
      </trkpt>
      <trkpt lat="-36.03087640663743" lon="174.510832538623">
        <ele>21</ele>
      </trkpt>
      <trkpt lat="-36.03087640663743" lon="174.510950791532">
        <ele>20</ele>
      </trkpt>
      <trkpt lat="-36.03078962426092" lon="174.511234979973">
        <ele>18</ele>
      </trkpt>
      <trkpt lat="-36.03079343887087" lon="174.511354186534">
        <ele>18</ele>
      </trkpt>
      <trkpt lat="-36.03079629982835" lon="174.511474346748">
        <ele>17</ele>
      </trkpt>
      <trkpt lat="-36.03089834064467" lon="174.511925424375">
        <ele>19</ele>
      </trkpt>
      <trkpt lat="-36.0309393477017" lon="174.51237173374">
        <ele>19</ele>
      </trkpt>
      <trkpt lat="-36.03096223536144" lon="174.512469006294">
        <ele>19</ele>
      </trkpt>
      <trkpt lat="-36.03100610337593" lon="174.512558649628">
        <ele>20</ele>
      </trkpt>
      <trkpt lat="-36.03096604997139" lon="174.5126435247">
        <ele>18</ele>
      </trkpt>
      <trkpt lat="-36.03092504291436" lon="174.512728399771">
        <ele>17</ele>
      </trkpt>
      <trkpt lat="-36.030912645432" lon="174.512811367538">
        <ele>17</ele>
      </trkpt>
      <trkpt lat="-36.03089929429716" lon="174.512895288957">
        <ele>16</ele>
      </trkpt>
      <trkpt lat="-36.03105664695785" lon="174.513374976159">
        <ele>15</ele>
      </trkpt>
      <trkpt lat="-36.03114342933435" lon="174.513454129315">
        <ele>16</ele>
      </trkpt>
      <trkpt lat="-36.03123021171086" lon="174.513533282472">
        <ele>17</ele>
      </trkpt>
      <trkpt lat="-36.03122353614343" lon="174.513605760061">
        <ele>17</ele>
      </trkpt>
      <trkpt lat="-36.03121686057601" lon="174.51367823765">
        <ele>16</ele>
      </trkpt>
      <trkpt lat="-36.03121972153347" lon="174.513747854282">
        <ele>16</ele>
      </trkpt>
      <trkpt lat="-36.03129982834255" lon="174.513801258821">
        <ele>18</ele>
      </trkpt>
      <trkpt lat="-36.03132748426474" lon="174.513868968148">
        <ele>18</ele>
      </trkpt>
      <trkpt lat="-36.03132843791722" lon="174.513936677475">
        <ele>18</ele>
      </trkpt>
      <trkpt lat="-36.03138088880412" lon="174.514007247759">
        <ele>19</ele>
      </trkpt>
      <trkpt lat="-36.03143238603853" lon="174.514077818043">
        <ele>20</ele>
      </trkpt>
      <trkpt lat="-36.03146004196071" lon="174.514144573717">
        <ele>20</ele>
      </trkpt>
      <trkpt lat="-36.03146385657067" lon="174.514480259393">
        <ele>20</ele>
      </trkpt>
      <trkpt lat="-36.0314524127408" lon="174.514562273508">
        <ele>20</ele>
      </trkpt>
      <trkpt lat="-36.03144096891093" lon="174.514645241274">
        <ele>20</ele>
      </trkpt>
      <trkpt lat="-36.03140568376884" lon="174.514714857906">
        <ele>19</ele>
      </trkpt>
      <trkpt lat="-36.03141617394621" lon="174.514831203509">
        <ele>19</ele>
      </trkpt>
      <trkpt lat="-36.03145432004577" lon="174.514923707801">
        <ele>20</ele>
      </trkpt>
      <trkpt lat="-36.03149151249285" lon="174.515017165745">
        <ele>21</ele>
      </trkpt>
      <trkpt lat="-36.03144192256342" lon="174.515120160214">
        <ele>19</ele>
      </trkpt>
      <trkpt lat="-36.0313913789815" lon="174.515223154682">
        <ele>18</ele>
      </trkpt>
      <trkpt lat="-36.03137707419417" lon="174.515510204082">
        <ele>17</ele>
      </trkpt>
      <trkpt lat="-36.0314085447263" lon="174.515598893763">
        <ele>17</ele>
      </trkpt>
      <trkpt lat="-36.03144001525844" lon="174.515687583445">
        <ele>17</ele>
      </trkpt>
      <trkpt lat="-36.03142284951364" lon="174.515761968339">
        <ele>17</ele>
      </trkpt>
      <trkpt lat="-36.03140568376884" lon="174.515837306885">
        <ele>16</ele>
      </trkpt>
      <trkpt lat="-36.0313656303643" lon="174.515909784475">
        <ele>15</ele>
      </trkpt>
      <trkpt lat="-36.03132557695976" lon="174.515982262064">
        <ele>14</ele>
      </trkpt>
      <trkpt lat="-36.03131985504482" lon="174.51607285905">
        <ele>13</ele>
      </trkpt>
      <trkpt lat="-36.03131413312989" lon="174.516164409689">
        <ele>13</ele>
      </trkpt>
      <trkpt lat="-36.03134465000954" lon="174.516282662598">
        <ele>13</ele>
      </trkpt>
      <trkpt lat="-36.03137516688918" lon="174.516400915506">
        <ele>12</ele>
      </trkpt>
      <trkpt lat="-36.03137898149915" lon="174.516467671181">
        <ele>12</ele>
      </trkpt>
      <trkpt lat="-36.03138184245661" lon="174.516534426855">
        <ele>12</ele>
      </trkpt>
      <trkpt lat="-36.03159450696167" lon="174.516929238985">
        <ele>13</ele>
      </trkpt>
      <trkpt lat="-36.03169464047301" lon="174.517017928667">
        <ele>15</ele>
      </trkpt>
      <trkpt lat="-36.03177188632463" lon="174.517017928667">
        <ele>16</ele>
      </trkpt>
      <trkpt lat="-36.03188918558077" lon="174.517056074766">
        <ele>18</ele>
      </trkpt>
      <trkpt lat="-36.03195975586496" lon="174.517126645051">
        <ele>19</ele>
      </trkpt>
      <trkpt lat="-36.03197310699981" lon="174.517209612817">
        <ele>19</ele>
      </trkpt>
      <trkpt lat="-36.03198645813465" lon="174.517293534236">
        <ele>18</ele>
      </trkpt>
      <trkpt lat="-36.03204749189396" lon="174.517595842075">
        <ele>16</ele>
      </trkpt>
      <trkpt lat="-36.03210566469578" lon="174.517706465764">
        <ele>16</ele>
      </trkpt>
      <trkpt lat="-36.03216288384512" lon="174.517818043105">
        <ele>16</ele>
      </trkpt>
      <trkpt lat="-36.0321562082777" lon="174.517920083921">
        <ele>15</ele>
      </trkpt>
      <trkpt lat="-36.03218004958993" lon="174.517984932291">
        <ele>14</ele>
      </trkpt>
      <trkpt lat="-36.03215048636277" lon="174.518070761015">
        <ele>13</ele>
      </trkpt>
      <trkpt lat="-36.03211996948312" lon="174.518156589739">
        <ele>12</ele>
      </trkpt>
      <trkpt lat="-36.03212569139806" lon="174.518203318711">
        <ele>11</ele>
      </trkpt>
      <trkpt lat="-36.03219340072478" lon="174.518198550448">
        <ele>13</ele>
      </trkpt>
      <trkpt lat="-36.0322611100515" lon="174.518193782186">
        <ele>14</ele>
      </trkpt>
      <trkpt lat="-36.03234121686058" lon="174.518280564562">
        <ele>14</ele>
      </trkpt>
      <trkpt lat="-36.03242037001716" lon="174.518312988747">
        <ele>15</ele>
      </trkpt>
      <trkpt lat="-36.03248807934389" lon="174.518379744421">
        <ele>15</ele>
      </trkpt>
      <trkpt lat="-36.03255483501812" lon="174.518447453748">
        <ele>15</ele>
      </trkpt>
      <trkpt lat="-36.03264066374214" lon="174.518460804883">
        <ele>16</ele>
      </trkpt>
      <trkpt lat="-36.03269692923899" lon="174.518422658783">
        <ele>17</ele>
      </trkpt>
      <trkpt lat="-36.03280278466527" lon="174.518484646195">
        <ele>17</ele>
      </trkpt>
      <trkpt lat="-36.03290291817662" lon="174.518532328819">
        <ele>18</ele>
      </trkpt>
      <trkpt lat="-36.03300209803547" lon="174.518580965096">
        <ele>18</ele>
      </trkpt>
      <trkpt lat="-36.0330783902346" lon="174.518656303643">
        <ele>17</ele>
      </trkpt>
      <trkpt lat="-36.03315372878124" lon="174.51873164219">
        <ele>16</ele>
      </trkpt>
      <trkpt lat="-36.03323574289529" lon="174.518775510204">
        <ele>16</ele>
      </trkpt>
      <trkpt lat="-36.03331680335686" lon="174.518820331871">
        <ele>16</ele>
      </trkpt>
      <trkpt lat="-36.03338355903109" lon="174.518879458325">
        <ele>16</ele>
      </trkpt>
      <trkpt lat="-36.03347701697501" lon="174.518924279992">
        <ele>17</ele>
      </trkpt>
      <trkpt lat="-36.03355140186916" lon="174.518932862865">
        <ele>18</ele>
      </trkpt>
      <trkpt lat="-36.03362483311081" lon="174.51894239939">
        <ele>19</ele>
      </trkpt>
      <trkpt lat="-36.03373259584207" lon="174.519190349037">
        <ele>17</ele>
      </trkpt>
      <trkpt lat="-36.03407591073813" lon="174.519567995422">
        <ele>17</ele>
      </trkpt>
      <trkpt lat="-36.03416936868205" lon="174.519569902727">
        <ele>19</ele>
      </trkpt>
      <trkpt lat="-36.03422563417891" lon="174.519672897196">
        <ele>18</ele>
      </trkpt>
      <trkpt lat="-36.03430192637803" lon="174.519769216098">
        <ele>17</ele>
      </trkpt>
      <trkpt lat="-36.034391569712" lon="174.519856952127">
        <ele>17</ele>
      </trkpt>
      <trkpt lat="-36.03448025939348" lon="174.519945641808">
        <ele>17</ele>
      </trkpt>
      <trkpt lat="-36.03452508106047" lon="174.52">
        <ele>17</ele>
      </trkpt>
      <trkpt lat="-36.03452508106047" lon="174.52">
        <ele>17</ele>
      </trkpt>
      <trkpt lat="-36.03459660499714" lon="174.520085828724">
        <ele>17</ele>
      </trkpt>
      <trkpt lat="-36.0345908830822" lon="174.520151630746">
        <ele>16</ele>
      </trkpt>
      <trkpt lat="-36.0346261682243" lon="174.52022220103">
        <ele>15</ele>
      </trkpt>
      <trkpt lat="-36.0346614533664" lon="174.520292771314">
        <ele>15</ele>
      </trkpt>
      <trkpt lat="-36.03464619492657" lon="174.520359526988">
        <ele>14</ele>
      </trkpt>
      <trkpt lat="-36.03470818233836" lon="174.520428189968">
        <ele>14</ele>
      </trkpt>
      <trkpt lat="-36.03478352088499" lon="174.520385275606">
        <ele>16</ele>
      </trkpt>
      <trkpt lat="-36.03481308411215" lon="174.52043295823">
        <ele>15</ele>
      </trkpt>
      <trkpt lat="-36.0348436009918" lon="174.52044821667">
        <ele>16</ele>
      </trkpt>
      <trkpt lat="-36.0349046347511" lon="174.520514018692">
        <ele>16</ele>
      </trkpt>
      <trkpt lat="-36.03491512492847" lon="174.520584588976">
        <ele>15</ele>
      </trkpt>
      <trkpt lat="-36.03492561510586" lon="174.52065515926">
        <ele>14</ele>
      </trkpt>
      <trkpt lat="-36.03514400152584" lon="174.520946023269">
        <ele>15</ele>
      </trkpt>
      <trkpt lat="-36.03520980354759" lon="174.521042342171">
        <ele>15</ele>
      </trkpt>
      <trkpt lat="-36.03524032042723" lon="174.521151058554">
        <ele>15</ele>
      </trkpt>
      <trkpt lat="-36.03527942017929" lon="174.521193972916">
        <ele>15</ele>
      </trkpt>
      <trkpt lat="-36.03535571237841" lon="174.521244516498">
        <ele>16</ele>
      </trkpt>
      <trkpt lat="-36.03543105092504" lon="174.521296013733">
        <ele>17</ele>
      </trkpt>
      <trkpt lat="-36.03551020408163" lon="174.521404730116">
        <ele>17</ele>
      </trkpt>
      <trkpt lat="-36.03558935723822" lon="174.5215134465">
        <ele>18</ele>
      </trkpt>
      <trkpt lat="-36.03563417890521" lon="174.521623116536">
        <ele>17</ele>
      </trkpt>
      <trkpt lat="-36.03567804691971" lon="174.521732786573">
        <ele>17</ele>
      </trkpt>
      <trkpt lat="-36.03570188823193" lon="174.521848178524">
        <ele>17</ele>
      </trkpt>
      <trkpt lat="-36.03572572954415" lon="174.521963570475">
        <ele>17</ele>
      </trkpt>
      <trkpt lat="-36.0357133320618" lon="174.522040816327">
        <ele>16</ele>
      </trkpt>
      <trkpt lat="-36.03569998092695" lon="174.522118062178">
        <ele>15</ele>
      </trkpt>
      <trkpt lat="-36.03569235170704" lon="174.522201029945">
        <ele>15</ele>
      </trkpt>
      <trkpt lat="-36.03572572954415" lon="174.522309746328">
        <ele>15</ele>
      </trkpt>
      <trkpt lat="-36.03578771695594" lon="174.522345985123">
        <ele>16</ele>
      </trkpt>
      <trkpt lat="-36.03584970436773" lon="174.522382223918">
        <ele>17</ele>
      </trkpt>
      <trkpt lat="-36.03593457943926" lon="174.522445164982">
        <ele>18</ele>
      </trkpt>
      <trkpt lat="-36.03601945451078" lon="174.522508106046">
        <ele>20</ele>
      </trkpt>
      <trkpt lat="-36.03604329582301" lon="174.522573908068">
        <ele>20</ele>
      </trkpt>
      <trkpt lat="-36.03606713713523" lon="174.52263971009">
        <ele>20</ele>
      </trkpt>
      <trkpt lat="-36.03608334922755" lon="174.522705512111">
        <ele>19</ele>
      </trkpt>
      <trkpt lat="-36.03609956131986" lon="174.522771314133">
        <ele>19</ele>
      </trkpt>
      <trkpt lat="-36.03615582681671" lon="174.522867633035">
        <ele>19</ele>
      </trkpt>
      <trkpt lat="-36.03621209231356" lon="174.522963951936">
        <ele>19</ele>
      </trkpt>
      <trkpt lat="-36.03635323288194" lon="174.52326435247">
        <ele>19</ele>
      </trkpt>
      <trkpt lat="-36.03641522029373" lon="174.523357810414">
        <ele>20</ele>
      </trkpt>
      <trkpt lat="-36.03647625405302" lon="174.52345222201">
        <ele>20</ele>
      </trkpt>
      <trkpt lat="-36.03650963189014" lon="174.523541865344">
        <ele>19</ele>
      </trkpt>
      <trkpt lat="-36.03654205607477" lon="174.523631508678">
        <ele>19</ele>
      </trkpt>
      <trkpt lat="-36.0365563608621" lon="174.523722105665">
        <ele>18</ele>
      </trkpt>
      <trkpt lat="-36.03659736791913" lon="174.523813656304">
        <ele>17</ele>
      </trkpt>
      <trkpt lat="-36.03663837497616" lon="174.523905206943">
        <ele>16</ele>
      </trkpt>
      <trkpt lat="-36.03667270646577" lon="174.52388899485">
        <ele>17</ele>
      </trkpt>
      <trkpt lat="-36.03678905206943" lon="174.523921419035">
        <ele>19</ele>
      </trkpt>
      <trkpt lat="-36.03688537097082" lon="174.523980545489">
        <ele>21</ele>
      </trkpt>
      <trkpt lat="-36.03693209994278" lon="174.524083539958">
        <ele>20</ele>
      </trkpt>
      <trkpt lat="-36.03697787526225" lon="174.524187488079">
        <ele>20</ele>
      </trkpt>
      <trkpt lat="-36.03705130650391" lon="174.524205607477">
        <ele>21</ele>
      </trkpt>
      <trkpt lat="-36.03715144001526" lon="174.52431050925">
        <ele>23</ele>
      </trkpt>
      <trkpt lat="-36.03719626168225" lon="174.524405874499">
        <ele>22</ele>
      </trkpt>
      <trkpt lat="-36.03724012969674" lon="174.524501239748">
        <ele>22</ele>
      </trkpt>
      <trkpt lat="-36.03734884608049" lon="174.524565134465">
        <ele>24</ele>
      </trkpt>
      <trkpt lat="-36.03745660881175" lon="174.524629982834">
        <ele>26</ele>
      </trkpt>
      <trkpt lat="-36.03746900629411" lon="174.52474728209">
        <ele>25</ele>
      </trkpt>
      <trkpt lat="-36.03750143047873" lon="174.524865534999">
        <ele>24</ele>
      </trkpt>
      <trkpt lat="-36.03753290101087" lon="174.524983787908">
        <ele>23</ele>
      </trkpt>
      <trkpt lat="-36.0375653251955" lon="174.525029563227">
        <ele>23</ele>
      </trkpt>
      <trkpt lat="-36.03756723250048" lon="174.525133511348">
        <ele>21</ele>
      </trkpt>
      <trkpt lat="-36.03756913980546" lon="174.525238413122">
        <ele>20</ele>
      </trkpt>
      <trkpt lat="-36.03761586877742" lon="174.525327102804">
        <ele>20</ele>
      </trkpt>
      <trkpt lat="-36.03788384512684" lon="174.526123402632">
        <ele>16</ele>
      </trkpt>
      <trkpt lat="-36.03814705321381" lon="174.526376120542">
        <ele>19</ele>
      </trkpt>
      <trkpt lat="-36.03822239176044" lon="174.526440015258">
        <ele>19</ele>
      </trkpt>
      <trkpt lat="-36.03829486934961" lon="174.526396147244">
        <ele>22</ele>
      </trkpt>
      <trkpt lat="-36.03840453938585" lon="174.526339881747">
        <ele>25</ele>
      </trkpt>
      <trkpt lat="-36.0385132557696" lon="174.52628361625">
        <ele>27</ele>
      </trkpt>
      <trkpt lat="-36.0385132557696" lon="174.52628361625">
        <ele>27</ele>
      </trkpt>
      <trkpt lat="-36.03855235552165" lon="174.526384703414">
        <ele>26</ele>
      </trkpt>
      <trkpt lat="-36.0385914552737" lon="174.526485790578">
        <ele>25</ele>
      </trkpt>
      <trkpt lat="-36.03864390616059" lon="174.526552546252">
        <ele>25</ele>
      </trkpt>
      <trkpt lat="-36.038695403395" lon="174.526620255579">
        <ele>25</ele>
      </trkpt>
      <trkpt lat="-36.03873736410452" lon="174.526683196643">
        <ele>25</ele>
      </trkpt>
      <trkpt lat="-36.03877837116155" lon="174.526746137707">
        <ele>25</ele>
      </trkpt>
      <trkpt lat="-36.03879744421133" lon="174.526816707992">
        <ele>24</ele>
      </trkpt>
      <trkpt lat="-36.03881651726111" lon="174.526888231928">
        <ele>24</ele>
      </trkpt>
      <trkpt lat="-36.0388346366584" lon="174.526985504482">
        <ele>23</ele>
      </trkpt>
      <trkpt lat="-36.03885180240321" lon="174.527083730689">
        <ele>22</ele>
      </trkpt>
      <trkpt lat="-36.03888136563037" lon="174.527177188632">
        <ele>21</ele>
      </trkpt>
      <trkpt lat="-36.03890997520504" lon="174.527271600229">
        <ele>21</ele>
      </trkpt>
      <trkpt lat="-36.03896147243945" lon="174.527357428953">
        <ele>21</ele>
      </trkpt>
      <trkpt lat="-36.03901201602136" lon="174.527443257677">
        <ele>22</ele>
      </trkpt>
      <trkpt lat="-36.03903585733359" lon="174.527695975587">
        <ele>20</ele>
      </trkpt>
      <trkpt lat="-36.03905874499333" lon="174.52778561892">
        <ele>19</ele>
      </trkpt>
      <trkpt lat="-36.03908163265307" lon="174.527875262254">
        <ele>19</ele>
      </trkpt>
      <trkpt lat="-36.03912645432005" lon="174.527944878886">
        <ele>19</ele>
      </trkpt>
      <trkpt lat="-36.03917032233454" lon="174.528014495518">
        <ele>20</ele>
      </trkpt>
      <trkpt lat="-36.03918367346939" lon="174.528100324242">
        <ele>19</ele>
      </trkpt>
      <trkpt lat="-36.03916841502956" lon="174.528193782186">
        <ele>18</ele>
      </trkpt>
      <trkpt lat="-36.03915315658974" lon="174.528288193782">
        <ele>16</ele>
      </trkpt>
      <trkpt lat="-36.03915124928476" lon="174.528354949456">
        <ele>15</ele>
      </trkpt>
      <trkpt lat="-36.03914838832729" lon="174.528422658783">
        <ele>15</ele>
      </trkpt>
      <trkpt lat="-36.03920370017166" lon="174.528483692542">
        <ele>15</ele>
      </trkpt>
      <trkpt lat="-36.03925901201602" lon="174.528545679954">
        <ele>16</ele>
      </trkpt>
      <trkpt lat="-36.03936200648484" lon="174.528631508678">
        <ele>17</ele>
      </trkpt>
      <trkpt lat="-36.03944115964143" lon="174.528737364105">
        <ele>18</ele>
      </trkpt>
      <trkpt lat="-36.03947739843601" lon="174.528822239176">
        <ele>18</ele>
      </trkpt>
      <trkpt lat="-36.03948884226588" lon="174.528888041198">
        <ele>17</ele>
      </trkpt>
      <trkpt lat="-36.03949933244326" lon="174.52895384322">
        <ele>17</ele>
      </trkpt>
      <trkpt lat="-36.03949742513828" lon="174.529040625596">
        <ele>16</ele>
      </trkpt>
      <trkpt lat="-36.0394955178333" lon="174.529127407973">
        <ele>15</ele>
      </trkpt>
      <trkpt lat="-36.03949837879077" lon="174.529195117299">
        <ele>14</ele>
      </trkpt>
      <trkpt lat="-36.03950028609574" lon="174.529262826626">
        <ele>14</ele>
      </trkpt>
      <trkpt lat="-36.03949361052833" lon="174.52936009918">
        <ele>13</ele>
      </trkpt>
      <trkpt lat="-36.03946786191112" lon="174.529425901202">
        <ele>12</ele>
      </trkpt>
      <trkpt lat="-36.03948502765592" lon="174.529483120351">
        <ele>11</ele>
      </trkpt>
      <trkpt lat="-36.03954892237269" lon="174.529568949075">
        <ele>12</ele>
      </trkpt>
      <trkpt lat="-36.03957848559985" lon="174.529645241274">
        <ele>12</ele>
      </trkpt>
      <trkpt lat="-36.03957562464238" lon="174.529722487126">
        <ele>11</ele>
      </trkpt>
      <trkpt lat="-36.03957276368492" lon="174.52980068663">
        <ele>10</ele>
      </trkpt>
      <trkpt lat="-36.03958134655731" lon="174.529871256914">
        <ele>9</ele>
      </trkpt>
      <trkpt lat="-36.03958897577723" lon="174.529942780851">
        <ele>9</ele>
      </trkpt>
      <trkpt lat="-36.03964905588403" lon="174.530024794965">
        <ele>9</ele>
      </trkpt>
      <trkpt lat="-36.03969387755102" lon="174.530066755674">
        <ele>9</ele>
      </trkpt>
      <trkpt lat="-36.03975014304788" lon="174.530082967767">
        <ele>10</ele>
      </trkpt>
      <trkpt lat="-36.0398006866298" lon="174.530014304787">
        <ele>11</ele>
      </trkpt>
      <trkpt lat="-36.03984550829678" lon="174.529898912836">
        <ele>13</ele>
      </trkpt>
      <trkpt lat="-36.03988937631127" lon="174.529783520885">
        <ele>15</ele>
      </trkpt>
      <trkpt lat="-36.04" lon="174.529694831204">
        <ele>18</ele>
      </trkpt>
      <trkpt lat="-36.04" lon="174.529694831204">
        <ele>18</ele>
      </trkpt>
      <trkpt lat="-36.04007533854663" lon="174.529651916842">
        <ele>18</ele>
      </trkpt>
      <trkpt lat="-36.04034522220103" lon="174.529462139996">
        <ele>17</ele>
      </trkpt>
      <trkpt lat="-36.04043677283997" lon="174.529416364677">
        <ele>17</ele>
      </trkpt>
      <trkpt lat="-36.0405130650391" lon="174.529407781804">
        <ele>16</ele>
      </trkpt>
      <trkpt lat="-36.04058935723822" lon="174.529400152584">
        <ele>15</ele>
      </trkpt>
      <trkpt lat="-36.04066755674232" lon="174.529404920847">
        <ele>14</ele>
      </trkpt>
      <trkpt lat="-36.04074575624642" lon="174.529409689109">
        <ele>12</ele>
      </trkpt>
      <trkpt lat="-36.04082204844554" lon="174.529405874499">
        <ele>11</ele>
      </trkpt>
      <trkpt lat="-36.04082263552912" lon="174.529405852484">
        <ele>11</ele>
      </trkpt>
    </trkseg>
  </trk>
</gpx>