<?xml version="1.0" encoding="UTF-8" standalone="yes"?>
<gpx
 version="1.1"
 creator="Generated by MapOut iPhone App. See https://mapout.app"
 xmlns="http://www.topografix.com/GPX/1/1"
 xmlns:xsi="http://www.w3.org/2001/XMLSchema-instance"
 xmlns:gpxx="http://www.garmin.com/xmlschemas/GpxExtensions/v3"
 xmlns:mapout="https://mapout.app/xmlschemas/MapOutExtensions"
 xsi:schemaLocation="http://www.topografix.com/GPX/1/1 https://www.topografix.com/GPX/1/1/gpx.xsd http://www.garmin.com/xmlschemas/GpxExtensions/v3 https://www8.garmin.com/xmlschemas/GpxExtensionsv3.xsd https://mapout.app/xmlschemas/MapOutExtensions https://mapout.app/xmlschemas/MapOutExtensions.xsd">
  <metadata>
    <name>Meads Wall</name>
    <author><name>iPhone</name></author>
    <time>2026-05-20T08:08:07Z</time>
    <bounds minlat="-39.23743372115201" minlon="175.555796299828" maxlat="-39.23632638921622" maxlon="175.561395193591"/>
  </metadata>
  <trk>
    <name>Meads Wall</name>
    <trkseg>
      <trkpt lat="-39.23632638921622" lon="175.555826493975">
        <ele>1619</ele>
      </trkpt>
      <trkpt lat="-39.23634369635705" lon="175.555814419226">
        <ele>1619</ele>
      </trkpt>
      <trkpt lat="-39.23638088880411" lon="175.555796299828">
        <ele>1619</ele>
      </trkpt>
      <trkpt lat="-39.23638088880411" lon="175.555796299828">
        <ele>1619</ele>
      </trkpt>
      <trkpt lat="-39.2364257104711" lon="175.555863055503">
        <ele>1620</ele>
      </trkpt>
      <trkpt lat="-39.2364695784856" lon="175.555930764829">
        <ele>1620</ele>
      </trkpt>
      <trkpt lat="-39.23666507724585" lon="175.556197787526">
        <ele>1621</ele>
      </trkpt>
      <trkpt lat="-39.23666507724585" lon="175.556197787526">
        <ele>1621</ele>
      </trkpt>
      <trkpt lat="-39.23671562082777" lon="175.556266450505">
        <ele>1622</ele>
      </trkpt>
      <trkpt lat="-39.2367652107572" lon="175.556336067137">
        <ele>1622</ele>
      </trkpt>
      <trkpt lat="-39.23684913217623" lon="175.556407591074">
        <ele>1624</ele>
      </trkpt>
      <trkpt lat="-39.23688727827579" lon="175.556417127599">
        <ele>1624</ele>
      </trkpt>
      <trkpt lat="-39.23688727827579" lon="175.556417127599">
        <ele>1624</ele>
      </trkpt>
      <trkpt lat="-39.23699885561701" lon="175.55673183292">
        <ele>1626</ele>
      </trkpt>
      <trkpt lat="-39.23710852565325" lon="175.557254434484">
        <ele>1628</ele>
      </trkpt>
      <trkpt lat="-39.23713522792294" lon="175.557304024414">
        <ele>1628</ele>
      </trkpt>
      <trkpt lat="-39.23716765210757" lon="175.557343124166">
        <ele>1628</ele>
      </trkpt>
      <trkpt lat="-39.23742132366965" lon="175.557527179096">
        <ele>1631</ele>
      </trkpt>
      <trkpt lat="-39.23742132366965" lon="175.557527179096">
        <ele>1631</ele>
      </trkpt>
      <trkpt lat="-39.23743372115201" lon="175.557618729735">
        <ele>1633</ele>
      </trkpt>
      <trkpt lat="-39.23729734884608" lon="175.557847606332">
        <ele>1634</ele>
      </trkpt>
      <trkpt lat="-39.23722391760442" lon="175.557880984169">
        <ele>1633</ele>
      </trkpt>
      <trkpt lat="-39.23705607476635" lon="175.557820904063">
        <ele>1630</ele>
      </trkpt>
      <trkpt lat="-39.23696357047491" lon="175.557982071333">
        <ele>1630</ele>
      </trkpt>
      <trkpt lat="-39.23690635132557" lon="175.558208086973">
        <ele>1631</ele>
      </trkpt>
      <trkpt lat="-39.23689013923326" lon="175.55849799733">
        <ele>1633</ele>
      </trkpt>
      <trkpt lat="-39.23696261682242" lon="175.559198931909">
        <ele>1644</ele>
      </trkpt>
      <trkpt lat="-39.23693209994278" lon="175.559452603471">
        <ele>1645</ele>
      </trkpt>
      <trkpt lat="-39.23685294678619" lon="175.559663360671">
        <ele>1646</ele>
      </trkpt>
      <trkpt lat="-39.23676330345222" lon="175.559870303262">
        <ele>1646</ele>
      </trkpt>
      <trkpt lat="-39.23669750143048" lon="175.56">
        <ele>1646</ele>
      </trkpt>
      <trkpt lat="-39.23669750143048" lon="175.56">
        <ele>1646</ele>
      </trkpt>
      <trkpt lat="-39.23666412359336" lon="175.560064848369">
        <ele>1646</ele>
      </trkpt>
      <trkpt lat="-39.23656971199694" lon="175.560153538051">
        <ele>1646</ele>
      </trkpt>
      <trkpt lat="-39.23652489032996" lon="175.560244135037">
        <ele>1646</ele>
      </trkpt>
      <trkpt lat="-39.2365906923517" lon="175.560564562273">
        <ele>1649</ele>
      </trkpt>
      <trkpt lat="-39.2367470913599" lon="175.560884035857">
        <ele>1652</ele>
      </trkpt>
      <trkpt lat="-39.23677665458707" lon="175.561093839405">
        <ele>1652</ele>
      </trkpt>
      <trkpt lat="-39.23674995231737" lon="175.561395193591">
        <ele>1652</ele>
      </trkpt>
    </trkseg>
  </trk>
</gpx>