<?xml version="1.0" encoding="UTF-8" standalone="yes"?>
<gpx
 version="1.1"
 creator="Generated by MapOut iPhone App. See https://mapout.app"
 xmlns="http://www.topografix.com/GPX/1/1"
 xmlns:xsi="http://www.w3.org/2001/XMLSchema-instance"
 xmlns:gpxx="http://www.garmin.com/xmlschemas/GpxExtensions/v3"
 xmlns:mapout="https://mapout.app/xmlschemas/MapOutExtensions"
 xsi:schemaLocation="http://www.topografix.com/GPX/1/1 https://www.topografix.com/GPX/1/1/gpx.xsd http://www.garmin.com/xmlschemas/GpxExtensions/v3 https://www8.garmin.com/xmlschemas/GpxExtensionsv3.xsd https://mapout.app/xmlschemas/MapOutExtensions https://mapout.app/xmlschemas/MapOutExtensions.xsd">
  <metadata>
    <name>National Wildlife Centre Loop</name>
    <author><name>iPhone</name></author>
    <time>2026-06-20T23:27:59Z</time>
    <bounds minlat="-40.73202365058172" minlon="175.631973107" maxlat="-40.72212160451617" maxlon="175.644486934961"/>
  </metadata>
  <trk>
    <name>National Wildlife Centre Loop</name>
    <trkseg>
      <trkpt lat="-40.72212160451617" lon="175.640523824424">
        <ele>315</ele>
      </trkpt>
      <trkpt lat="-40.7221304596605" lon="175.640526416174">
        <ele>315</ele>
      </trkpt>
      <trkpt lat="-40.72218577150486" lon="175.640567423231">
        <ele>316</ele>
      </trkpt>
      <trkpt lat="-40.72218577150486" lon="175.640567423231">
        <ele>316</ele>
      </trkpt>
      <trkpt lat="-40.72224108334922" lon="175.640626549685">
        <ele>318</ele>
      </trkpt>
      <trkpt lat="-40.72229734884608" lon="175.640673278657">
        <ele>319</ele>
      </trkpt>
      <trkpt lat="-40.72229925615105" lon="175.640703795537">
        <ele>320</ele>
      </trkpt>
      <trkpt lat="-40.72219912263971" lon="175.640779134084">
        <ele>319</ele>
      </trkpt>
      <trkpt lat="-40.7221733740225" lon="175.64089261873">
        <ele>320</ele>
      </trkpt>
      <trkpt lat="-40.72216097654015" lon="175.641005149723">
        <ele>322</ele>
      </trkpt>
      <trkpt lat="-40.7222258249094" lon="175.64106904444">
        <ele>324</ele>
      </trkpt>
      <trkpt lat="-40.72229162693115" lon="175.641015639901">
        <ele>324</ele>
      </trkpt>
      <trkpt lat="-40.72235647530039" lon="175.640962235361">
        <ele>325</ele>
      </trkpt>
      <trkpt lat="-40.72246614533664" lon="175.640978447454">
        <ele>327</ele>
      </trkpt>
      <trkpt lat="-40.72246614533664" lon="175.641039481213">
        <ele>328</ele>
      </trkpt>
      <trkpt lat="-40.72246614533664" lon="175.641101468625">
        <ele>329</ele>
      </trkpt>
      <trkpt lat="-40.72231546824337" lon="175.641375166889">
        <ele>330</ele>
      </trkpt>
      <trkpt lat="-40.72218100324242" lon="175.641975967957">
        <ele>335</ele>
      </trkpt>
      <trkpt lat="-40.72224585161167" lon="175.642088498951">
        <ele>337</ele>
      </trkpt>
      <trkpt lat="-40.72231546824337" lon="175.642064657639">
        <ele>338</ele>
      </trkpt>
      <trkpt lat="-40.72238413122258" lon="175.642040816327">
        <ele>339</ele>
      </trkpt>
      <trkpt lat="-40.72250238413122" lon="175.642104711043">
        <ele>342</ele>
      </trkpt>
      <trkpt lat="-40.72262063703986" lon="175.642169559413">
        <ele>345</ele>
      </trkpt>
      <trkpt lat="-40.72269216097654" lon="175.642246805264">
        <ele>348</ele>
      </trkpt>
      <trkpt lat="-40.72276273126072" lon="175.642325004768">
        <ele>350</ele>
      </trkpt>
      <trkpt lat="-40.72283997711234" lon="175.642673087927">
        <ele>358</ele>
      </trkpt>
      <trkpt lat="-40.72280564562273" lon="175.642791340835">
        <ele>359</ele>
      </trkpt>
      <trkpt lat="-40.72277036048064" lon="175.642909593744">
        <ele>360</ele>
      </trkpt>
      <trkpt lat="-40.72273793629601" lon="175.643177570093">
        <ele>364</ele>
      </trkpt>
      <trkpt lat="-40.72267690253671" lon="175.643295823002">
        <ele>364</ele>
      </trkpt>
      <trkpt lat="-40.7225996566851" lon="175.643375929811">
        <ele>363</ele>
      </trkpt>
      <trkpt lat="-40.7225996566851" lon="175.643456990273">
        <ele>364</ele>
      </trkpt>
      <trkpt lat="-40.72264066374213" lon="175.643553309174">
        <ele>367</ele>
      </trkpt>
      <trkpt lat="-40.72268548540912" lon="175.643614342933">
        <ele>369</ele>
      </trkpt>
      <trkpt lat="-40.7227303070761" lon="175.643676330345">
        <ele>371</ele>
      </trkpt>
      <trkpt lat="-40.72280755292771" lon="175.6437354568">
        <ele>374</ele>
      </trkpt>
      <trkpt lat="-40.72288479877932" lon="175.643794583254">
        <ele>378</ele>
      </trkpt>
      <trkpt lat="-40.72290101087164" lon="175.643874690063">
        <ele>379</ele>
      </trkpt>
      <trkpt lat="-40.72285237459469" lon="175.643971962617">
        <ele>379</ele>
      </trkpt>
      <trkpt lat="-40.72284760633225" lon="175.644046347511">
        <ele>380</ele>
      </trkpt>
      <trkpt lat="-40.7229124547015" lon="175.644052069426">
        <ele>382</ele>
      </trkpt>
      <trkpt lat="-40.7229124547015" lon="175.644124547015">
        <ele>383</ele>
      </trkpt>
      <trkpt lat="-40.7229124547015" lon="175.644197024604">
        <ele>383</ele>
      </trkpt>
      <trkpt lat="-40.72288861338928" lon="175.644274270456">
        <ele>381</ele>
      </trkpt>
      <trkpt lat="-40.72286381842456" lon="175.64435246996">
        <ele>379</ele>
      </trkpt>
      <trkpt lat="-40.72282376502002" lon="175.644405874499">
        <ele>377</ele>
      </trkpt>
      <trkpt lat="-40.72285237459469" lon="175.644475491131">
        <ele>376</ele>
      </trkpt>
      <trkpt lat="-40.7229210375739" lon="175.644486934961">
        <ele>377</ele>
      </trkpt>
      <trkpt lat="-40.72303929048255" lon="175.644401106237">
        <ele>381</ele>
      </trkpt>
      <trkpt lat="-40.72329486934961" lon="175.644003433149">
        <ele>392</ele>
      </trkpt>
      <trkpt lat="-40.72337211520122" lon="175.643995803929">
        <ele>394</ele>
      </trkpt>
      <trkpt lat="-40.72344936105283" lon="175.643988174709">
        <ele>395</ele>
      </trkpt>
      <trkpt lat="-40.7235475872592" lon="175.643988174709">
        <ele>397</ele>
      </trkpt>
      <trkpt lat="-40.72360766736601" lon="175.644062559603">
        <ele>398</ele>
      </trkpt>
      <trkpt lat="-40.72363627694068" lon="175.644127407973">
        <ele>399</ele>
      </trkpt>
      <trkpt lat="-40.72374594697692" lon="175.644116917795">
        <ele>401</ele>
      </trkpt>
      <trkpt lat="-40.72408353995804" lon="175.643933816517">
        <ele>406</ele>
      </trkpt>
      <trkpt lat="-40.72471771886325" lon="175.643559031089">
        <ele>413</ele>
      </trkpt>
      <trkpt lat="-40.72482452794201" lon="175.643207133321">
        <ele>419</ele>
      </trkpt>
      <trkpt lat="-40.72490558840358" lon="175.643185199313">
        <ele>420</ele>
      </trkpt>
      <trkpt lat="-40.72498664886515" lon="175.643164218959">
        <ele>421</ele>
      </trkpt>
      <trkpt lat="-40.72505531184436" lon="175.643095555979">
        <ele>421</ele>
      </trkpt>
      <trkpt lat="-40.72512397482357" lon="175.643027846653">
        <ele>422</ele>
      </trkpt>
      <trkpt lat="-40.72515544535571" lon="175.642927713141">
        <ele>422</ele>
      </trkpt>
      <trkpt lat="-40.72518596223536" lon="175.642828533283">
        <ele>422</ele>
      </trkpt>
      <trkpt lat="-40.72529372496662" lon="175.642844745375">
        <ele>424</ele>
      </trkpt>
      <trkpt lat="-40.72540053404539" lon="175.642860957467">
        <ele>426</ele>
      </trkpt>
      <trkpt lat="-40.72578676330345" lon="175.643005912645">
        <ele>433</ele>
      </trkpt>
      <trkpt lat="-40.72589071142475" lon="175.642986839596">
        <ele>434</ele>
      </trkpt>
      <trkpt lat="-40.72599465954606" lon="175.642968720198">
        <ele>434</ele>
      </trkpt>
      <trkpt lat="-40.72608048827007" lon="175.642998283426">
        <ele>434</ele>
      </trkpt>
      <trkpt lat="-40.72616536334159" lon="175.643027846653">
        <ele>434</ele>
      </trkpt>
      <trkpt lat="-40.72623879458325" lon="175.642992561511">
        <ele>435</ele>
      </trkpt>
      <trkpt lat="-40.72631127217242" lon="175.642958230021">
        <ele>435</ele>
      </trkpt>
      <trkpt lat="-40.72658783139423" lon="175.642678809842">
        <ele>441</ele>
      </trkpt>
      <trkpt lat="-40.72663932862864" lon="175.642595842075">
        <ele>442</ele>
      </trkpt>
      <trkpt lat="-40.72668987221056" lon="175.642512874309">
        <ele>444</ele>
      </trkpt>
      <trkpt lat="-40.72679763494182" lon="175.642490940301">
        <ele>444</ele>
      </trkpt>
      <trkpt lat="-40.72690539767309" lon="175.642469959947">
        <ele>443</ele>
      </trkpt>
      <trkpt lat="-40.72712092313561" lon="175.642185771505">
        <ele>437</ele>
      </trkpt>
      <trkpt lat="-40.72723822239175" lon="175.64218004959">
        <ele>437</ele>
      </trkpt>
      <trkpt lat="-40.7273564753004" lon="175.642243944307">
        <ele>438</ele>
      </trkpt>
      <trkpt lat="-40.7276082395575" lon="175.642255388137">
        <ele>436</ele>
      </trkpt>
      <trkpt lat="-40.7277121876788" lon="175.642288765974">
        <ele>435</ele>
      </trkpt>
      <trkpt lat="-40.72781518214762" lon="175.642322143811">
        <ele>434</ele>
      </trkpt>
      <trkpt lat="-40.72792580583635" lon="175.642270646576">
        <ele>432</ele>
      </trkpt>
      <trkpt lat="-40.72796013732596" lon="175.642207705512">
        <ele>431</ele>
      </trkpt>
      <trkpt lat="-40.72799446881556" lon="175.642144764448">
        <ele>431</ele>
      </trkpt>
      <trkpt lat="-40.72810890711425" lon="175.642072286859">
        <ele>430</ele>
      </trkpt>
      <trkpt lat="-40.72818043105092" lon="175.642053213809">
        <ele>430</ele>
      </trkpt>
      <trkpt lat="-40.72825100133511" lon="175.642035094412">
        <ele>429</ele>
      </trkpt>
      <trkpt lat="-40.72830726683196" lon="175.641933053595">
        <ele>430</ele>
      </trkpt>
      <trkpt lat="-40.72831394239939" lon="175.641831012779">
        <ele>432</ele>
      </trkpt>
      <trkpt lat="-40.72831966431432" lon="175.641728971963">
        <ele>433</ele>
      </trkpt>
      <trkpt lat="-40.72851134846461" lon="175.641477207706">
        <ele>435</ele>
      </trkpt>
      <trkpt lat="-40.7284865534999" lon="175.641364676712">
        <ele>435</ele>
      </trkpt>
      <trkpt lat="-40.72846175853519" lon="175.641252145718">
        <ele>436</ele>
      </trkpt>
      <trkpt lat="-40.72846461949266" lon="175.64113389281">
        <ele>436</ele>
      </trkpt>
      <trkpt lat="-40.72846652679763" lon="175.641015639901">
        <ele>437</ele>
      </trkpt>
      <trkpt lat="-40.72857619683387" lon="175.640897386992">
        <ele>439</ele>
      </trkpt>
      <trkpt lat="-40.72866584016784" lon="175.640884035857">
        <ele>440</ele>
      </trkpt>
      <trkpt lat="-40.72875452984932" lon="175.640870684723">
        <ele>441</ele>
      </trkpt>
      <trkpt lat="-40.72882605378599" lon="175.640792485218">
        <ele>442</ele>
      </trkpt>
      <trkpt lat="-40.72889757772268" lon="175.640715239367">
        <ele>443</ele>
      </trkpt>
      <trkpt lat="-40.72896624070189" lon="175.640452984932">
        <ele>443</ele>
      </trkpt>
      <trkpt lat="-40.72901296967385" lon="175.640334732024">
        <ele>444</ele>
      </trkpt>
      <trkpt lat="-40.72905969864581" lon="175.640216479115">
        <ele>445</ele>
      </trkpt>
      <trkpt lat="-40.72934865534999" lon="175.64">
        <ele>447</ele>
      </trkpt>
      <trkpt lat="-40.72934865534999" lon="175.64">
        <ele>447</ele>
      </trkpt>
      <trkpt lat="-40.72941350371924" lon="175.639898912836">
        <ele>447</ele>
      </trkpt>
      <trkpt lat="-40.7294783520885" lon="175.639797825672">
        <ele>446</ele>
      </trkpt>
      <trkpt lat="-40.72951554453557" lon="175.639476444784">
        <ele>446</ele>
      </trkpt>
      <trkpt lat="-40.72956799542246" lon="175.639382033187">
        <ele>447</ele>
      </trkpt>
      <trkpt lat="-40.72962044630936" lon="175.639288575243">
        <ele>448</ele>
      </trkpt>
      <trkpt lat="-40.72970818233835" lon="175.639233263399">
        <ele>450</ele>
      </trkpt>
      <trkpt lat="-40.72979496471486" lon="175.639178905207">
        <ele>453</ele>
      </trkpt>
      <trkpt lat="-40.72997806599275" lon="175.638789814991">
        <ele>456</ele>
      </trkpt>
      <trkpt lat="-40.73005531184436" lon="175.638722105665">
        <ele>455</ele>
      </trkpt>
      <trkpt lat="-40.73013255769597" lon="175.63865534999">
        <ele>454</ele>
      </trkpt>
      <trkpt lat="-40.7302078962426" lon="175.638611481976">
        <ele>452</ele>
      </trkpt>
      <trkpt lat="-40.73028323478924" lon="175.638567613961">
        <ele>452</ele>
      </trkpt>
      <trkpt lat="-40.73035094411596" lon="175.638469387755">
        <ele>451</ele>
      </trkpt>
      <trkpt lat="-40.73041769979019" lon="175.638371161549">
        <ele>451</ele>
      </trkpt>
      <trkpt lat="-40.73060461567805" lon="175.637875262254">
        <ele>448</ele>
      </trkpt>
      <trkpt lat="-40.73069044440206" lon="175.637825672325">
        <ele>449</ele>
      </trkpt>
      <trkpt lat="-40.73077531947358" lon="175.637776082396">
        <ele>449</ele>
      </trkpt>
      <trkpt lat="-40.73083635323288" lon="175.637684531757">
        <ele>450</ele>
      </trkpt>
      <trkpt lat="-40.73089738699218" lon="175.637592981118">
        <ele>448</ele>
      </trkpt>
      <trkpt lat="-40.73094030135418" lon="175.637488079344">
        <ele>447</ele>
      </trkpt>
      <trkpt lat="-40.7309822620637" lon="175.637384131223">
        <ele>445</ele>
      </trkpt>
      <trkpt lat="-40.73099465954606" lon="175.637078008774">
        <ele>442</ele>
      </trkpt>
      <trkpt lat="-40.73104615678047" lon="175.63696547778">
        <ele>441</ele>
      </trkpt>
      <trkpt lat="-40.73109670036239" lon="175.636852946786">
        <ele>440</ele>
      </trkpt>
      <trkpt lat="-40.73113770741941" lon="175.636740415792">
        <ele>439</ele>
      </trkpt>
      <trkpt lat="-40.73117776082395" lon="175.636627884799">
        <ele>438</ele>
      </trkpt>
      <trkpt lat="-40.73125882128552" lon="175.63654014877">
        <ele>438</ele>
      </trkpt>
      <trkpt lat="-40.73133988174709" lon="175.636453366393">
        <ele>437</ele>
      </trkpt>
      <trkpt lat="-40.73144192256341" lon="175.636370398627">
        <ele>437</ele>
      </trkpt>
      <trkpt lat="-40.73135323288194" lon="175.635990844936">
        <ele>434</ele>
      </trkpt>
      <trkpt lat="-40.73136658401678" lon="175.635927903872">
        <ele>434</ele>
      </trkpt>
      <trkpt lat="-40.73137898149914" lon="175.635864962808">
        <ele>434</ele>
      </trkpt>
      <trkpt lat="-40.7313732595842" lon="175.635790577913">
        <ele>432</ele>
      </trkpt>
      <trkpt lat="-40.73136658401678" lon="175.635717146672">
        <ele>431</ele>
      </trkpt>
      <trkpt lat="-40.7313827961091" lon="175.635634178905">
        <ele>430</ele>
      </trkpt>
      <trkpt lat="-40.73135132557696" lon="175.635568376883">
        <ele>428</ele>
      </trkpt>
      <trkpt lat="-40.73134846461949" lon="175.635501621209">
        <ele>427</ele>
      </trkpt>
      <trkpt lat="-40.73134560366202" lon="175.635435819187">
        <ele>426</ele>
      </trkpt>
      <trkpt lat="-40.73130078199504" lon="175.635340453939">
        <ele>423</ele>
      </trkpt>
      <trkpt lat="-40.73129696738508" lon="175.635273698264">
        <ele>422</ele>
      </trkpt>
      <trkpt lat="-40.73131985504482" lon="175.635185962235">
        <ele>421</ele>
      </trkpt>
      <trkpt lat="-40.73140282281136" lon="175.635068662979">
        <ele>419</ele>
      </trkpt>
      <trkpt lat="-40.73142952508105" lon="175.635066755674">
        <ele>420</ele>
      </trkpt>
      <trkpt lat="-40.7314609956132" lon="175.635089643334">
        <ele>420</ele>
      </trkpt>
      <trkpt lat="-40.73147625405302" lon="175.635089643334">
        <ele>420</ele>
      </trkpt>
      <trkpt lat="-40.73148769788289" lon="175.635066755674">
        <ele>420</ele>
      </trkpt>
      <trkpt lat="-40.73147720770551" lon="175.635017165745">
        <ele>419</ele>
      </trkpt>
      <trkpt lat="-40.73145622735075" lon="175.63497329773">
        <ele>418</ele>
      </trkpt>
      <trkpt lat="-40.73142952508105" lon="175.634947549113">
        <ele>417</ele>
      </trkpt>
      <trkpt lat="-40.73137612054167" lon="175.634943734503">
        <ele>416</ele>
      </trkpt>
      <trkpt lat="-40.7313560938394" lon="175.634927522411">
        <ele>416</ele>
      </trkpt>
      <trkpt lat="-40.7313560938394" lon="175.634897005531">
        <ele>415</ele>
      </trkpt>
      <trkpt lat="-40.73138565706656" lon="175.634880793439">
        <ele>415</ele>
      </trkpt>
      <trkpt lat="-40.73145241274079" lon="175.63481213046">
        <ele>414</ele>
      </trkpt>
      <trkpt lat="-40.73151821476254" lon="175.63474346748">
        <ele>413</ele>
      </trkpt>
      <trkpt lat="-40.73156303642952" lon="175.634718672516">
        <ele>412</ele>
      </trkpt>
      <trkpt lat="-40.73159546061415" lon="175.634627121877">
        <ele>410</ele>
      </trkpt>
      <trkpt lat="-40.73163837497616" lon="175.63457085638">
        <ele>409</ele>
      </trkpt>
      <trkpt lat="-40.73170703795537" lon="175.63452889567">
        <ele>409</ele>
      </trkpt>
      <trkpt lat="-40.7317213427427" lon="175.634491703223">
        <ele>409</ele>
      </trkpt>
      <trkpt lat="-40.7317566278848" lon="175.634187488079">
        <ele>402</ele>
      </trkpt>
      <trkpt lat="-40.73177760823955" lon="175.634142666412">
        <ele>402</ele>
      </trkpt>
      <trkpt lat="-40.73177760823955" lon="175.634112149533">
        <ele>401</ele>
      </trkpt>
      <trkpt lat="-40.73178714476445" lon="175.634076864391">
        <ele>401</ele>
      </trkpt>
      <trkpt lat="-40.73184150295632" lon="175.634004386801">
        <ele>401</ele>
      </trkpt>
      <trkpt lat="-40.7318786954034" lon="175.633924279992">
        <ele>401</ele>
      </trkpt>
      <trkpt lat="-40.73194259012016" lon="175.633825100134">
        <ele>401</ele>
      </trkpt>
      <trkpt lat="-40.73196929238985" lon="175.633749761587">
        <ele>400</ele>
      </trkpt>
      <trkpt lat="-40.73199599465954" lon="175.633645813466">
        <ele>399</ele>
      </trkpt>
      <trkpt lat="-40.7319998092695" lon="175.633584779706">
        <ele>398</ele>
      </trkpt>
      <trkpt lat="-40.73200267022697" lon="175.633523745947">
        <ele>397</ele>
      </trkpt>
      <trkpt lat="-40.73199599465954" lon="175.633457943925">
        <ele>395</ele>
      </trkpt>
      <trkpt lat="-40.73199885561701" lon="175.633424566088">
        <ele>395</ele>
      </trkpt>
      <trkpt lat="-40.73202078962426" lon="175.633390234598">
        <ele>395</ele>
      </trkpt>
      <trkpt lat="-40.73202365058172" lon="175.633365439634">
        <ele>395</ele>
      </trkpt>
      <trkpt lat="-40.73201029944688" lon="175.633353042151">
        <ele>394</ele>
      </trkpt>
      <trkpt lat="-40.73199027274461" lon="175.633358764066">
        <ele>393</ele>
      </trkpt>
      <trkpt lat="-40.73192923898531" lon="175.633413122258">
        <ele>393</ele>
      </trkpt>
      <trkpt lat="-40.73186725157353" lon="175.633468434103">
        <ele>392</ele>
      </trkpt>
      <trkpt lat="-40.73183578104138" lon="175.633457943925">
        <ele>391</ele>
      </trkpt>
      <trkpt lat="-40.73181861529658" lon="175.633428380698">
        <ele>390</ele>
      </trkpt>
      <trkpt lat="-40.73181956894907" lon="175.633390234598">
        <ele>389</ele>
      </trkpt>
      <trkpt lat="-40.73183292008392" lon="175.633346366584">
        <ele>389</ele>
      </trkpt>
      <trkpt lat="-40.73176807171466" lon="175.633236696548">
        <ele>385</ele>
      </trkpt>
      <trkpt lat="-40.73172897196261" lon="175.633159450696">
        <ele>383</ele>
      </trkpt>
      <trkpt lat="-40.73168891855808" lon="175.633082204845">
        <ele>381</ele>
      </trkpt>
      <trkpt lat="-40.73161358001144" lon="175.63300019073">
        <ele>379</ele>
      </trkpt>
      <trkpt lat="-40.73155159259965" lon="175.632978256723">
        <ele>378</ele>
      </trkpt>
      <trkpt lat="-40.73148960518787" lon="175.632957276369">
        <ele>376</ele>
      </trkpt>
      <trkpt lat="-40.73141235933625" lon="175.632918176616">
        <ele>375</ele>
      </trkpt>
      <trkpt lat="-40.73136658401678" lon="175.632864772077">
        <ele>374</ele>
      </trkpt>
      <trkpt lat="-40.73132843791722" lon="175.632761777608">
        <ele>372</ele>
      </trkpt>
      <trkpt lat="-40.73129410642761" lon="175.632715048636">
        <ele>371</ele>
      </trkpt>
      <trkpt lat="-40.73118729734885" lon="175.63263589548">
        <ele>369</ele>
      </trkpt>
      <trkpt lat="-40.73117108525653" lon="175.632600610338">
        <ele>368</ele>
      </trkpt>
      <trkpt lat="-40.73115201220675" lon="175.632503337784">
        <ele>367</ele>
      </trkpt>
      <trkpt lat="-40.73113198550448" lon="175.63240606523">
        <ele>366</ele>
      </trkpt>
      <trkpt lat="-40.73111386610719" lon="175.63238317757">
        <ele>366</ele>
      </trkpt>
      <trkpt lat="-40.73108907114247" lon="175.632396528705">
        <ele>366</ele>
      </trkpt>
      <trkpt lat="-40.73107095174518" lon="175.63242895289">
        <ele>365</ele>
      </trkpt>
      <trkpt lat="-40.73104043486553" lon="175.632450886897">
        <ele>365</ele>
      </trkpt>
      <trkpt lat="-40.73100038146099" lon="175.632455655159">
        <ele>365</ele>
      </trkpt>
      <trkpt lat="-40.7309479305741" lon="175.632430860195">
        <ele>364</ele>
      </trkpt>
      <trkpt lat="-40.7309040625596" lon="175.632395575052">
        <ele>363</ele>
      </trkpt>
      <trkpt lat="-40.73083635323288" lon="175.632389853138">
        <ele>362</ele>
      </trkpt>
      <trkpt lat="-40.73076578294869" lon="175.632372687393">
        <ele>361</ele>
      </trkpt>
      <trkpt lat="-40.73070093457944" lon="175.632310699981">
        <ele>360</ele>
      </trkpt>
      <trkpt lat="-40.73062082777036" lon="175.632247758917">
        <ele>358</ele>
      </trkpt>
      <trkpt lat="-40.73053309174136" lon="175.632155254625">
        <ele>357</ele>
      </trkpt>
      <trkpt lat="-40.73048445546443" lon="175.632089452603">
        <ele>356</ele>
      </trkpt>
      <trkpt lat="-40.73043581918748" lon="175.632023650582">
        <ele>355</ele>
      </trkpt>
      <trkpt lat="-40.7303909975205" lon="175.631994087355">
        <ele>354</ele>
      </trkpt>
      <trkpt lat="-40.73033663932863" lon="175.631986458135">
        <ele>354</ele>
      </trkpt>
      <trkpt lat="-40.73023364485981" lon="175.632005531184">
        <ele>352</ele>
      </trkpt>
      <trkpt lat="-40.73013637230593" lon="175.631973107">
        <ele>351</ele>
      </trkpt>
      <trkpt lat="-40.7300781995041" lon="175.63198073622">
        <ele>350</ele>
      </trkpt>
      <trkpt lat="-40.73002098035476" lon="175.632010299447">
        <ele>349</ele>
      </trkpt>
      <trkpt lat="-40.72996376120541" lon="175.632090406256">
        <ele>349</ele>
      </trkpt>
      <trkpt lat="-40.72991703223345" lon="175.632135227923">
        <ele>348</ele>
      </trkpt>
      <trkpt lat="-40.72986553499904" lon="175.632156208278">
        <ele>347</ele>
      </trkpt>
      <trkpt lat="-40.72980068662979" lon="175.632173374022">
        <ele>346</ele>
      </trkpt>
      <trkpt lat="-40.72973488460804" lon="175.63219149342">
        <ele>345</ele>
      </trkpt>
      <trkpt lat="-40.7296604997139" lon="175.632231546824">
        <ele>344</ele>
      </trkpt>
      <trkpt lat="-40.72953938584779" lon="175.632345031471">
        <ele>343</ele>
      </trkpt>
      <trkpt lat="-40.72950982262063" lon="175.6323946214">
        <ele>343</ele>
      </trkpt>
      <trkpt lat="-40.72949742513828" lon="175.632435628457">
        <ele>343</ele>
      </trkpt>
      <trkpt lat="-40.72949361052832" lon="175.632500476826">
        <ele>343</ele>
      </trkpt>
      <trkpt lat="-40.7294602326912" lon="175.632589166508">
        <ele>344</ele>
      </trkpt>
      <trkpt lat="-40.72939156971199" lon="175.632653061224">
        <ele>343</ele>
      </trkpt>
      <trkpt lat="-40.72930383368301" lon="175.632688346367">
        <ele>342</ele>
      </trkpt>
      <trkpt lat="-40.72925805836353" lon="175.632671180622">
        <ele>342</ele>
      </trkpt>
      <trkpt lat="-40.72921514400152" lon="175.632608239557">
        <ele>340</ele>
      </trkpt>
      <trkpt lat="-40.72917222963952" lon="175.632546252146">
        <ele>339</ele>
      </trkpt>
      <trkpt lat="-40.72908353995803" lon="175.632500476826">
        <ele>336</ele>
      </trkpt>
      <trkpt lat="-40.72896624070189" lon="175.632471867252">
        <ele>333</ele>
      </trkpt>
      <trkpt lat="-40.72890234598512" lon="175.632474728209">
        <ele>332</ele>
      </trkpt>
      <trkpt lat="-40.72887659736791" lon="175.632513827961">
        <ele>332</ele>
      </trkpt>
      <trkpt lat="-40.72886515353805" lon="175.632556742323">
        <ele>332</ele>
      </trkpt>
      <trkpt lat="-40.72882033187106" lon="175.632584398245">
        <ele>331</ele>
      </trkpt>
      <trkpt lat="-40.72873450314705" lon="175.632556742323">
        <ele>329</ele>
      </trkpt>
      <trkpt lat="-40.72865439633797" lon="175.632476635514">
        <ele>326</ele>
      </trkpt>
      <trkpt lat="-40.72857428952889" lon="175.632396528705">
        <ele>323</ele>
      </trkpt>
      <trkpt lat="-40.72855903108907" lon="175.632404157925">
        <ele>323</ele>
      </trkpt>
      <trkpt lat="-40.72852946786191" lon="175.632510013351">
        <ele>323</ele>
      </trkpt>
      <trkpt lat="-40.72850944115964" lon="175.632516688919">
        <ele>323</ele>
      </trkpt>
      <trkpt lat="-40.72849132176235" lon="175.632499523174">
        <ele>322</ele>
      </trkpt>
      <trkpt lat="-40.7284608048827" lon="175.632403204272">
        <ele>321</ele>
      </trkpt>
      <trkpt lat="-40.72844650009536" lon="175.632387945833">
        <ele>320</ele>
      </trkpt>
      <trkpt lat="-40.72843028800305" lon="175.632403204272">
        <ele>320</ele>
      </trkpt>
      <trkpt lat="-40.7284169368682" lon="175.632469959947">
        <ele>320</ele>
      </trkpt>
      <trkpt lat="-40.72840358573335" lon="175.632536715621">
        <ele>321</ele>
      </trkpt>
      <trkpt lat="-40.728391188251" lon="175.632558649628">
        <ele>321</ele>
      </trkpt>
      <trkpt lat="-40.72836543963379" lon="175.632558649628">
        <ele>320</ele>
      </trkpt>
      <trkpt lat="-40.7283387373641" lon="175.632528132748">
        <ele>319</ele>
      </trkpt>
      <trkpt lat="-40.72830154491703" lon="175.632426091932">
        <ele>318</ele>
      </trkpt>
      <trkpt lat="-40.72828342551973" lon="175.632392714095">
        <ele>317</ele>
      </trkpt>
      <trkpt lat="-40.72825767690254" lon="175.632381270265">
        <ele>317</ele>
      </trkpt>
      <trkpt lat="-40.72824146481022" lon="175.632392714095">
        <ele>317</ele>
      </trkpt>
      <trkpt lat="-40.72823574289529" lon="175.632427045585">
        <ele>317</ele>
      </trkpt>
      <trkpt lat="-40.7282080869731" lon="175.632460423422">
        <ele>317</ele>
      </trkpt>
      <trkpt lat="-40.72813751668892" lon="175.632473774557">
        <ele>317</ele>
      </trkpt>
      <trkpt lat="-40.72806694640472" lon="175.632487125691">
        <ele>316</ele>
      </trkpt>
      <trkpt lat="-40.72802784665268" lon="175.632521457181">
        <ele>316</ele>
      </trkpt>
      <trkpt lat="-40.72800877360289" lon="175.632568186153">
        <ele>316</ele>
      </trkpt>
      <trkpt lat="-40.72799828342551" lon="175.632636849132">
        <ele>317</ele>
      </trkpt>
      <trkpt lat="-40.72799637612054" lon="175.632726492466">
        <ele>319</ele>
      </trkpt>
      <trkpt lat="-40.72799446881556" lon="175.6328161358">
        <ele>320</ele>
      </trkpt>
      <trkpt lat="-40.72797062750333" lon="175.632879076864">
        <ele>321</ele>
      </trkpt>
      <trkpt lat="-40.72793248140378" lon="175.632922944879">
        <ele>321</ele>
      </trkpt>
      <trkpt lat="-40.72786763303452" lon="175.632966812893">
        <ele>320</ele>
      </trkpt>
      <trkpt lat="-40.72780183101278" lon="175.63301163456">
        <ele>319</ele>
      </trkpt>
      <trkpt lat="-40.72776273126073" lon="175.633066946405">
        <ele>319</ele>
      </trkpt>
      <trkpt lat="-40.72749856952127" lon="175.633518977685">
        <ele>318</ele>
      </trkpt>
      <trkpt lat="-40.72740225061987" lon="175.633609574671">
        <ele>318</ele>
      </trkpt>
      <trkpt lat="-40.72730593171848" lon="175.63370112531">
        <ele>317</ele>
      </trkpt>
      <trkpt lat="-40.72701316040435" lon="175.633878504673">
        <ele>313</ele>
      </trkpt>
      <trkpt lat="-40.72678333015449" lon="175.634283806981">
        <ele>310</ele>
      </trkpt>
      <trkpt lat="-40.72674613770742" lon="175.63457085638">
        <ele>313</ele>
      </trkpt>
      <trkpt lat="-40.72661262635895" lon="175.63502670227">
        <ele>316</ele>
      </trkpt>
      <trkpt lat="-40.72634178905206" lon="175.635374785428">
        <ele>316</ele>
      </trkpt>
      <trkpt lat="-40.72627503337783" lon="175.635761014686">
        <ele>317</ele>
      </trkpt>
      <trkpt lat="-40.72620350944116" lon="175.635882128552">
        <ele>317</ele>
      </trkpt>
      <trkpt lat="-40.72613103185199" lon="175.636003242418">
        <ele>317</ele>
      </trkpt>
      <trkpt lat="-40.72604997139042" lon="175.636090024795">
        <ele>316</ele>
      </trkpt>
      <trkpt lat="-40.72596795727637" lon="175.636176807171">
        <ele>315</ele>
      </trkpt>
      <trkpt lat="-40.7259298111768" lon="175.636442876216">
        <ele>316</ele>
      </trkpt>
      <trkpt lat="-40.72573049780659" lon="175.636783330154">
        <ele>317</ele>
      </trkpt>
      <trkpt lat="-40.72564657638756" lon="175.636856761396">
        <ele>317</ele>
      </trkpt>
      <trkpt lat="-40.72556170131604" lon="175.63693114629">
        <ele>318</ele>
      </trkpt>
      <trkpt lat="-40.72545012397482" lon="175.6369349609">
        <ele>317</ele>
      </trkpt>
      <trkpt lat="-40.72533759298111" lon="175.63693877551">
        <ele>316</ele>
      </trkpt>
      <trkpt lat="-40.72498664886515" lon="175.636863436964">
        <ele>312</ele>
      </trkpt>
      <trkpt lat="-40.72471199694831" lon="175.636872019836">
        <ele>311</ele>
      </trkpt>
      <trkpt lat="-40.72458992942971" lon="175.636994087355">
        <ele>311</ele>
      </trkpt>
      <trkpt lat="-40.72446786191112" lon="175.637116154873">
        <ele>311</ele>
      </trkpt>
      <trkpt lat="-40.72415506389471" lon="175.637446118634">
        <ele>309</ele>
      </trkpt>
      <trkpt lat="-40.7239557505245" lon="175.637829486935">
        <ele>308</ele>
      </trkpt>
      <trkpt lat="-40.72395288956704" lon="175.637908640092">
        <ele>308</ele>
      </trkpt>
      <trkpt lat="-40.72395002860957" lon="175.637987793248">
        <ele>308</ele>
      </trkpt>
      <trkpt lat="-40.72390616059508" lon="175.638051687965">
        <ele>308</ele>
      </trkpt>
      <trkpt lat="-40.72386229258058" lon="175.638116536334">
        <ele>308</ele>
      </trkpt>
      <trkpt lat="-40.7238581172701" lon="175.638172485495">
        <ele>308</ele>
      </trkpt>
    </trkseg>
  </trk>
</gpx>