<?xml version="1.0" encoding="UTF-8" standalone="yes"?>
<gpx
 version="1.1"
 creator="Generated by MapOut iPhone App. See https://mapout.app"
 xmlns="http://www.topografix.com/GPX/1/1"
 xmlns:xsi="http://www.w3.org/2001/XMLSchema-instance"
 xmlns:gpxx="http://www.garmin.com/xmlschemas/GpxExtensions/v3"
 xmlns:mapout="https://mapout.app/xmlschemas/MapOutExtensions"
 xsi:schemaLocation="http://www.topografix.com/GPX/1/1 https://www.topografix.com/GPX/1/1/gpx.xsd http://www.garmin.com/xmlschemas/GpxExtensions/v3 https://www8.garmin.com/xmlschemas/GpxExtensionsv3.xsd https://mapout.app/xmlschemas/MapOutExtensions https://mapout.app/xmlschemas/MapOutExtensions.xsd">
  <metadata>
    <name>Maitai Bay</name>
    <author><name>iPhone</name></author>
    <time>2026-03-16T22:54:57Z</time>
    <bounds minlat="-34.8286513052716" minlon="173.406710908484" maxlat="-34.8218570378542" maxlon="173.410426608691"/>
  </metadata>
  <trk>
    <name>Maitai Bay</name>
    <trkseg>
      <trkpt lat="-34.8218570378542" lon="173.408378308513">
        <ele>24</ele>
      </trkpt>
      <trkpt lat="-34.82239070210402" lon="173.407659492766">
        <ele>21</ele>
      </trkpt>
      <trkpt lat="-34.82336638558102" lon="173.407142648114">
        <ele>12</ele>
      </trkpt>
      <trkpt lat="-34.82403207065566" lon="173.406859268541">
        <ele>12</ele>
      </trkpt>
      <trkpt lat="-34.82489480827655" lon="173.406710908484">
        <ele>10</ele>
      </trkpt>
      <trkpt lat="-34.82595919166354" lon="173.406752511001">
        <ele>9</ele>
      </trkpt>
      <trkpt lat="-34.82721178404662" lon="173.406953325166">
        <ele>10</ele>
      </trkpt>
      <trkpt lat="-34.82806773166227" lon="173.407554628118">
        <ele>9</ele>
      </trkpt>
      <trkpt lat="-34.8286513052716" lon="173.408514997667">
        <ele>9</ele>
      </trkpt>
      <trkpt lat="-34.8286144836566" lon="173.409952218378">
        <ele>9</ele>
      </trkpt>
      <trkpt lat="-34.828435560531" lon="173.410426608691">
        <ele>8</ele>
      </trkpt>
    </trkseg>
  </trk>
</gpx>