<?xml version="1.0" encoding="UTF-8" standalone="yes"?>
<gpx
 version="1.1"
 creator="Generated by MapOut iPhone App. See https://mapout.app"
 xmlns="http://www.topografix.com/GPX/1/1"
 xmlns:xsi="http://www.w3.org/2001/XMLSchema-instance"
 xmlns:gpxx="http://www.garmin.com/xmlschemas/GpxExtensions/v3"
 xmlns:mapout="https://mapout.app/xmlschemas/MapOutExtensions"
 xsi:schemaLocation="http://www.topografix.com/GPX/1/1 https://www.topografix.com/GPX/1/1/gpx.xsd http://www.garmin.com/xmlschemas/GpxExtensions/v3 https://www8.garmin.com/xmlschemas/GpxExtensionsv3.xsd https://mapout.app/xmlschemas/MapOutExtensions https://mapout.app/xmlschemas/MapOutExtensions.xsd">
  <metadata>
    <name>Wilkies Pools Loop</name>
    <author><name>iPhone</name></author>
    <time>2026-05-26T01:01:47Z</time>
    <bounds minlat="-39.32393313464444" minlon="174.094291436201" maxlat="-39.31524890329964" maxlon="174.103705893572"/>
  </metadata>
  <trk>
    <name>Wilkies Pools Loop</name>
    <trkseg>
      <trkpt lat="-39.32393313464444" lon="174.103565264354">
        <ele>899</ele>
      </trkpt>
      <trkpt lat="-39.32384131222582" lon="174.103589547969">
        <ele>900</ele>
      </trkpt>
      <trkpt lat="-39.32372496662216" lon="174.103621018501">
        <ele>902</ele>
      </trkpt>
      <trkpt lat="-39.32372496662216" lon="174.103621018501">
        <ele>902</ele>
      </trkpt>
      <trkpt lat="-39.32366393286286" lon="174.103514209422">
        <ele>903</ele>
      </trkpt>
      <trkpt lat="-39.32362674041579" lon="174.103488460805">
        <ele>904</ele>
      </trkpt>
      <trkpt lat="-39.32356379935151" lon="174.103409307648">
        <ele>906</ele>
      </trkpt>
      <trkpt lat="-39.32359526988365" lon="174.103374976159">
        <ele>906</ele>
      </trkpt>
      <trkpt lat="-39.32359526988365" lon="174.103374976159">
        <ele>906</ele>
      </trkpt>
      <trkpt lat="-39.32344650009536" lon="174.103313942399">
        <ele>908</ele>
      </trkpt>
      <trkpt lat="-39.32331203509441" lon="174.10324527942">
        <ele>911</ele>
      </trkpt>
      <trkpt lat="-39.32331203509441" lon="174.10324527942">
        <ele>911</ele>
      </trkpt>
      <trkpt lat="-39.32301163456037" lon="174.10300781995">
        <ele>912</ele>
      </trkpt>
      <trkpt lat="-39.32287621590692" lon="174.10300781995">
        <ele>913</ele>
      </trkpt>
      <trkpt lat="-39.32281995041007" lon="174.102986839596">
        <ele>913</ele>
      </trkpt>
      <trkpt lat="-39.32272649246615" lon="174.10286572573">
        <ele>914</ele>
      </trkpt>
      <trkpt lat="-39.32259679572763" lon="174.102739843601">
        <ele>915</ele>
      </trkpt>
      <trkpt lat="-39.32243086019454" lon="174.10259774938">
        <ele>916</ele>
      </trkpt>
      <trkpt lat="-39.32216669845508" lon="174.102343124166">
        <ele>920</ele>
      </trkpt>
      <trkpt lat="-39.32177474728209" lon="174.101674613771">
        <ele>926</ele>
      </trkpt>
      <trkpt lat="-39.32160690444402" lon="174.101171085257">
        <ele>930</ele>
      </trkpt>
      <trkpt lat="-39.32126645050543" lon="174.100598893763">
        <ele>935</ele>
      </trkpt>
      <trkpt lat="-39.32101850085829" lon="174.100445355712">
        <ele>938</ele>
      </trkpt>
      <trkpt lat="-39.32052832347892" lon="174.100181193973">
        <ele>944</ele>
      </trkpt>
      <trkpt lat="-39.32032614915125" lon="174.1">
        <ele>947</ele>
      </trkpt>
      <trkpt lat="-39.32032614915125" lon="174.1">
        <ele>947</ele>
      </trkpt>
      <trkpt lat="-39.32" lon="174.099710089643">
        <ele>954</ele>
      </trkpt>
      <trkpt lat="-39.32" lon="174.099710089643">
        <ele>954</ele>
      </trkpt>
      <trkpt lat="-39.31990558840359" lon="174.099627121877">
        <ele>956</ele>
      </trkpt>
      <trkpt lat="-39.31981022315468" lon="174.09954415411">
        <ele>958</ele>
      </trkpt>
      <trkpt lat="-39.31971581155827" lon="174.099423993897">
        <ele>960</ele>
      </trkpt>
      <trkpt lat="-39.31962139996185" lon="174.099304787336">
        <ele>961</ele>
      </trkpt>
      <trkpt lat="-39.31957753194736" lon="174.099219912264">
        <ele>962</ele>
      </trkpt>
      <trkpt lat="-39.31953271028038" lon="174.099135037192">
        <ele>963</ele>
      </trkpt>
      <trkpt lat="-39.31932290673279" lon="174.098871829106">
        <ele>967</ele>
      </trkpt>
      <trkpt lat="-39.31915220293725" lon="174.098561892047">
        <ele>972</ele>
      </trkpt>
      <trkpt lat="-39.31895193591455" lon="174.09830249857">
        <ele>976</ele>
      </trkpt>
      <trkpt lat="-39.3188870875453" lon="174.098235742895">
        <ele>977</ele>
      </trkpt>
      <trkpt lat="-39.31882223917604" lon="174.098169940874">
        <ele>977</ele>
      </trkpt>
      <trkpt lat="-39.31842170513065" lon="174.097921991226">
        <ele>981</ele>
      </trkpt>
      <trkpt lat="-39.31842265878314" lon="174.097855235552">
        <ele>982</ele>
      </trkpt>
      <trkpt lat="-39.31842361243563" lon="174.09778943353">
        <ele>983</ele>
      </trkpt>
      <trkpt lat="-39.31839023459852" lon="174.097702651154">
        <ele>985</ele>
      </trkpt>
      <trkpt lat="-39.31832061796681" lon="174.09758630555">
        <ele>987</ele>
      </trkpt>
      <trkpt lat="-39.31825004768262" lon="174.097469959947">
        <ele>989</ele>
      </trkpt>
      <trkpt lat="-39.31817852374595" lon="174.097386038528">
        <ele>990</ele>
      </trkpt>
      <trkpt lat="-39.31812321190159" lon="174.097278275796">
        <ele>991</ele>
      </trkpt>
      <trkpt lat="-39.31807552927713" lon="174.09715716193">
        <ele>993</ele>
      </trkpt>
      <trkpt lat="-39.3180955559794" lon="174.097118062178">
        <ele>993</ele>
      </trkpt>
      <trkpt lat="-39.31812607285905" lon="174.097006484837">
        <ele>994</ele>
      </trkpt>
      <trkpt lat="-39.31815563608621" lon="174.096895861148">
        <ele>996</ele>
      </trkpt>
      <trkpt lat="-39.31810986076674" lon="174.096819568949">
        <ele>997</ele>
      </trkpt>
      <trkpt lat="-39.31806313179477" lon="174.096744230402">
        <ele>998</ele>
      </trkpt>
      <trkpt lat="-39.31796585924089" lon="174.096741369445">
        <ele>998</ele>
      </trkpt>
      <trkpt lat="-39.31786763303452" lon="174.09673946214">
        <ele>999</ele>
      </trkpt>
      <trkpt lat="-39.31776368491322" lon="174.096691779516">
        <ele>1000</ele>
      </trkpt>
      <trkpt lat="-39.31765973679192" lon="174.096645050544">
        <ele>1001</ele>
      </trkpt>
      <trkpt lat="-39.31757581537288" lon="174.09654396338">
        <ele>1004</ele>
      </trkpt>
      <trkpt lat="-39.31749189395384" lon="174.096443829868">
        <ele>1007</ele>
      </trkpt>
      <trkpt lat="-39.31742895288957" lon="174.09633702079">
        <ele>1010</ele>
      </trkpt>
      <trkpt lat="-39.3173650581728" lon="174.096230211711">
        <ele>1012</ele>
      </trkpt>
      <trkpt lat="-39.31732023650582" lon="174.096143429334">
        <ele>1014</ele>
      </trkpt>
      <trkpt lat="-39.31727446118634" lon="174.09605760061">
        <ele>1015</ele>
      </trkpt>
      <trkpt lat="-39.31725920274652" lon="174.095994659546">
        <ele>1017</ele>
      </trkpt>
      <trkpt lat="-39.31720484455465" lon="174.095942208659">
        <ele>1017</ele>
      </trkpt>
      <trkpt lat="-39.31716288384513" lon="174.095864962808">
        <ele>1018</ele>
      </trkpt>
      <trkpt lat="-39.31712092313561" lon="174.095787716956">
        <ele>1019</ele>
      </trkpt>
      <trkpt lat="-39.3171571619302" lon="174.095694259012">
        <ele>1022</ele>
      </trkpt>
      <trkpt lat="-39.3171304596605" lon="174.095629410643">
        <ele>1022</ele>
      </trkpt>
      <trkpt lat="-39.31702555788671" lon="174.095661834827">
        <ele>1020</ele>
      </trkpt>
      <trkpt lat="-39.31695403395003" lon="174.09566660309">
        <ele>1018</ele>
      </trkpt>
      <trkpt lat="-39.31696166316994" lon="174.095593171848">
        <ele>1020</ele>
      </trkpt>
      <trkpt lat="-39.31700267022697" lon="174.095507343124">
        <ele>1022</ele>
      </trkpt>
      <trkpt lat="-39.31701316040435" lon="174.09541769979">
        <ele>1024</ele>
      </trkpt>
      <trkpt lat="-39.31697215334732" lon="174.095367156208">
        <ele>1024</ele>
      </trkpt>
      <trkpt lat="-39.31691111958803" lon="174.095334732024">
        <ele>1024</ele>
      </trkpt>
      <trkpt lat="-39.31685008582873" lon="174.095303261492">
        <ele>1023</ele>
      </trkpt>
      <trkpt lat="-39.31680240320428" lon="174.09526034713">
        <ele>1022</ele>
      </trkpt>
      <trkpt lat="-39.31677665458707" lon="174.095200267023">
        <ele>1023</ele>
      </trkpt>
      <trkpt lat="-39.3166784283807" lon="174.095100133511">
        <ele>1022</ele>
      </trkpt>
      <trkpt lat="-39.31663551401869" lon="174.095168796491">
        <ele>1021</ele>
      </trkpt>
      <trkpt lat="-39.31663551401869" lon="174.095168796491">
        <ele>1021</ele>
      </trkpt>
      <trkpt lat="-39.31658401678428" lon="174.095238413122">
        <ele>1021</ele>
      </trkpt>
      <trkpt lat="-39.31653251954988" lon="174.095308029754">
        <ele>1021</ele>
      </trkpt>
      <trkpt lat="-39.31653251954988" lon="174.095308029754">
        <ele>1021</ele>
      </trkpt>
      <trkpt lat="-39.3164962807553" lon="174.095355712378">
        <ele>1021</ele>
      </trkpt>
      <trkpt lat="-39.3164962807553" lon="174.095355712378">
        <ele>1021</ele>
      </trkpt>
      <trkpt lat="-39.31640663742132" lon="174.095255578867">
        <ele>1024</ele>
      </trkpt>
      <trkpt lat="-39.31631699408736" lon="174.095155445356">
        <ele>1027</ele>
      </trkpt>
      <trkpt lat="-39.31631699408736" lon="174.095155445356">
        <ele>1027</ele>
      </trkpt>
      <trkpt lat="-39.31628456990273" lon="174.095035285142">
        <ele>1029</ele>
      </trkpt>
      <trkpt lat="-39.31625119206561" lon="174.094915124929">
        <ele>1032</ele>
      </trkpt>
      <trkpt lat="-39.31613293915697" lon="174.094852183864">
        <ele>1035</ele>
      </trkpt>
      <trkpt lat="-39.31606236887279" lon="174.0948273889">
        <ele>1037</ele>
      </trkpt>
      <trkpt lat="-39.31599084493611" lon="174.094803547587">
        <ele>1038</ele>
      </trkpt>
      <trkpt lat="-39.31591169177952" lon="174.09475491131">
        <ele>1039</ele>
      </trkpt>
      <trkpt lat="-39.31583158497044" lon="174.094706275033">
        <ele>1041</ele>
      </trkpt>
      <trkpt lat="-39.31572477589167" lon="174.094685294679">
        <ele>1043</ele>
      </trkpt>
      <trkpt lat="-39.31564562273508" lon="174.094655731451">
        <ele>1045</ele>
      </trkpt>
      <trkpt lat="-39.31559031089071" lon="174.094590883082">
        <ele>1046</ele>
      </trkpt>
      <trkpt lat="-39.31556265496853" lon="174.094521266451">
        <ele>1048</ele>
      </trkpt>
      <trkpt lat="-39.31553404539386" lon="174.094451649819">
        <ele>1049</ele>
      </trkpt>
      <trkpt lat="-39.31545584588976" lon="174.0943677284">
        <ele>1051</ele>
      </trkpt>
      <trkpt lat="-39.31533473202365" lon="174.094311462903">
        <ele>1052</ele>
      </trkpt>
      <trkpt lat="-39.31524890329964" lon="174.094291436201">
        <ele>1054</ele>
      </trkpt>
      <trkpt lat="-39.31524890329964" lon="174.094291436201">
        <ele>1054</ele>
      </trkpt>
      <trkpt lat="-39.31533473202365" lon="174.094311462903">
        <ele>1052</ele>
      </trkpt>
      <trkpt lat="-39.31545584588976" lon="174.0943677284">
        <ele>1051</ele>
      </trkpt>
      <trkpt lat="-39.31553404539386" lon="174.094451649819">
        <ele>1049</ele>
      </trkpt>
      <trkpt lat="-39.31556265496853" lon="174.094521266451">
        <ele>1048</ele>
      </trkpt>
      <trkpt lat="-39.31559031089071" lon="174.094590883082">
        <ele>1046</ele>
      </trkpt>
      <trkpt lat="-39.31564562273508" lon="174.094655731451">
        <ele>1045</ele>
      </trkpt>
      <trkpt lat="-39.31572477589167" lon="174.094685294679">
        <ele>1043</ele>
      </trkpt>
      <trkpt lat="-39.31583158497044" lon="174.094706275033">
        <ele>1041</ele>
      </trkpt>
      <trkpt lat="-39.31591169177952" lon="174.09475491131">
        <ele>1039</ele>
      </trkpt>
      <trkpt lat="-39.31599084493611" lon="174.094803547587">
        <ele>1038</ele>
      </trkpt>
      <trkpt lat="-39.31606236887279" lon="174.0948273889">
        <ele>1037</ele>
      </trkpt>
      <trkpt lat="-39.31613293915697" lon="174.094852183864">
        <ele>1035</ele>
      </trkpt>
      <trkpt lat="-39.31625119206561" lon="174.094915124929">
        <ele>1032</ele>
      </trkpt>
      <trkpt lat="-39.31628456990273" lon="174.095035285142">
        <ele>1029</ele>
      </trkpt>
      <trkpt lat="-39.31631699408736" lon="174.095155445356">
        <ele>1027</ele>
      </trkpt>
      <trkpt lat="-39.31631699408736" lon="174.095155445356">
        <ele>1027</ele>
      </trkpt>
      <trkpt lat="-39.3162864772077" lon="174.095201220675">
        <ele>1027</ele>
      </trkpt>
      <trkpt lat="-39.3162960137326" lon="174.095309937059">
        <ele>1025</ele>
      </trkpt>
      <trkpt lat="-39.316173946214" lon="174.095419607095">
        <ele>1026</ele>
      </trkpt>
      <trkpt lat="-39.3161481975968" lon="174.095506389472">
        <ele>1025</ele>
      </trkpt>
      <trkpt lat="-39.31612244897959" lon="174.095594125501">
        <ele>1025</ele>
      </trkpt>
      <trkpt lat="-39.31612244897959" lon="174.095594125501">
        <ele>1025</ele>
      </trkpt>
      <trkpt lat="-39.3160957467099" lon="174.09566660309">
        <ele>1025</ele>
      </trkpt>
      <trkpt lat="-39.31606809078772" lon="174.095740034332">
        <ele>1024</ele>
      </trkpt>
      <trkpt lat="-39.31599275224109" lon="174.095841121495">
        <ele>1025</ele>
      </trkpt>
      <trkpt lat="-39.31598893763113" lon="174.095916460042">
        <ele>1024</ele>
      </trkpt>
      <trkpt lat="-39.31598512302117" lon="174.095991798589">
        <ele>1023</ele>
      </trkpt>
      <trkpt lat="-39.31593457943926" lon="174.096027083731">
        <ele>1023</ele>
      </trkpt>
      <trkpt lat="-39.31591741369445" lon="174.096109097845">
        <ele>1023</ele>
      </trkpt>
      <trkpt lat="-39.31594506961663" lon="174.096205416746">
        <ele>1021</ele>
      </trkpt>
      <trkpt lat="-39.31586973107" lon="174.096193972916">
        <ele>1023</ele>
      </trkpt>
      <trkpt lat="-39.31582395575052" lon="174.096255006676">
        <ele>1023</ele>
      </trkpt>
      <trkpt lat="-39.31577818043105" lon="174.096316994087">
        <ele>1023</ele>
      </trkpt>
      <trkpt lat="-39.31585542628267" lon="174.096372305932">
        <ele>1021</ele>
      </trkpt>
      <trkpt lat="-39.31593267213427" lon="174.096428571429">
        <ele>1018</ele>
      </trkpt>
      <trkpt lat="-39.31592408926188" lon="174.096499141713">
        <ele>1017</ele>
      </trkpt>
      <trkpt lat="-39.31591550638947" lon="174.096570665649">
        <ele>1017</ele>
      </trkpt>
      <trkpt lat="-39.31596604997139" lon="174.096553499905">
        <ele>1016</ele>
      </trkpt>
      <trkpt lat="-39.31598130841122" lon="174.096604043487">
        <ele>1015</ele>
      </trkpt>
      <trkpt lat="-39.3159565134465" lon="174.096678428381">
        <ele>1015</ele>
      </trkpt>
      <trkpt lat="-39.3159307648293" lon="174.096752813275">
        <ele>1016</ele>
      </trkpt>
      <trkpt lat="-39.31597177188632" lon="174.096831012779">
        <ele>1016</ele>
      </trkpt>
      <trkpt lat="-39.3160089643334" lon="174.096939729163">
        <ele>1016</ele>
      </trkpt>
      <trkpt lat="-39.31604615678047" lon="174.097048445546">
        <ele>1016</ele>
      </trkpt>
      <trkpt lat="-39.31621495327103" lon="174.097404157925">
        <ele>1012</ele>
      </trkpt>
      <trkpt lat="-39.31626740415793" lon="174.097654014877">
        <ele>1012</ele>
      </trkpt>
      <trkpt lat="-39.31635227922945" lon="174.097724585161">
        <ele>1010</ele>
      </trkpt>
      <trkpt lat="-39.31643620064849" lon="174.097795155445">
        <ele>1007</ele>
      </trkpt>
      <trkpt lat="-39.31650295632272" lon="174.097837116155">
        <ele>1005</ele>
      </trkpt>
      <trkpt lat="-39.31656971199695" lon="174.097879076864">
        <ele>1003</ele>
      </trkpt>
      <trkpt lat="-39.31664123593363" lon="174.097862864772">
        <ele>1000</ele>
      </trkpt>
      <trkpt lat="-39.31671275987031" lon="174.097847606332">
        <ele>999</ele>
      </trkpt>
      <trkpt lat="-39.31677760823956" lon="174.09786572573">
        <ele>997</ele>
      </trkpt>
      <trkpt lat="-39.31684150295632" lon="174.097884798779">
        <ele>996</ele>
      </trkpt>
      <trkpt lat="-39.316913026893" lon="174.098000190731">
        <ele>995</ele>
      </trkpt>
      <trkpt lat="-39.31694068281519" lon="174.098086973107">
        <ele>995</ele>
      </trkpt>
      <trkpt lat="-39.31696833873737" lon="174.098173755484">
        <ele>994</ele>
      </trkpt>
      <trkpt lat="-39.31697882891475" lon="174.0982376502">
        <ele>994</ele>
      </trkpt>
      <trkpt lat="-39.31698931909212" lon="174.09830249857">
        <ele>994</ele>
      </trkpt>
      <trkpt lat="-39.31702937249666" lon="174.098364485981">
        <ele>993</ele>
      </trkpt>
      <trkpt lat="-39.31706847224871" lon="174.098427427046">
        <ele>993</ele>
      </trkpt>
      <trkpt lat="-39.3172868586687" lon="174.098744993324">
        <ele>990</ele>
      </trkpt>
      <trkpt lat="-39.31755197406066" lon="174.098941445737">
        <ele>985</ele>
      </trkpt>
      <trkpt lat="-39.31779515544536" lon="174.099082586306">
        <ele>981</ele>
      </trkpt>
      <trkpt lat="-39.31789910356666" lon="174.099181766164">
        <ele>979</ele>
      </trkpt>
      <trkpt lat="-39.31800209803548" lon="174.099281899676">
        <ele>978</ele>
      </trkpt>
      <trkpt lat="-39.31811939729163" lon="174.099343887088">
        <ele>976</ele>
      </trkpt>
      <trkpt lat="-39.31823574289529" lon="174.099405874499">
        <ele>974</ele>
      </trkpt>
      <trkpt lat="-39.31831489605188" lon="174.099328628648">
        <ele>970</ele>
      </trkpt>
      <trkpt lat="-39.31839404920847" lon="174.099252336449">
        <ele>968</ele>
      </trkpt>
      <trkpt lat="-39.31849609002479" lon="174.099193209994">
        <ele>967</ele>
      </trkpt>
      <trkpt lat="-39.31859717718864" lon="174.099135037192">
        <ele>966</ele>
      </trkpt>
      <trkpt lat="-39.31868586687011" lon="174.099135037192">
        <ele>965</ele>
      </trkpt>
      <trkpt lat="-39.3187745565516" lon="174.099135990845">
        <ele>965</ele>
      </trkpt>
      <trkpt lat="-39.3190434865535" lon="174.099177951554">
        <ele>962</ele>
      </trkpt>
      <trkpt lat="-39.31912645432005" lon="174.099198931909">
        <ele>962</ele>
      </trkpt>
      <trkpt lat="-39.31920846843411" lon="174.099220865916">
        <ele>961</ele>
      </trkpt>
      <trkpt lat="-39.31948025939348" lon="174.099265687583">
        <ele>962</ele>
      </trkpt>
      <trkpt lat="-39.31955082967767" lon="174.099284760633">
        <ele>961</ele>
      </trkpt>
      <trkpt lat="-39.31962139996185" lon="174.099304787336">
        <ele>961</ele>
      </trkpt>
      <trkpt lat="-39.31962139996185" lon="174.099304787336">
        <ele>961</ele>
      </trkpt>
      <trkpt lat="-39.31971581155827" lon="174.099423993897">
        <ele>960</ele>
      </trkpt>
      <trkpt lat="-39.31981022315468" lon="174.09954415411">
        <ele>958</ele>
      </trkpt>
      <trkpt lat="-39.31990558840359" lon="174.099627121877">
        <ele>956</ele>
      </trkpt>
      <trkpt lat="-39.32" lon="174.099710089643">
        <ele>954</ele>
      </trkpt>
      <trkpt lat="-39.32" lon="174.099710089643">
        <ele>954</ele>
      </trkpt>
      <trkpt lat="-39.32032614915125" lon="174.1">
        <ele>947</ele>
      </trkpt>
      <trkpt lat="-39.32032614915125" lon="174.1">
        <ele>947</ele>
      </trkpt>
      <trkpt lat="-39.32052832347892" lon="174.100181193973">
        <ele>944</ele>
      </trkpt>
      <trkpt lat="-39.32101850085829" lon="174.100445355712">
        <ele>938</ele>
      </trkpt>
      <trkpt lat="-39.32126645050543" lon="174.100598893763">
        <ele>935</ele>
      </trkpt>
      <trkpt lat="-39.32160690444402" lon="174.101171085257">
        <ele>930</ele>
      </trkpt>
      <trkpt lat="-39.32177474728209" lon="174.101674613771">
        <ele>926</ele>
      </trkpt>
      <trkpt lat="-39.32216669845508" lon="174.102343124166">
        <ele>920</ele>
      </trkpt>
      <trkpt lat="-39.32243086019454" lon="174.10259774938">
        <ele>916</ele>
      </trkpt>
      <trkpt lat="-39.32259679572763" lon="174.102739843601">
        <ele>915</ele>
      </trkpt>
      <trkpt lat="-39.32272649246615" lon="174.10286572573">
        <ele>914</ele>
      </trkpt>
      <trkpt lat="-39.32281995041007" lon="174.102986839596">
        <ele>913</ele>
      </trkpt>
      <trkpt lat="-39.32287621590692" lon="174.10300781995">
        <ele>913</ele>
      </trkpt>
      <trkpt lat="-39.32301163456037" lon="174.10300781995">
        <ele>912</ele>
      </trkpt>
      <trkpt lat="-39.32331203509441" lon="174.10324527942">
        <ele>911</ele>
      </trkpt>
      <trkpt lat="-39.32331203509441" lon="174.10324527942">
        <ele>911</ele>
      </trkpt>
      <trkpt lat="-39.32344650009536" lon="174.103313942399">
        <ele>908</ele>
      </trkpt>
      <trkpt lat="-39.32359526988365" lon="174.103374976159">
        <ele>906</ele>
      </trkpt>
      <trkpt lat="-39.32359526988365" lon="174.103374976159">
        <ele>906</ele>
      </trkpt>
      <trkpt lat="-39.32356379935151" lon="174.103409307648">
        <ele>906</ele>
      </trkpt>
      <trkpt lat="-39.32362674041579" lon="174.103488460805">
        <ele>904</ele>
      </trkpt>
      <trkpt lat="-39.32366393286286" lon="174.103514209422">
        <ele>903</ele>
      </trkpt>
      <trkpt lat="-39.32372496662216" lon="174.103621018501">
        <ele>902</ele>
      </trkpt>
      <trkpt lat="-39.32372496662216" lon="174.103621018501">
        <ele>902</ele>
      </trkpt>
      <trkpt lat="-39.32362292580584" lon="174.103705893572">
        <ele>903</ele>
      </trkpt>
      <trkpt lat="-39.3236147755397" lon="174.103697116363">
        <ele>903</ele>
      </trkpt>
    </trkseg>
  </trk>
</gpx>