<?xml version="1.0" encoding="UTF-8" standalone="yes"?>
<gpx
 version="1.1"
 creator="Generated by MapOut iPhone App. See https://mapout.app"
 xmlns="http://www.topografix.com/GPX/1/1"
 xmlns:xsi="http://www.w3.org/2001/XMLSchema-instance"
 xmlns:gpxx="http://www.garmin.com/xmlschemas/GpxExtensions/v3"
 xmlns:mapout="https://mapout.app/xmlschemas/MapOutExtensions"
 xsi:schemaLocation="http://www.topografix.com/GPX/1/1 https://www.topografix.com/GPX/1/1/gpx.xsd http://www.garmin.com/xmlschemas/GpxExtensions/v3 https://www8.garmin.com/xmlschemas/GpxExtensionsv3.xsd https://mapout.app/xmlschemas/MapOutExtensions https://mapout.app/xmlschemas/MapOutExtensions.xsd">
  <metadata>
    <name>Karangahake Windows Walk</name>
    <desc></desc>
    <author><name>iPhone</name></author>
    <time>2026-04-02T21:22:17Z</time>
    <bounds minlat="-37.42934484074004" minlon="175.720992712272" maxlat="-37.42256640439631" maxlon="175.727893381652"/>
  </metadata>
  <trk>
    <name>Karangahake Windows Walk</name>
    <extensions>
      <gpxx:TrackExtension>
        <gpxx:DisplayColor>Blue</gpxx:DisplayColor>
      </gpxx:TrackExtension>
    </extensions>
    <trkseg>
      <trkpt lat="-37.42256640439631" lon="175.720992712272">
        <ele>31</ele>
      </trkpt>
      <trkpt lat="-37.42258535189777" lon="175.721044249476">
        <ele>31</ele>
      </trkpt>
      <trkpt lat="-37.42258535189777" lon="175.721044249476">
        <ele>31</ele>
      </trkpt>
      <trkpt lat="-37.42262921991227" lon="175.721125309937">
        <ele>32</ele>
      </trkpt>
      <trkpt lat="-37.42267118062178" lon="175.721160595079">
        <ele>32</ele>
      </trkpt>
      <trkpt lat="-37.42274175090597" lon="175.721201602136">
        <ele>32</ele>
      </trkpt>
      <trkpt lat="-37.42277989700553" lon="175.721249284761">
        <ele>32</ele>
      </trkpt>
      <trkpt lat="-37.42279229448789" lon="175.721286477208">
        <ele>32</ele>
      </trkpt>
      <trkpt lat="-37.42279706275033" lon="175.721336067137">
        <ele>33</ele>
      </trkpt>
      <trkpt lat="-37.42279324814038" lon="175.721437154301">
        <ele>34</ele>
      </trkpt>
      <trkpt lat="-37.42279324814038" lon="175.721437154301">
        <ele>34</ele>
      </trkpt>
      <trkpt lat="-37.42286000381461" lon="175.721403776464">
        <ele>33</ele>
      </trkpt>
      <trkpt lat="-37.42286014509592" lon="175.721403705821">
        <ele>33</ele>
      </trkpt>
      <trkpt lat="-37.42286014443201" lon="175.721403703913">
        <ele>33</ele>
      </trkpt>
      <trkpt lat="-37.42286014443553" lon="175.721403703913">
        <ele>33</ele>
      </trkpt>
      <trkpt lat="-37.42348817411641" lon="175.72107968253">
        <ele>34</ele>
      </trkpt>
      <trkpt lat="-37.42348817411666" lon="175.721079682531">
        <ele>34</ele>
      </trkpt>
      <trkpt lat="-37.42348814511331" lon="175.721079587234">
        <ele>34</ele>
      </trkpt>
      <trkpt lat="-37.42348846080488" lon="175.721079534618">
        <ele>34</ele>
      </trkpt>
      <trkpt lat="-37.42349990463475" lon="175.721077627313">
        <ele>34</ele>
      </trkpt>
      <trkpt lat="-37.42351134846462" lon="175.721087163838">
        <ele>34</ele>
      </trkpt>
      <trkpt lat="-37.42353423612435" lon="175.721152965859">
        <ele>35</ele>
      </trkpt>
      <trkpt lat="-37.42355712378409" lon="175.721218767881">
        <ele>36</ele>
      </trkpt>
      <trkpt lat="-37.42355712378409" lon="175.721218767881">
        <ele>36</ele>
      </trkpt>
      <trkpt lat="-37.42360576006104" lon="175.721396147244">
        <ele>37</ele>
      </trkpt>
      <trkpt lat="-37.42375929811177" lon="175.721664123593">
        <ele>40</ele>
      </trkpt>
      <trkpt lat="-37.42381365630364" lon="175.721784283807">
        <ele>43</ele>
      </trkpt>
      <trkpt lat="-37.42381365630364" lon="175.721784283807">
        <ele>43</ele>
      </trkpt>
      <trkpt lat="-37.42381842456609" lon="175.721784283807">
        <ele>43</ele>
      </trkpt>
      <trkpt lat="-37.42381842456609" lon="175.721784283807">
        <ele>43</ele>
      </trkpt>
      <trkpt lat="-37.42384989509823" lon="175.722207705512">
        <ele>49</ele>
      </trkpt>
      <trkpt lat="-37.42384509173691" lon="175.722208185848">
        <ele>49</ele>
      </trkpt>
      <trkpt lat="-37.423845091736" lon="175.722208185849">
        <ele>49</ele>
      </trkpt>
      <trkpt lat="-37.42384512683578" lon="175.722208659165">
        <ele>49</ele>
      </trkpt>
      <trkpt lat="-37.42384512683578" lon="175.722208659165">
        <ele>49</ele>
      </trkpt>
      <trkpt lat="-37.42384966597379" lon="175.722281285373">
        <ele>50</ele>
      </trkpt>
      <trkpt lat="-37.42385180240321" lon="175.722281136754">
        <ele>50</ele>
      </trkpt>
      <trkpt lat="-37.42396147243944" lon="175.722273507534">
        <ele>52</ele>
      </trkpt>
      <trkpt lat="-37.42407018882319" lon="175.722265878314">
        <ele>55</ele>
      </trkpt>
      <trkpt lat="-37.42413503719245" lon="175.722240129697">
        <ele>57</ele>
      </trkpt>
      <trkpt lat="-37.4241998855617" lon="175.72221438108">
        <ele>58</ele>
      </trkpt>
      <trkpt lat="-37.42431718481785" lon="175.722151440015">
        <ele>59</ele>
      </trkpt>
      <trkpt lat="-37.42438107953462" lon="175.72214190349">
        <ele>59</ele>
      </trkpt>
      <trkpt lat="-37.42444402059889" lon="175.722132366965">
        <ele>60</ele>
      </trkpt>
      <trkpt lat="-37.42451459088308" lon="175.722110432958">
        <ele>60</ele>
      </trkpt>
      <trkpt lat="-37.42458420751478" lon="175.722089452603">
        <ele>61</ele>
      </trkpt>
      <trkpt lat="-37.42468910928857" lon="175.722073240511">
        <ele>62</ele>
      </trkpt>
      <trkpt lat="-37.42468910928857" lon="175.722073240511">
        <ele>62</ele>
      </trkpt>
      <trkpt lat="-37.42475681861529" lon="175.722086591646">
        <ele>63</ele>
      </trkpt>
      <trkpt lat="-37.42482357428953" lon="175.722100896433">
        <ele>64</ele>
      </trkpt>
      <trkpt lat="-37.42487697882891" lon="175.722137135228">
        <ele>65</ele>
      </trkpt>
      <trkpt lat="-37.42494278085066" lon="175.72221819569">
        <ele>68</ele>
      </trkpt>
      <trkpt lat="-37.42500762921991" lon="175.722300209804">
        <ele>71</ele>
      </trkpt>
      <trkpt lat="-37.42505054358192" lon="175.722404157925">
        <ele>73</ele>
      </trkpt>
      <trkpt lat="-37.42504100705703" lon="175.72243658211">
        <ele>74</ele>
      </trkpt>
      <trkpt lat="-37.42502956322716" lon="175.722448025939">
        <ele>75</ele>
      </trkpt>
      <trkpt lat="-37.42502956322716" lon="175.722448025939">
        <ele>75</ele>
      </trkpt>
      <trkpt lat="-37.42514972344078" lon="175.722532901011">
        <ele>76</ele>
      </trkpt>
      <trkpt lat="-37.42514972344078" lon="175.722532901011">
        <ele>76</ele>
      </trkpt>
      <trkpt lat="-37.42555788670608" lon="175.722654968529">
        <ele>78</ele>
      </trkpt>
      <trkpt lat="-37.42568758344459" lon="175.722685485409">
        <ele>78</ele>
      </trkpt>
      <trkpt lat="-37.42568758344459" lon="175.722685485409">
        <ele>78</ele>
      </trkpt>
      <trkpt lat="-37.42578962426092" lon="175.722719816899">
        <ele>78</ele>
      </trkpt>
      <trkpt lat="-37.42589166507724" lon="175.722755102041">
        <ele>79</ele>
      </trkpt>
      <trkpt lat="-37.42616727064657" lon="175.723028800305">
        <ele>83</ele>
      </trkpt>
      <trkpt lat="-37.42640568376883" lon="175.723286286477">
        <ele>78</ele>
      </trkpt>
      <trkpt lat="-37.42675090596986" lon="175.723599084494">
        <ele>79</ele>
      </trkpt>
      <trkpt lat="-37.42680812511921" lon="175.723663932863">
        <ele>82</ele>
      </trkpt>
      <trkpt lat="-37.42686439061606" lon="175.723729734885">
        <ele>85</ele>
      </trkpt>
      <trkpt lat="-37.42702937249666" lon="175.724204653824">
        <ele>94</ele>
      </trkpt>
      <trkpt lat="-37.42734693877551" lon="175.724967575815">
        <ele>94</ele>
      </trkpt>
      <trkpt lat="-37.42740511157734" lon="175.72503051688">
        <ele>93</ele>
      </trkpt>
      <trkpt lat="-37.42746233072668" lon="175.725094411596">
        <ele>95</ele>
      </trkpt>
      <trkpt lat="-37.42752527179096" lon="175.725127789434">
        <ele>95</ele>
      </trkpt>
      <trkpt lat="-37.42758821285523" lon="175.725162120923">
        <ele>97</ele>
      </trkpt>
      <trkpt lat="-37.42758821285523" lon="175.725162120923">
        <ele>97</ele>
      </trkpt>
      <trkpt lat="-37.42776368491322" lon="175.725201220675">
        <ele>96</ele>
      </trkpt>
      <trkpt lat="-37.42776368491322" lon="175.725201220675">
        <ele>96</ele>
      </trkpt>
      <trkpt lat="-37.42785046728972" lon="175.725221247377">
        <ele>95</ele>
      </trkpt>
      <trkpt lat="-37.42785046728972" lon="175.725221247377">
        <ele>95</ele>
      </trkpt>
      <trkpt lat="-37.42784951363723" lon="175.725179286668">
        <ele>92</ele>
      </trkpt>
      <trkpt lat="-37.42784951363723" lon="175.725179286668">
        <ele>92</ele>
      </trkpt>
      <trkpt lat="-37.42785046728972" lon="175.725221247377">
        <ele>95</ele>
      </trkpt>
      <trkpt lat="-37.42785046728972" lon="175.725221247377">
        <ele>95</ele>
      </trkpt>
      <trkpt lat="-37.42776368491322" lon="175.725201220675">
        <ele>96</ele>
      </trkpt>
      <trkpt lat="-37.42776368491322" lon="175.725201220675">
        <ele>96</ele>
      </trkpt>
      <trkpt lat="-37.42758821285523" lon="175.725162120923">
        <ele>97</ele>
      </trkpt>
      <trkpt lat="-37.42758821285523" lon="175.725162120923">
        <ele>97</ele>
      </trkpt>
      <trkpt lat="-37.42776368491322" lon="175.725201220675">
        <ele>96</ele>
      </trkpt>
      <trkpt lat="-37.42776368491322" lon="175.725201220675">
        <ele>96</ele>
      </trkpt>
      <trkpt lat="-37.42785046728972" lon="175.725221247377">
        <ele>95</ele>
      </trkpt>
      <trkpt lat="-37.42785046728972" lon="175.725221247377">
        <ele>95</ele>
      </trkpt>
      <trkpt lat="-37.42784951363723" lon="175.725179286668">
        <ele>92</ele>
      </trkpt>
      <trkpt lat="-37.42784951363723" lon="175.725179286668">
        <ele>92</ele>
      </trkpt>
      <trkpt lat="-37.42784474537478" lon="175.725059126454">
        <ele>85</ele>
      </trkpt>
      <trkpt lat="-37.42783902345985" lon="175.724939919893">
        <ele>83</ele>
      </trkpt>
      <trkpt lat="-37.42783902345985" lon="175.724939919893">
        <ele>83</ele>
      </trkpt>
      <trkpt lat="-37.42784474537478" lon="175.725059126454">
        <ele>85</ele>
      </trkpt>
      <trkpt lat="-37.42784951363723" lon="175.725179286668">
        <ele>92</ele>
      </trkpt>
      <trkpt lat="-37.42784951363723" lon="175.725179286668">
        <ele>92</ele>
      </trkpt>
      <trkpt lat="-37.42785046728972" lon="175.725221247377">
        <ele>95</ele>
      </trkpt>
      <trkpt lat="-37.42785046728972" lon="175.725221247377">
        <ele>95</ele>
      </trkpt>
      <trkpt lat="-37.42776368491322" lon="175.725201220675">
        <ele>96</ele>
      </trkpt>
      <trkpt lat="-37.42776368491322" lon="175.725201220675">
        <ele>96</ele>
      </trkpt>
      <trkpt lat="-37.42758821285523" lon="175.725162120923">
        <ele>97</ele>
      </trkpt>
      <trkpt lat="-37.42758821285523" lon="175.725162120923">
        <ele>97</ele>
      </trkpt>
      <trkpt lat="-37.42776368491322" lon="175.725201220675">
        <ele>96</ele>
      </trkpt>
      <trkpt lat="-37.42776368491322" lon="175.725201220675">
        <ele>96</ele>
      </trkpt>
      <trkpt lat="-37.42785046728972" lon="175.725221247377">
        <ele>95</ele>
      </trkpt>
      <trkpt lat="-37.42785046728972" lon="175.725221247377">
        <ele>95</ele>
      </trkpt>
      <trkpt lat="-37.42784951363723" lon="175.725179286668">
        <ele>92</ele>
      </trkpt>
      <trkpt lat="-37.42784951363723" lon="175.725179286668">
        <ele>92</ele>
      </trkpt>
      <trkpt lat="-37.42784474537478" lon="175.725059126454">
        <ele>85</ele>
      </trkpt>
      <trkpt lat="-37.42783902345985" lon="175.724939919893">
        <ele>83</ele>
      </trkpt>
      <trkpt lat="-37.42783902345985" lon="175.724939919893">
        <ele>83</ele>
      </trkpt>
      <trkpt lat="-37.42784474537478" lon="175.725059126454">
        <ele>85</ele>
      </trkpt>
      <trkpt lat="-37.42784951363723" lon="175.725179286668">
        <ele>92</ele>
      </trkpt>
      <trkpt lat="-37.42784951363723" lon="175.725179286668">
        <ele>92</ele>
      </trkpt>
      <trkpt lat="-37.42785046728972" lon="175.725221247377">
        <ele>95</ele>
      </trkpt>
      <trkpt lat="-37.42785046728972" lon="175.725221247377">
        <ele>95</ele>
      </trkpt>
      <trkpt lat="-37.42776368491322" lon="175.725201220675">
        <ele>96</ele>
      </trkpt>
      <trkpt lat="-37.42776368491322" lon="175.725201220675">
        <ele>96</ele>
      </trkpt>
      <trkpt lat="-37.42785046728972" lon="175.725221247377">
        <ele>95</ele>
      </trkpt>
      <trkpt lat="-37.42785046728972" lon="175.725221247377">
        <ele>95</ele>
      </trkpt>
      <trkpt lat="-37.42802784665268" lon="175.725262254435">
        <ele>92</ele>
      </trkpt>
      <trkpt lat="-37.42845699027274" lon="175.725155445356">
        <ele>80</ele>
      </trkpt>
      <trkpt lat="-37.42888899485028" lon="175.725232691207">
        <ele>78</ele>
      </trkpt>
      <trkpt lat="-37.42915601754721" lon="175.725387182911">
        <ele>73</ele>
      </trkpt>
      <trkpt lat="-37.42926664123593" lon="175.725546442876">
        <ele>77</ele>
      </trkpt>
      <trkpt lat="-37.42934484074004" lon="175.725713332062">
        <ele>80</ele>
      </trkpt>
      <trkpt lat="-37.42933435056266" lon="175.726174899866">
        <ele>86</ele>
      </trkpt>
      <trkpt lat="-37.42922563417891" lon="175.726571619302">
        <ele>89</ele>
      </trkpt>
      <trkpt lat="-37.42916841502957" lon="175.726898722106">
        <ele>94</ele>
      </trkpt>
      <trkpt lat="-37.42897863818425" lon="175.727381270265">
        <ele>114</ele>
      </trkpt>
      <trkpt lat="-37.42889376311272" lon="175.727472820904">
        <ele>118</ele>
      </trkpt>
      <trkpt lat="-37.42889376311272" lon="175.727472820904">
        <ele>118</ele>
      </trkpt>
      <trkpt lat="-37.42877074194163" lon="175.727739843601">
        <ele>115</ele>
      </trkpt>
      <trkpt lat="-37.4288088880412" lon="175.727893381652">
        <ele>110</ele>
      </trkpt>
    </trkseg>
  </trk>
</gpx>