<?xml version="1.0" encoding="UTF-8" standalone="yes"?>
<gpx
 version="1.1"
 creator="Generated by MapOut iPhone App. See https://mapout.app"
 xmlns="http://www.topografix.com/GPX/1/1"
 xmlns:xsi="http://www.w3.org/2001/XMLSchema-instance"
 xmlns:gpxx="http://www.garmin.com/xmlschemas/GpxExtensions/v3"
 xmlns:mapout="https://mapout.app/xmlschemas/MapOutExtensions"
 xsi:schemaLocation="http://www.topografix.com/GPX/1/1 https://www.topografix.com/GPX/1/1/gpx.xsd http://www.garmin.com/xmlschemas/GpxExtensions/v3 https://www8.garmin.com/xmlschemas/GpxExtensionsv3.xsd https://mapout.app/xmlschemas/MapOutExtensions https://mapout.app/xmlschemas/MapOutExtensions.xsd">
  <metadata>
    <name>Lagoon Run</name>
    <author><name>iPhone</name></author>
    <time>2026-09-02T00:23:31Z</time>
    <bounds minlat="-38.67551020408163" minlon="176.687992561511" maxlat="-38.67164695784856" maxlon="176.698751668892"/>
  </metadata>
  <trk>
    <name>Lagoon Run</name>
    <trkseg>
      <trkpt lat="-38.67545001607666" lon="176.69865679173">
        <ele>436</ele>
      </trkpt>
      <trkpt lat="-38.67544535571238" lon="176.698626740416">
        <ele>437</ele>
      </trkpt>
      <trkpt lat="-38.67550543581919" lon="176.698399771123">
        <ele>442</ele>
      </trkpt>
      <trkpt lat="-38.67551020408163" lon="176.698165172611">
        <ele>443</ele>
      </trkpt>
      <trkpt lat="-38.67542818996758" lon="176.698131794774">
        <ele>443</ele>
      </trkpt>
      <trkpt lat="-38.67536238794583" lon="176.6982376502">
        <ele>443</ele>
      </trkpt>
      <trkpt lat="-38.6752441350372" lon="176.698564753004">
        <ele>438</ele>
      </trkpt>
      <trkpt lat="-38.67515449170322" lon="176.698751668892">
        <ele>433</ele>
      </trkpt>
      <trkpt lat="-38.67495041007057" lon="176.698746900629">
        <ele>432</ele>
      </trkpt>
      <trkpt lat="-38.67477875262254" lon="176.69865534999">
        <ele>432</ele>
      </trkpt>
      <trkpt lat="-38.67459851230212" lon="176.698456990273">
        <ele>434</ele>
      </trkpt>
      <trkpt lat="-38.67450314705322" lon="176.698039290483">
        <ele>439</ele>
      </trkpt>
      <trkpt lat="-38.67450505435819" lon="176.697572000763">
        <ele>446</ele>
      </trkpt>
      <trkpt lat="-38.67440301354187" lon="176.697041769979">
        <ele>448</ele>
      </trkpt>
      <trkpt lat="-38.67428285332825" lon="176.696818615297">
        <ele>449</ele>
      </trkpt>
      <trkpt lat="-38.67430192637803" lon="176.696531565897">
        <ele>449</ele>
      </trkpt>
      <trkpt lat="-38.67422563417891" lon="176.696313179477">
        <ele>450</ele>
      </trkpt>
      <trkpt lat="-38.6740959374404" lon="176.696149151249">
        <ele>450</ele>
      </trkpt>
      <trkpt lat="-38.67388422658783" lon="176.696051878695">
        <ele>451</ele>
      </trkpt>
      <trkpt lat="-38.67362197215335" lon="176.696160595079">
        <ele>451</ele>
      </trkpt>
      <trkpt lat="-38.67332252527179" lon="176.695998474156">
        <ele>453</ele>
      </trkpt>
      <trkpt lat="-38.67298016402823" lon="176.695851611673">
        <ele>448</ele>
      </trkpt>
      <trkpt lat="-38.67248903299638" lon="176.695672325005">
        <ele>439</ele>
      </trkpt>
      <trkpt lat="-38.67235552164792" lon="176.695578867061">
        <ele>436</ele>
      </trkpt>
      <trkpt lat="-38.67231737554835" lon="176.695360480641">
        <ele>435</ele>
      </trkpt>
      <trkpt lat="-38.67239938966241" lon="176.695032424185">
        <ele>438</ele>
      </trkpt>
      <trkpt lat="-38.67267594888423" lon="176.694696738508">
        <ele>440</ele>
      </trkpt>
      <trkpt lat="-38.67278943353043" lon="176.694438298684">
        <ele>438</ele>
      </trkpt>
      <trkpt lat="-38.67288098416937" lon="176.694156017547">
        <ele>436</ele>
      </trkpt>
      <trkpt lat="-38.67285809650964" lon="176.693971962617">
        <ele>433</ele>
      </trkpt>
      <trkpt lat="-38.67277226778562" lon="176.693864199886">
        <ele>431</ele>
      </trkpt>
      <trkpt lat="-38.67263208086973" lon="176.693764066374">
        <ele>427</ele>
      </trkpt>
      <trkpt lat="-38.6722611100515" lon="176.693703986267">
        <ele>420</ele>
      </trkpt>
      <trkpt lat="-38.67205893572383" lon="176.693683005913">
        <ele>417</ele>
      </trkpt>
      <trkpt lat="-38.67191398054549" lon="176.693564753004">
        <ele>413</ele>
      </trkpt>
      <trkpt lat="-38.67169273316804" lon="176.693297730307">
        <ele>408</ele>
      </trkpt>
      <trkpt lat="-38.67164695784856" lon="176.693125119207">
        <ele>406</ele>
      </trkpt>
      <trkpt lat="-38.67168891855808" lon="176.692862864772">
        <ele>404</ele>
      </trkpt>
      <trkpt lat="-38.67201888231929" lon="176.692252527179">
        <ele>405</ele>
      </trkpt>
      <trkpt lat="-38.6721914934198" lon="176.691826244517">
        <ele>406</ele>
      </trkpt>
      <trkpt lat="-38.67260633225253" lon="176.691180621781">
        <ele>406</ele>
      </trkpt>
      <trkpt lat="-38.67283711615487" lon="176.69088498951">
        <ele>408</ele>
      </trkpt>
      <trkpt lat="-38.67316421895861" lon="176.690282281137">
        <ele>411</ele>
      </trkpt>
      <trkpt lat="-38.67312321190158" lon="176.690171657448">
        <ele>410</ele>
      </trkpt>
      <trkpt lat="-38.67312321190158" lon="176.690171657448">
        <ele>410</ele>
      </trkpt>
      <trkpt lat="-38.67306313179478" lon="176.690075338547">
        <ele>410</ele>
      </trkpt>
      <trkpt lat="-38.67306313179478" lon="176.690075338547">
        <ele>410</ele>
      </trkpt>
      <trkpt lat="-38.67317852374595" lon="176.689301926378">
        <ele>410</ele>
      </trkpt>
      <trkpt lat="-38.6732872401297" lon="176.689015830631">
        <ele>410</ele>
      </trkpt>
      <trkpt lat="-38.67340263208087" lon="176.68846366584">
        <ele>414</ele>
      </trkpt>
      <trkpt lat="-38.67351516307458" lon="176.688297730307">
        <ele>415</ele>
      </trkpt>
      <trkpt lat="-38.67370017165745" lon="176.688163265306">
        <ele>414</ele>
      </trkpt>
      <trkpt lat="-38.67406542056075" lon="176.687992561511">
        <ele>412</ele>
      </trkpt>
    </trkseg>
  </trk>
</gpx>