<?xml version="1.0" encoding="UTF-8" standalone="yes"?>
<gpx
 version="1.1"
 creator="Generated by MapOut iPhone App. See https://mapout.app"
 xmlns="http://www.topografix.com/GPX/1/1"
 xmlns:xsi="http://www.w3.org/2001/XMLSchema-instance"
 xmlns:gpxx="http://www.garmin.com/xmlschemas/GpxExtensions/v3"
 xmlns:mapout="https://mapout.app/xmlschemas/MapOutExtensions"
 xsi:schemaLocation="http://www.topografix.com/GPX/1/1 https://www.topografix.com/GPX/1/1/gpx.xsd http://www.garmin.com/xmlschemas/GpxExtensions/v3 https://www8.garmin.com/xmlschemas/GpxExtensionsv3.xsd https://mapout.app/xmlschemas/MapOutExtensions https://mapout.app/xmlschemas/MapOutExtensions.xsd">
  <metadata>
    <name>White Rock</name>
    <author><name>iPhone</name></author>
    <time>2026-07-31T08:16:27Z</time>
    <bounds minlat="-41.60317947739843" minlon="175.326680925093" maxlat="-41.56855759131778" maxlon="175.395343030408"/>
  </metadata>
  <wpt lat="-41.56885148326339" lon="175.395343030408">
    <ele>2</ele>
    <name>White Rock</name>
    <sym>Waypoint</sym>
    <extensions>
      <mapout:extension>
        <mapout:color>FF2E1B</mapout:color>
      </mapout:extension>
    </extensions>
  </wpt>
  <wpt lat="-41.60211363506151" lon="175.326680925093">
    <ele>15</ele>
    <name>Stonewall</name>
    <sym>Waypoint</sym>
    <extensions>
      <mapout:extension>
        <mapout:color>FF2E1B</mapout:color>
      </mapout:extension>
    </extensions>
  </wpt>
  <trk>
    <trkseg>
      <trkpt lat="-41.56855759131778" lon="175.374145008943">
        <ele>10</ele>
      </trkpt>
      <trkpt lat="-41.568999618539" lon="175.372631127217">
        <ele>11</ele>
      </trkpt>
      <trkpt lat="-41.56940110623689" lon="175.371944497425">
        <ele>9</ele>
      </trkpt>
      <trkpt lat="-41.5697825672325" lon="175.370727636849">
        <ele>9</ele>
      </trkpt>
      <trkpt lat="-41.57000572191493" lon="175.369499332443">
        <ele>9</ele>
      </trkpt>
      <trkpt lat="-41.57014114056837" lon="175.369034903681">
        <ele>10</ele>
      </trkpt>
      <trkpt lat="-41.5705130650391" lon="175.368071714667">
        <ele>12</ele>
      </trkpt>
      <trkpt lat="-41.57060080106809" lon="175.366226397101">
        <ele>14</ele>
      </trkpt>
      <trkpt lat="-41.57160785809651" lon="175.364632843792">
        <ele>10</ele>
      </trkpt>
      <trkpt lat="-41.5722258249094" lon="175.36434865535">
        <ele>11</ele>
      </trkpt>
      <trkpt lat="-41.57241655540721" lon="175.364190349037">
        <ele>12</ele>
      </trkpt>
      <trkpt lat="-41.5725128743086" lon="175.364053976731">
        <ele>13</ele>
      </trkpt>
      <trkpt lat="-41.57278180431051" lon="175.363605760061">
        <ele>14</ele>
      </trkpt>
      <trkpt lat="-41.57278180431051" lon="175.363605760061">
        <ele>14</ele>
      </trkpt>
      <trkpt lat="-41.57281995041007" lon="175.363539004387">
        <ele>14</ele>
      </trkpt>
      <trkpt lat="-41.57285714285715" lon="175.363472248713">
        <ele>14</ele>
      </trkpt>
      <trkpt lat="-41.57303070761014" lon="175.36303452222">
        <ele>15</ele>
      </trkpt>
      <trkpt lat="-41.57308411214953" lon="175.362946786191">
        <ele>14</ele>
      </trkpt>
      <trkpt lat="-41.57313751668892" lon="175.362860003815">
        <ele>14</ele>
      </trkpt>
      <trkpt lat="-41.57323097463284" lon="175.362743658211">
        <ele>14</ele>
      </trkpt>
      <trkpt lat="-41.57332347892428" lon="175.362627312607">
        <ele>13</ele>
      </trkpt>
      <trkpt lat="-41.57341693686821" lon="175.362520503529">
        <ele>13</ele>
      </trkpt>
      <trkpt lat="-41.57351039481213" lon="175.362414648102">
        <ele>14</ele>
      </trkpt>
      <trkpt lat="-41.57358668701125" lon="175.362311653633">
        <ele>15</ele>
      </trkpt>
      <trkpt lat="-41.57366297921038" lon="175.362208659165">
        <ele>16</ele>
      </trkpt>
      <trkpt lat="-41.57375834445928" lon="175.362099942781">
        <ele>16</ele>
      </trkpt>
      <trkpt lat="-41.57385370970818" lon="175.361991226397">
        <ele>17</ele>
      </trkpt>
      <trkpt lat="-41.57389662407019" lon="175.36192351707">
        <ele>17</ele>
      </trkpt>
      <trkpt lat="-41.57393953843219" lon="175.361856761396">
        <ele>17</ele>
      </trkpt>
      <trkpt lat="-41.57397673087927" lon="175.361755674232">
        <ele>17</ele>
      </trkpt>
      <trkpt lat="-41.57401392332634" lon="175.361655540721">
        <ele>17</ele>
      </trkpt>
      <trkpt lat="-41.57407018882319" lon="175.361556360862">
        <ele>19</ele>
      </trkpt>
      <trkpt lat="-41.57415220293725" lon="175.361483883273">
        <ele>20</ele>
      </trkpt>
      <trkpt lat="-41.57449933244326" lon="175.361282662598">
        <ele>22</ele>
      </trkpt>
      <trkpt lat="-41.57458039290483" lon="175.361218767881">
        <ele>23</ele>
      </trkpt>
      <trkpt lat="-41.57484455464429" lon="175.36086973107">
        <ele>29</ele>
      </trkpt>
      <trkpt lat="-41.57494564180813" lon="175.360785809651">
        <ele>30</ele>
      </trkpt>
      <trkpt lat="-41.57500286095747" lon="175.360752431814">
        <ele>30</ele>
      </trkpt>
      <trkpt lat="-41.57507247758917" lon="175.360734312417">
        <ele>29</ele>
      </trkpt>
      <trkpt lat="-41.57544440205989" lon="175.360707610147">
        <ele>26</ele>
      </trkpt>
      <trkpt lat="-41.57554644287622" lon="175.360713332062">
        <ele>25</ele>
      </trkpt>
      <trkpt lat="-41.57564848369254" lon="175.360727636849">
        <ele>23</ele>
      </trkpt>
      <trkpt lat="-41.57574289528895" lon="175.360766736601">
        <ele>21</ele>
      </trkpt>
      <trkpt lat="-41.57582204844554" lon="175.360815372878">
        <ele>19</ele>
      </trkpt>
      <trkpt lat="-41.57590120160214" lon="175.360864962808">
        <ele>18</ele>
      </trkpt>
      <trkpt lat="-41.5759650963189" lon="175.36088498951">
        <ele>17</ele>
      </trkpt>
      <trkpt lat="-41.57602899103567" lon="175.360905969865">
        <ele>16</ele>
      </trkpt>
      <trkpt lat="-41.57610337592981" lon="175.360918367347">
        <ele>15</ele>
      </trkpt>
      <trkpt lat="-41.57617776082395" lon="175.360931718482">
        <ele>14</ele>
      </trkpt>
      <trkpt lat="-41.57626358954797" lon="175.360931718482">
        <ele>14</ele>
      </trkpt>
      <trkpt lat="-41.57634941827198" lon="175.360932672134">
        <ele>13</ele>
      </trkpt>
      <trkpt lat="-41.57666698455083" lon="175.360872592027">
        <ele>12</ele>
      </trkpt>
      <trkpt lat="-41.57671466717528" lon="175.360874499332">
        <ele>12</ele>
      </trkpt>
      <trkpt lat="-41.57672654619932" lon="175.360879836285">
        <ele>12</ele>
      </trkpt>
      <trkpt lat="-41.57672654619932" lon="175.360879836285">
        <ele>12</ele>
      </trkpt>
      <trkpt lat="-41.57678046919703" lon="175.36090406256">
        <ele>11</ele>
      </trkpt>
      <trkpt lat="-41.57684531756628" lon="175.360934579439">
        <ele>10</ele>
      </trkpt>
      <trkpt lat="-41.57690349036811" lon="175.360946023269">
        <ele>10</ele>
      </trkpt>
      <trkpt lat="-41.5769654777799" lon="175.360937440397">
        <ele>10</ele>
      </trkpt>
      <trkpt lat="-41.57704844554645" lon="175.360899294297">
        <ele>10</ele>
      </trkpt>
      <trkpt lat="-41.57717051306504" lon="175.360826816708">
        <ele>11</ele>
      </trkpt>
      <trkpt lat="-41.57721247377456" lon="175.360811558268">
        <ele>11</ele>
      </trkpt>
      <trkpt lat="-41.57748903299638" lon="175.360756246424">
        <ele>12</ele>
      </trkpt>
      <trkpt lat="-41.57758344459279" lon="175.360710471104">
        <ele>12</ele>
      </trkpt>
      <trkpt lat="-41.57767690253672" lon="175.360664695785">
        <ele>13</ele>
      </trkpt>
      <trkpt lat="-41.57777894335305" lon="175.360642761778">
        <ele>13</ele>
      </trkpt>
      <trkpt lat="-41.57788003051688" lon="175.36062082777">
        <ele>13</ele>
      </trkpt>
      <trkpt lat="-41.57799542246805" lon="175.360625596033">
        <ele>12</ele>
      </trkpt>
      <trkpt lat="-41.57811081441923" lon="175.360631317948">
        <ele>12</ele>
      </trkpt>
      <trkpt lat="-41.57823288193782" lon="175.360612244898">
        <ele>11</ele>
      </trkpt>
      <trkpt lat="-41.57835399580393" lon="175.360576006103">
        <ele>11</ele>
      </trkpt>
      <trkpt lat="-41.57840930764829" lon="175.360539767309">
        <ele>12</ele>
      </trkpt>
      <trkpt lat="-41.57846366584017" lon="175.360473965287">
        <ele>13</ele>
      </trkpt>
      <trkpt lat="-41.57850371924471" lon="175.360399580393">
        <ele>14</ele>
      </trkpt>
      <trkpt lat="-41.57851993133702" lon="175.360316612626">
        <ele>15</ele>
      </trkpt>
      <trkpt lat="-41.57851993133702" lon="175.36024508869">
        <ele>16</ele>
      </trkpt>
      <trkpt lat="-41.57850944115964" lon="175.360205035285">
        <ele>17</ele>
      </trkpt>
      <trkpt lat="-41.57850276559222" lon="175.360133511348">
        <ele>18</ele>
      </trkpt>
      <trkpt lat="-41.57850658020217" lon="175.360083921419">
        <ele>18</ele>
      </trkpt>
      <trkpt lat="-41.57852660690445" lon="175.360029563227">
        <ele>19</ele>
      </trkpt>
      <trkpt lat="-41.57855426282663" lon="175.36">
        <ele>19</ele>
      </trkpt>
      <trkpt lat="-41.57855426282663" lon="175.36">
        <ele>19</ele>
      </trkpt>
      <trkpt lat="-41.57860194545108" lon="175.359966622163">
        <ele>20</ele>
      </trkpt>
      <trkpt lat="-41.57865344268549" lon="175.359963761205">
        <ele>19</ele>
      </trkpt>
      <trkpt lat="-41.57873450314705" lon="175.359981880603">
        <ele>18</ele>
      </trkpt>
      <trkpt lat="-41.57881460995613" lon="175.36">
        <ele>18</ele>
      </trkpt>
      <trkpt lat="-41.57881460995613" lon="175.36">
        <ele>18</ele>
      </trkpt>
      <trkpt lat="-41.57884798779325" lon="175.360006675567">
        <ele>17</ele>
      </trkpt>
      <trkpt lat="-41.57890806790006" lon="175.36">
        <ele>17</ele>
      </trkpt>
      <trkpt lat="-41.57890806790006" lon="175.36">
        <ele>17</ele>
      </trkpt>
      <trkpt lat="-41.57896814800687" lon="175.359968529468">
        <ele>17</ele>
      </trkpt>
      <trkpt lat="-41.57903585733359" lon="175.359910356666">
        <ele>17</ele>
      </trkpt>
      <trkpt lat="-41.57910261300782" lon="175.359852183864">
        <ele>18</ele>
      </trkpt>
      <trkpt lat="-41.57916078580965" lon="175.359816898722">
        <ele>18</ele>
      </trkpt>
      <trkpt lat="-41.57920370017166" lon="175.359810223155">
        <ele>18</ele>
      </trkpt>
      <trkpt lat="-41.57925519740606" lon="175.359809269502">
        <ele>17</ele>
      </trkpt>
      <trkpt lat="-41.57929238985314" lon="175.359828342552">
        <ele>17</ele>
      </trkpt>
      <trkpt lat="-41.57937726492466" lon="175.359940873546">
        <ele>14</ele>
      </trkpt>
      <trkpt lat="-41.57940396719435" lon="175.359963761205">
        <ele>14</ele>
      </trkpt>
      <trkpt lat="-41.57945355712378" lon="175.35997329773">
        <ele>13</ele>
      </trkpt>
      <trkpt lat="-41.57950696166317" lon="175.359967575815">
        <ele>13</ele>
      </trkpt>
      <trkpt lat="-41.57955082967766" lon="175.359921800496">
        <ele>13</ele>
      </trkpt>
      <trkpt lat="-41.57959469769216" lon="175.359835018119">
        <ele>14</ele>
      </trkpt>
      <trkpt lat="-41.57963856570666" lon="175.359749189395">
        <ele>15</ele>
      </trkpt>
      <trkpt lat="-41.57966622162884" lon="175.359682433721">
        <ele>16</ele>
      </trkpt>
      <trkpt lat="-41.57969387755102" lon="175.359615678047">
        <ele>17</ele>
      </trkpt>
      <trkpt lat="-41.57972534808316" lon="175.359572763685">
        <ele>17</ele>
      </trkpt>
      <trkpt lat="-41.57977875262254" lon="175.35953652489">
        <ele>17</ele>
      </trkpt>
      <trkpt lat="-41.57986172038909" lon="175.359496471486">
        <ele>17</ele>
      </trkpt>
      <trkpt lat="-41.57994468815563" lon="175.359456418081">
        <ele>17</ele>
      </trkpt>
      <trkpt lat="-41.58" lon="175.359416364677">
        <ele>17</ele>
      </trkpt>
      <trkpt lat="-41.58" lon="175.359416364677">
        <ele>17</ele>
      </trkpt>
      <trkpt lat="-41.580347129506" lon="175.359142666412">
        <ele>16</ele>
      </trkpt>
      <trkpt lat="-41.58046633606713" lon="175.359021552546">
        <ele>15</ele>
      </trkpt>
      <trkpt lat="-41.58054358191875" lon="175.358924279992">
        <ele>15</ele>
      </trkpt>
      <trkpt lat="-41.58060270837306" lon="175.358827961091">
        <ele>15</ele>
      </trkpt>
      <trkpt lat="-41.58067613961472" lon="175.358725920275">
        <ele>15</ele>
      </trkpt>
      <trkpt lat="-41.58087163837497" lon="175.358476063323">
        <ele>14</ele>
      </trkpt>
      <trkpt lat="-41.58089357238222" lon="175.358426473393">
        <ele>14</ele>
      </trkpt>
      <trkpt lat="-41.58090215525462" lon="175.358360671371">
        <ele>15</ele>
      </trkpt>
      <trkpt lat="-41.58089452603471" lon="175.358251954988">
        <ele>16</ele>
      </trkpt>
      <trkpt lat="-41.58088403585733" lon="175.358176616441">
        <ele>17</ele>
      </trkpt>
      <trkpt lat="-41.58087354567995" lon="175.358102231547">
        <ele>18</ele>
      </trkpt>
      <trkpt lat="-41.58087545298493" lon="175.358063131795">
        <ele>19</ele>
      </trkpt>
      <trkpt lat="-41.58090120160213" lon="175.357983024986">
        <ele>19</ele>
      </trkpt>
      <trkpt lat="-41.58092885752431" lon="175.357948693496">
        <ele>20</ele>
      </trkpt>
      <trkpt lat="-41.58097463284379" lon="175.357927713141">
        <ele>19</ele>
      </trkpt>
      <trkpt lat="-41.58103280564562" lon="175.357926759489">
        <ele>19</ele>
      </trkpt>
      <trkpt lat="-41.58112912454701" lon="175.357938203319">
        <ele>17</ele>
      </trkpt>
      <trkpt lat="-41.58122448979591" lon="175.357950600801">
        <ele>16</ele>
      </trkpt>
      <trkpt lat="-41.5813131794774" lon="175.357951554454">
        <ele>15</ele>
      </trkpt>
      <trkpt lat="-41.58138088880412" lon="175.357940110624">
        <ele>15</ele>
      </trkpt>
      <trkpt lat="-41.58144859813084" lon="175.357928666794">
        <ele>14</ele>
      </trkpt>
      <trkpt lat="-41.58151440015258" lon="175.357911501049">
        <ele>13</ele>
      </trkpt>
      <trkpt lat="-41.58157924852183" lon="175.357895288957">
        <ele>13</ele>
      </trkpt>
      <trkpt lat="-41.58183196643143" lon="175.357772267786">
        <ele>11</ele>
      </trkpt>
      <trkpt lat="-41.58193686820523" lon="175.357711234026">
        <ele>11</ele>
      </trkpt>
      <trkpt lat="-41.58204176997901" lon="175.357650200267">
        <ele>10</ele>
      </trkpt>
      <trkpt lat="-41.58245088689681" lon="175.35738699218">
        <ele>7</ele>
      </trkpt>
      <trkpt lat="-41.58256723250047" lon="175.357284951364">
        <ele>6</ele>
      </trkpt>
      <trkpt lat="-41.58268262445165" lon="175.3571838642">
        <ele>7</ele>
      </trkpt>
      <trkpt lat="-41.58273793629601" lon="175.357119969483">
        <ele>7</ele>
      </trkpt>
      <trkpt lat="-41.58279324814038" lon="175.357057028419">
        <ele>7</ele>
      </trkpt>
      <trkpt lat="-41.58287335494946" lon="175.35695021934">
        <ele>8</ele>
      </trkpt>
      <trkpt lat="-41.58295250810604" lon="175.356844363914">
        <ele>8</ele>
      </trkpt>
      <trkpt lat="-41.58310318519931" lon="175.35655540721">
        <ele>10</ele>
      </trkpt>
      <trkpt lat="-41.58315849704368" lon="175.356465763876">
        <ele>11</ele>
      </trkpt>
      <trkpt lat="-41.58321285523555" lon="175.356376120542">
        <ele>12</ele>
      </trkpt>
      <trkpt lat="-41.58327579629982" lon="175.35628743086">
        <ele>12</ele>
      </trkpt>
      <trkpt lat="-41.5833387373641" lon="175.356198741179">
        <ele>13</ele>
      </trkpt>
      <trkpt lat="-41.58336257867633" lon="175.35608430288">
        <ele>14</ele>
      </trkpt>
      <trkpt lat="-41.58338546633606" lon="175.355970818234">
        <ele>15</ele>
      </trkpt>
      <trkpt lat="-41.58346366584016" lon="175.355694259012">
        <ele>17</ele>
      </trkpt>
      <trkpt lat="-41.58347510967003" lon="175.355577913408">
        <ele>19</ele>
      </trkpt>
      <trkpt lat="-41.5834865534999" lon="175.355462521457">
        <ele>20</ele>
      </trkpt>
      <trkpt lat="-41.5834865534999" lon="175.355462521457">
        <ele>20</ele>
      </trkpt>
      <trkpt lat="-41.58353423612435" lon="175.355336639329">
        <ele>21</ele>
      </trkpt>
      <trkpt lat="-41.58362960137325" lon="175.355029563227">
        <ele>23</ele>
      </trkpt>
      <trkpt lat="-41.58378123211902" lon="175.354659546061">
        <ele>32</ele>
      </trkpt>
      <trkpt lat="-41.58382128552355" lon="175.354577531947">
        <ele>34</ele>
      </trkpt>
      <trkpt lat="-41.58392809460232" lon="175.354438298684">
        <ele>37</ele>
      </trkpt>
      <trkpt lat="-41.58397768453175" lon="175.354362006485">
        <ele>39</ele>
      </trkpt>
      <trkpt lat="-41.58408353995804" lon="175.35416460042">
        <ele>43</ele>
      </trkpt>
      <trkpt lat="-41.58411501049017" lon="175.354050162121">
        <ele>46</ele>
      </trkpt>
      <trkpt lat="-41.58412073240511" lon="175.353946214">
        <ele>49</ele>
      </trkpt>
      <trkpt lat="-41.58414648102231" lon="175.353893763113">
        <ele>50</ele>
      </trkpt>
      <trkpt lat="-41.58424852183864" lon="175.353805073431">
        <ele>50</ele>
      </trkpt>
      <trkpt lat="-41.58443734503147" lon="175.353537097082">
        <ele>54</ele>
      </trkpt>
      <trkpt lat="-41.58448979591837" lon="175.35349418272">
        <ele>54</ele>
      </trkpt>
      <trkpt lat="-41.58455369063513" lon="175.35349418272">
        <ele>53</ele>
      </trkpt>
      <trkpt lat="-41.58463189013923" lon="175.35351325577">
        <ele>50</ele>
      </trkpt>
      <trkpt lat="-41.58473583826053" lon="175.353518024032">
        <ele>48</ele>
      </trkpt>
      <trkpt lat="-41.58495899294297" lon="175.353421705131">
        <ele>46</ele>
      </trkpt>
      <trkpt lat="-41.58508106046156" lon="175.353349227542">
        <ele>45</ele>
      </trkpt>
      <trkpt lat="-41.58513541865344" lon="175.35330631318">
        <ele>45</ele>
      </trkpt>
      <trkpt lat="-41.58526797634941" lon="175.353276749952">
        <ele>41</ele>
      </trkpt>
      <trkpt lat="-41.58535380507342" lon="175.35324146481">
        <ele>39</ele>
      </trkpt>
      <trkpt lat="-41.58548827007438" lon="175.353118443639">
        <ele>38</ele>
      </trkpt>
      <trkpt lat="-41.58554453557124" lon="175.353078390235">
        <ele>37</ele>
      </trkpt>
      <trkpt lat="-41.58584016784283" lon="175.352979210376">
        <ele>30</ele>
      </trkpt>
      <trkpt lat="-41.58601850085828" lon="175.352874308602">
        <ele>28</ele>
      </trkpt>
      <trkpt lat="-41.58609670036238" lon="175.352788479878">
        <ele>29</ele>
      </trkpt>
      <trkpt lat="-41.5861825290864" lon="175.352627312607">
        <ele>29</ele>
      </trkpt>
      <trkpt lat="-41.58625309937059" lon="175.352547205798">
        <ele>29</ele>
      </trkpt>
      <trkpt lat="-41.58631508678237" lon="175.352493801259">
        <ele>28</ele>
      </trkpt>
      <trkpt lat="-41.58639519359145" lon="175.352439443067">
        <ele>27</ele>
      </trkpt>
      <trkpt lat="-41.58654968529468" lon="175.352410833492">
        <ele>23</ele>
      </trkpt>
      <trkpt lat="-41.58668605760061" lon="175.35236791913">
        <ele>21</ele>
      </trkpt>
      <trkpt lat="-41.58683673469388" lon="175.352370780088">
        <ele>19</ele>
      </trkpt>
      <trkpt lat="-41.5868777417509" lon="175.352325004768">
        <ele>20</ele>
      </trkpt>
      <trkpt lat="-41.58693305359527" lon="175.352222963952">
        <ele>21</ele>
      </trkpt>
      <trkpt lat="-41.5870255578867" lon="175.352171466718">
        <ele>21</ele>
      </trkpt>
      <trkpt lat="-41.58713808888041" lon="175.352222963952">
        <ele>19</ele>
      </trkpt>
      <trkpt lat="-41.58723250047682" lon="175.352201029945">
        <ele>19</ele>
      </trkpt>
      <trkpt lat="-41.58730020980354" lon="175.352146671753">
        <ele>19</ele>
      </trkpt>
      <trkpt lat="-41.58744516498188" lon="175.352012206752">
        <ele>19</ele>
      </trkpt>
      <trkpt lat="-41.58776559221819" lon="175.351822429907">
        <ele>18</ele>
      </trkpt>
      <trkpt lat="-41.58791054739653" lon="175.35176616441">
        <ele>17</ele>
      </trkpt>
      <trkpt lat="-41.58801068090787" lon="175.351696547778">
        <ele>17</ele>
      </trkpt>
      <trkpt lat="-41.58857047491894" lon="175.351194926569">
        <ele>22</ele>
      </trkpt>
      <trkpt lat="-41.58874499332443" lon="175.350988937631">
        <ele>23</ele>
      </trkpt>
      <trkpt lat="-41.58897482357428" lon="175.350648483693">
        <ele>26</ele>
      </trkpt>
      <trkpt lat="-41.58921037573908" lon="175.350374785428">
        <ele>27</ele>
      </trkpt>
      <trkpt lat="-41.58937440396719" lon="175.35003433149">
        <ele>31</ele>
      </trkpt>
      <trkpt lat="-41.58956894907495" lon="175.349481213046">
        <ele>36</ele>
      </trkpt>
      <trkpt lat="-41.58978733549494" lon="175.349017737936">
        <ele>41</ele>
      </trkpt>
      <trkpt lat="-41.58997043677284" lon="175.348698264352">
        <ele>44</ele>
      </trkpt>
      <trkpt lat="-41.59022887659737" lon="175.348217623498">
        <ele>50</ele>
      </trkpt>
      <trkpt lat="-41.59042723631508" lon="175.347909593744">
        <ele>53</ele>
      </trkpt>
      <trkpt lat="-41.59053404539385" lon="175.347716955941">
        <ele>55</ele>
      </trkpt>
      <trkpt lat="-41.59060652298302" lon="175.347501430479">
        <ele>57</ele>
      </trkpt>
      <trkpt lat="-41.59071619301926" lon="175.347287812321">
        <ele>57</ele>
      </trkpt>
      <trkpt lat="-41.59090215525462" lon="175.346963570475">
        <ele>56</ele>
      </trkpt>
      <trkpt lat="-41.59099847415602" lon="175.346727064658">
        <ele>55</ele>
      </trkpt>
      <trkpt lat="-41.59131127217242" lon="175.346085256533">
        <ele>48</ele>
      </trkpt>
      <trkpt lat="-41.59143715430097" lon="175.345713332062">
        <ele>44</ele>
      </trkpt>
      <trkpt lat="-41.59163074575624" lon="175.345048636277">
        <ele>36</ele>
      </trkpt>
      <trkpt lat="-41.59198645813465" lon="175.344146481022">
        <ele>28</ele>
      </trkpt>
      <trkpt lat="-41.5921037573908" lon="175.343909975205">
        <ele>26</ele>
      </trkpt>
      <trkpt lat="-41.5924089261873" lon="175.343089834065">
        <ele>22</ele>
      </trkpt>
      <trkpt lat="-41.59300591264543" lon="175.341602136182">
        <ele>15</ele>
      </trkpt>
      <trkpt lat="-41.59317470913599" lon="175.341063322525">
        <ele>14</ele>
      </trkpt>
      <trkpt lat="-41.59326053786" lon="175.340720961282">
        <ele>13</ele>
      </trkpt>
      <trkpt lat="-41.59353232881937" lon="175.34">
        <ele>16</ele>
      </trkpt>
      <trkpt lat="-41.59353232881937" lon="175.34">
        <ele>16</ele>
      </trkpt>
      <trkpt lat="-41.59371352279229" lon="175.339519359145">
        <ele>19</ele>
      </trkpt>
      <trkpt lat="-41.5938346366584" lon="175.339058744993">
        <ele>23</ele>
      </trkpt>
      <trkpt lat="-41.59412836162502" lon="175.338495136372">
        <ele>25</ele>
      </trkpt>
      <trkpt lat="-41.59424947549113" lon="175.338149914171">
        <ele>27</ele>
      </trkpt>
      <trkpt lat="-41.59440778180431" lon="175.337542437536">
        <ele>29</ele>
      </trkpt>
      <trkpt lat="-41.59481880602708" lon="175.336646004196">
        <ele>27</ele>
      </trkpt>
      <trkpt lat="-41.59499618539004" lon="175.336301735648">
        <ele>24</ele>
      </trkpt>
      <trkpt lat="-41.59531851993133" lon="175.335821094793">
        <ele>19</ele>
      </trkpt>
      <trkpt lat="-41.5955388136563" lon="175.335556933054">
        <ele>18</ele>
      </trkpt>
      <trkpt lat="-41.59566278847988" lon="175.335284188442">
        <ele>18</ele>
      </trkpt>
      <trkpt lat="-41.59631413312989" lon="175.334505054358">
        <ele>14</ele>
      </trkpt>
      <trkpt lat="-41.59670989891283" lon="175.334093076483">
        <ele>10</ele>
      </trkpt>
      <trkpt lat="-41.59709135990845" lon="175.333496090025">
        <ele>12</ele>
      </trkpt>
      <trkpt lat="-41.59728113675376" lon="175.333152775129">
        <ele>14</ele>
      </trkpt>
      <trkpt lat="-41.5974518405493" lon="175.332997329773">
        <ele>15</ele>
      </trkpt>
      <trkpt lat="-41.59786667938203" lon="175.332719816899">
        <ele>16</ele>
      </trkpt>
      <trkpt lat="-41.59806790005722" lon="175.332654968529">
        <ele>16</ele>
      </trkpt>
      <trkpt lat="-41.59853805073431" lon="175.332200076292">
        <ele>18</ele>
      </trkpt>
      <trkpt lat="-41.59894430669463" lon="175.332255388137">
        <ele>14</ele>
      </trkpt>
      <trkpt lat="-41.59945260347129" lon="175.332128552355">
        <ele>12</ele>
      </trkpt>
      <trkpt lat="-41.59999999999999" lon="175.332031279802">
        <ele>10</ele>
      </trkpt>
      <trkpt lat="-41.6" lon="175.332031279802">
        <ele>10</ele>
      </trkpt>
      <trkpt lat="-41.60024222773222" lon="175.33198836544">
        <ele>9</ele>
      </trkpt>
      <trkpt lat="-41.60088403585733" lon="175.331383749762">
        <ele>10</ele>
      </trkpt>
      <trkpt lat="-41.60116250238413" lon="175.33085065802">
        <ele>10</ele>
      </trkpt>
      <trkpt lat="-41.60134178905207" lon="175.330521647911">
        <ele>10</ele>
      </trkpt>
      <trkpt lat="-41.60160213618158" lon="175.330113484646">
        <ele>9</ele>
      </trkpt>
      <trkpt lat="-41.60204176997902" lon="175.329397291627">
        <ele>10</ele>
      </trkpt>
      <trkpt lat="-41.60293534236124" lon="175.327691207324">
        <ele>7</ele>
      </trkpt>
      <trkpt lat="-41.60317947739843" lon="175.327307839023">
        <ele>7</ele>
      </trkpt>
    </trkseg>
  </trk>
</gpx>