<?xml version="1.0" encoding="UTF-8" standalone="yes"?>
<gpx
 version="1.1"
 creator="Generated by MapOut iPhone App. See https://mapout.app"
 xmlns="http://www.topografix.com/GPX/1/1"
 xmlns:xsi="http://www.w3.org/2001/XMLSchema-instance"
 xmlns:gpxx="http://www.garmin.com/xmlschemas/GpxExtensions/v3"
 xmlns:mapout="https://mapout.app/xmlschemas/MapOutExtensions"
 xsi:schemaLocation="http://www.topografix.com/GPX/1/1 https://www.topografix.com/GPX/1/1/gpx.xsd http://www.garmin.com/xmlschemas/GpxExtensions/v3 https://www8.garmin.com/xmlschemas/GpxExtensionsv3.xsd https://mapout.app/xmlschemas/MapOutExtensions https://mapout.app/xmlschemas/MapOutExtensions.xsd">
  <metadata>
    <name>Rainbow Falls Track</name>
    <author><name>iPhone</name></author>
    <time>2026-03-14T01:35:51Z</time>
    <bounds minlat="-35.22151726111005" minlon="173.942323097463" maxlat="-35.21305073431242" maxlon="173.962820904063"/>
  </metadata>
  <trk>
    <name>Rainbow Falls Track</name>
    <trkseg>
      <trkpt lat="-35.21818916451208" lon="173.962015957815">
        <ele>16</ele>
      </trkpt>
      <trkpt lat="-35.21795441541102" lon="173.961987411787">
        <ele>15</ele>
      </trkpt>
      <trkpt lat="-35.21790005721915" lon="173.96195403395">
        <ele>14</ele>
      </trkpt>
      <trkpt lat="-35.21789632589222" lon="173.961951742804">
        <ele>14</ele>
      </trkpt>
      <trkpt lat="-35.21793724966622" lon="173.96217242037">
        <ele>13</ele>
      </trkpt>
      <trkpt lat="-35.21795823002098" lon="173.962440396719">
        <ele>12</ele>
      </trkpt>
      <trkpt lat="-35.21794869349609" lon="173.962820904063">
        <ele>11</ele>
      </trkpt>
      <trkpt lat="-35.21794869349609" lon="173.962820904063">
        <ele>11</ele>
      </trkpt>
      <trkpt lat="-35.21788575243181" lon="173.962818043105">
        <ele>10</ele>
      </trkpt>
      <trkpt lat="-35.21782185771505" lon="173.9628161358">
        <ele>10</ele>
      </trkpt>
      <trkpt lat="-35.21774842647339" lon="173.96280087736">
        <ele>9</ele>
      </trkpt>
      <trkpt lat="-35.21768357810414" lon="173.962761777608">
        <ele>9</ele>
      </trkpt>
      <trkpt lat="-35.2176177760824" lon="173.962723631509">
        <ele>9</ele>
      </trkpt>
      <trkpt lat="-35.2175481594507" lon="173.962664505054">
        <ele>9</ele>
      </trkpt>
      <trkpt lat="-35.21749094030135" lon="173.962627312607">
        <ele>9</ele>
      </trkpt>
      <trkpt lat="-35.21746614533664" lon="173.962598703033">
        <ele>9</ele>
      </trkpt>
      <trkpt lat="-35.21739938966241" lon="173.962564371543">
        <ele>9</ele>
      </trkpt>
      <trkpt lat="-35.21733168033569" lon="173.962530993706">
        <ele>9</ele>
      </trkpt>
      <trkpt lat="-35.21726683196643" lon="173.9624327675">
        <ele>9</ele>
      </trkpt>
      <trkpt lat="-35.21724775891665" lon="173.96235266069">
        <ele>9</ele>
      </trkpt>
      <trkpt lat="-35.21722773221438" lon="173.962272553881">
        <ele>9</ele>
      </trkpt>
      <trkpt lat="-35.21722582490941" lon="173.962209612817">
        <ele>10</ele>
      </trkpt>
      <trkpt lat="-35.21722296395194" lon="173.962147625405">
        <ele>10</ele>
      </trkpt>
      <trkpt lat="-35.21722773221438" lon="173.962027465192">
        <ele>10</ele>
      </trkpt>
      <trkpt lat="-35.21724394430669" lon="173.961941636468">
        <ele>10</ele>
      </trkpt>
      <trkpt lat="-35.21728876597368" lon="173.961917795155">
        <ele>11</ele>
      </trkpt>
      <trkpt lat="-35.21728876597368" lon="173.961917795155">
        <ele>11</ele>
      </trkpt>
      <trkpt lat="-35.21733168033569" lon="173.961900629411">
        <ele>11</ele>
      </trkpt>
      <trkpt lat="-35.21739652870494" lon="173.961949265688">
        <ele>11</ele>
      </trkpt>
      <trkpt lat="-35.21739652870494" lon="173.961949265688">
        <ele>11</ele>
      </trkpt>
      <trkpt lat="-35.21740606522983" lon="173.96195403395">
        <ele>11</ele>
      </trkpt>
      <trkpt lat="-35.21742418462712" lon="173.96194259012">
        <ele>11</ele>
      </trkpt>
      <trkpt lat="-35.21742799923708" lon="173.961890139233">
        <ele>11</ele>
      </trkpt>
      <trkpt lat="-35.21741846271219" lon="173.961867251574">
        <ele>11</ele>
      </trkpt>
      <trkpt lat="-35.21739462139996" lon="173.961846271219">
        <ele>11</ele>
      </trkpt>
      <trkpt lat="-35.21739462139996" lon="173.961846271219">
        <ele>11</ele>
      </trkpt>
      <trkpt lat="-35.21681861529659" lon="173.962023650582">
        <ele>9</ele>
      </trkpt>
      <trkpt lat="-35.21681861529659" lon="173.962023650582">
        <ele>9</ele>
      </trkpt>
      <trkpt lat="-35.21671466717528" lon="173.962069425901">
        <ele>8</ele>
      </trkpt>
      <trkpt lat="-35.21667175281328" lon="173.962104711043">
        <ele>8</ele>
      </trkpt>
      <trkpt lat="-35.21663360671371" lon="173.962150486363">
        <ele>8</ele>
      </trkpt>
      <trkpt lat="-35.21657543391188" lon="173.962268739271">
        <ele>9</ele>
      </trkpt>
      <trkpt lat="-35.21655063894717" lon="173.962310699981">
        <ele>9</ele>
      </trkpt>
      <trkpt lat="-35.21651249284761" lon="173.962358382605">
        <ele>9</ele>
      </trkpt>
      <trkpt lat="-35.21646194926569" lon="173.96239080679">
        <ele>10</ele>
      </trkpt>
      <trkpt lat="-35.2163742132367" lon="173.962429906542">
        <ele>10</ele>
      </trkpt>
      <trkpt lat="-35.21635323288194" lon="173.962448979592">
        <ele>10</ele>
      </trkpt>
      <trkpt lat="-35.21631794773985" lon="173.962511920656">
        <ele>11</ele>
      </trkpt>
      <trkpt lat="-35.21631794773985" lon="173.962511920656">
        <ele>11</ele>
      </trkpt>
      <trkpt lat="-35.21631222582491" lon="173.962490940301">
        <ele>11</ele>
      </trkpt>
      <trkpt lat="-35.21629982834255" lon="173.962177188632">
        <ele>11</ele>
      </trkpt>
      <trkpt lat="-35.21634369635705" lon="173.961707991608">
        <ele>11</ele>
      </trkpt>
      <trkpt lat="-35.21643524699599" lon="173.961309364867">
        <ele>11</ele>
      </trkpt>
      <trkpt lat="-35.21665649437345" lon="173.960779134084">
        <ele>12</ele>
      </trkpt>
      <trkpt lat="-35.21665458706848" lon="173.960700934579">
        <ele>12</ele>
      </trkpt>
      <trkpt lat="-35.21665267976349" lon="173.960623688728">
        <ele>13</ele>
      </trkpt>
      <trkpt lat="-35.21663837497616" lon="173.960507343124">
        <ele>13</ele>
      </trkpt>
      <trkpt lat="-35.21661262635896" lon="173.960397673088">
        <ele>14</ele>
      </trkpt>
      <trkpt lat="-35.21658687774175" lon="173.960288003052">
        <ele>14</ele>
      </trkpt>
      <trkpt lat="-35.21655922181957" lon="173.960204081633">
        <ele>15</ele>
      </trkpt>
      <trkpt lat="-35.21651153919512" lon="173.960126835781">
        <ele>15</ele>
      </trkpt>
      <trkpt lat="-35.21639423993896" lon="173.960104901774">
        <ele>15</ele>
      </trkpt>
      <trkpt lat="-35.21632748426474" lon="173.960082967767">
        <ele>15</ele>
      </trkpt>
      <trkpt lat="-35.21625977493802" lon="173.960061033759">
        <ele>14</ele>
      </trkpt>
      <trkpt lat="-35.21619492656876" lon="173.960058172802">
        <ele>14</ele>
      </trkpt>
      <trkpt lat="-35.21612912454702" lon="173.960056265497">
        <ele>14</ele>
      </trkpt>
      <trkpt lat="-35.21601087163837" lon="173.960117299256">
        <ele>14</ele>
      </trkpt>
      <trkpt lat="-35.21592122830441" lon="173.960143047873">
        <ele>13</ele>
      </trkpt>
      <trkpt lat="-35.21584684341026" lon="173.960196452413">
        <ele>13</ele>
      </trkpt>
      <trkpt lat="-35.21578199504101" lon="173.96025653252">
        <ele>13</ele>
      </trkpt>
      <trkpt lat="-35.21574575624643" lon="173.960373831776">
        <ele>13</ele>
      </trkpt>
      <trkpt lat="-35.21569139805455" lon="173.960451077627">
        <ele>14</ele>
      </trkpt>
      <trkpt lat="-35.21561605950792" lon="173.960482548159">
        <ele>14</ele>
      </trkpt>
      <trkpt lat="-35.21555502574862" lon="173.960521647912">
        <ele>14</ele>
      </trkpt>
      <trkpt lat="-35.21549303833683" lon="173.960560747664">
        <ele>15</ele>
      </trkpt>
      <trkpt lat="-35.21538622925806" lon="173.960566469579">
        <ele>15</ele>
      </trkpt>
      <trkpt lat="-35.21531184436392" lon="173.960560747664">
        <ele>16</ele>
      </trkpt>
      <trkpt lat="-35.21523745946977" lon="173.960555979401">
        <ele>16</ele>
      </trkpt>
      <trkpt lat="-35.21513637230593" lon="173.960513065039">
        <ele>16</ele>
      </trkpt>
      <trkpt lat="-35.21486839595651" lon="173.960453938585">
        <ele>18</ele>
      </trkpt>
      <trkpt lat="-35.21480450123975" lon="173.960443448407">
        <ele>18</ele>
      </trkpt>
      <trkpt lat="-35.21474060652299" lon="173.96043295823">
        <ele>18</ele>
      </trkpt>
      <trkpt lat="-35.21462807552928" lon="173.960465382415">
        <ele>19</ele>
      </trkpt>
      <trkpt lat="-35.21458134655732" lon="173.960525462521">
        <ele>20</ele>
      </trkpt>
      <trkpt lat="-35.21454320045775" lon="173.960589357238">
        <ele>21</ele>
      </trkpt>
      <trkpt lat="-35.21450505435819" lon="173.960653251955">
        <ele>22</ele>
      </trkpt>
      <trkpt lat="-35.21445451077627" lon="173.960718100324">
        <ele>22</ele>
      </trkpt>
      <trkpt lat="-35.21440301354187" lon="173.960782948694">
        <ele>23</ele>
      </trkpt>
      <trkpt lat="-35.21431146290292" lon="173.960842075148">
        <ele>24</ele>
      </trkpt>
      <trkpt lat="-35.21399008201411" lon="173.960880221247">
        <ele>27</ele>
      </trkpt>
      <trkpt lat="-35.21390329963761" lon="173.96090787717">
        <ele>28</ele>
      </trkpt>
      <trkpt lat="-35.21380125882128" lon="173.96084684341">
        <ele>29</ele>
      </trkpt>
      <trkpt lat="-35.21374594697692" lon="173.960781041389">
        <ele>29</ele>
      </trkpt>
      <trkpt lat="-35.21368968148007" lon="173.960715239367">
        <ele>29</ele>
      </trkpt>
      <trkpt lat="-35.21364199885562" lon="173.960629410643">
        <ele>29</ele>
      </trkpt>
      <trkpt lat="-35.21359431623117" lon="173.960544535571">
        <ele>29</ele>
      </trkpt>
      <trkpt lat="-35.21356189204654" lon="173.960477779897">
        <ele>29</ele>
      </trkpt>
      <trkpt lat="-35.21352946786191" lon="173.960411977875">
        <ele>29</ele>
      </trkpt>
      <trkpt lat="-35.21344268548541" lon="173.960064848369">
        <ele>29</ele>
      </trkpt>
      <trkpt lat="-35.21339118825223" lon="173.960000000002">
        <ele>30</ele>
      </trkpt>
      <trkpt lat="-35.213391188251" lon="173.96">
        <ele>30</ele>
      </trkpt>
      <trkpt lat="-35.21318519931337" lon="173.959731069998">
        <ele>33</ele>
      </trkpt>
      <trkpt lat="-35.21318043105092" lon="173.959617585352">
        <ele>33</ele>
      </trkpt>
      <trkpt lat="-35.21317566278848" lon="173.959505054358">
        <ele>33</ele>
      </trkpt>
      <trkpt lat="-35.2131136753767" lon="173.959409689109">
        <ele>34</ele>
      </trkpt>
      <trkpt lat="-35.21305073431242" lon="173.95931432386">
        <ele>35</ele>
      </trkpt>
      <trkpt lat="-35.21305359526988" lon="173.959247568186">
        <ele>35</ele>
      </trkpt>
      <trkpt lat="-35.21306694640473" lon="173.959177951554">
        <ele>35</ele>
      </trkpt>
      <trkpt lat="-35.21308029753958" lon="173.959109288575">
        <ele>35</ele>
      </trkpt>
      <trkpt lat="-35.21310318519932" lon="173.959068281518">
        <ele>35</ele>
      </trkpt>
      <trkpt lat="-35.21312511920656" lon="173.958984360099">
        <ele>35</ele>
      </trkpt>
      <trkpt lat="-35.21314609956132" lon="173.958901392333">
        <ele>35</ele>
      </trkpt>
      <trkpt lat="-35.21344173183292" lon="173.95867442304">
        <ele>32</ele>
      </trkpt>
      <trkpt lat="-35.21352469959947" lon="173.958636276941">
        <ele>30</ele>
      </trkpt>
      <trkpt lat="-35.21358954796872" lon="173.958591455274">
        <ele>29</ele>
      </trkpt>
      <trkpt lat="-35.21371256913981" lon="173.958323478924">
        <ele>28</ele>
      </trkpt>
      <trkpt lat="-35.21369731069998" lon="173.958209994278">
        <ele>29</ele>
      </trkpt>
      <trkpt lat="-35.21368205226015" lon="173.958096509632">
        <ele>30</ele>
      </trkpt>
      <trkpt lat="-35.21367537669273" lon="173.958013541865">
        <ele>30</ele>
      </trkpt>
      <trkpt lat="-35.21366774747282" lon="173.957930574099">
        <ele>31</ele>
      </trkpt>
      <trkpt lat="-35.21370017165745" lon="173.957847606332">
        <ele>30</ele>
      </trkpt>
      <trkpt lat="-35.2138956704177" lon="173.957581537288">
        <ele>27</ele>
      </trkpt>
      <trkpt lat="-35.2139652870494" lon="173.957519549876">
        <ele>26</ele>
      </trkpt>
      <trkpt lat="-35.21397863818424" lon="173.957436582109">
        <ele>26</ele>
      </trkpt>
      <trkpt lat="-35.21397768453176" lon="173.95740606523">
        <ele>26</ele>
      </trkpt>
      <trkpt lat="-35.21391569711997" lon="173.957320236506">
        <ele>28</ele>
      </trkpt>
      <trkpt lat="-35.21385084875072" lon="173.957297348846">
        <ele>29</ele>
      </trkpt>
      <trkpt lat="-35.21377264924661" lon="173.957255388137">
        <ele>31</ele>
      </trkpt>
      <trkpt lat="-35.21375166889186" lon="173.957160022888">
        <ele>31</ele>
      </trkpt>
      <trkpt lat="-35.21374213236697" lon="173.957070379554">
        <ele>32</ele>
      </trkpt>
      <trkpt lat="-35.2137392714095" lon="173.956958802212">
        <ele>32</ele>
      </trkpt>
      <trkpt lat="-35.21373641045203" lon="173.956848178524">
        <ele>33</ele>
      </trkpt>
      <trkpt lat="-35.21372592027465" lon="173.956775700935">
        <ele>33</ele>
      </trkpt>
      <trkpt lat="-35.21371447644479" lon="173.956704176998">
        <ele>34</ele>
      </trkpt>
      <trkpt lat="-35.21372496662217" lon="173.956583063132">
        <ele>34</ele>
      </trkpt>
      <trkpt lat="-35.21374403967194" lon="173.956463856571">
        <ele>33</ele>
      </trkpt>
      <trkpt lat="-35.21376215906923" lon="173.956345603662">
        <ele>33</ele>
      </trkpt>
      <trkpt lat="-35.21376311272172" lon="173.956227350753">
        <ele>33</ele>
      </trkpt>
      <trkpt lat="-35.21376311272172" lon="173.956109097845">
        <ele>33</ele>
      </trkpt>
      <trkpt lat="-35.21375071523937" lon="173.955754339119">
        <ele>33</ele>
      </trkpt>
      <trkpt lat="-35.21372305931718" lon="173.955710471104">
        <ele>34</ele>
      </trkpt>
      <trkpt lat="-35.21369444974251" lon="173.955748617204">
        <ele>34</ele>
      </trkpt>
      <trkpt lat="-35.21368395956514" lon="173.955842075148">
        <ele>34</ele>
      </trkpt>
      <trkpt lat="-35.21367346938776" lon="173.955935533092">
        <ele>35</ele>
      </trkpt>
      <trkpt lat="-35.21364485981309" lon="173.956045203128">
        <ele>35</ele>
      </trkpt>
      <trkpt lat="-35.21361625023842" lon="173.956155826817">
        <ele>36</ele>
      </trkpt>
      <trkpt lat="-35.21357905779134" lon="173.956217814228">
        <ele>36</ele>
      </trkpt>
      <trkpt lat="-35.21354091169178" lon="173.95627980164">
        <ele>37</ele>
      </trkpt>
      <trkpt lat="-35.21345317566279" lon="173.9563408354">
        <ele>39</ele>
      </trkpt>
      <trkpt lat="-35.2134083539958" lon="173.956341789052">
        <ele>40</ele>
      </trkpt>
      <trkpt lat="-35.21336067137135" lon="173.956067137135">
        <ele>41</ele>
      </trkpt>
      <trkpt lat="-35.21337306885371" lon="173.955777226779">
        <ele>41</ele>
      </trkpt>
      <trkpt lat="-35.21334255197406" lon="173.955680907877">
        <ele>41</ele>
      </trkpt>
      <trkpt lat="-35.21331203509441" lon="173.955585542628">
        <ele>42</ele>
      </trkpt>
      <trkpt lat="-35.21326053786" lon="173.955531184436">
        <ele>43</ele>
      </trkpt>
      <trkpt lat="-35.21324241846271" lon="173.955470150677">
        <ele>43</ele>
      </trkpt>
      <trkpt lat="-35.21321953080297" lon="173.955355712378">
        <ele>43</ele>
      </trkpt>
      <trkpt lat="-35.21329773030708" lon="173.954806408545">
        <ele>43</ele>
      </trkpt>
      <trkpt lat="-35.21332061796682" lon="173.954742513828">
        <ele>43</ele>
      </trkpt>
      <trkpt lat="-35.21336639328629" lon="173.954639519359">
        <ele>43</ele>
      </trkpt>
      <trkpt lat="-35.21341121495328" lon="173.954537478543">
        <ele>43</ele>
      </trkpt>
      <trkpt lat="-35.21346557314515" lon="173.954451649819">
        <ele>43</ele>
      </trkpt>
      <trkpt lat="-35.21355044821667" lon="173.954124547015">
        <ele>44</ele>
      </trkpt>
      <trkpt lat="-35.21355998474156" lon="173.954065420561">
        <ele>44</ele>
      </trkpt>
      <trkpt lat="-35.21360957467099" lon="173.953980545489">
        <ele>44</ele>
      </trkpt>
      <trkpt lat="-35.21365916460042" lon="173.95389662407">
        <ele>45</ele>
      </trkpt>
      <trkpt lat="-35.21374213236697" lon="173.953779324814">
        <ele>45</ele>
      </trkpt>
      <trkpt lat="-35.21383940492085" lon="173.95372782758">
        <ele>44</ele>
      </trkpt>
      <trkpt lat="-35.21390711424757" lon="173.953711615487">
        <ele>44</ele>
      </trkpt>
      <trkpt lat="-35.21397482357429" lon="173.953696357047">
        <ele>43</ele>
      </trkpt>
      <trkpt lat="-35.21405111577342" lon="173.953710661835">
        <ele>42</ele>
      </trkpt>
      <trkpt lat="-35.21412740797253" lon="173.953705893572">
        <ele>42</ele>
      </trkpt>
      <trkpt lat="-35.21419797825673" lon="173.953677283998">
        <ele>41</ele>
      </trkpt>
      <trkpt lat="-35.21426759488843" lon="173.953648674423">
        <ele>41</ele>
      </trkpt>
      <trkpt lat="-35.21433721152012" lon="173.953609574671">
        <ele>42</ele>
      </trkpt>
      <trkpt lat="-35.21440587449933" lon="173.953570474919">
        <ele>42</ele>
      </trkpt>
      <trkpt lat="-35.21449647148579" lon="173.953550448217">
        <ele>41</ele>
      </trkpt>
      <trkpt lat="-35.21458611481976" lon="173.953531375167">
        <ele>41</ele>
      </trkpt>
      <trkpt lat="-35.21469101659356" lon="173.953531375167">
        <ele>40</ele>
      </trkpt>
      <trkpt lat="-35.21479496471486" lon="173.953531375167">
        <ele>40</ele>
      </trkpt>
      <trkpt lat="-35.21487125691398" lon="173.953554262827">
        <ele>39</ele>
      </trkpt>
      <trkpt lat="-35.21494754911311" lon="173.953577150486">
        <ele>38</ele>
      </trkpt>
      <trkpt lat="-35.21522696929239" lon="173.953616250238">
        <ele>37</ele>
      </trkpt>
      <trkpt lat="-35.21528991035667" lon="173.953618157543">
        <ele>37</ele>
      </trkpt>
      <trkpt lat="-35.21535189776846" lon="173.953621018501">
        <ele>36</ele>
      </trkpt>
      <trkpt lat="-35.21541769979019" lon="173.953610528323">
        <ele>36</ele>
      </trkpt>
      <trkpt lat="-35.21548350181194" lon="173.953600991799">
        <ele>36</ele>
      </trkpt>
      <trkpt lat="-35.21555311844364" lon="173.953526606904">
        <ele>36</ele>
      </trkpt>
      <trkpt lat="-35.21562273507534" lon="173.95345222201">
        <ele>35</ele>
      </trkpt>
      <trkpt lat="-35.21566564943735" lon="173.953368300591">
        <ele>35</ele>
      </trkpt>
      <trkpt lat="-35.21570761014686" lon="173.953285332825">
        <ele>35</ele>
      </trkpt>
      <trkpt lat="-35.21578962426092" lon="173.953205226016">
        <ele>35</ele>
      </trkpt>
      <trkpt lat="-35.21587068472249" lon="173.953126072859">
        <ele>35</ele>
      </trkpt>
      <trkpt lat="-35.21591169177952" lon="173.953043105092">
        <ele>36</ele>
      </trkpt>
      <trkpt lat="-35.21595174518406" lon="173.952960137326">
        <ele>36</ele>
      </trkpt>
      <trkpt lat="-35.2160347129506" lon="173.952855235552">
        <ele>36</ele>
      </trkpt>
      <trkpt lat="-35.21610528323479" lon="173.952783711615">
        <ele>36</ele>
      </trkpt>
      <trkpt lat="-35.21617489986649" lon="173.952713141331">
        <ele>36</ele>
      </trkpt>
      <trkpt lat="-35.21627980164028" lon="173.952619683387">
        <ele>35</ele>
      </trkpt>
      <trkpt lat="-35.21638470341408" lon="173.952526225443">
        <ele>34</ele>
      </trkpt>
      <trkpt lat="-35.21649341979783" lon="173.952447072287">
        <ele>34</ele>
      </trkpt>
      <trkpt lat="-35.21655826816708" lon="173.952424184627">
        <ele>33</ele>
      </trkpt>
      <trkpt lat="-35.21662311653633" lon="173.95240225062">
        <ele>33</ele>
      </trkpt>
      <trkpt lat="-35.21671752813275" lon="173.952332633988">
        <ele>32</ele>
      </trkpt>
      <trkpt lat="-35.21675567423231" lon="173.952281136754">
        <ele>32</ele>
      </trkpt>
      <trkpt lat="-35.21683864199886" lon="173.952284951364">
        <ele>32</ele>
      </trkpt>
      <trkpt lat="-35.21691016593553" lon="173.952174327675">
        <ele>32</ele>
      </trkpt>
      <trkpt lat="-35.21705798207133" lon="173.951873927141">
        <ele>32</ele>
      </trkpt>
      <trkpt lat="-35.21711043295823" lon="173.951594506962">
        <ele>32</ele>
      </trkpt>
      <trkpt lat="-35.21711424756819" lon="173.951487697883">
        <ele>32</ele>
      </trkpt>
      <trkpt lat="-35.21710185008583" lon="173.951372305932">
        <ele>33</ele>
      </trkpt>
      <trkpt lat="-35.21710375739081" lon="173.95111481976">
        <ele>33</ele>
      </trkpt>
      <trkpt lat="-35.21716765210757" lon="173.95083158497">
        <ele>33</ele>
      </trkpt>
      <trkpt lat="-35.21730688537097" lon="173.950485409117">
        <ele>33</ele>
      </trkpt>
      <trkpt lat="-35.2173564753004" lon="173.950400534045">
        <ele>32</ele>
      </trkpt>
      <trkpt lat="-35.21740511157734" lon="173.950315658974">
        <ele>32</ele>
      </trkpt>
      <trkpt lat="-35.21747186725158" lon="173.95022601564">
        <ele>31</ele>
      </trkpt>
      <trkpt lat="-35.21753862292581" lon="173.950137325958">
        <ele>32</ele>
      </trkpt>
      <trkpt lat="-35.21755483501812" lon="173.950021934007">
        <ele>33</ele>
      </trkpt>
      <trkpt lat="-35.21757009345794" lon="173.949907495709">
        <ele>34</ele>
      </trkpt>
      <trkpt lat="-35.21758535189777" lon="173.949837879077">
        <ele>35</ele>
      </trkpt>
      <trkpt lat="-35.21760061033759" lon="173.949768262445">
        <ele>35</ele>
      </trkpt>
      <trkpt lat="-35.21756627884799" lon="173.949710089643">
        <ele>35</ele>
      </trkpt>
      <trkpt lat="-35.21743276749952" lon="173.949380125882">
        <ele>36</ele>
      </trkpt>
      <trkpt lat="-35.21732786572573" lon="173.949077818043">
        <ele>40</ele>
      </trkpt>
      <trkpt lat="-35.21730402441351" lon="173.948768834637">
        <ele>44</ele>
      </trkpt>
      <trkpt lat="-35.21729448788862" lon="173.948717337402">
        <ele>45</ele>
      </trkpt>
      <trkpt lat="-35.21730402441351" lon="173.948661071905">
        <ele>46</ele>
      </trkpt>
      <trkpt lat="-35.21732977303071" lon="173.948587640664">
        <ele>46</ele>
      </trkpt>
      <trkpt lat="-35.21735552164791" lon="173.948514209422">
        <ele>47</ele>
      </trkpt>
      <trkpt lat="-35.21736887278276" lon="173.94844459279">
        <ele>48</ele>
      </trkpt>
      <trkpt lat="-35.2173650581728" lon="173.948358764066">
        <ele>49</ele>
      </trkpt>
      <trkpt lat="-35.21752145718101" lon="173.947688346367">
        <ele>55</ele>
      </trkpt>
      <trkpt lat="-35.21762540530231" lon="173.947429906542">
        <ele>57</ele>
      </trkpt>
      <trkpt lat="-35.21767213427427" lon="173.947339309556">
        <ele>57</ele>
      </trkpt>
      <trkpt lat="-35.21771790959374" lon="173.947249666222">
        <ele>58</ele>
      </trkpt>
      <trkpt lat="-35.21778180431051" lon="173.94718767881">
        <ele>58</ele>
      </trkpt>
      <trkpt lat="-35.21802498569522" lon="173.947110432958">
        <ele>57</ele>
      </trkpt>
      <trkpt lat="-35.21811939729163" lon="173.947104711043">
        <ele>56</ele>
      </trkpt>
      <trkpt lat="-35.21821285523556" lon="173.947098989128">
        <ele>55</ele>
      </trkpt>
      <trkpt lat="-35.21832729353424" lon="173.947126645051">
        <ele>54</ele>
      </trkpt>
      <trkpt lat="-35.21844173183292" lon="173.947154300973">
        <ele>54</ele>
      </trkpt>
      <trkpt lat="-35.21855998474156" lon="173.947234407782">
        <ele>52</ele>
      </trkpt>
      <trkpt lat="-35.21862864772077" lon="173.947290673279">
        <ele>51</ele>
      </trkpt>
      <trkpt lat="-35.21869635704749" lon="173.947346938775">
        <ele>50</ele>
      </trkpt>
      <trkpt lat="-35.21894239938966" lon="173.947602517643">
        <ele>48</ele>
      </trkpt>
      <trkpt lat="-35.21930288003052" lon="173.947681670799">
        <ele>50</ele>
      </trkpt>
      <trkpt lat="-35.21938870875453" lon="173.947691207324">
        <ele>51</ele>
      </trkpt>
      <trkpt lat="-35.21947358382605" lon="173.947701697501">
        <ele>52</ele>
      </trkpt>
      <trkpt lat="-35.21956608811749" lon="173.947679763494">
        <ele>52</ele>
      </trkpt>
      <trkpt lat="-35.21965859240893" lon="173.947658783139">
        <ele>53</ele>
      </trkpt>
      <trkpt lat="-35.21974251382796" lon="173.947614915125">
        <ele>53</ele>
      </trkpt>
      <trkpt lat="-35.2198254815945" lon="173.947572000763">
        <ele>53</ele>
      </trkpt>
      <trkpt lat="-35.2199132176235" lon="173.947499523174">
        <ele>52</ele>
      </trkpt>
      <trkpt lat="-35.22" lon="173.947427045585">
        <ele>53</ele>
      </trkpt>
      <trkpt lat="-35.22" lon="173.947427045585">
        <ele>53</ele>
      </trkpt>
      <trkpt lat="-35.22007152393667" lon="173.94736791913">
        <ele>54</ele>
      </trkpt>
      <trkpt lat="-35.22024985695212" lon="173.947189586115">
        <ele>56</ele>
      </trkpt>
      <trkpt lat="-35.22043391188251" lon="173.946925424375">
        <ele>54</ele>
      </trkpt>
      <trkpt lat="-35.22065611291245" lon="173.946688918558">
        <ele>51</ele>
      </trkpt>
      <trkpt lat="-35.22106141522029" lon="173.946407591074">
        <ele>48</ele>
      </trkpt>
      <trkpt lat="-35.22130650390997" lon="173.946068090788">
        <ele>42</ele>
      </trkpt>
      <trkpt lat="-35.2213560938394" lon="173.945925996567">
        <ele>39</ele>
      </trkpt>
      <trkpt lat="-35.22141140568377" lon="173.945582681671">
        <ele>37</ele>
      </trkpt>
      <trkpt lat="-35.22151726111005" lon="173.945105855426">
        <ele>37</ele>
      </trkpt>
      <trkpt lat="-35.22151344650009" lon="173.944930383368">
        <ele>37</ele>
      </trkpt>
      <trkpt lat="-35.22141045203128" lon="173.944591836735">
        <ele>39</ele>
      </trkpt>
      <trkpt lat="-35.22133320617966" lon="173.944443066946">
        <ele>40</ele>
      </trkpt>
      <trkpt lat="-35.22128361625023" lon="173.944161739462">
        <ele>41</ele>
      </trkpt>
      <trkpt lat="-35.22129696738508" lon="173.943989128362">
        <ele>41</ele>
      </trkpt>
      <trkpt lat="-35.22139805454892" lon="173.943660118253">
        <ele>41</ele>
      </trkpt>
      <trkpt lat="-35.22139519359146" lon="173.943546633607">
        <ele>42</ele>
      </trkpt>
      <trkpt lat="-35.22130173564753" lon="173.943447453748">
        <ele>42</ele>
      </trkpt>
      <trkpt lat="-35.22123593362578" lon="173.943439824528">
        <ele>43</ele>
      </trkpt>
      <trkpt lat="-35.22106522983024" lon="173.943493229067">
        <ele>43</ele>
      </trkpt>
      <trkpt lat="-35.22091169177951" lon="173.943527560557">
        <ele>44</ele>
      </trkpt>
      <trkpt lat="-35.22079629982834" lon="173.943535189777">
        <ele>44</ele>
      </trkpt>
      <trkpt lat="-35.22069998092694" lon="173.94351325577">
        <ele>44</ele>
      </trkpt>
      <trkpt lat="-35.22038146099561" lon="173.943293915697">
        <ele>44</ele>
      </trkpt>
      <trkpt lat="-35.22030326149151" lon="173.943289147435">
        <ele>43</ele>
      </trkpt>
      <trkpt lat="-35.22015925996566" lon="173.943336830059">
        <ele>43</ele>
      </trkpt>
      <trkpt lat="-35.22" lon="173.943421705131">
        <ele>43</ele>
      </trkpt>
      <trkpt lat="-35.22" lon="173.943421705131">
        <ele>43</ele>
      </trkpt>
      <trkpt lat="-35.21969292389853" lon="173.943588594316">
        <ele>46</ele>
      </trkpt>
      <trkpt lat="-35.21896433339691" lon="173.94365153538">
        <ele>53</ele>
      </trkpt>
      <trkpt lat="-35.21848273888995" lon="173.943639137898">
        <ele>57</ele>
      </trkpt>
      <trkpt lat="-35.21799828342552" lon="173.943538050734">
        <ele>58</ele>
      </trkpt>
      <trkpt lat="-35.21787716955942" lon="173.943508487507">
        <ele>58</ele>
      </trkpt>
      <trkpt lat="-35.21775605569331" lon="173.943479877932">
        <ele>58</ele>
      </trkpt>
      <trkpt lat="-35.21688060270837" lon="173.94300781995">
        <ele>58</ele>
      </trkpt>
      <trkpt lat="-35.2164266641236" lon="173.942791340835">
        <ele>59</ele>
      </trkpt>
      <trkpt lat="-35.21631413312989" lon="173.942733168034">
        <ele>59</ele>
      </trkpt>
      <trkpt lat="-35.21620064848369" lon="173.942675948884">
        <ele>59</ele>
      </trkpt>
      <trkpt lat="-35.21538909021552" lon="173.942323097463">
        <ele>61</ele>
      </trkpt>
      <trkpt lat="-35.21530898340644" lon="173.942330726683">
        <ele>61</ele>
      </trkpt>
      <trkpt lat="-35.21522792294488" lon="173.942339309556">
        <ele>61</ele>
      </trkpt>
      <trkpt lat="-35.21516593553309" lon="173.942372687393">
        <ele>61</ele>
      </trkpt>
      <trkpt lat="-35.21510299446881" lon="173.942407018882">
        <ele>61</ele>
      </trkpt>
      <trkpt lat="-35.21500190730498" lon="173.942447072287">
        <ele>61</ele>
      </trkpt>
      <trkpt lat="-35.21493324432577" lon="173.942487125691">
        <ele>61</ele>
      </trkpt>
      <trkpt lat="-35.21482548159451" lon="173.942579629983">
        <ele>62</ele>
      </trkpt>
      <trkpt lat="-35.21474918939538" lon="173.942670226969">
        <ele>62</ele>
      </trkpt>
      <trkpt lat="-35.21475109670036" lon="173.942724585161">
        <ele>62</ele>
      </trkpt>
      <trkpt lat="-35.21483024985695" lon="173.942670226969">
        <ele>62</ele>
      </trkpt>
      <trkpt lat="-35.21490844936105" lon="173.942615868777">
        <ele>61</ele>
      </trkpt>
      <trkpt lat="-35.21498569521267" lon="173.942621590692">
        <ele>61</ele>
      </trkpt>
      <trkpt lat="-35.21504958992943" lon="173.942652107572">
        <ele>61</ele>
      </trkpt>
      <trkpt lat="-35.2151134846462" lon="173.942682624452">
        <ele>61</ele>
      </trkpt>
      <trkpt lat="-35.21520122067518" lon="173.94280087736">
        <ele>61</ele>
      </trkpt>
      <trkpt lat="-35.21520503528514" lon="173.942884798779">
        <ele>62</ele>
      </trkpt>
      <trkpt lat="-35.21518214762541" lon="173.942978256723">
        <ele>62</ele>
      </trkpt>
      <trkpt lat="-35.21512302117109" lon="173.942999237078">
        <ele>62</ele>
      </trkpt>
      <trkpt lat="-35.21503337783712" lon="173.94300019073">
        <ele>62</ele>
      </trkpt>
      <trkpt lat="-35.2147043677284" lon="173.942873354949">
        <ele>63</ele>
      </trkpt>
      <trkpt lat="-35.21465573145146" lon="173.942862864772">
        <ele>63</ele>
      </trkpt>
      <trkpt lat="-35.21460804882701" lon="173.942829486935">
        <ele>63</ele>
      </trkpt>
      <trkpt lat="-35.21450982262064" lon="173.942821857715">
        <ele>63</ele>
      </trkpt>
      <trkpt lat="-35.21441255006675" lon="173.942765592218">
        <ele>64</ele>
      </trkpt>
      <trkpt lat="-35.21431527751287" lon="173.942709326721">
        <ele>64</ele>
      </trkpt>
      <trkpt lat="-35.21424661453366" lon="173.942664505054">
        <ele>64</ele>
      </trkpt>
      <trkpt lat="-35.21417699790197" lon="173.94262063704">
        <ele>65</ele>
      </trkpt>
      <trkpt lat="-35.21411501049018" lon="173.942501430479">
        <ele>65</ele>
      </trkpt>
      <trkpt lat="-35.21412550066756" lon="173.942436582109">
        <ele>65</ele>
      </trkpt>
      <trkpt lat="-35.21417127598703" lon="173.942384131223">
        <ele>65</ele>
      </trkpt>
    </trkseg>
  </trk>
</gpx>