<?xml version="1.0" encoding="UTF-8" standalone="yes"?>
<gpx
 version="1.1"
 creator="Generated by MapOut iPhone App. See https://mapout.app"
 xmlns="http://www.topografix.com/GPX/1/1"
 xmlns:xsi="http://www.w3.org/2001/XMLSchema-instance"
 xmlns:gpxx="http://www.garmin.com/xmlschemas/GpxExtensions/v3"
 xmlns:mapout="https://mapout.app/xmlschemas/MapOutExtensions"
 xsi:schemaLocation="http://www.topografix.com/GPX/1/1 https://www.topografix.com/GPX/1/1/gpx.xsd http://www.garmin.com/xmlschemas/GpxExtensions/v3 https://www8.garmin.com/xmlschemas/GpxExtensionsv3.xsd https://mapout.app/xmlschemas/MapOutExtensions https://mapout.app/xmlschemas/MapOutExtensions.xsd">
  <metadata>
    <name>Sanctuary Loop</name>
    <author><name>iPhone</name></author>
    <time>2026-08-31T23:29:48Z</time>
    <bounds minlat="-38.67282662597749" minlon="176.724822620637" maxlat="-38.664601269055" maxlon="176.729312416555"/>
  </metadata>
  <trk>
    <name>Sanctuary Loop</name>
    <trkseg>
      <trkpt lat="-38.66461008031936" lon="176.727847516092">
        <ele>403</ele>
      </trkpt>
      <trkpt lat="-38.6650257486172" lon="176.728051687965">
        <ele>404</ele>
      </trkpt>
      <trkpt lat="-38.66522220102995" lon="176.72803070761">
        <ele>410</ele>
      </trkpt>
      <trkpt lat="-38.66530230783903" lon="176.727964905588">
        <ele>413</ele>
      </trkpt>
      <trkpt lat="-38.66530230783903" lon="176.727964905588">
        <ele>413</ele>
      </trkpt>
      <trkpt lat="-38.66536715620828" lon="176.727923898531">
        <ele>416</ele>
      </trkpt>
      <trkpt lat="-38.66536715620828" lon="176.727923898531">
        <ele>416</ele>
      </trkpt>
      <trkpt lat="-38.66543105092504" lon="176.727882891474">
        <ele>418</ele>
      </trkpt>
      <trkpt lat="-38.66549494564181" lon="176.727841884417">
        <ele>421</ele>
      </trkpt>
      <trkpt lat="-38.66579629982834" lon="176.72780087736">
        <ele>432</ele>
      </trkpt>
      <trkpt lat="-38.66585447263017" lon="176.727689300019">
        <ele>436</ele>
      </trkpt>
      <trkpt lat="-38.66591169177952" lon="176.72757867633">
        <ele>440</ele>
      </trkpt>
      <trkpt lat="-38.66616822429906" lon="176.727407018882">
        <ele>445</ele>
      </trkpt>
      <trkpt lat="-38.66645050543582" lon="176.727341216861">
        <ele>448</ele>
      </trkpt>
      <trkpt lat="-38.66652489032997" lon="176.727238222392">
        <ele>450</ele>
      </trkpt>
      <trkpt lat="-38.66659832157162" lon="176.727135227923">
        <ele>451</ele>
      </trkpt>
      <trkpt lat="-38.66681575433912" lon="176.726848178524">
        <ele>453</ele>
      </trkpt>
      <trkpt lat="-38.6668958611482" lon="176.726728971963">
        <ele>454</ele>
      </trkpt>
      <trkpt lat="-38.66697596795728" lon="176.726609765402">
        <ele>455</ele>
      </trkpt>
      <trkpt lat="-38.6672267785619" lon="176.726584970437">
        <ele>456</ele>
      </trkpt>
      <trkpt lat="-38.6673393095556" lon="176.726522983025">
        <ele>457</ele>
      </trkpt>
      <trkpt lat="-38.66745088689682" lon="176.726461949266">
        <ele>457</ele>
      </trkpt>
      <trkpt lat="-38.66754053023079" lon="176.726420942209">
        <ele>458</ele>
      </trkpt>
      <trkpt lat="-38.66763017356475" lon="176.726379935152">
        <ele>458</ele>
      </trkpt>
      <trkpt lat="-38.66772077055121" lon="176.726367537669">
        <ele>459</ele>
      </trkpt>
      <trkpt lat="-38.66781041388519" lon="176.726355140187">
        <ele>459</ele>
      </trkpt>
      <trkpt lat="-38.66790005721915" lon="176.726367537669">
        <ele>460</ele>
      </trkpt>
      <trkpt lat="-38.66798970055312" lon="176.726379935152">
        <ele>460</ele>
      </trkpt>
      <trkpt lat="-38.66809269502193" lon="176.726346557315">
        <ele>461</ele>
      </trkpt>
      <trkpt lat="-38.66819473583826" lon="176.72631413313">
        <ele>461</ele>
      </trkpt>
      <trkpt lat="-38.66829486934961" lon="176.726211138661">
        <ele>462</ele>
      </trkpt>
      <trkpt lat="-38.66839404920847" lon="176.726108144192">
        <ele>462</ele>
      </trkpt>
      <trkpt lat="-38.66867633034522" lon="176.726067137135">
        <ele>463</ele>
      </trkpt>
      <trkpt lat="-38.66876025176426" lon="176.726070951745">
        <ele>463</ele>
      </trkpt>
      <trkpt lat="-38.66884321953081" lon="176.726075720008">
        <ele>463</ele>
      </trkpt>
      <trkpt lat="-38.66894239938966" lon="176.726063322525">
        <ele>463</ele>
      </trkpt>
      <trkpt lat="-38.66904157924852" lon="176.726050925043">
        <ele>463</ele>
      </trkpt>
      <trkpt lat="-38.6691569711997" lon="176.7260919321">
        <ele>463</ele>
      </trkpt>
      <trkpt lat="-38.66922181956895" lon="176.726145336639">
        <ele>463</ele>
      </trkpt>
      <trkpt lat="-38.66928571428571" lon="176.726198741179">
        <ele>464</ele>
      </trkpt>
      <trkpt lat="-38.66936009917986" lon="176.726182529086">
        <ele>464</ele>
      </trkpt>
      <trkpt lat="-38.66943353042151" lon="176.726166316994">
        <ele>464</ele>
      </trkpt>
      <trkpt lat="-38.66949742513828" lon="176.726219721533">
        <ele>464</ele>
      </trkpt>
      <trkpt lat="-38.66956131985505" lon="176.726273126073">
        <ele>464</ele>
      </trkpt>
      <trkpt lat="-38.66963189013924" lon="176.726273126073">
        <ele>464</ele>
      </trkpt>
      <trkpt lat="-38.66970246042342" lon="176.726273126073">
        <ele>464</ele>
      </trkpt>
      <trkpt lat="-38.66970246042342" lon="176.726383749762">
        <ele>464</ele>
      </trkpt>
      <trkpt lat="-38.66970246042342" lon="176.72649437345">
        <ele>465</ele>
      </trkpt>
      <trkpt lat="-38.66979591836735" lon="176.726572572954">
        <ele>465</ele>
      </trkpt>
      <trkpt lat="-38.66988842265879" lon="176.726650772459">
        <ele>466</ele>
      </trkpt>
      <trkpt lat="-38.66992084684341" lon="176.726765210757">
        <ele>465</ele>
      </trkpt>
      <trkpt lat="-38.66995231737555" lon="176.726880602708">
        <ele>464</ele>
      </trkpt>
      <trkpt lat="-38.67004863627695" lon="176.726958802212">
        <ele>464</ele>
      </trkpt>
      <trkpt lat="-38.67014495517834" lon="176.727037001717">
        <ele>463</ele>
      </trkpt>
      <trkpt lat="-38.67023555216479" lon="176.727069425901">
        <ele>463</ele>
      </trkpt>
      <trkpt lat="-38.67032519549876" lon="176.727102803738">
        <ele>463</ele>
      </trkpt>
      <trkpt lat="-38.67038336830059" lon="176.727188632462">
        <ele>462</ele>
      </trkpt>
      <trkpt lat="-38.67044058744993" lon="176.727275414839">
        <ele>462</ele>
      </trkpt>
      <trkpt lat="-38.67069711996948" lon="176.727448025939">
        <ele>464</ele>
      </trkpt>
      <trkpt lat="-38.671043295823" lon="176.727891474347">
        <ele>464</ele>
      </trkpt>
      <trkpt lat="-38.67106904444021" lon="176.727998283426">
        <ele>465</ele>
      </trkpt>
      <trkpt lat="-38.67109479305741" lon="176.728105092504">
        <ele>465</ele>
      </trkpt>
      <trkpt lat="-38.67106236887278" lon="176.728187106618">
        <ele>465</ele>
      </trkpt>
      <trkpt lat="-38.67102994468816" lon="176.728269120732">
        <ele>464</ele>
      </trkpt>
      <trkpt lat="-38.67103375929811" lon="176.728351134846">
        <ele>464</ele>
      </trkpt>
      <trkpt lat="-38.67103662025558" lon="176.728433148961">
        <ele>464</ele>
      </trkpt>
      <trkpt lat="-38.67112340263208" lon="176.7284865535">
        <ele>464</ele>
      </trkpt>
      <trkpt lat="-38.67121018500858" lon="176.728539958039">
        <ele>465</ele>
      </trkpt>
      <trkpt lat="-38.67125500667557" lon="176.728605760061">
        <ele>465</ele>
      </trkpt>
      <trkpt lat="-38.67129982834255" lon="176.728671562083">
        <ele>465</ele>
      </trkpt>
      <trkpt lat="-38.6713742132367" lon="176.72871256914">
        <ele>466</ele>
      </trkpt>
      <trkpt lat="-38.67144764447836" lon="176.728753576197">
        <ele>467</ele>
      </trkpt>
      <trkpt lat="-38.67151821476254" lon="176.728811748999">
        <ele>468</ele>
      </trkpt>
      <trkpt lat="-38.67178714476445" lon="176.728819378219">
        <ele>473</ele>
      </trkpt>
      <trkpt lat="-38.67188060270838" lon="176.728851802403">
        <ele>474</ele>
      </trkpt>
      <trkpt lat="-38.67197310699981" lon="176.72888518024">
        <ele>476</ele>
      </trkpt>
      <trkpt lat="-38.67230688537097" lon="176.729197978257">
        <ele>482</ele>
      </trkpt>
      <trkpt lat="-38.67240320427236" lon="176.729255197406">
        <ele>482</ele>
      </trkpt>
      <trkpt lat="-38.67249952317376" lon="176.729312416555">
        <ele>483</ele>
      </trkpt>
      <trkpt lat="-38.67257676902537" lon="176.729303833683">
        <ele>484</ele>
      </trkpt>
      <trkpt lat="-38.67265306122449" lon="176.729296204463">
        <ele>486</ele>
      </trkpt>
      <trkpt lat="-38.67272744611864" lon="176.729242799924">
        <ele>488</ele>
      </trkpt>
      <trkpt lat="-38.6728008773603" lon="176.729189395384">
        <ele>490</ele>
      </trkpt>
      <trkpt lat="-38.67281422849513" lon="176.72911119588">
        <ele>491</ele>
      </trkpt>
      <trkpt lat="-38.67282662597749" lon="176.729032996376">
        <ele>491</ele>
      </trkpt>
      <trkpt lat="-38.6727655922182" lon="176.728926187297">
        <ele>490</ele>
      </trkpt>
      <trkpt lat="-38.6727045584589" lon="176.728819378219">
        <ele>489</ele>
      </trkpt>
      <trkpt lat="-38.67252527179096" lon="176.728441731833">
        <ele>484</ele>
      </trkpt>
      <trkpt lat="-38.67248617203891" lon="176.728326339882">
        <ele>483</ele>
      </trkpt>
      <trkpt lat="-38.67243181384703" lon="176.728219530803">
        <ele>482</ele>
      </trkpt>
      <trkpt lat="-38.67237745565516" lon="176.728113675377">
        <ele>481</ele>
      </trkpt>
      <trkpt lat="-38.67229353423613" lon="176.728006866298">
        <ele>479</ele>
      </trkpt>
      <trkpt lat="-38.67225538813656" lon="176.727941064276">
        <ele>478</ele>
      </trkpt>
      <trkpt lat="-38.672217242037" lon="176.727875262254">
        <ele>477</ele>
      </trkpt>
      <trkpt lat="-38.67213332061797" lon="176.727834255197">
        <ele>475</ele>
      </trkpt>
      <trkpt lat="-38.672043677284" lon="176.727834255197">
        <ele>473</ele>
      </trkpt>
      <trkpt lat="-38.67194735838261" lon="176.727759870303">
        <ele>470</ele>
      </trkpt>
      <trkpt lat="-38.67184531756628" lon="176.72780087736">
        <ele>469</ele>
      </trkpt>
      <trkpt lat="-38.67178809841694" lon="176.727738889949">
        <ele>467</ele>
      </trkpt>
      <trkpt lat="-38.67172992561511" lon="176.727677856189">
        <ele>465</ele>
      </trkpt>
      <trkpt lat="-38.67166507724586" lon="176.727636849132">
        <ele>464</ele>
      </trkpt>
      <trkpt lat="-38.6716431432386" lon="176.727517642571">
        <ele>463</ele>
      </trkpt>
      <trkpt lat="-38.67162025557887" lon="176.72739843601">
        <ele>463</ele>
      </trkpt>
      <trkpt lat="-38.67146671752813" lon="176.727143810795">
        <ele>463</ele>
      </trkpt>
      <trkpt lat="-38.67145050543582" lon="176.727037001717">
        <ele>463</ele>
      </trkpt>
      <trkpt lat="-38.67143429334351" lon="176.726930192638">
        <ele>463</ele>
      </trkpt>
      <trkpt lat="-38.67146004196071" lon="176.726839595651">
        <ele>463</ele>
      </trkpt>
      <trkpt lat="-38.67148579057792" lon="176.726748998665">
        <ele>464</ele>
      </trkpt>
      <trkpt lat="-38.67153442685485" lon="176.726654587068">
        <ele>464</ele>
      </trkpt>
      <trkpt lat="-38.67158210947931" lon="176.726560175472">
        <ele>464</ele>
      </trkpt>
      <trkpt lat="-38.67158878504673" lon="176.72649437345">
        <ele>464</ele>
      </trkpt>
      <trkpt lat="-38.67159450696167" lon="176.726428571429">
        <ele>463</ele>
      </trkpt>
      <trkpt lat="-38.67154396337975" lon="176.72632176235">
        <ele>463</ele>
      </trkpt>
      <trkpt lat="-38.67150867823765" lon="176.726223536143">
        <ele>463</ele>
      </trkpt>
      <trkpt lat="-38.67147339309556" lon="176.726125309937">
        <ele>463</ele>
      </trkpt>
      <trkpt lat="-38.6714085447263" lon="176.725755292771">
        <ele>462</ele>
      </trkpt>
      <trkpt lat="-38.67137707419417" lon="176.725509250429">
        <ele>462</ele>
      </trkpt>
      <trkpt lat="-38.67138374976159" lon="176.725422468053">
        <ele>461</ele>
      </trkpt>
      <trkpt lat="-38.67138947167652" lon="176.725336639329">
        <ele>461</ele>
      </trkpt>
      <trkpt lat="-38.67129315277513" lon="176.725270837307">
        <ele>461</ele>
      </trkpt>
      <trkpt lat="-38.67119683387374" lon="176.725262254435">
        <ele>462</ele>
      </trkpt>
      <trkpt lat="-38.67110051497234" lon="176.72518024032">
        <ele>462</ele>
      </trkpt>
      <trkpt lat="-38.67102994468816" lon="176.725212664505">
        <ele>463</ele>
      </trkpt>
      <trkpt lat="-38.67096604997139" lon="176.725262254435">
        <ele>463</ele>
      </trkpt>
      <trkpt lat="-38.67064562273508" lon="176.725146862483">
        <ele>464</ele>
      </trkpt>
      <trkpt lat="-38.67053690635133" lon="176.725032424185">
        <ele>464</ele>
      </trkpt>
      <trkpt lat="-38.67046347510967" lon="176.725036238795">
        <ele>463</ele>
      </trkpt>
      <trkpt lat="-38.67038909021553" lon="176.725040053405">
        <ele>463</ele>
      </trkpt>
      <trkpt lat="-38.67029658592409" lon="176.725036238795">
        <ele>463</ele>
      </trkpt>
      <trkpt lat="-38.67020312798017" lon="176.725032424185">
        <ele>463</ele>
      </trkpt>
      <trkpt lat="-38.67014209422086" lon="176.725064848369">
        <ele>463</ele>
      </trkpt>
      <trkpt lat="-38.67008106046157" lon="176.725098226206">
        <ele>463</ele>
      </trkpt>
      <trkpt lat="-38.66997806599275" lon="176.725040053405">
        <ele>463</ele>
      </trkpt>
      <trkpt lat="-38.6699303833683" lon="176.725073431242">
        <ele>463</ele>
      </trkpt>
      <trkpt lat="-38.66985695212664" lon="176.72500762922">
        <ele>462</ele>
      </trkpt>
      <trkpt lat="-38.66982452794202" lon="176.724966622163">
        <ele>462</ele>
      </trkpt>
      <trkpt lat="-38.66974156017547" lon="176.725016212092">
        <ele>462</ele>
      </trkpt>
      <trkpt lat="-38.6696347510967" lon="176.725027655922">
        <ele>462</ele>
      </trkpt>
      <trkpt lat="-38.66956799542247" lon="176.724945641808">
        <ele>461</ele>
      </trkpt>
      <trkpt lat="-38.66948121304597" lon="176.724888422659">
        <ele>460</ele>
      </trkpt>
      <trkpt lat="-38.66940396719436" lon="176.724826435247">
        <ele>459</ele>
      </trkpt>
      <trkpt lat="-38.6693305359527" lon="176.724822620637">
        <ele>459</ele>
      </trkpt>
      <trkpt lat="-38.66932386038528" lon="176.724897005531">
        <ele>460</ele>
      </trkpt>
      <trkpt lat="-38.66920846843411" lon="176.724917032233">
        <ele>460</ele>
      </trkpt>
      <trkpt lat="-38.66910928857524" lon="176.724979019645">
        <ele>460</ele>
      </trkpt>
      <trkpt lat="-38.66904539385848" lon="176.724968529468">
        <ele>460</ele>
      </trkpt>
      <trkpt lat="-38.66898054548923" lon="176.72495803929">
        <ele>459</ele>
      </trkpt>
      <trkpt lat="-38.66891474346748" lon="176.724968529468">
        <ele>459</ele>
      </trkpt>
      <trkpt lat="-38.66884894144574" lon="176.724979019645">
        <ele>459</ele>
      </trkpt>
      <trkpt lat="-38.66875929811177" lon="176.725020026702">
        <ele>459</ele>
      </trkpt>
      <trkpt lat="-38.66874403967194" lon="176.725105855426">
        <ele>460</ele>
      </trkpt>
      <trkpt lat="-38.66871161548732" lon="176.72518024032">
        <ele>460</ele>
      </trkpt>
      <trkpt lat="-38.66862960137326" lon="176.725216479115">
        <ele>460</ele>
      </trkpt>
      <trkpt lat="-38.66854758725921" lon="176.725253671562">
        <ele>460</ele>
      </trkpt>
      <trkpt lat="-38.66845508296777" lon="176.725324241846">
        <ele>460</ele>
      </trkpt>
      <trkpt lat="-38.66838641998856" lon="176.725329963761">
        <ele>460</ele>
      </trkpt>
      <trkpt lat="-38.66831680335686" lon="176.725336639329">
        <ele>460</ele>
      </trkpt>
      <trkpt lat="-38.66822716002289" lon="176.725287049399">
        <ele>459</ele>
      </trkpt>
      <trkpt lat="-38.66816612626359" lon="176.725266069044">
        <ele>459</ele>
      </trkpt>
      <trkpt lat="-38.66811462902918" lon="176.725202174328">
        <ele>458</ele>
      </trkpt>
      <trkpt lat="-38.66806313179477" lon="176.725139233263">
        <ele>458</ele>
      </trkpt>
      <trkpt lat="-38.66798302498569" lon="176.725064848369">
        <ele>457</ele>
      </trkpt>
      <trkpt lat="-38.66790673278658" lon="176.725077245852">
        <ele>457</ele>
      </trkpt>
      <trkpt lat="-38.66784855998474" lon="176.72500762922">
        <ele>457</ele>
      </trkpt>
      <trkpt lat="-38.66777512874309" lon="176.724888422659">
        <ele>455</ele>
      </trkpt>
      <trkpt lat="-38.66769979019645" lon="176.724876025176">
        <ele>455</ele>
      </trkpt>
      <trkpt lat="-38.66762445164982" lon="176.724863627694">
        <ele>454</ele>
      </trkpt>
      <trkpt lat="-38.66756246423803" lon="176.724890329964">
        <ele>454</ele>
      </trkpt>
      <trkpt lat="-38.66749952317376" lon="176.724917032233">
        <ele>455</ele>
      </trkpt>
      <trkpt lat="-38.66737936296014" lon="176.724933244326">
        <ele>454</ele>
      </trkpt>
      <trkpt lat="-38.66725824909403" lon="176.724950410071">
        <ele>454</ele>
      </trkpt>
      <trkpt lat="-38.66715906923518" lon="176.724999046348">
        <ele>454</ele>
      </trkpt>
      <trkpt lat="-38.66707228685867" lon="176.725020026702">
        <ele>454</ele>
      </trkpt>
      <trkpt lat="-38.6669568949075" lon="176.724979019645">
        <ele>453</ele>
      </trkpt>
      <trkpt lat="-38.66689300019073" lon="176.724991417128">
        <ele>453</ele>
      </trkpt>
      <trkpt lat="-38.66686248331109" lon="176.725057219149">
        <ele>453</ele>
      </trkpt>
      <trkpt lat="-38.66683196643143" lon="176.725123021171">
        <ele>453</ele>
      </trkpt>
      <trkpt lat="-38.66680144955178" lon="176.725221247377">
        <ele>454</ele>
      </trkpt>
      <trkpt lat="-38.66677093267214" lon="176.725319473584">
        <ele>454</ele>
      </trkpt>
      <trkpt lat="-38.66674041579249" lon="176.725381460996">
        <ele>454</ele>
      </trkpt>
      <trkpt lat="-38.66670989891283" lon="176.725443448407">
        <ele>454</ele>
      </trkpt>
      <trkpt lat="-38.66666507724585" lon="176.725808697311">
        <ele>454</ele>
      </trkpt>
      <trkpt lat="-38.66670322334542" lon="176.725906923517">
        <ele>455</ele>
      </trkpt>
      <trkpt lat="-38.66678714476445" lon="176.726026130078">
        <ele>455</ele>
      </trkpt>
      <trkpt lat="-38.66681956894908" lon="176.72608811749">
        <ele>455</ele>
      </trkpt>
      <trkpt lat="-38.66680621781423" lon="176.726173946214">
        <ele>455</ele>
      </trkpt>
      <trkpt lat="-38.66682529086401" lon="176.726207324051">
        <ele>455</ele>
      </trkpt>
      <trkpt lat="-38.66679191302689" lon="176.726296967385">
        <ele>455</ele>
      </trkpt>
      <trkpt lat="-38.66675853518978" lon="176.726387564372">
        <ele>455</ele>
      </trkpt>
      <trkpt lat="-38.66676807171467" lon="176.726478161358">
        <ele>455</ele>
      </trkpt>
      <trkpt lat="-38.6668348273889" lon="176.726556360862">
        <ele>455</ele>
      </trkpt>
      <trkpt lat="-38.66685640141911" lon="176.726564524009">
        <ele>455</ele>
      </trkpt>
      <trkpt lat="-38.66685640141911" lon="176.726564524009">
        <ele>455</ele>
      </trkpt>
      <trkpt lat="-38.66683296766459" lon="176.726664786855">
        <ele>455</ele>
      </trkpt>
      <trkpt lat="-38.66681270369881" lon="176.726699853033">
        <ele>454</ele>
      </trkpt>
      <trkpt lat="-38.66686751318551" lon="176.726771156431">
        <ele>454</ele>
      </trkpt>
      <trkpt lat="-38.66686751318551" lon="176.726771156431">
        <ele>454</ele>
      </trkpt>
      <trkpt lat="-38.66681575433912" lon="176.726848178524">
        <ele>453</ele>
      </trkpt>
      <trkpt lat="-38.66659832157162" lon="176.727135227923">
        <ele>451</ele>
      </trkpt>
      <trkpt lat="-38.66652489032997" lon="176.727238222392">
        <ele>450</ele>
      </trkpt>
      <trkpt lat="-38.66645050543582" lon="176.727341216861">
        <ele>448</ele>
      </trkpt>
      <trkpt lat="-38.66616822429906" lon="176.727407018882">
        <ele>445</ele>
      </trkpt>
      <trkpt lat="-38.66591169177952" lon="176.72757867633">
        <ele>440</ele>
      </trkpt>
      <trkpt lat="-38.66585447263017" lon="176.727689300019">
        <ele>436</ele>
      </trkpt>
      <trkpt lat="-38.66579629982834" lon="176.72780087736">
        <ele>432</ele>
      </trkpt>
      <trkpt lat="-38.66549494564181" lon="176.727841884417">
        <ele>421</ele>
      </trkpt>
      <trkpt lat="-38.66543105092504" lon="176.727882891474">
        <ele>418</ele>
      </trkpt>
      <trkpt lat="-38.66536715620828" lon="176.727923898531">
        <ele>416</ele>
      </trkpt>
      <trkpt lat="-38.66536715620828" lon="176.727923898531">
        <ele>416</ele>
      </trkpt>
      <trkpt lat="-38.66530230783903" lon="176.727964905588">
        <ele>413</ele>
      </trkpt>
      <trkpt lat="-38.66530230783903" lon="176.727964905588">
        <ele>413</ele>
      </trkpt>
      <trkpt lat="-38.66522220102995" lon="176.72803070761">
        <ele>410</ele>
      </trkpt>
      <trkpt lat="-38.6650257486172" lon="176.728051687965">
        <ele>404</ele>
      </trkpt>
      <trkpt lat="-38.66463736309471" lon="176.727860917103">
        <ele>403</ele>
      </trkpt>
      <trkpt lat="-38.66463736309471" lon="176.727860917103">
        <ele>403</ele>
      </trkpt>
      <trkpt lat="-38.664601269055" lon="176.727982901458">
        <ele>403</ele>
      </trkpt>
      <trkpt lat="-38.66463736309471" lon="176.727860917103">
        <ele>403</ele>
      </trkpt>
      <trkpt lat="-38.664601269055" lon="176.727982901458">
        <ele>403</ele>
      </trkpt>
    </trkseg>
  </trk>
</gpx>