<?xml version="1.0" encoding="UTF-8" standalone="yes"?>
<gpx
 version="1.1"
 creator="Generated by MapOut iPhone App. See https://mapout.app"
 xmlns="http://www.topografix.com/GPX/1/1"
 xmlns:xsi="http://www.w3.org/2001/XMLSchema-instance"
 xmlns:gpxx="http://www.garmin.com/xmlschemas/GpxExtensions/v3"
 xmlns:mapout="https://mapout.app/xmlschemas/MapOutExtensions"
 xsi:schemaLocation="http://www.topografix.com/GPX/1/1 https://www.topografix.com/GPX/1/1/gpx.xsd http://www.garmin.com/xmlschemas/GpxExtensions/v3 https://www8.garmin.com/xmlschemas/GpxExtensionsv3.xsd https://mapout.app/xmlschemas/MapOutExtensions https://mapout.app/xmlschemas/MapOutExtensions.xsd">
  <metadata>
    <name>Lake Camp Run</name>
    <author><name>iPhone</name></author>
    <time>2026-09-29T04:52:18Z</time>
    <bounds minlat="-43.61871066183483" minlon="171.047156208278" maxlat="-43.61114724394431" maxlon="171.063951935915"/>
  </metadata>
  <trk>
    <name>Lake Camp Run</name>
    <trkseg>
      <trkpt lat="-43.61268004109199" lon="171.057410132888">
        <ele>688</ele>
      </trkpt>
      <trkpt lat="-43.61268071714667" lon="171.057416555407">
        <ele>688</ele>
      </trkpt>
      <trkpt lat="-43.61268357810414" lon="171.057607285905">
        <ele>688</ele>
      </trkpt>
      <trkpt lat="-43.61267690253671" lon="171.057976349418">
        <ele>688</ele>
      </trkpt>
      <trkpt lat="-43.61270455845889" lon="171.058343505627">
        <ele>688</ele>
      </trkpt>
      <trkpt lat="-43.61280373831776" lon="171.058936677475">
        <ele>688</ele>
      </trkpt>
      <trkpt lat="-43.61293343505626" lon="171.059640473012">
        <ele>688</ele>
      </trkpt>
      <trkpt lat="-43.61298683959565" lon="171.06">
        <ele>688</ele>
      </trkpt>
      <trkpt lat="-43.61298683959565" lon="171.06">
        <ele>688</ele>
      </trkpt>
      <trkpt lat="-43.61299828342552" lon="171.060079153157">
        <ele>688</ele>
      </trkpt>
      <trkpt lat="-43.6131136753767" lon="171.060530230784">
        <ele>689</ele>
      </trkpt>
      <trkpt lat="-43.6132691207324" lon="171.061074766355">
        <ele>689</ele>
      </trkpt>
      <trkpt lat="-43.61339595651344" lon="171.061665077246">
        <ele>690</ele>
      </trkpt>
      <trkpt lat="-43.6134522220103" lon="171.061977875262">
        <ele>690</ele>
      </trkpt>
      <trkpt lat="-43.61354567995422" lon="171.062315468243">
        <ele>690</ele>
      </trkpt>
      <trkpt lat="-43.61369349609002" lon="171.062713141331">
        <ele>690</ele>
      </trkpt>
      <trkpt lat="-43.61374880793439" lon="171.062933435056">
        <ele>691</ele>
      </trkpt>
      <trkpt lat="-43.61377264924661" lon="171.063107953462">
        <ele>691</ele>
      </trkpt>
      <trkpt lat="-43.61379649055884" lon="171.063363532329">
        <ele>692</ele>
      </trkpt>
      <trkpt lat="-43.61386062952391" lon="171.063843265608">
        <ele>692</ele>
      </trkpt>
      <trkpt lat="-43.6138613389281" lon="171.063843219531">
        <ele>692</ele>
      </trkpt>
      <trkpt lat="-43.61425996566851" lon="171.063817470914">
        <ele>690</ele>
      </trkpt>
      <trkpt lat="-43.61456227350753" lon="171.063774556552">
        <ele>689</ele>
      </trkpt>
      <trkpt lat="-43.61508773602899" lon="171.063721152012">
        <ele>687</ele>
      </trkpt>
      <trkpt lat="-43.61519835971772" lon="171.063798397864">
        <ele>687</ele>
      </trkpt>
      <trkpt lat="-43.61533759298112" lon="171.063937631127">
        <ele>687</ele>
      </trkpt>
      <trkpt lat="-43.61547682624452" lon="171.063951935915">
        <ele>687</ele>
      </trkpt>
      <trkpt lat="-43.61603280564562" lon="171.063836543963">
        <ele>685</ele>
      </trkpt>
      <trkpt lat="-43.61633511348465" lon="171.063749761587">
        <ele>685</ele>
      </trkpt>
      <trkpt lat="-43.61633511348465" lon="171.063749761587">
        <ele>685</ele>
      </trkpt>
      <trkpt lat="-43.61648865153538" lon="171.063538050734">
        <ele>684</ele>
      </trkpt>
      <trkpt lat="-43.61667175281328" lon="171.063348273889">
        <ele>684</ele>
      </trkpt>
      <trkpt lat="-43.61681956894908" lon="171.063182338356">
        <ele>684</ele>
      </trkpt>
      <trkpt lat="-43.61688537097082" lon="171.063071714667">
        <ele>684</ele>
      </trkpt>
      <trkpt lat="-43.61695212664505" lon="171.062890520694">
        <ele>683</ele>
      </trkpt>
      <trkpt lat="-43.61705798207133" lon="171.062666412359">
        <ele>683</ele>
      </trkpt>
      <trkpt lat="-43.61714285714286" lon="171.062540530231">
        <ele>683</ele>
      </trkpt>
      <trkpt lat="-43.61759393477017" lon="171.062099942781">
        <ele>684</ele>
      </trkpt>
      <trkpt lat="-43.61771409498379" lon="171.062003623879">
        <ele>684</ele>
      </trkpt>
      <trkpt lat="-43.61811558268167" lon="171.061538241465">
        <ele>685</ele>
      </trkpt>
      <trkpt lat="-43.61821190158306" lon="171.06133702079">
        <ele>685</ele>
      </trkpt>
      <trkpt lat="-43.61826530612245" lon="171.061199694831">
        <ele>685</ele>
      </trkpt>
      <trkpt lat="-43.61827102803738" lon="171.060951745184">
        <ele>685</ele>
      </trkpt>
      <trkpt lat="-43.61828819378218" lon="171.060823955751">
        <ele>684</ele>
      </trkpt>
      <trkpt lat="-43.61835399580393" lon="171.060608430288">
        <ele>684</ele>
      </trkpt>
      <trkpt lat="-43.61842742704558" lon="171.060313751669">
        <ele>684</ele>
      </trkpt>
      <trkpt lat="-43.61847606332253" lon="171.06">
        <ele>684</ele>
      </trkpt>
      <trkpt lat="-43.61847606332253" lon="171.06">
        <ele>684</ele>
      </trkpt>
      <trkpt lat="-43.61854186534427" lon="171.059524127408">
        <ele>684</ele>
      </trkpt>
      <trkpt lat="-43.61860671371353" lon="171.059135990845">
        <ele>685</ele>
      </trkpt>
      <trkpt lat="-43.61865534999046" lon="171.058920465382">
        <ele>685</ele>
      </trkpt>
      <trkpt lat="-43.61870398626741" lon="171.058748807934">
        <ele>686</ele>
      </trkpt>
      <trkpt lat="-43.61871066183483" lon="171.058646767118">
        <ele>686</ele>
      </trkpt>
      <trkpt lat="-43.61867442304025" lon="171.058401678428">
        <ele>686</ele>
      </trkpt>
      <trkpt lat="-43.6186086210185" lon="171.058214762541">
        <ele>686</ele>
      </trkpt>
      <trkpt lat="-43.61844459279039" lon="171.057888613389">
        <ele>685</ele>
      </trkpt>
      <trkpt lat="-43.61835781041388" lon="171.057687392714">
        <ele>685</ele>
      </trkpt>
      <trkpt lat="-43.61807076101469" lon="171.057063703986">
        <ele>685</ele>
      </trkpt>
      <trkpt lat="-43.61793152775129" lon="171.056801449552">
        <ele>685</ele>
      </trkpt>
      <trkpt lat="-43.61778847987793" lon="171.056469578486">
        <ele>685</ele>
      </trkpt>
      <trkpt lat="-43.61768262445165" lon="171.056203509441">
        <ele>685</ele>
      </trkpt>
      <trkpt lat="-43.61723059317185" lon="171.055521647912">
        <ele>684</ele>
      </trkpt>
      <trkpt lat="-43.61713618157543" lon="171.055335685676">
        <ele>684</ele>
      </trkpt>
      <trkpt lat="-43.61703890902155" lon="171.055073431242">
        <ele>684</ele>
      </trkpt>
      <trkpt lat="-43.61697596795727" lon="171.054720579821">
        <ele>685</ele>
      </trkpt>
      <trkpt lat="-43.61693782185772" lon="171.054384894145">
        <ele>685</ele>
      </trkpt>
      <trkpt lat="-43.61685962235362" lon="171.054012016021">
        <ele>685</ele>
      </trkpt>
      <trkpt lat="-43.61679382033187" lon="171.053851802403">
        <ele>685</ele>
      </trkpt>
      <trkpt lat="-43.61671848178523" lon="171.053805073431">
        <ele>685</ele>
      </trkpt>
      <trkpt lat="-43.61661262635896" lon="171.053834636658">
        <ele>684</ele>
      </trkpt>
      <trkpt lat="-43.61649055884036" lon="171.053901392333">
        <ele>683</ele>
      </trkpt>
      <trkpt lat="-43.61642094220866" lon="171.053973869922">
        <ele>682</ele>
      </trkpt>
      <trkpt lat="-43.61637802784665" lon="171.054000572192">
        <ele>682</ele>
      </trkpt>
      <trkpt lat="-43.61633797444211" lon="171.053976730879">
        <ele>682</ele>
      </trkpt>
      <trkpt lat="-43.616304596605" lon="171.05390425329">
        <ele>682</ele>
      </trkpt>
      <trkpt lat="-43.6162521457181" lon="171.053647720771">
        <ele>682</ele>
      </trkpt>
      <trkpt lat="-43.6162349799733" lon="171.053493229067">
        <ele>682</ele>
      </trkpt>
      <trkpt lat="-43.6162521457181" lon="171.053324432577">
        <ele>682</ele>
      </trkpt>
      <trkpt lat="-43.61628552355521" lon="171.053189967576">
        <ele>683</ele>
      </trkpt>
      <trkpt lat="-43.61630841121495" lon="171.05306122449">
        <ele>683</ele>
      </trkpt>
      <trkpt lat="-43.61637039862674" lon="171.05260156399">
        <ele>685</ele>
      </trkpt>
      <trkpt lat="-43.61637612054167" lon="171.052365058173">
        <ele>685</ele>
      </trkpt>
      <trkpt lat="-43.61630268930002" lon="171.052155254625">
        <ele>685</ele>
      </trkpt>
      <trkpt lat="-43.61622830440587" lon="171.051907304978">
        <ele>685</ele>
      </trkpt>
      <trkpt lat="-43.61620350944116" lon="171.05177379363">
        <ele>684</ele>
      </trkpt>
      <trkpt lat="-43.61617776082395" lon="171.051554453557">
        <ele>685</ele>
      </trkpt>
      <trkpt lat="-43.61612721724204" lon="171.051399961854">
        <ele>685</ele>
      </trkpt>
      <trkpt lat="-43.6160871638375" lon="171.051316040435">
        <ele>685</ele>
      </trkpt>
      <trkpt lat="-43.6159822620637" lon="171.051277894335">
        <ele>684</ele>
      </trkpt>
      <trkpt lat="-43.61591169177952" lon="171.051198741179">
        <ele>684</ele>
      </trkpt>
      <trkpt lat="-43.61574957085638" lon="171.050899294297">
        <ele>683</ele>
      </trkpt>
      <trkpt lat="-43.61572668319664" lon="171.050491131032">
        <ele>684</ele>
      </trkpt>
      <trkpt lat="-43.61568853709708" lon="171.050295632272">
        <ele>685</ele>
      </trkpt>
      <trkpt lat="-43.61565706656494" lon="171.050068662979">
        <ele>685</ele>
      </trkpt>
      <trkpt lat="-43.61562273507534" lon="171.049942780851">
        <ele>686</ele>
      </trkpt>
      <trkpt lat="-43.61550734312416" lon="171.049794011062">
        <ele>686</ele>
      </trkpt>
      <trkpt lat="-43.61535475872592" lon="171.049633797444">
        <ele>686</ele>
      </trkpt>
      <trkpt lat="-43.61512874308602" lon="171.049435437727">
        <ele>685</ele>
      </trkpt>
      <trkpt lat="-43.61496662216288" lon="171.049252336449">
        <ele>685</ele>
      </trkpt>
      <trkpt lat="-43.61486362769407" lon="171.049045393858">
        <ele>686</ele>
      </trkpt>
      <trkpt lat="-43.6146690825863" lon="171.04873927141">
        <ele>688</ele>
      </trkpt>
      <trkpt lat="-43.6145212664505" lon="171.048596223536">
        <ele>688</ele>
      </trkpt>
      <trkpt lat="-43.6145041007057" lon="171.048453175663">
        <ele>689</ele>
      </trkpt>
      <trkpt lat="-43.61451745184055" lon="171.048208086973">
        <ele>690</ele>
      </trkpt>
      <trkpt lat="-43.61449361052832" lon="171.047683578104">
        <ele>691</ele>
      </trkpt>
      <trkpt lat="-43.61444497425138" lon="171.047462330727">
        <ele>691</ele>
      </trkpt>
      <trkpt lat="-43.61434674804501" lon="171.047284951364">
        <ele>691</ele>
      </trkpt>
      <trkpt lat="-43.61420465382415" lon="171.047156208278">
        <ele>691</ele>
      </trkpt>
      <trkpt lat="-43.61405493038337" lon="171.047159069235">
        <ele>690</ele>
      </trkpt>
      <trkpt lat="-43.61392427999237" lon="171.047194354377">
        <ele>689</ele>
      </trkpt>
      <trkpt lat="-43.61374308601945" lon="171.04717623498">
        <ele>688</ele>
      </trkpt>
      <trkpt lat="-43.61328437917223" lon="171.047217242037">
        <ele>686</ele>
      </trkpt>
      <trkpt lat="-43.61307362197216" lon="171.047241083349">
        <ele>686</ele>
      </trkpt>
      <trkpt lat="-43.61257962998283" lon="171.047552927713">
        <ele>686</ele>
      </trkpt>
      <trkpt lat="-43.61238794583254" lon="171.047575815373">
        <ele>686</ele>
      </trkpt>
      <trkpt lat="-43.61226301735648" lon="171.047584398245">
        <ele>685</ele>
      </trkpt>
      <trkpt lat="-43.61206656494373" lon="171.047485218386">
        <ele>685</ele>
      </trkpt>
      <trkpt lat="-43.61187297348846" lon="171.047506198741">
        <ele>685</ele>
      </trkpt>
      <trkpt lat="-43.61160308983406" lon="171.047555788671">
        <ele>684</ele>
      </trkpt>
      <trkpt lat="-43.6113999618539" lon="171.047701697501">
        <ele>684</ele>
      </trkpt>
      <trkpt lat="-43.61129219912264" lon="171.047876215907">
        <ele>684</ele>
      </trkpt>
      <trkpt lat="-43.61114724394431" lon="171.0480650391">
        <ele>684</ele>
      </trkpt>
      <trkpt lat="-43.61114724394431" lon="171.0480650391">
        <ele>684</ele>
      </trkpt>
      <trkpt lat="-43.61136944497425" lon="171.049290482548">
        <ele>685</ele>
      </trkpt>
      <trkpt lat="-43.61136944497425" lon="171.049290482548">
        <ele>685</ele>
      </trkpt>
      <trkpt lat="-43.611478161358" lon="171.04981213046">
        <ele>687</ele>
      </trkpt>
      <trkpt lat="-43.61153442685485" lon="171.050024794965">
        <ele>687</ele>
      </trkpt>
      <trkpt lat="-43.61161167270647" lon="171.050274651917">
        <ele>688</ele>
      </trkpt>
      <trkpt lat="-43.61181861529658" lon="171.050771504864">
        <ele>687</ele>
      </trkpt>
      <trkpt lat="-43.61190825863056" lon="171.051086210185">
        <ele>687</ele>
      </trkpt>
      <trkpt lat="-43.61194449742514" lon="171.051301735648">
        <ele>688</ele>
      </trkpt>
      <trkpt lat="-43.61198931909212" lon="171.051614533664">
        <ele>688</ele>
      </trkpt>
      <trkpt lat="-43.61205988937631" lon="171.0521838642">
        <ele>691</ele>
      </trkpt>
      <trkpt lat="-43.61212473774557" lon="171.052749380126">
        <ele>693</ele>
      </trkpt>
      <trkpt lat="-43.61215048636277" lon="171.053082204845">
        <ele>693</ele>
      </trkpt>
      <trkpt lat="-43.61223345412932" lon="171.053407400343">
        <ele>693</ele>
      </trkpt>
      <trkpt lat="-43.61228876597368" lon="171.053692542438">
        <ele>692</ele>
      </trkpt>
      <trkpt lat="-43.61236315086782" lon="171.054603280565">
        <ele>692</ele>
      </trkpt>
      <trkpt lat="-43.61239843600992" lon="171.055221247377">
        <ele>691</ele>
      </trkpt>
      <trkpt lat="-43.61241274079725" lon="171.05564371543">
        <ele>691</ele>
      </trkpt>
      <trkpt lat="-43.61246233072669" lon="171.056209231356">
        <ele>690</ele>
      </trkpt>
      <trkpt lat="-43.61248717225283" lon="171.056349079948">
        <ele>690</ele>
      </trkpt>
    </trkseg>
  </trk>
</gpx>