<?xml version="1.0" encoding="UTF-8" standalone="yes"?>
<gpx
 version="1.1"
 creator="Generated by MapOut iPhone App. See https://mapout.app"
 xmlns="http://www.topografix.com/GPX/1/1"
 xmlns:xsi="http://www.w3.org/2001/XMLSchema-instance"
 xmlns:gpxx="http://www.garmin.com/xmlschemas/GpxExtensions/v3"
 xmlns:mapout="https://mapout.app/xmlschemas/MapOutExtensions"
 xsi:schemaLocation="http://www.topografix.com/GPX/1/1 https://www.topografix.com/GPX/1/1/gpx.xsd http://www.garmin.com/xmlschemas/GpxExtensions/v3 https://www8.garmin.com/xmlschemas/GpxExtensionsv3.xsd https://mapout.app/xmlschemas/MapOutExtensions https://mapout.app/xmlschemas/MapOutExtensions.xsd">
  <metadata>
    <name>Riuwaka Resurgence</name>
    <author><name>iPhone</name></author>
    <time>2026-09-17T21:25:50Z</time>
    <bounds minlat="-41.03413937437701" minlon="172.9" maxlat="-41.0313827961091" maxlon="172.901237840931"/>
  </metadata>
  <trk>
    <name>Riuwaka Resurgence</name>
    <trkseg>
      <trkpt lat="-41.03413937437701" lon="172.901063530889">
        <ele>88</ele>
      </trkpt>
      <trkpt lat="-41.03413694449743" lon="172.901060461568">
        <ele>88</ele>
      </trkpt>
      <trkpt lat="-41.03412454701507" lon="172.901029944688">
        <ele>89</ele>
      </trkpt>
      <trkpt lat="-41.03412454701507" lon="172.901029944688">
        <ele>89</ele>
      </trkpt>
      <trkpt lat="-41.03388422658783" lon="172.900948884227">
        <ele>92</ele>
      </trkpt>
      <trkpt lat="-41.03341216860576" lon="172.901237840931">
        <ele>105</ele>
      </trkpt>
      <trkpt lat="-41.03312416555407" lon="172.900990844936">
        <ele>105</ele>
      </trkpt>
      <trkpt lat="-41.03279897005531" lon="172.900842075148">
        <ele>107</ele>
      </trkpt>
      <trkpt lat="-41.03208563799352" lon="172.901008964333">
        <ele>123</ele>
      </trkpt>
      <trkpt lat="-41.03194640473012" lon="172.900950791532">
        <ele>125</ele>
      </trkpt>
      <trkpt lat="-41.03176425710471" lon="172.900962235361">
        <ele>129</ele>
      </trkpt>
      <trkpt lat="-41.03148388327293" lon="172.900721914934">
        <ele>143</ele>
      </trkpt>
      <trkpt lat="-41.03141617394621" lon="172.900284188442">
        <ele>154</ele>
      </trkpt>
      <trkpt lat="-41.0313827961091" lon="172.9">
        <ele>161</ele>
      </trkpt>
    </trkseg>
  </trk>
</gpx>