<?xml version="1.0" encoding="UTF-8" standalone="yes"?>
<gpx
 version="1.1"
 creator="Generated by MapOut iPhone App. See https://mapout.app"
 xmlns="http://www.topografix.com/GPX/1/1"
 xmlns:xsi="http://www.w3.org/2001/XMLSchema-instance"
 xmlns:gpxx="http://www.garmin.com/xmlschemas/GpxExtensions/v3"
 xmlns:mapout="https://mapout.app/xmlschemas/MapOutExtensions"
 xsi:schemaLocation="http://www.topografix.com/GPX/1/1 https://www.topografix.com/GPX/1/1/gpx.xsd http://www.garmin.com/xmlschemas/GpxExtensions/v3 https://www8.garmin.com/xmlschemas/GpxExtensionsv3.xsd https://mapout.app/xmlschemas/MapOutExtensions https://mapout.app/xmlschemas/MapOutExtensions.xsd">
  <metadata>
    <name>Castlepoint Lighthouse</name>
    <author><name>iPhone</name></author>
    <time>2026-06-21T06:21:12Z</time>
    <bounds minlat="-40.90329677665459" minlon="176.227215122554" maxlat="-40.89947739843601" maxlon="176.232370780088"/>
  </metadata>
  <trk>
    <name>Castlepoint Lighthouse</name>
    <trkseg>
      <trkpt lat="-40.9030980543369" lon="176.227238921322">
        <ele>7</ele>
      </trkpt>
      <trkpt lat="-40.9030516879649" lon="176.227234407782">
        <ele>7</ele>
      </trkpt>
      <trkpt lat="-40.90294297158115" lon="176.227224871257">
        <ele>6</ele>
      </trkpt>
      <trkpt lat="-40.90288003051688" lon="176.227215334732">
        <ele>6</ele>
      </trkpt>
      <trkpt lat="-40.90287847454166" lon="176.227215122554">
        <ele>6</ele>
      </trkpt>
      <trkpt lat="-40.9028781232119" lon="176.227216288385">
        <ele>6</ele>
      </trkpt>
      <trkpt lat="-40.90285714285714" lon="176.227285905016">
        <ele>6</ele>
      </trkpt>
      <trkpt lat="-40.90285714285714" lon="176.227285905016">
        <ele>6</ele>
      </trkpt>
      <trkpt lat="-40.90284188441731" lon="176.227317375548">
        <ele>5</ele>
      </trkpt>
      <trkpt lat="-40.90284188441731" lon="176.227317375548">
        <ele>5</ele>
      </trkpt>
      <trkpt lat="-40.90283806980736" lon="176.227324051116">
        <ele>5</ele>
      </trkpt>
      <trkpt lat="-40.90283806980736" lon="176.227324051116">
        <ele>5</ele>
      </trkpt>
      <trkpt lat="-40.90281041388518" lon="176.227382223918">
        <ele>5</ele>
      </trkpt>
      <trkpt lat="-40.90281041388518" lon="176.227382223918">
        <ele>5</ele>
      </trkpt>
      <trkpt lat="-40.90273990537075" lon="176.227528005035">
        <ele>4</ele>
      </trkpt>
      <trkpt lat="-40.90273990537075" lon="176.227528005039">
        <ele>4</ele>
      </trkpt>
      <trkpt lat="-40.90269692923899" lon="176.227514781614">
        <ele>4</ele>
      </trkpt>
      <trkpt lat="-40.90259584207514" lon="176.227528132748">
        <ele>3</ele>
      </trkpt>
      <trkpt lat="-40.90259584207514" lon="176.227528132748">
        <ele>3</ele>
      </trkpt>
      <trkpt lat="-40.90260061033759" lon="176.227784665268">
        <ele>2</ele>
      </trkpt>
      <trkpt lat="-40.90264733930955" lon="176.228411214953">
        <ele>-0</ele>
      </trkpt>
      <trkpt lat="-40.90265115391951" lon="176.228569521266">
        <ele>0</ele>
      </trkpt>
      <trkpt lat="-40.90263589547968" lon="176.228767880984">
        <ele>1</ele>
      </trkpt>
      <trkpt lat="-40.90261491512493" lon="176.228925233645">
        <ele>1</ele>
      </trkpt>
      <trkpt lat="-40.90258439824527" lon="176.229082586306">
        <ele>1</ele>
      </trkpt>
      <trkpt lat="-40.9025481594507" lon="176.229214190349">
        <ele>2</ele>
      </trkpt>
      <trkpt lat="-40.90251764257104" lon="176.229292389853">
        <ele>2</ele>
      </trkpt>
      <trkpt lat="-40.90251764257104" lon="176.229292389853">
        <ele>2</ele>
      </trkpt>
      <trkpt lat="-40.90248331108144" lon="176.229350562655">
        <ele>2</ele>
      </trkpt>
      <trkpt lat="-40.9024604234217" lon="176.229370589357">
        <ele>2</ele>
      </trkpt>
      <trkpt lat="-40.90240320427236" lon="176.229392523365">
        <ele>2</ele>
      </trkpt>
      <trkpt lat="-40.90234217051306" lon="176.229465000954">
        <ele>3</ele>
      </trkpt>
      <trkpt lat="-40.90231642189586" lon="176.229484074003">
        <ele>3</ele>
      </trkpt>
      <trkpt lat="-40.90226492466145" lon="176.229508868968">
        <ele>3</ele>
      </trkpt>
      <trkpt lat="-40.90215525462521" lon="176.229580392905">
        <ele>3</ele>
      </trkpt>
      <trkpt lat="-40.90204463093648" lon="176.229651916842">
        <ele>3</ele>
      </trkpt>
      <trkpt lat="-40.90200267022696" lon="176.229716765211">
        <ele>4</ele>
      </trkpt>
      <trkpt lat="-40.90193114629029" lon="176.229782567233">
        <ele>4</ele>
      </trkpt>
      <trkpt lat="-40.90186439061605" lon="176.229834064467">
        <ele>4</ele>
      </trkpt>
      <trkpt lat="-40.90177856189204" lon="176.229919893191">
        <ele>4</ele>
      </trkpt>
      <trkpt lat="-40.90169177951554" lon="176.230005721915">
        <ele>4</ele>
      </trkpt>
      <trkpt lat="-40.90164123593362" lon="176.230079153157">
        <ele>5</ele>
      </trkpt>
      <trkpt lat="-40.90158973869922" lon="176.230192637803">
        <ele>5</ele>
      </trkpt>
      <trkpt lat="-40.90154110242227" lon="176.230277512874">
        <ele>6</ele>
      </trkpt>
      <trkpt lat="-40.90111768071714" lon="176.230875452985">
        <ele>7</ele>
      </trkpt>
      <trkpt lat="-40.90088880411977" lon="176.231131031852">
        <ele>7</ele>
      </trkpt>
      <trkpt lat="-40.90079439252336" lon="176.231216860576">
        <ele>7</ele>
      </trkpt>
      <trkpt lat="-40.90068376883463" lon="176.231281708945">
        <ele>7</ele>
      </trkpt>
      <trkpt lat="-40.90057219149342" lon="176.231346557315">
        <ele>8</ele>
      </trkpt>
      <trkpt lat="-40.90050257486172" lon="176.231373259584">
        <ele>8</ele>
      </trkpt>
      <trkpt lat="-40.90043295823002" lon="176.231399961854">
        <ele>8</ele>
      </trkpt>
      <trkpt lat="-40.90042151440015" lon="176.231378027847">
        <ele>8</ele>
      </trkpt>
      <trkpt lat="-40.90037860003815" lon="176.231397100896">
        <ele>8</ele>
      </trkpt>
      <trkpt lat="-40.90037765759038" lon="176.231399964488">
        <ele>8</ele>
      </trkpt>
      <trkpt lat="-40.90037764638566" lon="176.231399961854">
        <ele>8</ele>
      </trkpt>
      <trkpt lat="-40.90035285142094" lon="176.231394239939">
        <ele>8</ele>
      </trkpt>
      <trkpt lat="-40.90030707610146" lon="176.231417127599">
        <ele>8</ele>
      </trkpt>
      <trkpt lat="-40.90022506198741" lon="176.231470532138">
        <ele>8</ele>
      </trkpt>
      <trkpt lat="-40.90016402822811" lon="176.231522983025">
        <ele>9</ele>
      </trkpt>
      <trkpt lat="-40.90015353805073" lon="176.231526797635">
        <ele>9</ele>
      </trkpt>
      <trkpt lat="-40.90011062368873" lon="176.231516307458">
        <ele>9</ele>
      </trkpt>
      <trkpt lat="-40.90009917985886" lon="176.231519168415">
        <ele>9</ele>
      </trkpt>
      <trkpt lat="-40.90009250429144" lon="176.231535380507">
        <ele>9</ele>
      </trkpt>
      <trkpt lat="-40.90009250429144" lon="176.231586877742">
        <ele>9</ele>
      </trkpt>
      <trkpt lat="-40.90008487507152" lon="176.231595460614">
        <ele>9</ele>
      </trkpt>
      <trkpt lat="-40.90006866297921" lon="176.231595460614">
        <ele>9</ele>
      </trkpt>
      <trkpt lat="-40.90003814609956" lon="176.231574480259">
        <ele>9</ele>
      </trkpt>
      <trkpt lat="-40.90002288765973" lon="176.231580202174">
        <ele>9</ele>
      </trkpt>
      <trkpt lat="-40.9" lon="176.231603089834">
        <ele>9</ele>
      </trkpt>
      <trkpt lat="-40.9" lon="176.231603089834">
        <ele>9</ele>
      </trkpt>
      <trkpt lat="-40.89995708563799" lon="176.231604997139">
        <ele>9</ele>
      </trkpt>
      <trkpt lat="-40.8999303833683" lon="176.231622162884">
        <ele>9</ele>
      </trkpt>
      <trkpt lat="-40.89990654205607" lon="176.231627884799">
        <ele>9</ele>
      </trkpt>
      <trkpt lat="-40.89986172038909" lon="176.231673660118">
        <ele>9</ele>
      </trkpt>
      <trkpt lat="-40.89982262063704" lon="176.231670799161">
        <ele>8</ele>
      </trkpt>
      <trkpt lat="-40.89982122421742" lon="176.231670696982">
        <ele>8</ele>
      </trkpt>
      <trkpt lat="-40.89982071333206" lon="176.231679382033">
        <ele>8</ele>
      </trkpt>
      <trkpt lat="-40.89980926950219" lon="176.231687011253">
        <ele>8</ele>
      </trkpt>
      <trkpt lat="-40.89979973297731" lon="176.231680335686">
        <ele>8</ele>
      </trkpt>
      <trkpt lat="-40.89974632843792" lon="176.231714667175">
        <ele>7</ele>
      </trkpt>
      <trkpt lat="-40.8997043677284" lon="176.2317623498">
        <ele>7</ele>
      </trkpt>
      <trkpt lat="-40.89970722868587" lon="176.231779515545">
        <ele>7</ele>
      </trkpt>
      <trkpt lat="-40.89970150677093" lon="176.231789052069">
        <ele>7</ele>
      </trkpt>
      <trkpt lat="-40.89969990074009" lon="176.231788962846">
        <ele>7</ele>
      </trkpt>
      <trkpt lat="-40.89969959946595" lon="176.231790005722">
        <ele>7</ele>
      </trkpt>
      <trkpt lat="-40.89967480450124" lon="176.231875834446">
        <ele>6</ele>
      </trkpt>
      <trkpt lat="-40.89963665840168" lon="176.231902536716">
        <ele>6</ele>
      </trkpt>
      <trkpt lat="-40.89962521457181" lon="176.23198836544">
        <ele>5</ele>
      </trkpt>
      <trkpt lat="-40.89957562464238" lon="176.232057028419">
        <ele>5</ele>
      </trkpt>
      <trkpt lat="-40.8995737173374" lon="176.232069425901">
        <ele>5</ele>
      </trkpt>
      <trkpt lat="-40.89959565134465" lon="176.232075147816">
        <ele>5</ele>
      </trkpt>
      <trkpt lat="-40.89958039290482" lon="176.232178142285">
        <ele>4</ele>
      </trkpt>
      <trkpt lat="-40.89954510776273" lon="176.232233454129">
        <ele>4</ele>
      </trkpt>
      <trkpt lat="-40.89948025939348" lon="176.232229639519">
        <ele>4</ele>
      </trkpt>
      <trkpt lat="-40.89947739843601" lon="176.232286858669">
        <ele>4</ele>
      </trkpt>
      <trkpt lat="-40.89947739843601" lon="176.232286858669">
        <ele>4</ele>
      </trkpt>
      <trkpt lat="-40.89948312035094" lon="176.232310699981">
        <ele>4</ele>
      </trkpt>
      <trkpt lat="-40.89949456418081" lon="176.232325958421">
        <ele>4</ele>
      </trkpt>
      <trkpt lat="-40.89954415411025" lon="176.23236410452">
        <ele>4</ele>
      </trkpt>
      <trkpt lat="-40.89956704176998" lon="176.232370780088">
        <ele>4</ele>
      </trkpt>
      <trkpt lat="-40.89960995613199" lon="176.232359336258">
        <ele>4</ele>
      </trkpt>
      <trkpt lat="-40.8996433339691" lon="176.232341216861">
        <ele>4</ele>
      </trkpt>
      <trkpt lat="-40.89968052641618" lon="176.232337402251">
        <ele>5</ele>
      </trkpt>
      <trkpt lat="-40.89977684531757" lon="176.232277322144">
        <ele>5</ele>
      </trkpt>
      <trkpt lat="-40.89984550829678" lon="176.232205798207">
        <ele>6</ele>
      </trkpt>
      <trkpt lat="-40.89996471485791" lon="176.232156208278">
        <ele>7</ele>
      </trkpt>
      <trkpt lat="-40.9" lon="176.232116154873">
        <ele>8</ele>
      </trkpt>
      <trkpt lat="-40.9" lon="176.232116154873">
        <ele>8</ele>
      </trkpt>
      <trkpt lat="-40.90003051687965" lon="176.232073240511">
        <ele>8</ele>
      </trkpt>
      <trkpt lat="-40.90007438489414" lon="176.231986458135">
        <ele>8</ele>
      </trkpt>
      <trkpt lat="-40.90011825290863" lon="176.231900629411">
        <ele>9</ele>
      </trkpt>
      <trkpt lat="-40.90013732595842" lon="176.231824337212">
        <ele>9</ele>
      </trkpt>
      <trkpt lat="-40.90021934007247" lon="176.231738508488">
        <ele>9</ele>
      </trkpt>
      <trkpt lat="-40.90025939347701" lon="176.231650772459">
        <ele>9</ele>
      </trkpt>
      <trkpt lat="-40.90029277131413" lon="176.231644096891">
        <ele>9</ele>
      </trkpt>
      <trkpt lat="-40.90030707610146" lon="176.231634560366">
        <ele>9</ele>
      </trkpt>
      <trkpt lat="-40.90030707610146" lon="176.231634560366">
        <ele>9</ele>
      </trkpt>
      <trkpt lat="-40.90033854663361" lon="176.231631699409">
        <ele>9</ele>
      </trkpt>
      <trkpt lat="-40.90037764638566" lon="176.231589738699">
        <ele>9</ele>
      </trkpt>
      <trkpt lat="-40.9004691970246" lon="176.23152107572">
        <ele>8</ele>
      </trkpt>
      <trkpt lat="-40.90053786000381" lon="176.231423803166">
        <ele>8</ele>
      </trkpt>
      <trkpt lat="-40.90060652298302" lon="176.231327484265">
        <ele>8</ele>
      </trkpt>
      <trkpt lat="-40.90060759443421" lon="176.231325981246">
        <ele>8</ele>
      </trkpt>
      <trkpt lat="-40.90068376883463" lon="176.231281708945">
        <ele>7</ele>
      </trkpt>
      <trkpt lat="-40.90079439252336" lon="176.231216860576">
        <ele>7</ele>
      </trkpt>
      <trkpt lat="-40.90088880411977" lon="176.231131031852">
        <ele>7</ele>
      </trkpt>
      <trkpt lat="-40.90111768071714" lon="176.230875452985">
        <ele>7</ele>
      </trkpt>
      <trkpt lat="-40.90154110242227" lon="176.230277512874">
        <ele>6</ele>
      </trkpt>
      <trkpt lat="-40.90158973869922" lon="176.230192637803">
        <ele>5</ele>
      </trkpt>
      <trkpt lat="-40.90164123593362" lon="176.230079153157">
        <ele>5</ele>
      </trkpt>
      <trkpt lat="-40.90169177951554" lon="176.230005721915">
        <ele>4</ele>
      </trkpt>
      <trkpt lat="-40.90177856189204" lon="176.229919893191">
        <ele>4</ele>
      </trkpt>
      <trkpt lat="-40.90186439061605" lon="176.229834064467">
        <ele>4</ele>
      </trkpt>
      <trkpt lat="-40.90193114629029" lon="176.229782567233">
        <ele>4</ele>
      </trkpt>
      <trkpt lat="-40.90200267022696" lon="176.229716765211">
        <ele>4</ele>
      </trkpt>
      <trkpt lat="-40.90204463093648" lon="176.229651916842">
        <ele>3</ele>
      </trkpt>
      <trkpt lat="-40.90215525462521" lon="176.229580392905">
        <ele>3</ele>
      </trkpt>
      <trkpt lat="-40.90226492466145" lon="176.229508868968">
        <ele>3</ele>
      </trkpt>
      <trkpt lat="-40.90231642189586" lon="176.229484074003">
        <ele>3</ele>
      </trkpt>
      <trkpt lat="-40.90234217051306" lon="176.229465000954">
        <ele>3</ele>
      </trkpt>
      <trkpt lat="-40.90240320427236" lon="176.229392523365">
        <ele>2</ele>
      </trkpt>
      <trkpt lat="-40.9024604234217" lon="176.229370589357">
        <ele>2</ele>
      </trkpt>
      <trkpt lat="-40.90248331108144" lon="176.229350562655">
        <ele>2</ele>
      </trkpt>
      <trkpt lat="-40.90251764257104" lon="176.229292389853">
        <ele>2</ele>
      </trkpt>
      <trkpt lat="-40.90251764257104" lon="176.229292389853">
        <ele>2</ele>
      </trkpt>
      <trkpt lat="-40.9025481594507" lon="176.229214190349">
        <ele>2</ele>
      </trkpt>
      <trkpt lat="-40.90258439824527" lon="176.229082586306">
        <ele>1</ele>
      </trkpt>
      <trkpt lat="-40.90261491512493" lon="176.228925233645">
        <ele>1</ele>
      </trkpt>
      <trkpt lat="-40.90263589547968" lon="176.228767880984">
        <ele>1</ele>
      </trkpt>
      <trkpt lat="-40.90265115391951" lon="176.228569521266">
        <ele>0</ele>
      </trkpt>
      <trkpt lat="-40.90264733930955" lon="176.228411214953">
        <ele>-0</ele>
      </trkpt>
      <trkpt lat="-40.90260061033759" lon="176.227784665268">
        <ele>2</ele>
      </trkpt>
      <trkpt lat="-40.90259584207514" lon="176.227528132748">
        <ele>3</ele>
      </trkpt>
      <trkpt lat="-40.90259584207514" lon="176.227528132748">
        <ele>3</ele>
      </trkpt>
      <trkpt lat="-40.90269692923899" lon="176.227514781614">
        <ele>4</ele>
      </trkpt>
      <trkpt lat="-40.90275891665077" lon="176.227533854663">
        <ele>4</ele>
      </trkpt>
      <trkpt lat="-40.90287144764447" lon="176.22760156399">
        <ele>4</ele>
      </trkpt>
      <trkpt lat="-40.90300019073049" lon="176.227668319664">
        <ele>4</ele>
      </trkpt>
      <trkpt lat="-40.90308792675948" lon="176.227678809842">
        <ele>4</ele>
      </trkpt>
      <trkpt lat="-40.90329677665459" lon="176.227610146863">
        <ele>6</ele>
      </trkpt>
      <trkpt lat="-40.90329677665459" lon="176.227610146863">
        <ele>6</ele>
      </trkpt>
      <trkpt lat="-40.90322597999791" lon="176.22738610681">
        <ele>7</ele>
      </trkpt>
    </trkseg>
  </trk>
</gpx>