<?xml version="1.0" encoding="UTF-8" standalone="yes"?>
<gpx
 version="1.1"
 creator="Generated by MapOut iPhone App. See https://mapout.app"
 xmlns="http://www.topografix.com/GPX/1/1"
 xmlns:xsi="http://www.w3.org/2001/XMLSchema-instance"
 xmlns:gpxx="http://www.garmin.com/xmlschemas/GpxExtensions/v3"
 xmlns:mapout="https://mapout.app/xmlschemas/MapOutExtensions"
 xsi:schemaLocation="http://www.topografix.com/GPX/1/1 https://www.topografix.com/GPX/1/1/gpx.xsd http://www.garmin.com/xmlschemas/GpxExtensions/v3 https://www8.garmin.com/xmlschemas/GpxExtensionsv3.xsd https://mapout.app/xmlschemas/MapOutExtensions https://mapout.app/xmlschemas/MapOutExtensions.xsd">
  <metadata>
    <name>Paritutu Rock</name>
    <author><name>iPhone</name></author>
    <time>2026-05-27T06:36:37Z</time>
    <bounds minlat="-39.05989986648865" minlon="174.023412168606" maxlat="-39.05949170322334" maxlon="174.025289195619"/>
  </metadata>
  <trk>
    <name>Paritutu Rock</name>
    <trkseg>
      <trkpt lat="-39.05980094203662" lon="174.025289195619">
        <ele>57</ele>
      </trkpt>
      <trkpt lat="-39.05981213045965" lon="174.025132557696">
        <ele>58</ele>
      </trkpt>
      <trkpt lat="-39.05987411787144" lon="174.02500762922">
        <ele>61</ele>
      </trkpt>
      <trkpt lat="-39.05989986648865" lon="174.024778752623">
        <ele>64</ele>
      </trkpt>
      <trkpt lat="-39.05989986648865" lon="174.024778752623">
        <ele>64</ele>
      </trkpt>
      <trkpt lat="-39.05984932290673" lon="174.024719626168">
        <ele>64</ele>
      </trkpt>
      <trkpt lat="-39.05982834255197" lon="174.024664314324">
        <ele>64</ele>
      </trkpt>
      <trkpt lat="-39.05983311081442" lon="174.024602326912">
        <ele>65</ele>
      </trkpt>
      <trkpt lat="-39.05985218386419" lon="174.024493610528">
        <ele>67</ele>
      </trkpt>
      <trkpt lat="-39.05983024985695" lon="174.024441159641">
        <ele>67</ele>
      </trkpt>
      <trkpt lat="-39.05980640854472" lon="174.024414457372">
        <ele>66</ele>
      </trkpt>
      <trkpt lat="-39.05976921609765" lon="174.024414457372">
        <ele>66</ele>
      </trkpt>
      <trkpt lat="-39.05972820904062" lon="174.024403967194">
        <ele>65</ele>
      </trkpt>
      <trkpt lat="-39.05970627503338" lon="174.024378218577">
        <ele>65</ele>
      </trkpt>
      <trkpt lat="-39.05968720198359" lon="174.02433721152">
        <ele>65</ele>
      </trkpt>
      <trkpt lat="-39.05968910928857" lon="174.024274270456">
        <ele>66</ele>
      </trkpt>
      <trkpt lat="-39.05969101659355" lon="174.024212283044">
        <ele>67</ele>
      </trkpt>
      <trkpt lat="-39.05962426091932" lon="174.024144573717">
        <ele>65</ele>
      </trkpt>
      <trkpt lat="-39.05962426091932" lon="174.024144573717">
        <ele>65</ele>
      </trkpt>
      <trkpt lat="-39.05962330726683" lon="174.024036810986">
        <ele>62</ele>
      </trkpt>
      <trkpt lat="-39.05959755864963" lon="174.024015830631">
        <ele>61</ele>
      </trkpt>
      <trkpt lat="-39.05956036620255" lon="174.023950982262">
        <ele>57</ele>
      </trkpt>
      <trkpt lat="-39.05952222010299" lon="174.023886133893">
        <ele>54</ele>
      </trkpt>
      <trkpt lat="-39.05949170322334" lon="174.023799351516">
        <ele>50</ele>
      </trkpt>
      <trkpt lat="-39.05949170322334" lon="174.023717337402">
        <ele>46</ele>
      </trkpt>
      <trkpt lat="-39.0595041007057" lon="174.023626740416">
        <ele>44</ele>
      </trkpt>
      <trkpt lat="-39.05952508106046" lon="174.023518977685">
        <ele>41</ele>
      </trkpt>
      <trkpt lat="-39.05954606141522" lon="174.023412168606">
        <ele>39</ele>
      </trkpt>
    </trkseg>
  </trk>
</gpx>