<?xml version="1.0" encoding="UTF-8" standalone="yes"?>
<gpx
 version="1.1"
 creator="Generated by MapOut iPhone App. See https://mapout.app"
 xmlns="http://www.topografix.com/GPX/1/1"
 xmlns:xsi="http://www.w3.org/2001/XMLSchema-instance"
 xmlns:gpxx="http://www.garmin.com/xmlschemas/GpxExtensions/v3"
 xmlns:mapout="https://mapout.app/xmlschemas/MapOutExtensions"
 xsi:schemaLocation="http://www.topografix.com/GPX/1/1 https://www.topografix.com/GPX/1/1/gpx.xsd http://www.garmin.com/xmlschemas/GpxExtensions/v3 https://www8.garmin.com/xmlschemas/GpxExtensionsv3.xsd https://mapout.app/xmlschemas/MapOutExtensions https://mapout.app/xmlschemas/MapOutExtensions.xsd">
  <metadata>
    <name>Devils Punchbowl</name>
    <time>2026-09-20T23:55:12Z</time>
    <bounds minlat="-42.93565780228748" minlon="171.560239366775" maxlat="-42.93282662597749" maxlon="171.567465191684"/>
  </metadata>
  <trk>
    <name>Devils Punchbowl</name>
    <trkseg>
      <trkpt lat="-42.93565780228748" lon="171.561143763196">
        <ele>758</ele>
      </trkpt>
      <trkpt lat="-42.93561510585543" lon="171.56106904444">
        <ele>759</ele>
      </trkpt>
      <trkpt lat="-42.93555121113866" lon="171.561000381461">
        <ele>759</ele>
      </trkpt>
      <trkpt lat="-42.9354873164219" lon="171.560932672134">
        <ele>760</ele>
      </trkpt>
      <trkpt lat="-42.93543963379744" lon="171.560819187488">
        <ele>761</ele>
      </trkpt>
      <trkpt lat="-42.93543963379744" lon="171.560819187488">
        <ele>761</ele>
      </trkpt>
      <trkpt lat="-42.93533854663361" lon="171.560683768835">
        <ele>764</ele>
      </trkpt>
      <trkpt lat="-42.93533854663361" lon="171.560683768835">
        <ele>764</ele>
      </trkpt>
      <trkpt lat="-42.93519073049781" lon="171.560630364295">
        <ele>765</ele>
      </trkpt>
      <trkpt lat="-42.9350781995041" lon="171.560635132558">
        <ele>765</ele>
      </trkpt>
      <trkpt lat="-42.93480545489223" lon="171.560694259012">
        <ele>764</ele>
      </trkpt>
      <trkpt lat="-42.93434007247759" lon="171.560688537097">
        <ele>766</ele>
      </trkpt>
      <trkpt lat="-42.93397196261682" lon="171.560550257486">
        <ele>770</ele>
      </trkpt>
      <trkpt lat="-42.93375739080679" lon="171.560391951173">
        <ele>773</ele>
      </trkpt>
      <trkpt lat="-42.9333740225062" lon="171.560239366775">
        <ele>775</ele>
      </trkpt>
      <trkpt lat="-42.9333740225062" lon="171.560239366775">
        <ele>775</ele>
      </trkpt>
      <trkpt lat="-42.93312798016403" lon="171.560669464047">
        <ele>769</ele>
      </trkpt>
      <trkpt lat="-42.93312798016403" lon="171.560669464047">
        <ele>769</ele>
      </trkpt>
      <trkpt lat="-42.93312035094412" lon="171.56086973107">
        <ele>768</ele>
      </trkpt>
      <trkpt lat="-42.93314991417127" lon="171.561010871638">
        <ele>768</ele>
      </trkpt>
      <trkpt lat="-42.93316994087355" lon="171.561178714476">
        <ele>769</ele>
      </trkpt>
      <trkpt lat="-42.93323955750525" lon="171.561352279229">
        <ele>769</ele>
      </trkpt>
      <trkpt lat="-42.93332824718672" lon="171.561729925615">
        <ele>770</ele>
      </trkpt>
      <trkpt lat="-42.93342170513065" lon="171.562298302499">
        <ele>776</ele>
      </trkpt>
      <trkpt lat="-42.93342170513065" lon="171.562298302499">
        <ele>776</ele>
      </trkpt>
      <trkpt lat="-42.93346461949265" lon="171.562396528705">
        <ele>777</ele>
      </trkpt>
      <trkpt lat="-42.93350658020218" lon="171.562495708564">
        <ele>778</ele>
      </trkpt>
      <trkpt lat="-42.93350658020218" lon="171.562495708564">
        <ele>778</ele>
      </trkpt>
      <trkpt lat="-42.93353709708182" lon="171.562572954415">
        <ele>781</ele>
      </trkpt>
      <trkpt lat="-42.93354567995422" lon="171.562669273317">
        <ele>784</ele>
      </trkpt>
      <trkpt lat="-42.93355426282663" lon="171.562765592218">
        <ele>787</ele>
      </trkpt>
      <trkpt lat="-42.93366488651535" lon="171.562839977112">
        <ele>790</ele>
      </trkpt>
      <trkpt lat="-42.93373354949456" lon="171.562903871829">
        <ele>792</ele>
      </trkpt>
      <trkpt lat="-42.93380221247377" lon="171.562967766546">
        <ele>795</ele>
      </trkpt>
      <trkpt lat="-42.9339214190349" lon="171.563046919702">
        <ele>798</ele>
      </trkpt>
      <trkpt lat="-42.93393667747473" lon="171.563104138852">
        <ele>800</ele>
      </trkpt>
      <trkpt lat="-42.933826053786" lon="171.563160404349">
        <ele>802</ele>
      </trkpt>
      <trkpt lat="-42.93371447644478" lon="171.563217623498">
        <ele>804</ele>
      </trkpt>
      <trkpt lat="-42.9336782376502" lon="171.563310127789">
        <ele>807</ele>
      </trkpt>
      <trkpt lat="-42.93364199885562" lon="171.563403585733">
        <ele>810</ele>
      </trkpt>
      <trkpt lat="-42.93368109860766" lon="171.563468434103">
        <ele>813</ele>
      </trkpt>
      <trkpt lat="-42.93371924470723" lon="171.563534236124">
        <ele>815</ele>
      </trkpt>
      <trkpt lat="-42.93381079534618" lon="171.563531375167">
        <ele>816</ele>
      </trkpt>
      <trkpt lat="-42.93390234598512" lon="171.563528514209">
        <ele>817</ele>
      </trkpt>
      <trkpt lat="-42.93397768453175" lon="171.563583826054">
        <ele>821</ele>
      </trkpt>
      <trkpt lat="-42.9340520694259" lon="171.563639137898">
        <ele>824</ele>
      </trkpt>
      <trkpt lat="-42.93407304978066" lon="171.56369349609">
        <ele>827</ele>
      </trkpt>
      <trkpt lat="-42.93400152584398" lon="171.563699218005">
        <ele>826</ele>
      </trkpt>
      <trkpt lat="-42.93392904825482" lon="171.563705893572">
        <ele>825</ele>
      </trkpt>
      <trkpt lat="-42.9339042532901" lon="171.563722105665">
        <ele>825</ele>
      </trkpt>
      <trkpt lat="-42.93395765782949" lon="171.563804119779">
        <ele>830</ele>
      </trkpt>
      <trkpt lat="-42.93401106236887" lon="171.563887087545">
        <ele>834</ele>
      </trkpt>
      <trkpt lat="-42.93402536715621" lon="171.56392714095">
        <ele>836</ele>
      </trkpt>
      <trkpt lat="-42.93395956513447" lon="171.56393477017">
        <ele>835</ele>
      </trkpt>
      <trkpt lat="-42.93389376311272" lon="171.563943353042">
        <ele>834</ele>
      </trkpt>
      <trkpt lat="-42.93394430669464" lon="171.564020598894">
        <ele>838</ele>
      </trkpt>
      <trkpt lat="-42.93386229258059" lon="171.564131222582">
        <ele>840</ele>
      </trkpt>
      <trkpt lat="-42.93377932481404" lon="171.564241846271">
        <ele>842</ele>
      </trkpt>
      <trkpt lat="-42.93359526988365" lon="171.564546061415">
        <ele>846</ele>
      </trkpt>
      <trkpt lat="-42.93356475300401" lon="171.564661453366">
        <ele>848</ele>
      </trkpt>
      <trkpt lat="-42.93353328247187" lon="171.56477779897">
        <ele>850</ele>
      </trkpt>
      <trkpt lat="-42.93349322906733" lon="171.564845508297">
        <ele>850</ele>
      </trkpt>
      <trkpt lat="-42.93349322906733" lon="171.564845508297">
        <ele>850</ele>
      </trkpt>
      <trkpt lat="-42.93343124165554" lon="171.564953271028">
        <ele>850</ele>
      </trkpt>
      <trkpt lat="-42.93343124165554" lon="171.564953271028">
        <ele>850</ele>
      </trkpt>
      <trkpt lat="-42.93338546633607" lon="171.565032424185">
        <ele>849</ele>
      </trkpt>
      <trkpt lat="-42.9330783902346" lon="171.565373831776">
        <ele>850</ele>
      </trkpt>
      <trkpt lat="-42.93296299828342" lon="171.565493038337">
        <ele>852</ele>
      </trkpt>
      <trkpt lat="-42.93296299828342" lon="171.565493038337">
        <ele>852</ele>
      </trkpt>
      <trkpt lat="-42.93287526225443" lon="171.565584588976">
        <ele>854</ele>
      </trkpt>
      <trkpt lat="-42.93287526225443" lon="171.565584588976">
        <ele>854</ele>
      </trkpt>
      <trkpt lat="-42.93284951363723" lon="171.565611291245">
        <ele>855</ele>
      </trkpt>
      <trkpt lat="-42.93282662597749" lon="171.565874499332">
        <ele>859</ele>
      </trkpt>
      <trkpt lat="-42.93289338165172" lon="171.566047110433">
        <ele>858</ele>
      </trkpt>
      <trkpt lat="-42.93289338165172" lon="171.566047110433">
        <ele>858</ele>
      </trkpt>
      <trkpt lat="-42.93290959374404" lon="171.566087163837">
        <ele>858</ele>
      </trkpt>
      <trkpt lat="-42.93293438870875" lon="171.566196833874">
        <ele>858</ele>
      </trkpt>
      <trkpt lat="-42.93293438870875" lon="171.566196833874">
        <ele>858</ele>
      </trkpt>
      <trkpt lat="-42.93299256151059" lon="171.566446690826">
        <ele>857</ele>
      </trkpt>
      <trkpt lat="-42.93294941316988" lon="171.566543618258">
        <ele>858</ele>
      </trkpt>
      <trkpt lat="-42.93294964714858" lon="171.56654396338">
        <ele>858</ele>
      </trkpt>
      <trkpt lat="-42.9330259393477" lon="171.566656494373">
        <ele>856</ele>
      </trkpt>
      <trkpt lat="-42.93305264161739" lon="171.56676616441">
        <ele>867</ele>
      </trkpt>
      <trkpt lat="-42.93305359526988" lon="171.566811939729">
        <ele>872</ele>
      </trkpt>
      <trkpt lat="-42.93304501239749" lon="171.566870112531">
        <ele>878</ele>
      </trkpt>
      <trkpt lat="-42.93306313179477" lon="171.566918748808">
        <ele>884</ele>
      </trkpt>
      <trkpt lat="-42.93310223154683" lon="171.566990272745">
        <ele>892</ele>
      </trkpt>
      <trkpt lat="-42.9331213045966" lon="171.567046538241">
        <ele>899</ele>
      </trkpt>
      <trkpt lat="-42.93312893381652" lon="171.567094220866">
        <ele>905</ele>
      </trkpt>
      <trkpt lat="-42.93314609956132" lon="171.567110432958">
        <ele>908</ele>
      </trkpt>
      <trkpt lat="-42.93312702651154" lon="171.567174327675">
        <ele>915</ele>
      </trkpt>
      <trkpt lat="-42.93311653633416" lon="171.567236315087">
        <ele>922</ele>
      </trkpt>
      <trkpt lat="-42.93311558268167" lon="171.567290673279">
        <ele>928</ele>
      </trkpt>
      <trkpt lat="-42.93307457562464" lon="171.567387945833">
        <ele>938</ele>
      </trkpt>
      <trkpt lat="-42.9330259393477" lon="171.567465191684">
        <ele>944</ele>
      </trkpt>
    </trkseg>
  </trk>
</gpx>