<?xml version="1.0" encoding="UTF-8" standalone="yes"?>
<gpx
 version="1.1"
 creator="Generated by MapOut iPhone App. See https://mapout.app"
 xmlns="http://www.topografix.com/GPX/1/1"
 xmlns:xsi="http://www.w3.org/2001/XMLSchema-instance"
 xmlns:gpxx="http://www.garmin.com/xmlschemas/GpxExtensions/v3"
 xmlns:mapout="https://mapout.app/xmlschemas/MapOutExtensions"
 xsi:schemaLocation="http://www.topografix.com/GPX/1/1 https://www.topografix.com/GPX/1/1/gpx.xsd http://www.garmin.com/xmlschemas/GpxExtensions/v3 https://www8.garmin.com/xmlschemas/GpxExtensionsv3.xsd https://mapout.app/xmlschemas/MapOutExtensions https://mapout.app/xmlschemas/MapOutExtensions.xsd">
  <metadata>
    <name>Hooker Valley Track</name>
    <author><name>iPhone</name></author>
    <time>2026-10-05T02:23:42Z</time>
    <bounds minlat="-43.71859336257868" minlon="170.093638184246" maxlat="-43.68890616059507" maxlon="170.103700171657"/>
  </metadata>
  <trk>
    <name>Hooker Valley Track</name>
    <trkseg>
      <trkpt lat="-43.71796872019836" lon="170.093638184246">
        <ele>780</ele>
      </trkpt>
      <trkpt lat="-43.71806313179477" lon="170.093887087545">
        <ele>779</ele>
      </trkpt>
      <trkpt lat="-43.71810890711425" lon="170.093988174709">
        <ele>778</ele>
      </trkpt>
      <trkpt lat="-43.71815372878123" lon="170.094090215525">
        <ele>778</ele>
      </trkpt>
      <trkpt lat="-43.71820713332062" lon="170.094516498188">
        <ele>775</ele>
      </trkpt>
      <trkpt lat="-43.71828628647721" lon="170.094772077055">
        <ele>772</ele>
      </trkpt>
      <trkpt lat="-43.71829200839214" lon="170.094873164219">
        <ele>772</ele>
      </trkpt>
      <trkpt lat="-43.71829773030708" lon="170.094974251383">
        <ele>771</ele>
      </trkpt>
      <trkpt lat="-43.71826530612245" lon="170.095074384894">
        <ele>771</ele>
      </trkpt>
      <trkpt lat="-43.71822811367538" lon="170.095140186916">
        <ele>772</ele>
      </trkpt>
      <trkpt lat="-43.71819092122831" lon="170.095205988938">
        <ele>772</ele>
      </trkpt>
      <trkpt lat="-43.71817280183102" lon="170.095283234789">
        <ele>772</ele>
      </trkpt>
      <trkpt lat="-43.71809364867443" lon="170.095361434293">
        <ele>773</ele>
      </trkpt>
      <trkpt lat="-43.71805168796491" lon="170.095428189968">
        <ele>774</ele>
      </trkpt>
      <trkpt lat="-43.7180087736029" lon="170.095495899294">
        <ele>774</ele>
      </trkpt>
      <trkpt lat="-43.71799351516307" lon="170.095603662026">
        <ele>774</ele>
      </trkpt>
      <trkpt lat="-43.71801449551783" lon="170.095667556742">
        <ele>774</ele>
      </trkpt>
      <trkpt lat="-43.7181127217242" lon="170.095733358764">
        <ele>773</ele>
      </trkpt>
      <trkpt lat="-43.71815945069617" lon="170.095807743658">
        <ele>773</ele>
      </trkpt>
      <trkpt lat="-43.71820522601564" lon="170.095883082205">
        <ele>772</ele>
      </trkpt>
      <trkpt lat="-43.71829200839214" lon="170.095972725539">
        <ele>772</ele>
      </trkpt>
      <trkpt lat="-43.71833206179668" lon="170.09604615678">
        <ele>772</ele>
      </trkpt>
      <trkpt lat="-43.71835304215144" lon="170.0961300782">
        <ele>772</ele>
      </trkpt>
      <trkpt lat="-43.71836830059127" lon="170.096239748236">
        <ele>773</ele>
      </trkpt>
      <trkpt lat="-43.7183826053786" lon="170.096350371925">
        <ele>773</ele>
      </trkpt>
      <trkpt lat="-43.71840072477589" lon="170.096432386039">
        <ele>773</ele>
      </trkpt>
      <trkpt lat="-43.71846652679763" lon="170.09654396338">
        <ele>774</ele>
      </trkpt>
      <trkpt lat="-43.71849704367728" lon="170.096621209231">
        <ele>774</ele>
      </trkpt>
      <trkpt lat="-43.71858668701125" lon="170.096914934198">
        <ele>773</ele>
      </trkpt>
      <trkpt lat="-43.71859336257868" lon="170.096983597177">
        <ele>773</ele>
      </trkpt>
      <trkpt lat="-43.7185914552737" lon="170.097045584589">
        <ele>773</ele>
      </trkpt>
      <trkpt lat="-43.71857524318138" lon="170.09713427427">
        <ele>773</ele>
      </trkpt>
      <trkpt lat="-43.71855807743658" lon="170.097223917604">
        <ele>773</ele>
      </trkpt>
      <trkpt lat="-43.71853805073431" lon="170.097297348846">
        <ele>773</ele>
      </trkpt>
      <trkpt lat="-43.71851707037955" lon="170.09737173374">
        <ele>773</ele>
      </trkpt>
      <trkpt lat="-43.71848559984742" lon="170.097447072287">
        <ele>774</ele>
      </trkpt>
      <trkpt lat="-43.7184779706275" lon="170.097500476826">
        <ele>774</ele>
      </trkpt>
      <trkpt lat="-43.71846557314515" lon="170.097532901011">
        <ele>774</ele>
      </trkpt>
      <trkpt lat="-43.71842456608812" lon="170.09757486172">
        <ele>774</ele>
      </trkpt>
      <trkpt lat="-43.71834541293153" lon="170.097681670799">
        <ele>775</ele>
      </trkpt>
      <trkpt lat="-43.71829391569712" lon="170.097727446119">
        <ele>776</ele>
      </trkpt>
      <trkpt lat="-43.71827102803739" lon="170.097770360481">
        <ele>776</ele>
      </trkpt>
      <trkpt lat="-43.71825576959756" lon="170.09781995041">
        <ele>776</ele>
      </trkpt>
      <trkpt lat="-43.71826625977494" lon="170.097902918177">
        <ele>776</ele>
      </trkpt>
      <trkpt lat="-43.71829677665459" lon="170.097995422468">
        <ele>776</ele>
      </trkpt>
      <trkpt lat="-43.71832633988175" lon="170.098088880412">
        <ele>776</ele>
      </trkpt>
      <trkpt lat="-43.71834922754149" lon="170.098179477398">
        <ele>776</ele>
      </trkpt>
      <trkpt lat="-43.71836257867633" lon="170.0982757963">
        <ele>777</ele>
      </trkpt>
      <trkpt lat="-43.71837497615869" lon="170.098373068854">
        <ele>776</ele>
      </trkpt>
      <trkpt lat="-43.71837974442114" lon="170.09846366584">
        <ele>776</ele>
      </trkpt>
      <trkpt lat="-43.71837592981118" lon="170.098996757582">
        <ele>775</ele>
      </trkpt>
      <trkpt lat="-43.718391188251" lon="170.099294297158">
        <ele>775</ele>
      </trkpt>
      <trkpt lat="-43.71838546633607" lon="170.099718672516">
        <ele>776</ele>
      </trkpt>
      <trkpt lat="-43.71838832729353" lon="170.099816898722">
        <ele>777</ele>
      </trkpt>
      <trkpt lat="-43.71839786381842" lon="170.099908449361">
        <ele>777</ele>
      </trkpt>
      <trkpt lat="-43.71840740034332" lon="170.1">
        <ele>777</ele>
      </trkpt>
      <trkpt lat="-43.71840740034332" lon="170.1">
        <ele>777</ele>
      </trkpt>
      <trkpt lat="-43.71841216860576" lon="170.100258439825">
        <ele>777</ele>
      </trkpt>
      <trkpt lat="-43.71839786381842" lon="170.100367156208">
        <ele>777</ele>
      </trkpt>
      <trkpt lat="-43.71838355903109" lon="170.100475872592">
        <ele>777</ele>
      </trkpt>
      <trkpt lat="-43.7183568567614" lon="170.100592218196">
        <ele>777</ele>
      </trkpt>
      <trkpt lat="-43.71832920083921" lon="170.100669464047">
        <ele>777</ele>
      </trkpt>
      <trkpt lat="-43.71828628647721" lon="170.100742895289">
        <ele>777</ele>
      </trkpt>
      <trkpt lat="-43.71813084112149" lon="170.100987030326">
        <ele>777</ele>
      </trkpt>
      <trkpt lat="-43.71808888041198" lon="170.101059507915">
        <ele>777</ele>
      </trkpt>
      <trkpt lat="-43.71804596604997" lon="170.101131985505">
        <ele>777</ele>
      </trkpt>
      <trkpt lat="-43.71797158115583" lon="170.101233072668">
        <ele>777</ele>
      </trkpt>
      <trkpt lat="-43.71790005721915" lon="170.101316994087">
        <ele>777</ele>
      </trkpt>
      <trkpt lat="-43.71782376502003" lon="170.101395193591">
        <ele>777</ele>
      </trkpt>
      <trkpt lat="-43.71774651916841" lon="170.101473393096">
        <ele>777</ele>
      </trkpt>
      <trkpt lat="-43.7176873927141" lon="170.101520122068">
        <ele>777</ele>
      </trkpt>
      <trkpt lat="-43.717652107572" lon="170.101539195117">
        <ele>777</ele>
      </trkpt>
      <trkpt lat="-43.71755769597559" lon="170.101560175472">
        <ele>777</ele>
      </trkpt>
      <trkpt lat="-43.71751954987602" lon="170.101585924089">
        <ele>777</ele>
      </trkpt>
      <trkpt lat="-43.71747758916651" lon="170.101626931146">
        <ele>777</ele>
      </trkpt>
      <trkpt lat="-43.71743944306694" lon="170.101683196643">
        <ele>777</ele>
      </trkpt>
      <trkpt lat="-43.71741560175472" lon="170.101748998665">
        <ele>777</ele>
      </trkpt>
      <trkpt lat="-43.71738603852756" lon="170.101868205226">
        <ele>777</ele>
      </trkpt>
      <trkpt lat="-43.71736696547778" lon="170.101914934198">
        <ele>777</ele>
      </trkpt>
      <trkpt lat="-43.71734217051306" lon="170.101953080298">
        <ele>777</ele>
      </trkpt>
      <trkpt lat="-43.71728495136372" lon="170.102014114057">
        <ele>777</ele>
      </trkpt>
      <trkpt lat="-43.71722010299447" lon="170.102107572001">
        <ele>776</ele>
      </trkpt>
      <trkpt lat="-43.71715525462522" lon="170.102201029945">
        <ele>776</ele>
      </trkpt>
      <trkpt lat="-43.71711424756819" lon="170.102299256151">
        <ele>776</ele>
      </trkpt>
      <trkpt lat="-43.71707514781614" lon="170.102351707038">
        <ele>776</ele>
      </trkpt>
      <trkpt lat="-43.71700934579439" lon="170.102414648102">
        <ele>775</ele>
      </trkpt>
      <trkpt lat="-43.71698073621972" lon="170.102455655159">
        <ele>775</ele>
      </trkpt>
      <trkpt lat="-43.71696166316994" lon="170.102520503529">
        <ele>775</ele>
      </trkpt>
      <trkpt lat="-43.71694163646767" lon="170.102585351898">
        <ele>774</ele>
      </trkpt>
      <trkpt lat="-43.71691874880793" lon="170.102631127217">
        <ele>774</ele>
      </trkpt>
      <trkpt lat="-43.71687869540339" lon="170.102692160977">
        <ele>773</ele>
      </trkpt>
      <trkpt lat="-43.71685580774366" lon="170.102778943353">
        <ele>773</ele>
      </trkpt>
      <trkpt lat="-43.71684436391379" lon="170.102874308602">
        <ele>772</ele>
      </trkpt>
      <trkpt lat="-43.71684913217624" lon="170.102907686439">
        <ele>771</ele>
      </trkpt>
      <trkpt lat="-43.71686343696357" lon="170.102945832539">
        <ele>771</ele>
      </trkpt>
      <trkpt lat="-43.71690158306313" lon="170.102994468816">
        <ele>771</ele>
      </trkpt>
      <trkpt lat="-43.71691970246042" lon="170.103027846653">
        <ele>770</ele>
      </trkpt>
      <trkpt lat="-43.71692256341789" lon="170.1030650391">
        <ele>770</ele>
      </trkpt>
      <trkpt lat="-43.71691493419798" lon="170.103146099561">
        <ele>769</ele>
      </trkpt>
      <trkpt lat="-43.71689776845318" lon="170.103209040626">
        <ele>769</ele>
      </trkpt>
      <trkpt lat="-43.71688060270837" lon="170.103272935342">
        <ele>768</ele>
      </trkpt>
      <trkpt lat="-43.71687869540339" lon="170.103353042151">
        <ele>767</ele>
      </trkpt>
      <trkpt lat="-43.71686057600611" lon="170.103371161549">
        <ele>767</ele>
      </trkpt>
      <trkpt lat="-43.71682338355903" lon="170.103364485981">
        <ele>767</ele>
      </trkpt>
      <trkpt lat="-43.71679858859432" lon="170.103341598322">
        <ele>767</ele>
      </trkpt>
      <trkpt lat="-43.71674899866489" lon="170.10325672325">
        <ele>768</ele>
      </trkpt>
      <trkpt lat="-43.71669845508297" lon="170.103171848179">
        <ele>769</ele>
      </trkpt>
      <trkpt lat="-43.71663932862865" lon="170.103096509632">
        <ele>769</ele>
      </trkpt>
      <trkpt lat="-43.71656589738699" lon="170.103046919702">
        <ele>768</ele>
      </trkpt>
      <trkpt lat="-43.7165306122449" lon="170.103013541865">
        <ele>768</ele>
      </trkpt>
      <trkpt lat="-43.71649055884036" lon="170.102956322716">
        <ele>768</ele>
      </trkpt>
      <trkpt lat="-43.71642761777608" lon="170.102834255197">
        <ele>768</ele>
      </trkpt>
      <trkpt lat="-43.71636467671181" lon="170.102767499523">
        <ele>768</ele>
      </trkpt>
      <trkpt lat="-43.71629887469006" lon="170.102658783139">
        <ele>768</ele>
      </trkpt>
      <trkpt lat="-43.71628266259775" lon="170.1026435247">
        <ele>767</ele>
      </trkpt>
      <trkpt lat="-43.71626645050544" lon="170.102638756437">
        <ele>767</ele>
      </trkpt>
      <trkpt lat="-43.71624737745566" lon="170.102645432005">
        <ele>767</ele>
      </trkpt>
      <trkpt lat="-43.71616631699409" lon="170.102732214381">
        <ele>765</ele>
      </trkpt>
      <trkpt lat="-43.71608430288003" lon="170.10281995041">
        <ele>763</ele>
      </trkpt>
      <trkpt lat="-43.71554167461377" lon="170.103375929811">
        <ele>760</ele>
      </trkpt>
      <trkpt lat="-43.71550734312417" lon="170.103394049208">
        <ele>761</ele>
      </trkpt>
      <trkpt lat="-43.71546728971963" lon="170.103384512684">
        <ele>761</ele>
      </trkpt>
      <trkpt lat="-43.71540625596033" lon="170.103335876407">
        <ele>762</ele>
      </trkpt>
      <trkpt lat="-43.71537764638565" lon="170.103333969102">
        <ele>762</ele>
      </trkpt>
      <trkpt lat="-43.71532328819378" lon="170.103345412932">
        <ele>763</ele>
      </trkpt>
      <trkpt lat="-43.71525939347702" lon="170.103384512684">
        <ele>763</ele>
      </trkpt>
      <trkpt lat="-43.71517261110051" lon="170.103416936868">
        <ele>764</ele>
      </trkpt>
      <trkpt lat="-43.7151134846462" lon="170.103454129315">
        <ele>765</ele>
      </trkpt>
      <trkpt lat="-43.71509345794393" lon="170.103458897578">
        <ele>765</ele>
      </trkpt>
      <trkpt lat="-43.71484074003433" lon="170.103451268358">
        <ele>767</ele>
      </trkpt>
      <trkpt lat="-43.7147739843601" lon="170.103436009918">
        <ele>768</ele>
      </trkpt>
      <trkpt lat="-43.71472439443067" lon="170.1034484074">
        <ele>768</ele>
      </trkpt>
      <trkpt lat="-43.71463856570666" lon="170.103519931337">
        <ele>768</ele>
      </trkpt>
      <trkpt lat="-43.71457753194736" lon="170.103599084494">
        <ele>769</ele>
      </trkpt>
      <trkpt lat="-43.71451554453557" lon="170.10367823765">
        <ele>769</ele>
      </trkpt>
      <trkpt lat="-43.71449265687583" lon="170.103700171657">
        <ele>769</ele>
      </trkpt>
      <trkpt lat="-43.71446023269121" lon="170.103700171657">
        <ele>769</ele>
      </trkpt>
      <trkpt lat="-43.71444115964142" lon="170.103688727828">
        <ele>769</ele>
      </trkpt>
      <trkpt lat="-43.71441350371924" lon="170.103652489033">
        <ele>770</ele>
      </trkpt>
      <trkpt lat="-43.71435246995995" lon="170.103603852756">
        <ele>770</ele>
      </trkpt>
      <trkpt lat="-43.7143391188251" lon="170.103578104139">
        <ele>770</ele>
      </trkpt>
      <trkpt lat="-43.71434293343506" lon="170.103540911692">
        <ele>770</ele>
      </trkpt>
      <trkpt lat="-43.71433721152012" lon="170.103515163075">
        <ele>770</ele>
      </trkpt>
      <trkpt lat="-43.71427140949838" lon="170.103420751478">
        <ele>771</ele>
      </trkpt>
      <trkpt lat="-43.71421705130651" lon="170.103319664314">
        <ele>771</ele>
      </trkpt>
      <trkpt lat="-43.71415792485219" lon="170.10328342552">
        <ele>771</ele>
      </trkpt>
      <trkpt lat="-43.71412550066756" lon="170.103282471867">
        <ele>771</ele>
      </trkpt>
      <trkpt lat="-43.71408353995804" lon="170.103300591265">
        <ele>771</ele>
      </trkpt>
      <trkpt lat="-43.71404825481594" lon="170.103329200839">
        <ele>772</ele>
      </trkpt>
      <trkpt lat="-43.71402536715621" lon="170.103361625024">
        <ele>772</ele>
      </trkpt>
      <trkpt lat="-43.71401010871639" lon="170.103397863818">
        <ele>772</ele>
      </trkpt>
      <trkpt lat="-43.71395288956704" lon="170.103458897578">
        <ele>772</ele>
      </trkpt>
      <trkpt lat="-43.7138956704177" lon="170.103519931337">
        <ele>773</ele>
      </trkpt>
      <trkpt lat="-43.71388804119779" lon="170.103546633607">
        <ele>773</ele>
      </trkpt>
      <trkpt lat="-43.71381651726111" lon="170.103604806409">
        <ele>773</ele>
      </trkpt>
      <trkpt lat="-43.71373736410452" lon="170.103658210948">
        <ele>774</ele>
      </trkpt>
      <trkpt lat="-43.71370112530994" lon="170.103663932863">
        <ele>774</ele>
      </trkpt>
      <trkpt lat="-43.71337116154874" lon="170.103629601373">
        <ele>776</ele>
      </trkpt>
      <trkpt lat="-43.71334541293153" lon="170.103634369636">
        <ele>777</ele>
      </trkpt>
      <trkpt lat="-43.71332061796682" lon="170.103654396338">
        <ele>777</ele>
      </trkpt>
      <trkpt lat="-43.71329773030708" lon="170.103654396338">
        <ele>777</ele>
      </trkpt>
      <trkpt lat="-43.71309746328438" lon="170.103353995804">
        <ele>777</ele>
      </trkpt>
      <trkpt lat="-43.71283330154492" lon="170.103100324242">
        <ele>778</ele>
      </trkpt>
      <trkpt lat="-43.71276654587069" lon="170.102997329773">
        <ele>778</ele>
      </trkpt>
      <trkpt lat="-43.71270551211138" lon="170.102958230021">
        <ele>779</ele>
      </trkpt>
      <trkpt lat="-43.71266736601183" lon="170.102921037574">
        <ele>779</ele>
      </trkpt>
      <trkpt lat="-43.71262254434484" lon="170.102890520694">
        <ele>779</ele>
      </trkpt>
      <trkpt lat="-43.71257772267786" lon="170.102880030517">
        <ele>780</ele>
      </trkpt>
      <trkpt lat="-43.71249284760633" lon="170.102900057219">
        <ele>781</ele>
      </trkpt>
      <trkpt lat="-43.71242418462712" lon="170.102895288957">
        <ele>781</ele>
      </trkpt>
      <trkpt lat="-43.71235552164791" lon="170.102891474347">
        <ele>782</ele>
      </trkpt>
      <trkpt lat="-43.71230879267595" lon="170.102908640092">
        <ele>782</ele>
      </trkpt>
      <trkpt lat="-43.71227636849132" lon="170.102930574099">
        <ele>782</ele>
      </trkpt>
      <trkpt lat="-43.71223345412932" lon="170.102940110624">
        <ele>783</ele>
      </trkpt>
      <trkpt lat="-43.71218863246233" lon="170.102929620446">
        <ele>783</ele>
      </trkpt>
      <trkpt lat="-43.71208945260347" lon="170.102877169559">
        <ele>783</ele>
      </trkpt>
      <trkpt lat="-43.71202746519168" lon="170.102859050162">
        <ele>784</ele>
      </trkpt>
      <trkpt lat="-43.7119740606523" lon="170.102860003815">
        <ele>784</ele>
      </trkpt>
      <trkpt lat="-43.71194068281518" lon="170.102852374595">
        <ele>784</ele>
      </trkpt>
      <trkpt lat="-43.71190921228305" lon="170.102836162502">
        <ele>784</ele>
      </trkpt>
      <trkpt lat="-43.71185580774366" lon="170.10279324814">
        <ele>785</ele>
      </trkpt>
      <trkpt lat="-43.71173850848751" lon="170.102710280374">
        <ele>785</ele>
      </trkpt>
      <trkpt lat="-43.71162120923136" lon="170.10262826626">
        <ele>785</ele>
      </trkpt>
      <trkpt lat="-43.71154682433721" lon="170.102562464238">
        <ele>785</ele>
      </trkpt>
      <trkpt lat="-43.7115134465001" lon="170.102521457181">
        <ele>785</ele>
      </trkpt>
      <trkpt lat="-43.71147625405303" lon="170.102496662216">
        <ele>786</ele>
      </trkpt>
      <trkpt lat="-43.7114180812512" lon="170.102490940301">
        <ele>786</ele>
      </trkpt>
      <trkpt lat="-43.71135514018692" lon="170.102448025939">
        <ele>786</ele>
      </trkpt>
      <trkpt lat="-43.7113131794774" lon="170.102447072287">
        <ele>787</ele>
      </trkpt>
      <trkpt lat="-43.71125691398055" lon="170.10240606523">
        <ele>787</ele>
      </trkpt>
      <trkpt lat="-43.71121590692352" lon="170.102337402251">
        <ele>787</ele>
      </trkpt>
      <trkpt lat="-43.711173946214" lon="170.102268739271">
        <ele>788</ele>
      </trkpt>
      <trkpt lat="-43.71112721724204" lon="170.102237268739">
        <ele>788</ele>
      </trkpt>
      <trkpt lat="-43.71108907114247" lon="170.102239176044">
        <ele>789</ele>
      </trkpt>
      <trkpt lat="-43.71097844745375" lon="170.102287812321">
        <ele>790</ele>
      </trkpt>
      <trkpt lat="-43.71093171848179" lon="170.102262063704">
        <ele>790</ele>
      </trkpt>
      <trkpt lat="-43.71087736028991" lon="170.102256341789">
        <ele>791</ele>
      </trkpt>
      <trkpt lat="-43.71082395575053" lon="170.102283044059">
        <ele>791</ele>
      </trkpt>
      <trkpt lat="-43.71078676330345" lon="170.102289719626">
        <ele>792</ele>
      </trkpt>
      <trkpt lat="-43.7107133320618" lon="170.102268739271">
        <ele>793</ele>
      </trkpt>
      <trkpt lat="-43.71063894716765" lon="170.102247758917">
        <ele>794</ele>
      </trkpt>
      <trkpt lat="-43.71059317184818" lon="170.102253480832">
        <ele>795</ele>
      </trkpt>
      <trkpt lat="-43.71054453557124" lon="170.102248712569">
        <ele>795</ele>
      </trkpt>
      <trkpt lat="-43.71047968720198" lon="170.102209612817">
        <ele>796</ele>
      </trkpt>
      <trkpt lat="-43.71045107762731" lon="170.102204844555">
        <ele>797</ele>
      </trkpt>
      <trkpt lat="-43.71040625596033" lon="170.102221056647">
        <ele>797</ele>
      </trkpt>
      <trkpt lat="-43.71035857333587" lon="170.102259202747">
        <ele>798</ele>
      </trkpt>
      <trkpt lat="-43.71032138088881" lon="170.102268739271">
        <ele>798</ele>
      </trkpt>
      <trkpt lat="-43.71029467861911" lon="170.102253480832">
        <ele>799</ele>
      </trkpt>
      <trkpt lat="-43.7102870493992" lon="170.10220293725">
        <ele>799</ele>
      </trkpt>
      <trkpt lat="-43.71028991035666" lon="170.102128552356">
        <ele>799</ele>
      </trkpt>
      <trkpt lat="-43.71027942017929" lon="170.102081823384">
        <ele>799</ele>
      </trkpt>
      <trkpt lat="-43.71025653251955" lon="170.102035094412">
        <ele>800</ele>
      </trkpt>
      <trkpt lat="-43.71019073049781" lon="170.101991226397">
        <ele>801</ele>
      </trkpt>
      <trkpt lat="-43.71014495517834" lon="170.101944497425">
        <ele>801</ele>
      </trkpt>
      <trkpt lat="-43.71005626549685" lon="170.101874880793">
        <ele>803</ele>
      </trkpt>
      <trkpt lat="-43.71002670226969" lon="170.101833873736">
        <ele>803</ele>
      </trkpt>
      <trkpt lat="-43.70998474156018" lon="170.101714667175">
        <ele>804</ele>
      </trkpt>
      <trkpt lat="-43.70994182719817" lon="170.101596414267">
        <ele>805</ele>
      </trkpt>
      <trkpt lat="-43.70991798588594" lon="170.101561129125">
        <ele>805</ele>
      </trkpt>
      <trkpt lat="-43.70988079343887" lon="170.101533473202">
        <ele>805</ele>
      </trkpt>
      <trkpt lat="-43.70984932290673" lon="170.101523936677">
        <ele>805</ele>
      </trkpt>
      <trkpt lat="-43.70982738889948" lon="170.101506770933">
        <ele>805</ele>
      </trkpt>
      <trkpt lat="-43.70979877932481" lon="170.101443829868">
        <ele>805</ele>
      </trkpt>
      <trkpt lat="-43.70976826244517" lon="170.101413312989">
        <ele>805</ele>
      </trkpt>
      <trkpt lat="-43.70973679191303" lon="170.101387564372">
        <ele>805</ele>
      </trkpt>
      <trkpt lat="-43.70967289719626" lon="170.101388518024">
        <ele>806</ele>
      </trkpt>
      <trkpt lat="-43.70961567804692" lon="170.101425710471">
        <ele>807</ele>
      </trkpt>
      <trkpt lat="-43.70959660499714" lon="170.101460995613">
        <ele>808</ele>
      </trkpt>
      <trkpt lat="-43.70957467098989" lon="170.101471485791">
        <ele>808</ele>
      </trkpt>
      <trkpt lat="-43.70955845889758" lon="170.101465763876">
        <ele>808</ele>
      </trkpt>
      <trkpt lat="-43.70954606141522" lon="170.101455273698">
        <ele>808</ele>
      </trkpt>
      <trkpt lat="-43.709522220103" lon="170.101386610719">
        <ele>808</ele>
      </trkpt>
      <trkpt lat="-43.7095126835781" lon="170.101319855045">
        <ele>808</ele>
      </trkpt>
      <trkpt lat="-43.70949742513828" lon="170.101278847988">
        <ele>807</ele>
      </trkpt>
      <trkpt lat="-43.70944878886134" lon="170.101210185009">
        <ele>808</ele>
      </trkpt>
      <trkpt lat="-43.7094001525844" lon="170.101141522029">
        <ele>808</ele>
      </trkpt>
      <trkpt lat="-43.70937058935724" lon="170.10112244898">
        <ele>808</ele>
      </trkpt>
      <trkpt lat="-43.70934102613008" lon="170.101121495327">
        <ele>808</ele>
      </trkpt>
      <trkpt lat="-43.70931813847034" lon="170.101141522029">
        <ele>809</ele>
      </trkpt>
      <trkpt lat="-43.70929620446309" lon="170.101147243944">
        <ele>809</ele>
      </trkpt>
      <trkpt lat="-43.70925996566851" lon="170.101140568377">
        <ele>809</ele>
      </trkpt>
      <trkpt lat="-43.70920179286668" lon="170.101066183483">
        <ele>809</ele>
      </trkpt>
      <trkpt lat="-43.70917890520694" lon="170.101063322525">
        <ele>810</ele>
      </trkpt>
      <trkpt lat="-43.70912645432005" lon="170.101092885752">
        <ele>810</ele>
      </trkpt>
      <trkpt lat="-43.70910356666031" lon="170.101096700362">
        <ele>810</ele>
      </trkpt>
      <trkpt lat="-43.70908163265306" lon="170.101079534618">
        <ele>810</ele>
      </trkpt>
      <trkpt lat="-43.70905493038337" lon="170.100965096319">
        <ele>810</ele>
      </trkpt>
      <trkpt lat="-43.70903013541865" lon="170.100923135609">
        <ele>810</ele>
      </trkpt>
      <trkpt lat="-43.70881556360862" lon="170.10064371543">
        <ele>809</ele>
      </trkpt>
      <trkpt lat="-43.70880316612627" lon="170.100604615678">
        <ele>809</ele>
      </trkpt>
      <trkpt lat="-43.70880221247378" lon="170.100558840359">
        <ele>809</ele>
      </trkpt>
      <trkpt lat="-43.70883177570094" lon="170.10045584589">
        <ele>808</ele>
      </trkpt>
      <trkpt lat="-43.70883082204845" lon="170.100427236315">
        <ele>808</ele>
      </trkpt>
      <trkpt lat="-43.70882128552356" lon="170.100403395003">
        <ele>808</ele>
      </trkpt>
      <trkpt lat="-43.7088003051688" lon="170.100378600038">
        <ele>808</ele>
      </trkpt>
      <trkpt lat="-43.70854854091169" lon="170.100266069044">
        <ele>809</ele>
      </trkpt>
      <trkpt lat="-43.70844936105284" lon="170.100161167271">
        <ele>809</ele>
      </trkpt>
      <trkpt lat="-43.70840167842838" lon="170.100076292199">
        <ele>808</ele>
      </trkpt>
      <trkpt lat="-43.70838069807363" lon="170.100068662979">
        <ele>808</ele>
      </trkpt>
      <trkpt lat="-43.70831966431432" lon="170.100083921419">
        <ele>809</ele>
      </trkpt>
      <trkpt lat="-43.70826339881747" lon="170.100077245852">
        <ele>809</ele>
      </trkpt>
      <trkpt lat="-43.70818329200839" lon="170.100027655922">
        <ele>809</ele>
      </trkpt>
      <trkpt lat="-43.70813656303643" lon="170.100021934007">
        <ele>810</ele>
      </trkpt>
      <trkpt lat="-43.70809937058936" lon="170.10002670227">
        <ele>810</ele>
      </trkpt>
      <trkpt lat="-43.70804119778753" lon="170.100059126454">
        <ele>811</ele>
      </trkpt>
      <trkpt lat="-43.70801354186535" lon="170.100061033759">
        <ele>811</ele>
      </trkpt>
      <trkpt lat="-43.70797158115582" lon="170.10004196071">
        <ele>811</ele>
      </trkpt>
      <trkpt lat="-43.70794011062369" lon="170.10001907305">
        <ele>811</ele>
      </trkpt>
      <trkpt lat="-43.70792866679382" lon="170.1">
        <ele>811</ele>
      </trkpt>
      <trkpt lat="-43.70792866679382" lon="170.1">
        <ele>811</ele>
      </trkpt>
      <trkpt lat="-43.70789719626168" lon="170.099926568758">
        <ele>810</ele>
      </trkpt>
      <trkpt lat="-43.70782853328247" lon="170.099858859432">
        <ele>810</ele>
      </trkpt>
      <trkpt lat="-43.7077388899485" lon="170.099833110814">
        <ele>811</ele>
      </trkpt>
      <trkpt lat="-43.70764924661454" lon="170.09980831585">
        <ele>811</ele>
      </trkpt>
      <trkpt lat="-43.70755197406066" lon="170.09981594507">
        <ele>812</ele>
      </trkpt>
      <trkpt lat="-43.70745374785428" lon="170.099824527942">
        <ele>812</ele>
      </trkpt>
      <trkpt lat="-43.70735552164791" lon="170.099854091169">
        <ele>812</ele>
      </trkpt>
      <trkpt lat="-43.70725634178905" lon="170.099883654396">
        <ele>812</ele>
      </trkpt>
      <trkpt lat="-43.70715334732024" lon="170.099985695213">
        <ele>814</ele>
      </trkpt>
      <trkpt lat="-43.70706179668129" lon="170.099976158688">
        <ele>813</ele>
      </trkpt>
      <trkpt lat="-43.70696929238986" lon="170.099966622163">
        <ele>813</ele>
      </trkpt>
      <trkpt lat="-43.70686534426855" lon="170.1">
        <ele>814</ele>
      </trkpt>
      <trkpt lat="-43.70686534426855" lon="170.1">
        <ele>814</ele>
      </trkpt>
      <trkpt lat="-43.70678714476445" lon="170.100025748617">
        <ele>814</ele>
      </trkpt>
      <trkpt lat="-43.70669177951554" lon="170.100277512874">
        <ele>814</ele>
      </trkpt>
      <trkpt lat="-43.70648292962045" lon="170.100435819188">
        <ele>814</ele>
      </trkpt>
      <trkpt lat="-43.70639900820142" lon="170.100392904825">
        <ele>813</ele>
      </trkpt>
      <trkpt lat="-43.70622353614343" lon="170.100336639329">
        <ele>812</ele>
      </trkpt>
      <trkpt lat="-43.70595746709899" lon="170.10047873355">
        <ele>814</ele>
      </trkpt>
      <trkpt lat="-43.70593362578676" lon="170.100476826245">
        <ele>813</ele>
      </trkpt>
      <trkpt lat="-43.70589261872973" lon="170.100450123975">
        <ele>813</ele>
      </trkpt>
      <trkpt lat="-43.70554262826626" lon="170.1">
        <ele>801</ele>
      </trkpt>
      <trkpt lat="-43.70554262826626" lon="170.1">
        <ele>801</ele>
      </trkpt>
      <trkpt lat="-43.70489891283616" lon="170.099171275987">
        <ele>811</ele>
      </trkpt>
      <trkpt lat="-43.70482452794202" lon="170.099070188823">
        <ele>812</ele>
      </trkpt>
      <trkpt lat="-43.70477875262254" lon="170.098975777227">
        <ele>813</ele>
      </trkpt>
      <trkpt lat="-43.70474918939539" lon="170.098940492085">
        <ele>813</ele>
      </trkpt>
      <trkpt lat="-43.70465096318902" lon="170.098895670418">
        <ele>814</ele>
      </trkpt>
      <trkpt lat="-43.7046347510967" lon="170.098898531375">
        <ele>814</ele>
      </trkpt>
      <trkpt lat="-43.70457943925233" lon="170.098930001907">
        <ele>813</ele>
      </trkpt>
      <trkpt lat="-43.70453652489033" lon="170.098944306695">
        <ele>813</ele>
      </trkpt>
      <trkpt lat="-43.70450982262064" lon="170.098975777227">
        <ele>813</ele>
      </trkpt>
      <trkpt lat="-43.70449074957086" lon="170.099020598894">
        <ele>812</ele>
      </trkpt>
      <trkpt lat="-43.70446500095365" lon="170.099056837688">
        <ele>812</ele>
      </trkpt>
      <trkpt lat="-43.70442494754911" lon="170.099087354568">
        <ele>811</ele>
      </trkpt>
      <trkpt lat="-43.70439252336449" lon="170.099090215526">
        <ele>811</ele>
      </trkpt>
      <trkpt lat="-43.70428285332824" lon="170.099021552546">
        <ele>812</ele>
      </trkpt>
      <trkpt lat="-43.70417318329201" lon="170.09895384322">
        <ele>813</ele>
      </trkpt>
      <trkpt lat="-43.70414362006485" lon="170.098948121305">
        <ele>813</ele>
      </trkpt>
      <trkpt lat="-43.70408640091551" lon="170.098967194354">
        <ele>813</ele>
      </trkpt>
      <trkpt lat="-43.70405779134084" lon="170.098965287049">
        <ele>813</ele>
      </trkpt>
      <trkpt lat="-43.70403108907114" lon="170.098950982262">
        <ele>813</ele>
      </trkpt>
      <trkpt lat="-43.70400343314896" lon="170.098912836163">
        <ele>814</ele>
      </trkpt>
      <trkpt lat="-43.70396719435438" lon="170.098818424566">
        <ele>816</ele>
      </trkpt>
      <trkpt lat="-43.7039309555598" lon="170.098724966622">
        <ele>817</ele>
      </trkpt>
      <trkpt lat="-43.70389471676521" lon="170.09867823765">
        <ele>818</ele>
      </trkpt>
      <trkpt lat="-43.70387182910547" lon="170.09866297921">
        <ele>818</ele>
      </trkpt>
      <trkpt lat="-43.70384894144573" lon="170.098626740416">
        <ele>818</ele>
      </trkpt>
      <trkpt lat="-43.70380698073622" lon="170.098591455274">
        <ele>818</ele>
      </trkpt>
      <trkpt lat="-43.70378218577151" lon="170.098577150486">
        <ele>818</ele>
      </trkpt>
      <trkpt lat="-43.70375071523937" lon="170.098573335876">
        <ele>818</ele>
      </trkpt>
      <trkpt lat="-43.70369444974251" lon="170.098580965096">
        <ele>818</ele>
      </trkpt>
      <trkpt lat="-43.70367442304025" lon="170.098572382224">
        <ele>818</ele>
      </trkpt>
      <trkpt lat="-43.70363723059317" lon="170.098514209422">
        <ele>818</ele>
      </trkpt>
      <trkpt lat="-43.70357047491894" lon="170.0984484074">
        <ele>818</ele>
      </trkpt>
      <trkpt lat="-43.70352946786191" lon="170.098391188251">
        <ele>818</ele>
      </trkpt>
      <trkpt lat="-43.70346557314515" lon="170.098374022506">
        <ele>818</ele>
      </trkpt>
      <trkpt lat="-43.7034350562655" lon="170.098354949456">
        <ele>818</ele>
      </trkpt>
      <trkpt lat="-43.70337020789624" lon="170.098267213427">
        <ele>819</ele>
      </trkpt>
      <trkpt lat="-43.7033044058745" lon="170.098180431051">
        <ele>821</ele>
      </trkpt>
      <trkpt lat="-43.7032700743849" lon="170.098166126264">
        <ele>821</ele>
      </trkpt>
      <trkpt lat="-43.70317184817853" lon="170.098095555979">
        <ele>823</ele>
      </trkpt>
      <trkpt lat="-43.70308792675949" lon="170.098046919702">
        <ele>825</ele>
      </trkpt>
      <trkpt lat="-43.70302498569522" lon="170.09801926378">
        <ele>825</ele>
      </trkpt>
      <trkpt lat="-43.70292389853137" lon="170.098008773603">
        <ele>825</ele>
      </trkpt>
      <trkpt lat="-43.70288384512683" lon="170.098012588213">
        <ele>825</ele>
      </trkpt>
      <trkpt lat="-43.70286000381461" lon="170.09801926378">
        <ele>825</ele>
      </trkpt>
      <trkpt lat="-43.70279801640282" lon="170.098052641617">
        <ele>825</ele>
      </trkpt>
      <trkpt lat="-43.70275510204082" lon="170.098064085447">
        <ele>825</ele>
      </trkpt>
      <trkpt lat="-43.70269883654397" lon="170.098070761015">
        <ele>825</ele>
      </trkpt>
      <trkpt lat="-43.70264447835209" lon="170.0980650391">
        <ele>825</ele>
      </trkpt>
      <trkpt lat="-43.70252908640092" lon="170.098020217433">
        <ele>825</ele>
      </trkpt>
      <trkpt lat="-43.70242132366965" lon="170.097999237078">
        <ele>826</ele>
      </trkpt>
      <trkpt lat="-43.70236028991036" lon="170.097979210376">
        <ele>826</ele>
      </trkpt>
      <trkpt lat="-43.7022611100515" lon="170.097922944879">
        <ele>827</ele>
      </trkpt>
      <trkpt lat="-43.70222963951936" lon="170.097916269311">
        <ele>827</ele>
      </trkpt>
      <trkpt lat="-43.70216574480259" lon="170.097922944879">
        <ele>827</ele>
      </trkpt>
      <trkpt lat="-43.70208563799351" lon="170.097946786191">
        <ele>827</ele>
      </trkpt>
      <trkpt lat="-43.70201792866679" lon="170.097980164028">
        <ele>828</ele>
      </trkpt>
      <trkpt lat="-43.70194926568758" lon="170.098014495518">
        <ele>828</ele>
      </trkpt>
      <trkpt lat="-43.70188632462331" lon="170.098039290483">
        <ele>828</ele>
      </trkpt>
      <trkpt lat="-43.70182242990654" lon="170.098064085447">
        <ele>828</ele>
      </trkpt>
      <trkpt lat="-43.70178714476445" lon="170.098070761015">
        <ele>828</ele>
      </trkpt>
      <trkpt lat="-43.70172420370017" lon="170.098073621972">
        <ele>828</ele>
      </trkpt>
      <trkpt lat="-43.70166126263589" lon="170.098077436582">
        <ele>829</ele>
      </trkpt>
      <trkpt lat="-43.70161834827389" lon="170.098086973107">
        <ele>829</ele>
      </trkpt>
      <trkpt lat="-43.70156303642953" lon="170.098119397292">
        <ele>829</ele>
      </trkpt>
      <trkpt lat="-43.70147053213809" lon="170.098192828533">
        <ele>829</ele>
      </trkpt>
      <trkpt lat="-43.70137707419416" lon="170.098266259775">
        <ele>829</ele>
      </trkpt>
      <trkpt lat="-43.70129219912264" lon="170.098303452222">
        <ele>830</ele>
      </trkpt>
      <trkpt lat="-43.70120732405112" lon="170.098340644669">
        <ele>830</ele>
      </trkpt>
      <trkpt lat="-43.70110623688728" lon="170.098391188251">
        <ele>830</ele>
      </trkpt>
      <trkpt lat="-43.70100419607095" lon="170.098441731833">
        <ele>831</ele>
      </trkpt>
      <trkpt lat="-43.70091264543201" lon="170.098477970628">
        <ele>831</ele>
      </trkpt>
      <trkpt lat="-43.70085447263018" lon="170.09849799733">
        <ele>832</ele>
      </trkpt>
      <trkpt lat="-43.70079534617585" lon="170.09850944116">
        <ele>832</ele>
      </trkpt>
      <trkpt lat="-43.7007562464238" lon="170.098515163075">
        <ele>832</ele>
      </trkpt>
      <trkpt lat="-43.70072668319664" lon="170.09851325577">
        <ele>832</ele>
      </trkpt>
      <trkpt lat="-43.70070761014686" lon="170.098521838642">
        <ele>832</ele>
      </trkpt>
      <trkpt lat="-43.70066755674232" lon="170.098560938394">
        <ele>832</ele>
      </trkpt>
      <trkpt lat="-43.7006522983025" lon="170.098559984742">
        <ele>832</ele>
      </trkpt>
      <trkpt lat="-43.70062178142285" lon="170.098539004387">
        <ele>831</ele>
      </trkpt>
      <trkpt lat="-43.70060175472058" lon="170.098516116727">
        <ele>832</ele>
      </trkpt>
      <trkpt lat="-43.70056074766355" lon="170.098504672897">
        <ele>831</ele>
      </trkpt>
      <trkpt lat="-43.70049685294678" lon="170.098438870875">
        <ele>832</ele>
      </trkpt>
      <trkpt lat="-43.70047205798208" lon="170.098429334351">
        <ele>832</ele>
      </trkpt>
      <trkpt lat="-43.70044821666985" lon="170.098427427046">
        <ele>832</ele>
      </trkpt>
      <trkpt lat="-43.70042056074767" lon="170.09844077818">
        <ele>831</ele>
      </trkpt>
      <trkpt lat="-43.700391951173" lon="170.098472248713">
        <ele>831</ele>
      </trkpt>
      <trkpt lat="-43.70036334159833" lon="170.098484646195">
        <ele>831</ele>
      </trkpt>
      <trkpt lat="-43.7003395002861" lon="170.098484646195">
        <ele>831</ele>
      </trkpt>
      <trkpt lat="-43.70031470532138" lon="170.098460804883">
        <ele>831</ele>
      </trkpt>
      <trkpt lat="-43.7002698836544" lon="170.098389280946">
        <ele>832</ele>
      </trkpt>
      <trkpt lat="-43.70025557886706" lon="170.098344459279">
        <ele>832</ele>
      </trkpt>
      <trkpt lat="-43.70023173755484" lon="170.098299637612">
        <ele>832</ele>
      </trkpt>
      <trkpt lat="-43.70018882319283" lon="170.09827961091">
        <ele>832</ele>
      </trkpt>
      <trkpt lat="-43.70009441159642" lon="170.09825672325">
        <ele>832</ele>
      </trkpt>
      <trkpt lat="-43.7" lon="170.098234789243">
        <ele>832</ele>
      </trkpt>
      <trkpt lat="-43.69999999999999" lon="170.098234789243">
        <ele>832</ele>
      </trkpt>
      <trkpt lat="-43.69993515163074" lon="170.098203318711">
        <ele>833</ele>
      </trkpt>
      <trkpt lat="-43.69991417127599" lon="170.098173755484">
        <ele>833</ele>
      </trkpt>
      <trkpt lat="-43.69989795918367" lon="170.098132748427">
        <ele>833</ele>
      </trkpt>
      <trkpt lat="-43.69987411787145" lon="170.09802307839">
        <ele>834</ele>
      </trkpt>
      <trkpt lat="-43.69985695212664" lon="170.097995422468">
        <ele>835</ele>
      </trkpt>
      <trkpt lat="-43.69981213045966" lon="170.097966812893">
        <ele>835</ele>
      </trkpt>
      <trkpt lat="-43.69977970627503" lon="170.097957276369">
        <ele>835</ele>
      </trkpt>
      <trkpt lat="-43.69967385084875" lon="170.097857142857">
        <ele>836</ele>
      </trkpt>
      <trkpt lat="-43.69966145336639" lon="170.09783139424">
        <ele>836</ele>
      </trkpt>
      <trkpt lat="-43.69965954606141" lon="170.097805645623">
        <ele>836</ele>
      </trkpt>
      <trkpt lat="-43.69967098989128" lon="170.097772267786">
        <ele>837</ele>
      </trkpt>
      <trkpt lat="-43.69967480450124" lon="170.097726492466">
        <ele>837</ele>
      </trkpt>
      <trkpt lat="-43.69967003623879" lon="170.097633988175">
        <ele>838</ele>
      </trkpt>
      <trkpt lat="-43.69965000953652" lon="170.09760156399">
        <ele>838</ele>
      </trkpt>
      <trkpt lat="-43.69960423421705" lon="170.097558649628">
        <ele>838</ele>
      </trkpt>
      <trkpt lat="-43.69956608811749" lon="170.097472820904">
        <ele>839</ele>
      </trkpt>
      <trkpt lat="-43.69954606141522" lon="170.097448979592">
        <ele>840</ele>
      </trkpt>
      <trkpt lat="-43.69952984932291" lon="170.097442304024">
        <ele>840</ele>
      </trkpt>
      <trkpt lat="-43.69944688155636" lon="170.097498569521">
        <ele>839</ele>
      </trkpt>
      <trkpt lat="-43.69941922563417" lon="170.097499523174">
        <ele>839</ele>
      </trkpt>
      <trkpt lat="-43.69937917222964" lon="170.097488079344">
        <ele>839</ele>
      </trkpt>
      <trkpt lat="-43.6993133702079" lon="170.097418462712">
        <ele>840</ele>
      </trkpt>
      <trkpt lat="-43.69924756818615" lon="170.097349799733">
        <ele>841</ele>
      </trkpt>
      <trkpt lat="-43.69919893190921" lon="170.097283997711">
        <ele>842</ele>
      </trkpt>
      <trkpt lat="-43.69917985885943" lon="170.097222010299">
        <ele>842</ele>
      </trkpt>
      <trkpt lat="-43.69914266641236" lon="170.097167652108">
        <ele>843</ele>
      </trkpt>
      <trkpt lat="-43.69910833492276" lon="170.097130459661">
        <ele>843</ele>
      </trkpt>
      <trkpt lat="-43.6990778180431" lon="170.097045584589">
        <ele>844</ele>
      </trkpt>
      <trkpt lat="-43.69904253290101" lon="170.097000762922">
        <ele>844</ele>
      </trkpt>
      <trkpt lat="-43.69899961853901" lon="170.096916841503">
        <ele>845</ele>
      </trkpt>
      <trkpt lat="-43.69895670417699" lon="170.096832920084">
        <ele>846</ele>
      </trkpt>
      <trkpt lat="-43.69893190921228" lon="170.096796681289">
        <ele>846</ele>
      </trkpt>
      <trkpt lat="-43.69890234598512" lon="170.096768071715">
        <ele>846</ele>
      </trkpt>
      <trkpt lat="-43.6988079343887" lon="170.096715620828">
        <ele>846</ele>
      </trkpt>
      <trkpt lat="-43.69869635704749" lon="170.096678428381">
        <ele>846</ele>
      </trkpt>
      <trkpt lat="-43.69857715048636" lon="170.096615487316">
        <ele>847</ele>
      </trkpt>
      <trkpt lat="-43.69850467289719" lon="170.096597367919">
        <ele>847</ele>
      </trkpt>
      <trkpt lat="-43.69841121495327" lon="170.0965134465">
        <ele>848</ele>
      </trkpt>
      <trkpt lat="-43.6983473202365" lon="170.096471485791">
        <ele>848</ele>
      </trkpt>
      <trkpt lat="-43.69831489605188" lon="170.096474346748">
        <ele>848</ele>
      </trkpt>
      <trkpt lat="-43.69828628647721" lon="170.096485790578">
        <ele>847</ele>
      </trkpt>
      <trkpt lat="-43.69827007438489" lon="170.09650200267">
        <ele>847</ele>
      </trkpt>
      <trkpt lat="-43.69823097463284" lon="170.096586877742">
        <ele>846</ele>
      </trkpt>
      <trkpt lat="-43.6981909212283" lon="170.096672706466">
        <ele>846</ele>
      </trkpt>
      <trkpt lat="-43.69817280183101" lon="170.096727064658">
        <ele>845</ele>
      </trkpt>
      <trkpt lat="-43.69815849704368" lon="170.096741369445">
        <ele>845</ele>
      </trkpt>
      <trkpt lat="-43.69813847034141" lon="170.096748045012">
        <ele>845</ele>
      </trkpt>
      <trkpt lat="-43.69811748998664" lon="170.096748045012">
        <ele>845</ele>
      </trkpt>
      <trkpt lat="-43.69803166126263" lon="170.096710852565">
        <ele>845</ele>
      </trkpt>
      <trkpt lat="-43.69793438870875" lon="170.096691779516">
        <ele>845</ele>
      </trkpt>
      <trkpt lat="-43.69790291817662" lon="170.096678428381">
        <ele>845</ele>
      </trkpt>
      <trkpt lat="-43.69783425519741" lon="170.096622162884">
        <ele>845</ele>
      </trkpt>
      <trkpt lat="-43.69772458516117" lon="170.096582109479">
        <ele>845</ele>
      </trkpt>
      <trkpt lat="-43.69768834636658" lon="170.09656303643">
        <ele>845</ele>
      </trkpt>
      <trkpt lat="-43.69761396147243" lon="170.09655540721">
        <ele>845</ele>
      </trkpt>
      <trkpt lat="-43.6975653251955" lon="170.096543009727">
        <ele>845</ele>
      </trkpt>
      <trkpt lat="-43.697521457181" lon="170.096515353805">
        <ele>845</ele>
      </trkpt>
      <trkpt lat="-43.69745470150677" lon="170.096501049018">
        <ele>845</ele>
      </trkpt>
      <trkpt lat="-43.69738699218005" lon="170.09648674423">
        <ele>846</ele>
      </trkpt>
      <trkpt lat="-43.69735361434293" lon="170.096487697883">
        <ele>846</ele>
      </trkpt>
      <trkpt lat="-43.69728209040625" lon="170.096522983025">
        <ele>845</ele>
      </trkpt>
      <trkpt lat="-43.69719340072477" lon="170.09653251955">
        <ele>845</ele>
      </trkpt>
      <trkpt lat="-43.69710375739081" lon="170.096543009727">
        <ele>845</ele>
      </trkpt>
      <trkpt lat="-43.69701983597177" lon="170.09654014877">
        <ele>846</ele>
      </trkpt>
      <trkpt lat="-43.69693496090024" lon="170.096537287812">
        <ele>846</ele>
      </trkpt>
      <trkpt lat="-43.69687011253099" lon="170.096519168415">
        <ele>846</ele>
      </trkpt>
      <trkpt lat="-43.69681956894907" lon="170.096512492848">
        <ele>846</ele>
      </trkpt>
      <trkpt lat="-43.69677188632462" lon="170.096515353805">
        <ele>846</ele>
      </trkpt>
      <trkpt lat="-43.69668033568568" lon="170.096545870685">
        <ele>846</ele>
      </trkpt>
      <trkpt lat="-43.69658783139424" lon="170.096577341217">
        <ele>846</ele>
      </trkpt>
      <trkpt lat="-43.69654205607476" lon="170.096585924089">
        <ele>846</ele>
      </trkpt>
      <trkpt lat="-43.69645336639329" lon="170.096588785047">
        <ele>847</ele>
      </trkpt>
      <trkpt lat="-43.69637135227923" lon="170.096622162884">
        <ele>847</ele>
      </trkpt>
      <trkpt lat="-43.69628933816517" lon="170.096655540721">
        <ele>847</ele>
      </trkpt>
      <trkpt lat="-43.69619015830631" lon="170.096663169941">
        <ele>847</ele>
      </trkpt>
      <trkpt lat="-43.69609097844745" lon="170.096658401678">
        <ele>848</ele>
      </trkpt>
      <trkpt lat="-43.69602136181575" lon="170.096644096891">
        <ele>848</ele>
      </trkpt>
      <trkpt lat="-43.69597177188632" lon="170.096611672707">
        <ele>848</ele>
      </trkpt>
      <trkpt lat="-43.69589261872973" lon="170.096575433912">
        <ele>849</ele>
      </trkpt>
      <trkpt lat="-43.69579057791341" lon="170.096544917032">
        <ele>849</ele>
      </trkpt>
      <trkpt lat="-43.69568853709708" lon="170.096514400153">
        <ele>850</ele>
      </trkpt>
      <trkpt lat="-43.69559698645813" lon="170.096503909975">
        <ele>851</ele>
      </trkpt>
      <trkpt lat="-43.6955044821667" lon="170.096493419798">
        <ele>851</ele>
      </trkpt>
      <trkpt lat="-43.69546728971962" lon="170.096495327103">
        <ele>852</ele>
      </trkpt>
      <trkpt lat="-43.69538527560557" lon="170.096535380507">
        <ele>852</ele>
      </trkpt>
      <trkpt lat="-43.69530230783902" lon="170.096575433912">
        <ele>852</ele>
      </trkpt>
      <trkpt lat="-43.69494182719816" lon="170.096802403204">
        <ele>854</ele>
      </trkpt>
      <trkpt lat="-43.69487697882892" lon="170.096853900439">
        <ele>855</ele>
      </trkpt>
      <trkpt lat="-43.69481117680717" lon="170.096905397673">
        <ele>855</ele>
      </trkpt>
      <trkpt lat="-43.69472820904063" lon="170.096973107">
        <ele>856</ele>
      </trkpt>
      <trkpt lat="-43.69464428762159" lon="170.097040816327">
        <ele>857</ele>
      </trkpt>
      <trkpt lat="-43.69459183673469" lon="170.097093267213">
        <ele>857</ele>
      </trkpt>
      <trkpt lat="-43.69458134655731" lon="170.097111386611">
        <ele>857</ele>
      </trkpt>
      <trkpt lat="-43.69457085637993" lon="170.097190539767">
        <ele>857</ele>
      </trkpt>
      <trkpt lat="-43.69455750524509" lon="170.097216288385">
        <ele>857</ele>
      </trkpt>
      <trkpt lat="-43.69453271028037" lon="170.097240129697">
        <ele>858</ele>
      </trkpt>
      <trkpt lat="-43.6944869349609" lon="170.097254434484">
        <ele>858</ele>
      </trkpt>
      <trkpt lat="-43.69441350371924" lon="170.097254434484">
        <ele>859</ele>
      </trkpt>
      <trkpt lat="-43.6943477016975" lon="170.097264924661">
        <ele>859</ele>
      </trkpt>
      <trkpt lat="-43.69425424375358" lon="170.097344077818">
        <ele>860</ele>
      </trkpt>
      <trkpt lat="-43.69422086591646" lon="170.097359336258">
        <ele>860</ele>
      </trkpt>
      <trkpt lat="-43.69420942208659" lon="170.09737173374">
        <ele>860</ele>
      </trkpt>
      <trkpt lat="-43.69419034903681" lon="170.097422277322">
        <ele>861</ele>
      </trkpt>
      <trkpt lat="-43.69414934197978" lon="170.097542437536">
        <ele>861</ele>
      </trkpt>
      <trkpt lat="-43.69410833492275" lon="170.097662597749">
        <ele>861</ele>
      </trkpt>
      <trkpt lat="-43.69407114247568" lon="170.097754148388">
        <ele>861</ele>
      </trkpt>
      <trkpt lat="-43.69402918176616" lon="170.09782757963">
        <ele>861</ele>
      </trkpt>
      <trkpt lat="-43.69399008201411" lon="170.097866679382">
        <ele>861</ele>
      </trkpt>
      <trkpt lat="-43.69391665077246" lon="170.097904825482">
        <ele>862</ele>
      </trkpt>
      <trkpt lat="-43.69384226587831" lon="170.097942971581">
        <ele>862</ele>
      </trkpt>
      <trkpt lat="-43.69376978828915" lon="170.097971581156">
        <ele>863</ele>
      </trkpt>
      <trkpt lat="-43.69374690062941" lon="170.097989700553">
        <ele>863</ele>
      </trkpt>
      <trkpt lat="-43.69373068853709" lon="170.098006866298">
        <ele>863</ele>
      </trkpt>
      <trkpt lat="-43.69370875452984" lon="170.098077436582">
        <ele>863</ele>
      </trkpt>
      <trkpt lat="-43.69369158878504" lon="170.098106046157">
        <ele>863</ele>
      </trkpt>
      <trkpt lat="-43.6936610719054" lon="170.098127980164">
        <ele>863</ele>
      </trkpt>
      <trkpt lat="-43.69364485981308" lon="170.098171848179">
        <ele>863</ele>
      </trkpt>
      <trkpt lat="-43.69359526988365" lon="170.098190921228">
        <ele>863</ele>
      </trkpt>
      <trkpt lat="-43.69356189204654" lon="170.098212855236">
        <ele>863</ele>
      </trkpt>
      <trkpt lat="-43.69352851420942" lon="170.098247186725">
        <ele>863</ele>
      </trkpt>
      <trkpt lat="-43.69349609002479" lon="170.098262445165">
        <ele>864</ele>
      </trkpt>
      <trkpt lat="-43.69346652679764" lon="170.098261491513">
        <ele>864</ele>
      </trkpt>
      <trkpt lat="-43.69340644669082" lon="170.098230974633">
        <ele>865</ele>
      </trkpt>
      <trkpt lat="-43.69334827388899" lon="170.098219530803">
        <ele>865</ele>
      </trkpt>
      <trkpt lat="-43.69327579629983" lon="170.098182338356">
        <ele>866</ele>
      </trkpt>
      <trkpt lat="-43.69320331871066" lon="170.098145145909">
        <ele>866</ele>
      </trkpt>
      <trkpt lat="-43.69316135800114" lon="170.098111768072">
        <ele>866</ele>
      </trkpt>
      <trkpt lat="-43.69314323860385" lon="170.098108907114">
        <ele>866</ele>
      </trkpt>
      <trkpt lat="-43.6930688537097" lon="170.098118443639">
        <ele>866</ele>
      </trkpt>
      <trkpt lat="-43.69300781995041" lon="170.098107953462">
        <ele>866</ele>
      </trkpt>
      <trkpt lat="-43.69297634941827" lon="170.098086973107">
        <ele>867</ele>
      </trkpt>
      <trkpt lat="-43.69292962044631" lon="170.098039290483">
        <ele>867</ele>
      </trkpt>
      <trkpt lat="-43.6929038718291" lon="170.098024032043">
        <ele>867</ele>
      </trkpt>
      <trkpt lat="-43.69284951363723" lon="170.098017356475">
        <ele>867</ele>
      </trkpt>
      <trkpt lat="-43.69280183101278" lon="170.098033568568">
        <ele>867</ele>
      </trkpt>
      <trkpt lat="-43.69278275796299" lon="170.098062178142">
        <ele>867</ele>
      </trkpt>
      <trkpt lat="-43.6927732214381" lon="170.098102231547">
        <ele>867</ele>
      </trkpt>
      <trkpt lat="-43.69265020026702" lon="170.099105473965">
        <ele>871</ele>
      </trkpt>
      <trkpt lat="-43.69265020026702" lon="170.099138851802">
        <ele>872</ele>
      </trkpt>
      <trkpt lat="-43.69265687583444" lon="170.099165554072">
        <ele>872</ele>
      </trkpt>
      <trkpt lat="-43.69267213427427" lon="170.099188441732">
        <ele>872</ele>
      </trkpt>
      <trkpt lat="-43.6927741750906" lon="170.099262826626">
        <ele>871</ele>
      </trkpt>
      <trkpt lat="-43.69278847987793" lon="170.099282853328">
        <ele>871</ele>
      </trkpt>
      <trkpt lat="-43.69279038718291" lon="170.099313370208">
        <ele>871</ele>
      </trkpt>
      <trkpt lat="-43.69278180431051" lon="170.099339118825">
        <ele>871</ele>
      </trkpt>
      <trkpt lat="-43.69276749952317" lon="170.099359145527">
        <ele>872</ele>
      </trkpt>
      <trkpt lat="-43.6927036048064" lon="170.099417318329">
        <ele>872</ele>
      </trkpt>
      <trkpt lat="-43.69269692923898" lon="170.099443066946">
        <ele>872</ele>
      </trkpt>
      <trkpt lat="-43.69269979019645" lon="170.099494564181">
        <ele>873</ele>
      </trkpt>
      <trkpt lat="-43.6927131413313" lon="170.099561319855">
        <ele>873</ele>
      </trkpt>
      <trkpt lat="-43.69272649246614" lon="170.099629029182">
        <ele>873</ele>
      </trkpt>
      <trkpt lat="-43.69272458516117" lon="170.099718672516">
        <ele>873</ele>
      </trkpt>
      <trkpt lat="-43.69270646576388" lon="170.099826435247">
        <ele>874</ele>
      </trkpt>
      <trkpt lat="-43.69267976349418" lon="170.099885561701">
        <ele>874</ele>
      </trkpt>
      <trkpt lat="-43.6926168224299" lon="170.099970436773">
        <ele>875</ele>
      </trkpt>
      <trkpt lat="-43.69260061033759" lon="170.1">
        <ele>876</ele>
      </trkpt>
      <trkpt lat="-43.69260061033759" lon="170.1">
        <ele>876</ele>
      </trkpt>
      <trkpt lat="-43.69258344459278" lon="170.100044821667">
        <ele>876</ele>
      </trkpt>
      <trkpt lat="-43.69258058363532" lon="170.100122067519">
        <ele>876</ele>
      </trkpt>
      <trkpt lat="-43.69257772267785" lon="170.100200267023">
        <ele>876</ele>
      </trkpt>
      <trkpt lat="-43.69255102040816" lon="170.100281327484">
        <ele>877</ele>
      </trkpt>
      <trkpt lat="-43.69254625214572" lon="170.100316612626">
        <ele>877</ele>
      </trkpt>
      <trkpt lat="-43.69255197406065" lon="170.100362387946">
        <ele>877</ele>
      </trkpt>
      <trkpt lat="-43.69257200076292" lon="170.100427236315">
        <ele>877</ele>
      </trkpt>
      <trkpt lat="-43.69259202746519" lon="170.100493038337">
        <ele>876</ele>
      </trkpt>
      <trkpt lat="-43.69260251764257" lon="170.100569330536">
        <ele>876</ele>
      </trkpt>
      <trkpt lat="-43.69261205416746" lon="170.100645622735">
        <ele>876</ele>
      </trkpt>
      <trkpt lat="-43.69268262445165" lon="170.100744802594">
        <ele>876</ele>
      </trkpt>
      <trkpt lat="-43.69270932672134" lon="170.1008430288">
        <ele>876</ele>
      </trkpt>
      <trkpt lat="-43.69270646576388" lon="170.100891665077">
        <ele>876</ele>
      </trkpt>
      <trkpt lat="-43.69269025367156" lon="170.100943162312">
        <ele>876</ele>
      </trkpt>
      <trkpt lat="-43.69266545870685" lon="170.100970818234">
        <ele>877</ele>
      </trkpt>
      <trkpt lat="-43.69264733930955" lon="170.101006103376">
        <ele>877</ele>
      </trkpt>
      <trkpt lat="-43.69260156399008" lon="170.101113866107">
        <ele>878</ele>
      </trkpt>
      <trkpt lat="-43.69258344459278" lon="170.101181575434">
        <ele>879</ele>
      </trkpt>
      <trkpt lat="-43.69256818615296" lon="170.101271218768">
        <ele>879</ele>
      </trkpt>
      <trkpt lat="-43.6925653251955" lon="170.101343696357">
        <ele>880</ele>
      </trkpt>
      <trkpt lat="-43.69256151058554" lon="170.101417127599">
        <ele>880</ele>
      </trkpt>
      <trkpt lat="-43.69256818615296" lon="170.101464810223">
        <ele>880</ele>
      </trkpt>
      <trkpt lat="-43.69255197406065" lon="170.101577341217">
        <ele>881</ele>
      </trkpt>
      <trkpt lat="-43.69255864962808" lon="170.101604043487">
        <ele>881</ele>
      </trkpt>
      <trkpt lat="-43.6925739080679" lon="170.101618348274">
        <ele>881</ele>
      </trkpt>
      <trkpt lat="-43.69259774938013" lon="170.101623116536">
        <ele>881</ele>
      </trkpt>
      <trkpt lat="-43.69261777608239" lon="170.101617394621">
        <ele>880</ele>
      </trkpt>
      <trkpt lat="-43.69273221438107" lon="170.101702269693">
        <ele>879</ele>
      </trkpt>
      <trkpt lat="-43.69275414838832" lon="170.101726111005">
        <ele>879</ele>
      </trkpt>
      <trkpt lat="-43.69276368491322" lon="170.101769025367">
        <ele>879</ele>
      </trkpt>
      <trkpt lat="-43.69276559221819" lon="170.101861529659">
        <ele>878</ele>
      </trkpt>
      <trkpt lat="-43.69273698264352" lon="170.101952126645">
        <ele>879</ele>
      </trkpt>
      <trkpt lat="-43.69273316803357" lon="170.101983597177">
        <ele>879</ele>
      </trkpt>
      <trkpt lat="-43.69275033377837" lon="170.102064657639">
        <ele>878</ele>
      </trkpt>
      <trkpt lat="-43.69276654587068" lon="170.1021457181">
        <ele>878</ele>
      </trkpt>
      <trkpt lat="-43.69276082395575" lon="170.102262063704">
        <ele>878</ele>
      </trkpt>
      <trkpt lat="-43.69273793629601" lon="170.102341216861">
        <ele>878</ele>
      </trkpt>
      <trkpt lat="-43.69271409498378" lon="170.10242132367">
        <ele>879</ele>
      </trkpt>
      <trkpt lat="-43.69267022696929" lon="170.102492847606">
        <ele>879</ele>
      </trkpt>
      <trkpt lat="-43.6926263589548" lon="170.102564371543">
        <ele>879</ele>
      </trkpt>
      <trkpt lat="-43.69256437154301" lon="170.102631127217">
        <ele>879</ele>
      </trkpt>
      <trkpt lat="-43.69248807934388" lon="170.102695021934">
        <ele>879</ele>
      </trkpt>
      <trkpt lat="-43.69245946976921" lon="170.102730307076">
        <ele>879</ele>
      </trkpt>
      <trkpt lat="-43.69242990654205" lon="170.102779897006">
        <ele>878</ele>
      </trkpt>
      <trkpt lat="-43.6923383559031" lon="170.102883845127">
        <ele>877</ele>
      </trkpt>
      <trkpt lat="-43.69231165363341" lon="170.102927713141">
        <ele>877</ele>
      </trkpt>
      <trkpt lat="-43.69225920274652" lon="170.10303833683">
        <ele>876</ele>
      </trkpt>
      <trkpt lat="-43.69220579820713" lon="170.103148960519">
        <ele>875</ele>
      </trkpt>
      <trkpt lat="-43.69213236696547" lon="170.1032376502">
        <ele>875</ele>
      </trkpt>
      <trkpt lat="-43.69205798207133" lon="170.103327293534">
        <ele>874</ele>
      </trkpt>
      <trkpt lat="-43.69201411405683" lon="170.103367346939">
        <ele>875</ele>
      </trkpt>
      <trkpt lat="-43.69199027274461" lon="170.103379744421">
        <ele>875</ele>
      </trkpt>
      <trkpt lat="-43.69190825863055" lon="170.103383559031">
        <ele>875</ele>
      </trkpt>
      <trkpt lat="-43.6918434102613" lon="170.103367346939">
        <ele>876</ele>
      </trkpt>
      <trkpt lat="-43.69177856189204" lon="170.103351134846">
        <ele>876</ele>
      </trkpt>
      <trkpt lat="-43.69174995231737" lon="170.103333015449">
        <ele>877</ele>
      </trkpt>
      <trkpt lat="-43.69172229639519" lon="170.10328342552">
        <ele>877</ele>
      </trkpt>
      <trkpt lat="-43.69170989891283" lon="170.10322239176">
        <ele>878</ele>
      </trkpt>
      <trkpt lat="-43.69169177951554" lon="170.103193782186">
        <ele>878</ele>
      </trkpt>
      <trkpt lat="-43.69165840167842" lon="170.103174709136">
        <ele>879</ele>
      </trkpt>
      <trkpt lat="-43.69162502384131" lon="170.103183292008">
        <ele>879</ele>
      </trkpt>
      <trkpt lat="-43.69157448025939" lon="170.103235742895">
        <ele>878</ele>
      </trkpt>
      <trkpt lat="-43.69154968529467" lon="170.103251001335">
        <ele>878</ele>
      </trkpt>
      <trkpt lat="-43.6915306122449" lon="170.103246233073">
        <ele>879</ele>
      </trkpt>
      <trkpt lat="-43.69147911501049" lon="170.103197596796">
        <ele>879</ele>
      </trkpt>
      <trkpt lat="-43.69143429334351" lon="170.103187106618">
        <ele>879</ele>
      </trkpt>
      <trkpt lat="-43.69139328628648" lon="170.103203318711">
        <ele>879</ele>
      </trkpt>
      <trkpt lat="-43.69137039862674" lon="170.103204272363">
        <ele>879</ele>
      </trkpt>
      <trkpt lat="-43.69134178905207" lon="170.103150867824">
        <ele>880</ele>
      </trkpt>
      <trkpt lat="-43.69132939156971" lon="170.10308792676">
        <ele>880</ele>
      </trkpt>
      <trkpt lat="-43.69130650390997" lon="170.103024032043">
        <ele>881</ele>
      </trkpt>
      <trkpt lat="-43.6912778943353" lon="170.102983024986">
        <ele>881</ele>
      </trkpt>
      <trkpt lat="-43.69125500667557" lon="170.102966812893">
        <ele>881</ele>
      </trkpt>
      <trkpt lat="-43.69122067518596" lon="170.102970627503">
        <ele>881</ele>
      </trkpt>
      <trkpt lat="-43.69117966812893" lon="170.102997329773">
        <ele>881</ele>
      </trkpt>
      <trkpt lat="-43.69116345603662" lon="170.102992561511">
        <ele>881</ele>
      </trkpt>
      <trkpt lat="-43.69089834064467" lon="170.102980164028">
        <ele>882</ele>
      </trkpt>
      <trkpt lat="-43.69085924089261" lon="170.102998283426">
        <ele>882</ele>
      </trkpt>
      <trkpt lat="-43.6907734121686" lon="170.103024032043">
        <ele>882</ele>
      </trkpt>
      <trkpt lat="-43.69073717337402" lon="170.103041197788">
        <ele>883</ele>
      </trkpt>
      <trkpt lat="-43.69070570284188" lon="170.103079343887">
        <ele>883</ele>
      </trkpt>
      <trkpt lat="-43.69067423230975" lon="170.103134655731">
        <ele>883</ele>
      </trkpt>
      <trkpt lat="-43.69064657638756" lon="170.103157543391">
        <ele>883</ele>
      </trkpt>
      <trkpt lat="-43.69061796681289" lon="170.103168987221">
        <ele>883</ele>
      </trkpt>
      <trkpt lat="-43.69058458897577" lon="170.103162311654">
        <ele>883</ele>
      </trkpt>
      <trkpt lat="-43.69056456227351" lon="170.103172801831">
        <ele>883</ele>
      </trkpt>
      <trkpt lat="-43.69054358191875" lon="170.103171848179">
        <ele>883</ele>
      </trkpt>
      <trkpt lat="-43.69047873354949" lon="170.103135609384">
        <ele>884</ele>
      </trkpt>
      <trkpt lat="-43.69041293152775" lon="170.103100324242">
        <ele>885</ele>
      </trkpt>
      <trkpt lat="-43.6903385466336" lon="170.103048827007">
        <ele>885</ele>
      </trkpt>
      <trkpt lat="-43.69026416173946" lon="170.102997329773">
        <ele>886</ele>
      </trkpt>
      <trkpt lat="-43.69024508868968" lon="170.102967766546">
        <ele>886</ele>
      </trkpt>
      <trkpt lat="-43.69022506198741" lon="170.102953461759">
        <ele>887</ele>
      </trkpt>
      <trkpt lat="-43.69019931337021" lon="170.102952508106">
        <ele>887</ele>
      </trkpt>
      <trkpt lat="-43.69013446500095" lon="170.102994468816">
        <ele>887</ele>
      </trkpt>
      <trkpt lat="-43.69010585542628" lon="170.103003051688">
        <ele>887</ele>
      </trkpt>
      <trkpt lat="-43.69007915315659" lon="170.102999237078">
        <ele>887</ele>
      </trkpt>
      <trkpt lat="-43.69001907304978" lon="170.103028800305">
        <ele>888</ele>
      </trkpt>
      <trkpt lat="-43.68990558840358" lon="170.103119397292">
        <ele>887</ele>
      </trkpt>
      <trkpt lat="-43.68980354758726" lon="170.103210947931">
        <ele>886</ele>
      </trkpt>
      <trkpt lat="-43.68970150677093" lon="170.103303452222">
        <ele>886</ele>
      </trkpt>
      <trkpt lat="-43.6896347510967" lon="170.103350181194">
        <ele>886</ele>
      </trkpt>
      <trkpt lat="-43.68956418081251" lon="170.103374022506">
        <ele>886</ele>
      </trkpt>
      <trkpt lat="-43.68950028609574" lon="170.103406446691">
        <ele>886</ele>
      </trkpt>
      <trkpt lat="-43.68947263017356" lon="170.103406446691">
        <ele>886</ele>
      </trkpt>
      <trkpt lat="-43.68942876215907" lon="170.103364485981">
        <ele>886</ele>
      </trkpt>
      <trkpt lat="-43.68938584779706" lon="170.103353042151">
        <ele>886</ele>
      </trkpt>
      <trkpt lat="-43.68927427045584" lon="170.103362578676">
        <ele>885</ele>
      </trkpt>
      <trkpt lat="-43.6892351707038" lon="170.103379744421">
        <ele>885</ele>
      </trkpt>
      <trkpt lat="-43.68921419034903" lon="170.103410261301">
        <ele>886</ele>
      </trkpt>
      <trkpt lat="-43.68916364676711" lon="170.103514209422">
        <ele>886</ele>
      </trkpt>
      <trkpt lat="-43.68912645432005" lon="170.103551401869">
        <ele>886</ele>
      </trkpt>
      <trkpt lat="-43.68900724775892" lon="170.103595269884">
        <ele>885</ele>
      </trkpt>
      <trkpt lat="-43.68898817470913" lon="170.103620064848">
        <ele>885</ele>
      </trkpt>
      <trkpt lat="-43.68890616059507" lon="170.103621972153">
        <ele>884</ele>
      </trkpt>
    </trkseg>
  </trk>
</gpx>