<?xml version="1.0" encoding="UTF-8" standalone="yes"?>
<gpx
 version="1.1"
 creator="Generated by MapOut iPhone App. See https://mapout.app"
 xmlns="http://www.topografix.com/GPX/1/1"
 xmlns:xsi="http://www.w3.org/2001/XMLSchema-instance"
 xmlns:gpxx="http://www.garmin.com/xmlschemas/GpxExtensions/v3"
 xmlns:mapout="https://mapout.app/xmlschemas/MapOutExtensions"
 xsi:schemaLocation="http://www.topografix.com/GPX/1/1 https://www.topografix.com/GPX/1/1/gpx.xsd http://www.garmin.com/xmlschemas/GpxExtensions/v3 https://www8.garmin.com/xmlschemas/GpxExtensionsv3.xsd https://mapout.app/xmlschemas/MapOutExtensions https://mapout.app/xmlschemas/MapOutExtensions.xsd">
  <metadata>
    <name>Lake Okareka</name>
    <author><name>iPhone</name></author>
    <time>2026-05-11T05:29:28Z</time>
    <bounds minlat="-38.1809298111768" minlon="176.346641235934" maxlat="-38.16122925805836" maxlon="176.376829105474"/>
  </metadata>
  <trk>
    <name>Lake Okareka</name>
    <trkseg>
      <trkpt lat="-38.16190289775493" lon="176.361929529304">
        <ele>364</ele>
      </trkpt>
      <trkpt lat="-38.16185771504864" lon="176.361967385085">
        <ele>365</ele>
      </trkpt>
      <trkpt lat="-38.16173946214" lon="176.362041769979">
        <ele>366</ele>
      </trkpt>
      <trkpt lat="-38.16142571047111" lon="176.362146671753">
        <ele>369</ele>
      </trkpt>
      <trkpt lat="-38.1613303452222" lon="176.362262063704">
        <ele>369</ele>
      </trkpt>
      <trkpt lat="-38.16130936486744" lon="176.362350753385">
        <ele>369</ele>
      </trkpt>
      <trkpt lat="-38.16128838451269" lon="176.362439443067">
        <ele>369</ele>
      </trkpt>
      <trkpt lat="-38.16125882128553" lon="176.362510967004">
        <ele>370</ele>
      </trkpt>
      <trkpt lat="-38.16122925805836" lon="176.362583444593">
        <ele>371</ele>
      </trkpt>
      <trkpt lat="-38.16130268930002" lon="176.362664505054">
        <ele>373</ele>
      </trkpt>
      <trkpt lat="-38.16160499713904" lon="176.36257867633">
        <ele>370</ele>
      </trkpt>
      <trkpt lat="-38.16169750143048" lon="176.36261300782">
        <ele>370</ele>
      </trkpt>
      <trkpt lat="-38.1617652107572" lon="176.362784665268">
        <ele>371</ele>
      </trkpt>
      <trkpt lat="-38.16179000572192" lon="176.363109860767">
        <ele>374</ele>
      </trkpt>
      <trkpt lat="-38.16192065611291" lon="176.363377837116">
        <ele>376</ele>
      </trkpt>
      <trkpt lat="-38.16210852565325" lon="176.363565706656">
        <ele>379</ele>
      </trkpt>
      <trkpt lat="-38.16250715239367" lon="176.363868968148">
        <ele>378</ele>
      </trkpt>
      <trkpt lat="-38.16277703604806" lon="176.364193209994">
        <ele>382</ele>
      </trkpt>
      <trkpt lat="-38.16361243562846" lon="176.364641426664">
        <ele>379</ele>
      </trkpt>
      <trkpt lat="-38.16371543009728" lon="176.364734884608">
        <ele>379</ele>
      </trkpt>
      <trkpt lat="-38.1637221056647" lon="176.364893190921">
        <ele>383</ele>
      </trkpt>
      <trkpt lat="-38.16393477016975" lon="176.365140186916">
        <ele>382</ele>
      </trkpt>
      <trkpt lat="-38.16411405683769" lon="176.365437726492">
        <ele>386</ele>
      </trkpt>
      <trkpt lat="-38.16435246995995" lon="176.365727636849">
        <ele>386</ele>
      </trkpt>
      <trkpt lat="-38.16456990272745" lon="176.365760061034">
        <ele>378</ele>
      </trkpt>
      <trkpt lat="-38.16459279038718" lon="176.365859240893">
        <ele>379</ele>
      </trkpt>
      <trkpt lat="-38.16452984932291" lon="176.36611863437">
        <ele>388</ele>
      </trkpt>
      <trkpt lat="-38.16455082967767" lon="176.36649437345">
        <ele>395</ele>
      </trkpt>
      <trkpt lat="-38.16471485790578" lon="176.366698455083">
        <ele>392</ele>
      </trkpt>
      <trkpt lat="-38.164695784856" lon="176.367057982071">
        <ele>403</ele>
      </trkpt>
      <trkpt lat="-38.16479973297731" lon="176.367245851612">
        <ele>404</ele>
      </trkpt>
      <trkpt lat="-38.1648779324814" lon="176.367291626931">
        <ele>402</ele>
      </trkpt>
      <trkpt lat="-38.16509727255389" lon="176.367677856189">
        <ele>405</ele>
      </trkpt>
      <trkpt lat="-38.16530993705894" lon="176.367821857715">
        <ele>400</ele>
      </trkpt>
      <trkpt lat="-38.16548254815945" lon="176.367959183673">
        <ele>396</ele>
      </trkpt>
      <trkpt lat="-38.16564276177761" lon="176.368189967576">
        <ele>397</ele>
      </trkpt>
      <trkpt lat="-38.16568090787717" lon="176.368299637612">
        <ele>399</ele>
      </trkpt>
      <trkpt lat="-38.16582014114057" lon="176.368434102613">
        <ele>399</ele>
      </trkpt>
      <trkpt lat="-38.16607572000763" lon="176.368358764066">
        <ele>389</ele>
      </trkpt>
      <trkpt lat="-38.16629219912264" lon="176.368385466336">
        <ele>384</ele>
      </trkpt>
      <trkpt lat="-38.16648483692543" lon="176.368651535381">
        <ele>389</ele>
      </trkpt>
      <trkpt lat="-38.16664314323861" lon="176.368771695594">
        <ele>389</ele>
      </trkpt>
      <trkpt lat="-38.16688060270837" lon="176.369085447263">
        <ele>395</ele>
      </trkpt>
      <trkpt lat="-38.16711520122067" lon="176.369257104711">
        <ele>395</ele>
      </trkpt>
      <trkpt lat="-38.16731546824337" lon="176.369184627122">
        <ele>386</ele>
      </trkpt>
      <trkpt lat="-38.16747568186153" lon="176.369246614534">
        <ele>384</ele>
      </trkpt>
      <trkpt lat="-38.16787430860195" lon="176.369587068472">
        <ele>385</ele>
      </trkpt>
      <trkpt lat="-38.16820141140568" lon="176.36996566851">
        <ele>386</ele>
      </trkpt>
      <trkpt lat="-38.16826053786001" lon="176.370177379363">
        <ele>391</ele>
      </trkpt>
      <trkpt lat="-38.16824146481022" lon="176.370225061987">
        <ele>394</ele>
      </trkpt>
      <trkpt lat="-38.16809746328438" lon="176.370201220675">
        <ele>398</ele>
      </trkpt>
      <trkpt lat="-38.16810795346176" lon="176.370356666031">
        <ele>403</ele>
      </trkpt>
      <trkpt lat="-38.16804119778753" lon="176.370482548159">
        <ele>410</ele>
      </trkpt>
      <trkpt lat="-38.16831489605188" lon="176.37064371543">
        <ele>405</ele>
      </trkpt>
      <trkpt lat="-38.16848750715239" lon="176.370791531566">
        <ele>406</ele>
      </trkpt>
      <trkpt lat="-38.16861815754339" lon="176.370883082205">
        <ele>406</ele>
      </trkpt>
      <trkpt lat="-38.16883749761587" lon="176.370901201602">
        <ele>401</ele>
      </trkpt>
      <trkpt lat="-38.16896051878695" lon="176.371025176426">
        <ele>404</ele>
      </trkpt>
      <trkpt lat="-38.1692866679382" lon="176.371293152775">
        <ele>407</ele>
      </trkpt>
      <trkpt lat="-38.16951459088308" lon="176.371440968911">
        <ele>405</ele>
      </trkpt>
      <trkpt lat="-38.16977589166508" lon="176.371580202174">
        <ele>402</ele>
      </trkpt>
      <trkpt lat="-38.16985885943163" lon="176.371687011253">
        <ele>402</ele>
      </trkpt>
      <trkpt lat="-38.1700696166317" lon="176.371842456609">
        <ele>401</ele>
      </trkpt>
      <trkpt lat="-38.1702870493992" lon="176.372121876788">
        <ele>404</ele>
      </trkpt>
      <trkpt lat="-38.17038146099561" lon="176.372346938776">
        <ele>408</ele>
      </trkpt>
      <trkpt lat="-38.17039004386802" lon="176.372451840549">
        <ele>411</ele>
      </trkpt>
      <trkpt lat="-38.17045107762731" lon="176.372515735266">
        <ele>410</ele>
      </trkpt>
      <trkpt lat="-38.17051878695403" lon="176.372636849132">
        <ele>412</ele>
      </trkpt>
      <trkpt lat="-38.17070856379935" lon="176.372722677856">
        <ele>407</ele>
      </trkpt>
      <trkpt lat="-38.17084112149533" lon="176.372953461759">
        <ele>410</ele>
      </trkpt>
      <trkpt lat="-38.17110242227732" lon="176.373071714667">
        <ele>407</ele>
      </trkpt>
      <trkpt lat="-38.1713131794774" lon="176.373286286477">
        <ele>408</ele>
      </trkpt>
      <trkpt lat="-38.171478161358" lon="176.373317757009">
        <ele>404</ele>
      </trkpt>
      <trkpt lat="-38.1717127598703" lon="176.373280564562">
        <ele>397</ele>
      </trkpt>
      <trkpt lat="-38.17189776845318" lon="176.373333015449">
        <ele>397</ele>
      </trkpt>
      <trkpt lat="-38.17195308029754" lon="176.373286286477">
        <ele>395</ele>
      </trkpt>
      <trkpt lat="-38.17204653824147" lon="176.373244325768">
        <ele>393</ele>
      </trkpt>
      <trkpt lat="-38.17222296395194" lon="176.373205226016">
        <ele>390</ele>
      </trkpt>
      <trkpt lat="-38.17243181384703" lon="176.373317757009">
        <ele>393</ele>
      </trkpt>
      <trkpt lat="-38.17260728590502" lon="176.373339691017">
        <ele>391</ele>
      </trkpt>
      <trkpt lat="-38.17265878313943" lon="176.373366393286">
        <ele>391</ele>
      </trkpt>
      <trkpt lat="-38.17266736601183" lon="176.37345603662">
        <ele>394</ele>
      </trkpt>
      <trkpt lat="-38.17275224108335" lon="176.373451268358">
        <ele>393</ele>
      </trkpt>
      <trkpt lat="-38.17276463856571" lon="176.373461758535">
        <ele>393</ele>
      </trkpt>
      <trkpt lat="-38.17279706275033" lon="176.373552355522">
        <ele>395</ele>
      </trkpt>
      <trkpt lat="-38.17287621590692" lon="176.373567613961">
        <ele>394</ele>
      </trkpt>
      <trkpt lat="-38.17318615296586" lon="176.373774556552">
        <ele>396</ele>
      </trkpt>
      <trkpt lat="-38.17323192828533" lon="176.37388899485">
        <ele>399</ele>
      </trkpt>
      <trkpt lat="-38.173217623498" lon="176.374060652298">
        <ele>405</ele>
      </trkpt>
      <trkpt lat="-38.17323002098036" lon="176.374125500668">
        <ele>407</ele>
      </trkpt>
      <trkpt lat="-38.17330631317948" lon="176.374146481022">
        <ele>406</ele>
      </trkpt>
      <trkpt lat="-38.17372973488461" lon="176.373930001907">
        <ele>394</ele>
      </trkpt>
      <trkpt lat="-38.17385847797063" lon="176.373932862865">
        <ele>393</ele>
      </trkpt>
      <trkpt lat="-38.17400438680145" lon="176.373884226588">
        <ele>390</ele>
      </trkpt>
      <trkpt lat="-38.17419416364677" lon="176.373959565134">
        <ele>389</ele>
      </trkpt>
      <trkpt lat="-38.17425710471105" lon="176.374042532901">
        <ele>390</ele>
      </trkpt>
      <trkpt lat="-38.17429048254816" lon="176.374138851802">
        <ele>392</ele>
      </trkpt>
      <trkpt lat="-38.17437917222964" lon="176.374267594888">
        <ele>394</ele>
      </trkpt>
      <trkpt lat="-38.17438394049208" lon="176.374342933435">
        <ele>396</ele>
      </trkpt>
      <trkpt lat="-38.17460328056456" lon="176.374396337974">
        <ele>392</ele>
      </trkpt>
      <trkpt lat="-38.1746261682243" lon="176.374492656876">
        <ele>394</ele>
      </trkpt>
      <trkpt lat="-38.17467003623879" lon="176.374533663933">
        <ele>394</ele>
      </trkpt>
      <trkpt lat="-38.17470818233836" lon="176.374699599466">
        <ele>398</ele>
      </trkpt>
      <trkpt lat="-38.17479305740988" lon="176.374855044822">
        <ele>400</ele>
      </trkpt>
      <trkpt lat="-38.17492561510586" lon="176.374849322907">
        <ele>397</ele>
      </trkpt>
      <trkpt lat="-38.17504768262445" lon="176.374825481595">
        <ele>394</ele>
      </trkpt>
      <trkpt lat="-38.17516402822812" lon="176.374763494183">
        <ele>391</ele>
      </trkpt>
      <trkpt lat="-38.17541007057029" lon="176.374868395957">
        <ele>390</ele>
      </trkpt>
      <trkpt lat="-38.17550162120924" lon="176.374954224681">
        <ele>391</ele>
      </trkpt>
      <trkpt lat="-38.17565897386992" lon="176.374989509823">
        <ele>389</ele>
      </trkpt>
      <trkpt lat="-38.17567613961472" lon="176.375174518405">
        <ele>395</ele>
      </trkpt>
      <trkpt lat="-38.17562941064276" lon="176.375370017166">
        <ele>403</ele>
      </trkpt>
      <trkpt lat="-38.17588308220485" lon="176.375482548159">
        <ele>403</ele>
      </trkpt>
      <trkpt lat="-38.17596891092886" lon="176.375719053977">
        <ele>410</ele>
      </trkpt>
      <trkpt lat="-38.17614438298684" lon="176.375802021743">
        <ele>410</ele>
      </trkpt>
      <trkpt lat="-38.17640759107381" lon="176.375844936105">
        <ele>407</ele>
      </trkpt>
      <trkpt lat="-38.17651153919512" lon="176.375799160786">
        <ele>403</ele>
      </trkpt>
      <trkpt lat="-38.17688060270837" lon="176.375871638375">
        <ele>395</ele>
      </trkpt>
      <trkpt lat="-38.17692828533283" lon="176.375818233836">
        <ele>392</ele>
      </trkpt>
      <trkpt lat="-38.17708468434103" lon="176.375861148198">
        <ele>388</ele>
      </trkpt>
      <trkpt lat="-38.17722773221438" lon="176.375820141141">
        <ele>382</ele>
      </trkpt>
      <trkpt lat="-38.17737268739272" lon="176.375920274652">
        <ele>380</ele>
      </trkpt>
      <trkpt lat="-38.17747377455655" lon="176.376056646958">
        <ele>378</ele>
      </trkpt>
      <trkpt lat="-38.17749856952127" lon="176.37632176235">
        <ele>382</ele>
      </trkpt>
      <trkpt lat="-38.17753576196834" lon="176.376626931146">
        <ele>386</ele>
      </trkpt>
      <trkpt lat="-38.17763780278467" lon="176.376829105474">
        <ele>384</ele>
      </trkpt>
      <trkpt lat="-38.17769406828152" lon="176.37670131604">
        <ele>384</ele>
      </trkpt>
      <trkpt lat="-38.17767404157925" lon="176.376448598131">
        <ele>382</ele>
      </trkpt>
      <trkpt lat="-38.17771886324623" lon="176.376458134656">
        <ele>381</ele>
      </trkpt>
      <trkpt lat="-38.17771504863628" lon="176.37631413313">
        <ele>380</ele>
      </trkpt>
      <trkpt lat="-38.17772458516117" lon="176.376218767881">
        <ele>378</ele>
      </trkpt>
      <trkpt lat="-38.1776349418272" lon="176.375945069617">
        <ele>375</ele>
      </trkpt>
      <trkpt lat="-38.17778180431051" lon="176.375997520504">
        <ele>376</ele>
      </trkpt>
      <trkpt lat="-38.17778180431051" lon="176.375997520504">
        <ele>376</ele>
      </trkpt>
      <trkpt lat="-38.17786477207706" lon="176.376085256533">
        <ele>377</ele>
      </trkpt>
      <trkpt lat="-38.17786477207706" lon="176.376085256533">
        <ele>377</ele>
      </trkpt>
      <trkpt lat="-38.17797634941827" lon="176.376014686248">
        <ele>376</ele>
      </trkpt>
      <trkpt lat="-38.17799446881556" lon="176.375977493801">
        <ele>376</ele>
      </trkpt>
      <trkpt lat="-38.17798397863819" lon="176.375945069617">
        <ele>375</ele>
      </trkpt>
      <trkpt lat="-38.17815086782377" lon="176.375719053977">
        <ele>375</ele>
      </trkpt>
      <trkpt lat="-38.17822429906542" lon="176.375777226779">
        <ele>375</ele>
      </trkpt>
      <trkpt lat="-38.17815563608621" lon="176.375363341598">
        <ele>373</ele>
      </trkpt>
      <trkpt lat="-38.17812607285905" lon="176.375074384894">
        <ele>371</ele>
      </trkpt>
      <trkpt lat="-38.17815372878123" lon="176.374910356666">
        <ele>369</ele>
      </trkpt>
      <trkpt lat="-38.17830631317948" lon="176.374496471486">
        <ele>362</ele>
      </trkpt>
      <trkpt lat="-38.17850753385466" lon="176.374170322335">
        <ele>361</ele>
      </trkpt>
      <trkpt lat="-38.17854186534427" lon="176.374073049781">
        <ele>362</ele>
      </trkpt>
      <trkpt lat="-38.17856093839405" lon="176.373781232119">
        <ele>361</ele>
      </trkpt>
      <trkpt lat="-38.17860766736602" lon="176.373484646195">
        <ele>361</ele>
      </trkpt>
      <trkpt lat="-38.17861338928095" lon="176.373353042151">
        <ele>361</ele>
      </trkpt>
      <trkpt lat="-38.17863723059317" lon="176.37324909403">
        <ele>361</ele>
      </trkpt>
      <trkpt lat="-38.1787306885371" lon="176.373035475873">
        <ele>363</ele>
      </trkpt>
      <trkpt lat="-38.17885943162312" lon="176.372818996758">
        <ele>364</ele>
      </trkpt>
      <trkpt lat="-38.17892141903491" lon="176.372658783139">
        <ele>365</ele>
      </trkpt>
      <trkpt lat="-38.17895384321953" lon="176.372612054167">
        <ele>365</ele>
      </trkpt>
      <trkpt lat="-38.17917699790197" lon="176.372482357429">
        <ele>366</ele>
      </trkpt>
      <trkpt lat="-38.17938012588213" lon="176.372247758917">
        <ele>371</ele>
      </trkpt>
      <trkpt lat="-38.17942017928667" lon="176.37217242037">
        <ele>371</ele>
      </trkpt>
      <trkpt lat="-38.17948121304597" lon="176.371964524127">
        <ele>371</ele>
      </trkpt>
      <trkpt lat="-38.17932099942781" lon="176.372015067709">
        <ele>368</ele>
      </trkpt>
      <trkpt lat="-38.17942399389663" lon="176.371842456609">
        <ele>369</ele>
      </trkpt>
      <trkpt lat="-38.17949837879077" lon="176.371648865154">
        <ele>369</ele>
      </trkpt>
      <trkpt lat="-38.17955273698264" lon="176.371378027847">
        <ele>367</ele>
      </trkpt>
      <trkpt lat="-38.17958706847225" lon="176.371066183483">
        <ele>364</ele>
      </trkpt>
      <trkpt lat="-38.1795823002098" lon="176.37085447263">
        <ele>361</ele>
      </trkpt>
      <trkpt lat="-38.17959946595461" lon="176.370676139615">
        <ele>361</ele>
      </trkpt>
      <trkpt lat="-38.17958706847225" lon="176.370532138089">
        <ele>360</ele>
      </trkpt>
      <trkpt lat="-38.17955464428762" lon="176.370379553691">
        <ele>360</ele>
      </trkpt>
      <trkpt lat="-38.17944783520885" lon="176.36995803929">
        <ele>358</ele>
      </trkpt>
      <trkpt lat="-38.17935246995995" lon="176.369799732977">
        <ele>358</ele>
      </trkpt>
      <trkpt lat="-38.17939919893191" lon="176.369681480069">
        <ele>359</ele>
      </trkpt>
      <trkpt lat="-38.17939538432196" lon="176.369521266451">
        <ele>359</ele>
      </trkpt>
      <trkpt lat="-38.17934388708755" lon="176.369289528896">
        <ele>360</ele>
      </trkpt>
      <trkpt lat="-38.17935533091742" lon="176.369131222582">
        <ele>360</ele>
      </trkpt>
      <trkpt lat="-38.17943066946405" lon="176.369017737936">
        <ele>360</ele>
      </trkpt>
      <trkpt lat="-38.17979496471486" lon="176.368571428571">
        <ele>360</ele>
      </trkpt>
      <trkpt lat="-38.18" lon="176.368185199313">
        <ele>360</ele>
      </trkpt>
      <trkpt lat="-38.18" lon="176.368185199313">
        <ele>360</ele>
      </trkpt>
      <trkpt lat="-38.18006008010681" lon="176.368071714667">
        <ele>361</ele>
      </trkpt>
      <trkpt lat="-38.18008964333396" lon="176.367994468816">
        <ele>362</ele>
      </trkpt>
      <trkpt lat="-38.18008964333396" lon="176.367994468816">
        <ele>362</ele>
      </trkpt>
      <trkpt lat="-38.18010204081632" lon="176.367964905588">
        <ele>362</ele>
      </trkpt>
      <trkpt lat="-38.18010204081632" lon="176.367964905588">
        <ele>362</ele>
      </trkpt>
      <trkpt lat="-38.18010680907877" lon="176.367942971581">
        <ele>363</ele>
      </trkpt>
      <trkpt lat="-38.18009822620637" lon="176.367864772077">
        <ele>362</ele>
      </trkpt>
      <trkpt lat="-38.18003337783711" lon="176.367700743849">
        <ele>361</ele>
      </trkpt>
      <trkpt lat="-38.1800085828724" lon="176.367604424948">
        <ele>360</ele>
      </trkpt>
      <trkpt lat="-38.18001907304978" lon="176.367501430479">
        <ele>360</ele>
      </trkpt>
      <trkpt lat="-38.18004863627694" lon="176.367420370017">
        <ele>361</ele>
      </trkpt>
      <trkpt lat="-38.18012778943353" lon="176.367289719626">
        <ele>364</ele>
      </trkpt>
      <trkpt lat="-38.1803995803929" lon="176.366873927141">
        <ele>373</ele>
      </trkpt>
      <trkpt lat="-38.18050543581919" lon="176.366600228877">
        <ele>376</ele>
      </trkpt>
      <trkpt lat="-38.18064085447263" lon="176.366053786">
        <ele>378</ele>
      </trkpt>
      <trkpt lat="-38.18071810032424" lon="176.365490177379">
        <ele>377</ele>
      </trkpt>
      <trkpt lat="-38.18074003433149" lon="176.365173564753">
        <ele>376</ele>
      </trkpt>
      <trkpt lat="-38.18073621972153" lon="176.365040053405">
        <ele>375</ele>
      </trkpt>
      <trkpt lat="-38.18069330535953" lon="176.364753004005">
        <ele>373</ele>
      </trkpt>
      <trkpt lat="-38.18066469578486" lon="176.364647148579">
        <ele>371</ele>
      </trkpt>
      <trkpt lat="-38.18051592599657" lon="176.364366774747">
        <ele>368</ele>
      </trkpt>
      <trkpt lat="-38.18022887659737" lon="176.364064466908">
        <ele>364</ele>
      </trkpt>
      <trkpt lat="-38.18" lon="176.363864199886">
        <ele>363</ele>
      </trkpt>
      <trkpt lat="-38.18" lon="176.363864199886">
        <ele>363</ele>
      </trkpt>
      <trkpt lat="-38.17980926950219" lon="176.3636973107">
        <ele>363</ele>
      </trkpt>
      <trkpt lat="-38.17967671180622" lon="176.363607667366">
        <ele>363</ele>
      </trkpt>
      <trkpt lat="-38.17915029563228" lon="176.363336830059">
        <ele>362</ele>
      </trkpt>
      <trkpt lat="-38.17894526034713" lon="176.363180431051">
        <ele>361</ele>
      </trkpt>
      <trkpt lat="-38.1788870875453" lon="176.363110814419">
        <ele>361</ele>
      </trkpt>
      <trkpt lat="-38.17882510013352" lon="176.362965859241">
        <ele>361</ele>
      </trkpt>
      <trkpt lat="-38.17881460995613" lon="176.362878123212">
        <ele>361</ele>
      </trkpt>
      <trkpt lat="-38.17884226587832" lon="176.362679763494">
        <ele>362</ele>
      </trkpt>
      <trkpt lat="-38.17888327293534" lon="176.362555788671">
        <ele>362</ele>
      </trkpt>
      <trkpt lat="-38.17903395002861" lon="176.362293534236">
        <ele>363</ele>
      </trkpt>
      <trkpt lat="-38.17918176616441" lon="176.361897768453">
        <ele>362</ele>
      </trkpt>
      <trkpt lat="-38.179391569712" lon="176.361431432386">
        <ele>362</ele>
      </trkpt>
      <trkpt lat="-38.17957562464238" lon="176.361157734122">
        <ele>362</ele>
      </trkpt>
      <trkpt lat="-38.17990844936106" lon="176.360718100324">
        <ele>361</ele>
      </trkpt>
      <trkpt lat="-38.18" lon="176.360573145146">
        <ele>361</ele>
      </trkpt>
      <trkpt lat="-38.18" lon="176.360573145146">
        <ele>361</ele>
      </trkpt>
      <trkpt lat="-38.18006484836926" lon="176.36047110433">
        <ele>361</ele>
      </trkpt>
      <trkpt lat="-38.18032901010871" lon="176.360121113866">
        <ele>362</ele>
      </trkpt>
      <trkpt lat="-38.18040148769788" lon="176.36">
        <ele>362</ele>
      </trkpt>
      <trkpt lat="-38.18040148769788" lon="176.36">
        <ele>362</ele>
      </trkpt>
      <trkpt lat="-38.18044154110242" lon="176.359933244326">
        <ele>362</ele>
      </trkpt>
      <trkpt lat="-38.18072286858668" lon="176.359326721343">
        <ele>363</ele>
      </trkpt>
      <trkpt lat="-38.18085828724013" lon="176.358979591837">
        <ele>364</ele>
      </trkpt>
      <trkpt lat="-38.18092122830441" lon="176.358724966622">
        <ele>364</ele>
      </trkpt>
      <trkpt lat="-38.1809298111768" lon="176.358601945451">
        <ele>363</ele>
      </trkpt>
      <trkpt lat="-38.18086782376502" lon="176.357953461759">
        <ele>359</ele>
      </trkpt>
      <trkpt lat="-38.18078294869349" lon="176.35762063704">
        <ele>357</ele>
      </trkpt>
      <trkpt lat="-38.18065611291245" lon="176.357272553881">
        <ele>355</ele>
      </trkpt>
      <trkpt lat="-38.18038718291054" lon="176.356782376502">
        <ele>355</ele>
      </trkpt>
      <trkpt lat="-38.18027846652679" lon="176.356652679764">
        <ele>354</ele>
      </trkpt>
      <trkpt lat="-38.18010013351135" lon="176.356483883273">
        <ele>355</ele>
      </trkpt>
      <trkpt lat="-38.18" lon="176.356403776464">
        <ele>355</ele>
      </trkpt>
      <trkpt lat="-38.18" lon="176.356403776464">
        <ele>355</ele>
      </trkpt>
      <trkpt lat="-38.17991226397101" lon="176.35633320618">
        <ele>355</ele>
      </trkpt>
      <trkpt lat="-38.17980640854473" lon="176.35627980164">
        <ele>355</ele>
      </trkpt>
      <trkpt lat="-38.17965000953652" lon="176.356246423803">
        <ele>355</ele>
      </trkpt>
      <trkpt lat="-38.17940205988938" lon="176.35627980164">
        <ele>355</ele>
      </trkpt>
      <trkpt lat="-38.17924566088118" lon="176.356217814229">
        <ele>355</ele>
      </trkpt>
      <trkpt lat="-38.17924184627122" lon="176.356198741179">
        <ele>355</ele>
      </trkpt>
      <trkpt lat="-38.17929143620065" lon="176.355867823765">
        <ele>356</ele>
      </trkpt>
      <trkpt lat="-38.17927522410834" lon="176.355690444402">
        <ele>356</ele>
      </trkpt>
      <trkpt lat="-38.17922181956895" lon="176.355559794011">
        <ele>357</ele>
      </trkpt>
      <trkpt lat="-38.17914171275987" lon="176.355438680145">
        <ele>357</ele>
      </trkpt>
      <trkpt lat="-38.17905874499333" lon="176.355355712378">
        <ele>357</ele>
      </trkpt>
      <trkpt lat="-38.17864676711807" lon="176.355089643334">
        <ele>360</ele>
      </trkpt>
      <trkpt lat="-38.17853805073431" lon="176.355045775319">
        <ele>360</ele>
      </trkpt>
      <trkpt lat="-38.17818806027084" lon="176.35498092695">
        <ele>362</ele>
      </trkpt>
      <trkpt lat="-38.17784093076483" lon="176.354840740034">
        <ele>363</ele>
      </trkpt>
      <trkpt lat="-38.1777131413313" lon="176.354765401488">
        <ele>363</ele>
      </trkpt>
      <trkpt lat="-38.17716765210757" lon="176.354244707229">
        <ele>368</ele>
      </trkpt>
      <trkpt lat="-38.17711615487317" lon="176.354189395384">
        <ele>369</ele>
      </trkpt>
      <trkpt lat="-38.1771105481239" lon="176.354104359687">
        <ele>370</ele>
      </trkpt>
      <trkpt lat="-38.17711054813036" lon="176.354104359683">
        <ele>370</ele>
      </trkpt>
      <trkpt lat="-38.1771304596605" lon="176.354093076483">
        <ele>370</ele>
      </trkpt>
      <trkpt lat="-38.17710947930574" lon="176.354021552546">
        <ele>370</ele>
      </trkpt>
      <trkpt lat="-38.17708849895099" lon="176.353950982262">
        <ele>370</ele>
      </trkpt>
      <trkpt lat="-38.17703604806409" lon="176.353867060843">
        <ele>371</ele>
      </trkpt>
      <trkpt lat="-38.17703604806409" lon="176.353867060843">
        <ele>371</ele>
      </trkpt>
      <trkpt lat="-38.17707228685867" lon="176.353740225062">
        <ele>371</ele>
      </trkpt>
      <trkpt lat="-38.17709135990845" lon="176.353633415983">
        <ele>372</ele>
      </trkpt>
      <trkpt lat="-38.17709898912836" lon="176.353508487507">
        <ele>372</ele>
      </trkpt>
      <trkpt lat="-38.17709422086592" lon="176.353395002861">
        <ele>373</ele>
      </trkpt>
      <trkpt lat="-38.17707228685867" lon="176.353250047683">
        <ele>373</ele>
      </trkpt>
      <trkpt lat="-38.17704272363151" lon="176.353128933817">
        <ele>372</ele>
      </trkpt>
      <trkpt lat="-38.17692256341789" lon="176.35280850658">
        <ele>370</ele>
      </trkpt>
      <trkpt lat="-38.1768872782758" lon="176.352673087927">
        <ele>369</ele>
      </trkpt>
      <trkpt lat="-38.17685771504864" lon="176.352431813847">
        <ele>368</ele>
      </trkpt>
      <trkpt lat="-38.17685771504864" lon="176.352333587641">
        <ele>368</ele>
      </trkpt>
      <trkpt lat="-38.17687392714095" lon="176.352213427427">
        <ele>368</ele>
      </trkpt>
      <trkpt lat="-38.17707705512112" lon="176.351484836925">
        <ele>370</ele>
      </trkpt>
      <trkpt lat="-38.17714190349037" lon="176.351141522029">
        <ele>370</ele>
      </trkpt>
      <trkpt lat="-38.17724108334923" lon="176.35044440206">
        <ele>369</ele>
      </trkpt>
      <trkpt lat="-38.1772782757963" lon="176.350255578867">
        <ele>369</ele>
      </trkpt>
      <trkpt lat="-38.17751954987602" lon="176.349305740988">
        <ele>367</ele>
      </trkpt>
      <trkpt lat="-38.17764543200458" lon="176.348891855808">
        <ele>367</ele>
      </trkpt>
      <trkpt lat="-38.17772553881366" lon="176.348596223536">
        <ele>368</ele>
      </trkpt>
      <trkpt lat="-38.17772077055121" lon="176.348374976159">
        <ele>367</ele>
      </trkpt>
      <trkpt lat="-38.17770646576388" lon="176.348295823002">
        <ele>367</ele>
      </trkpt>
      <trkpt lat="-38.17763875643715" lon="176.348156589739">
        <ele>367</ele>
      </trkpt>
      <trkpt lat="-38.17759488842266" lon="176.348107953462">
        <ele>367</ele>
      </trkpt>
      <trkpt lat="-38.17755483501812" lon="176.348074575625">
        <ele>366</ele>
      </trkpt>
      <trkpt lat="-38.17747377455655" lon="176.348032614915">
        <ele>366</ele>
      </trkpt>
      <trkpt lat="-38.17738031661263" lon="176.348002098035">
        <ele>365</ele>
      </trkpt>
      <trkpt lat="-38.17727636849132" lon="176.347979210376">
        <ele>365</ele>
      </trkpt>
      <trkpt lat="-38.17703223345413" lon="176.347939156971">
        <ele>363</ele>
      </trkpt>
      <trkpt lat="-38.17682147625406" lon="176.347889567042">
        <ele>362</ele>
      </trkpt>
      <trkpt lat="-38.17636181575434" lon="176.347743658211">
        <ele>362</ele>
      </trkpt>
      <trkpt lat="-38.17527465191684" lon="176.347350753385">
        <ele>364</ele>
      </trkpt>
      <trkpt lat="-38.17527465191684" lon="176.347350753385">
        <ele>364</ele>
      </trkpt>
      <trkpt lat="-38.17517165744803" lon="176.347540530231">
        <ele>364</ele>
      </trkpt>
      <trkpt lat="-38.17514590883082" lon="176.347629219912">
        <ele>364</ele>
      </trkpt>
      <trkpt lat="-38.17512302117109" lon="176.347748426473">
        <ele>364</ele>
      </trkpt>
      <trkpt lat="-38.17509059698646" lon="176.347979210376">
        <ele>364</ele>
      </trkpt>
      <trkpt lat="-38.17504577531948" lon="176.348100324242">
        <ele>364</ele>
      </trkpt>
      <trkpt lat="-38.17499809269502" lon="176.348183292008">
        <ele>364</ele>
      </trkpt>
      <trkpt lat="-38.17491703223346" lon="176.348293915697">
        <ele>365</ele>
      </trkpt>
      <trkpt lat="-38.17478638184246" lon="176.348438870875">
        <ele>367</ele>
      </trkpt>
      <trkpt lat="-38.17458230020981" lon="176.348619111196">
        <ele>368</ele>
      </trkpt>
      <trkpt lat="-38.17445260347129" lon="176.348692542438">
        <ele>368</ele>
      </trkpt>
      <trkpt lat="-38.17408640091551" lon="176.348834636658">
        <ele>369</ele>
      </trkpt>
      <trkpt lat="-38.17396433339691" lon="176.348837497616">
        <ele>369</ele>
      </trkpt>
      <trkpt lat="-38.17385752431814" lon="176.348812702651">
        <ele>370</ele>
      </trkpt>
      <trkpt lat="-38.1737135227923" lon="176.34873164219">
        <ele>371</ele>
      </trkpt>
      <trkpt lat="-38.17342075147816" lon="176.348408353996">
        <ele>377</ele>
      </trkpt>
      <trkpt lat="-38.17332729353424" lon="176.348345412932">
        <ele>378</ele>
      </trkpt>
      <trkpt lat="-38.17320617966813" lon="176.348296776655">
        <ele>378</ele>
      </trkpt>
      <trkpt lat="-38.17308220484455" lon="176.34826435247">
        <ele>378</ele>
      </trkpt>
      <trkpt lat="-38.1728952889567" lon="176.348230974633">
        <ele>377</ele>
      </trkpt>
      <trkpt lat="-38.1726778561892" lon="176.348234789243">
        <ele>377</ele>
      </trkpt>
      <trkpt lat="-38.17237173374023" lon="176.348318710662">
        <ele>375</ele>
      </trkpt>
      <trkpt lat="-38.17225348083159" lon="176.348329200839">
        <ele>376</ele>
      </trkpt>
      <trkpt lat="-38.17209803547588" lon="176.348331108144">
        <ele>376</ele>
      </trkpt>
      <trkpt lat="-38.17195880221247" lon="176.348349227542">
        <ele>377</ele>
      </trkpt>
      <trkpt lat="-38.17183673469388" lon="176.348385466336">
        <ele>377</ele>
      </trkpt>
      <trkpt lat="-38.17172038909022" lon="176.348445546443">
        <ele>377</ele>
      </trkpt>
      <trkpt lat="-38.1714085447263" lon="176.34870875453">
        <ele>377</ele>
      </trkpt>
      <trkpt lat="-38.17131127217242" lon="176.348750715239">
        <ele>377</ele>
      </trkpt>
      <trkpt lat="-38.17119111195881" lon="176.348757390807">
        <ele>378</ele>
      </trkpt>
      <trkpt lat="-38.17081441922564" lon="176.34871638375">
        <ele>382</ele>
      </trkpt>
      <trkpt lat="-38.1705473965287" lon="176.348709708182">
        <ele>380</ele>
      </trkpt>
      <trkpt lat="-38.1703480831585" lon="176.348664886515">
        <ele>380</ele>
      </trkpt>
      <trkpt lat="-38.1702002670227" lon="176.348606713714">
        <ele>381</ele>
      </trkpt>
      <trkpt lat="-38.17001621209231" lon="176.348514209422">
        <ele>382</ele>
      </trkpt>
      <trkpt lat="-38.16991417127599" lon="176.348409307648">
        <ele>382</ele>
      </trkpt>
      <trkpt lat="-38.16983024985695" lon="176.34830249857">
        <ele>381</ele>
      </trkpt>
      <trkpt lat="-38.1696786191112" lon="176.34806122449">
        <ele>378</ele>
      </trkpt>
      <trkpt lat="-38.16963570474919" lon="176.347968720198">
        <ele>377</ele>
      </trkpt>
      <trkpt lat="-38.16960137325959" lon="176.347820904063">
        <ele>376</ele>
      </trkpt>
      <trkpt lat="-38.1695994659546" lon="176.347745565516">
        <ele>376</ele>
      </trkpt>
      <trkpt lat="-38.16960614152203" lon="176.347648292962">
        <ele>377</ele>
      </trkpt>
      <trkpt lat="-38.16962902918177" lon="176.347576769025">
        <ele>378</ele>
      </trkpt>
      <trkpt lat="-38.16968338737365" lon="176.347487125691">
        <ele>379</ele>
      </trkpt>
      <trkpt lat="-38.16979401106237" lon="176.347366965478">
        <ele>381</ele>
      </trkpt>
      <trkpt lat="-38.16979401106237" lon="176.347366965478">
        <ele>381</ele>
      </trkpt>
      <trkpt lat="-38.16955178333016" lon="176.347338355903">
        <ele>375</ele>
      </trkpt>
      <trkpt lat="-38.1691741369445" lon="176.34742132367">
        <ele>366</ele>
      </trkpt>
      <trkpt lat="-38.16897005531185" lon="176.347454701507">
        <ele>366</ele>
      </trkpt>
      <trkpt lat="-38.16875166889186" lon="176.347468052642">
        <ele>365</ele>
      </trkpt>
      <trkpt lat="-38.16855521647911" lon="176.347410833492">
        <ele>365</ele>
      </trkpt>
      <trkpt lat="-38.16834064466909" lon="176.347310699981">
        <ele>364</ele>
      </trkpt>
      <trkpt lat="-38.1682090406256" lon="176.347223917604">
        <ele>365</ele>
      </trkpt>
      <trkpt lat="-38.16792962044631" lon="176.346939729163">
        <ele>366</ele>
      </trkpt>
      <trkpt lat="-38.16766831966432" lon="176.346641235934">
        <ele>370</ele>
      </trkpt>
      <trkpt lat="-38.16766831966432" lon="176.346641235934">
        <ele>370</ele>
      </trkpt>
      <trkpt lat="-38.16736791913027" lon="176.346869158879">
        <ele>370</ele>
      </trkpt>
      <trkpt lat="-38.1673040244135" lon="176.346943543773">
        <ele>370</ele>
      </trkpt>
      <trkpt lat="-38.16717909593744" lon="176.347148579058">
        <ele>369</ele>
      </trkpt>
      <trkpt lat="-38.16717909593744" lon="176.347148579058">
        <ele>369</ele>
      </trkpt>
      <trkpt lat="-38.16714190349037" lon="176.347054167461">
        <ele>370</ele>
      </trkpt>
      <trkpt lat="-38.16706847224872" lon="176.347110432958">
        <ele>370</ele>
      </trkpt>
      <trkpt lat="-38.16693209994278" lon="176.347188632462">
        <ele>370</ele>
      </trkpt>
      <trkpt lat="-38.16691276532104" lon="176.347197420927">
        <ele>370</ele>
      </trkpt>
      <trkpt lat="-38.16691276532104" lon="176.347197420927">
        <ele>370</ele>
      </trkpt>
      <trkpt lat="-38.16680621781423" lon="176.347245851612">
        <ele>370</ele>
      </trkpt>
      <trkpt lat="-38.16667747472821" lon="176.347282090406">
        <ele>369</ele>
      </trkpt>
      <trkpt lat="-38.1665830631318" lon="176.347288765974">
        <ele>371</ele>
      </trkpt>
      <trkpt lat="-38.16642857142858" lon="176.347528132748">
        <ele>368</ele>
      </trkpt>
      <trkpt lat="-38.166304596605" lon="176.347450886897">
        <ele>371</ele>
      </trkpt>
      <trkpt lat="-38.16581918748808" lon="176.347622544345">
        <ele>372</ele>
      </trkpt>
      <trkpt lat="-38.16547718041548" lon="176.347783159816">
        <ele>368</ele>
      </trkpt>
      <trkpt lat="-38.16547718041548" lon="176.347783159816">
        <ele>368</ele>
      </trkpt>
      <trkpt lat="-38.16541102422278" lon="176.347814228495">
        <ele>368</ele>
      </trkpt>
      <trkpt lat="-38.16537192447073" lon="176.34784665268">
        <ele>367</ele>
      </trkpt>
      <trkpt lat="-38.16516688918558" lon="176.347844745375">
        <ele>367</ele>
      </trkpt>
      <trkpt lat="-38.16492370780088" lon="176.347748426473">
        <ele>368</ele>
      </trkpt>
      <trkpt lat="-38.1647129506008" lon="176.347839977112">
        <ele>366</ele>
      </trkpt>
      <trkpt lat="-38.16442494754912" lon="176.347667366012">
        <ele>366</ele>
      </trkpt>
      <trkpt lat="-38.16442494754912" lon="176.347667366012">
        <ele>366</ele>
      </trkpt>
      <trkpt lat="-38.16430097272554" lon="176.347807552928">
        <ele>365</ele>
      </trkpt>
      <trkpt lat="-38.16412931527751" lon="176.348177570093">
        <ele>364</ele>
      </trkpt>
      <trkpt lat="-38.16399389662407" lon="176.348364485981">
        <ele>363</ele>
      </trkpt>
      <trkpt lat="-38.16393381651726" lon="176.34867823765">
        <ele>362</ele>
      </trkpt>
      <trkpt lat="-38.16393190921229" lon="176.348807934389">
        <ele>362</ele>
      </trkpt>
      <trkpt lat="-38.16376692733168" lon="176.349194163647">
        <ele>361</ele>
      </trkpt>
      <trkpt lat="-38.16341216860576" lon="176.349691970246">
        <ele>362</ele>
      </trkpt>
      <trkpt lat="-38.16334636658402" lon="176.349919893191">
        <ele>362</ele>
      </trkpt>
      <trkpt lat="-38.16338641998856" lon="176.350201220675">
        <ele>361</ele>
      </trkpt>
      <trkpt lat="-38.16335876406637" lon="176.350461567805">
        <ele>361</ele>
      </trkpt>
      <trkpt lat="-38.16335781041388" lon="176.350528323479">
        <ele>361</ele>
      </trkpt>
      <trkpt lat="-38.16333587640664" lon="176.350588403586">
        <ele>361</ele>
      </trkpt>
      <trkpt lat="-38.16333587640664" lon="176.350588403586">
        <ele>361</ele>
      </trkpt>
      <trkpt lat="-38.16324432576769" lon="176.350701888232">
        <ele>361</ele>
      </trkpt>
      <trkpt lat="-38.16324432576769" lon="176.350701888232">
        <ele>361</ele>
      </trkpt>
      <trkpt lat="-38.16322716002289" lon="176.350779134084">
        <ele>361</ele>
      </trkpt>
      <trkpt lat="-38.16316994087354" lon="176.350815372878">
        <ele>361</ele>
      </trkpt>
      <trkpt lat="-38.16296109097845" lon="176.350825863056">
        <ele>362</ele>
      </trkpt>
      <trkpt lat="-38.16275224108335" lon="176.350967003624">
        <ele>362</ele>
      </trkpt>
      <trkpt lat="-38.16262254434484" lon="176.35110719054">
        <ele>362</ele>
      </trkpt>
      <trkpt lat="-38.16249380125883" lon="176.351274079725">
        <ele>362</ele>
      </trkpt>
      <trkpt lat="-38.16231069998093" lon="176.35156303643">
        <ele>361</ele>
      </trkpt>
      <trkpt lat="-38.16214094983788" lon="176.351902536716">
        <ele>361</ele>
      </trkpt>
      <trkpt lat="-38.16212378409308" lon="176.351971199695">
        <ele>361</ele>
      </trkpt>
      <trkpt lat="-38.16205512111387" lon="176.352177188632">
        <ele>360</ele>
      </trkpt>
      <trkpt lat="-38.16204272363151" lon="176.352389853138">
        <ele>360</ele>
      </trkpt>
      <trkpt lat="-38.16204272363151" lon="176.352389853138">
        <ele>360</ele>
      </trkpt>
      <trkpt lat="-38.16203223345413" lon="176.352507152394">
        <ele>360</ele>
      </trkpt>
      <trkpt lat="-38.16202174327675" lon="176.352625405302">
        <ele>360</ele>
      </trkpt>
      <trkpt lat="-38.16203127980164" lon="176.352729353424">
        <ele>360</ele>
      </trkpt>
      <trkpt lat="-38.16203986267404" lon="176.352834255197">
        <ele>361</ele>
      </trkpt>
      <trkpt lat="-38.16207705512112" lon="176.352910547397">
        <ele>361</ele>
      </trkpt>
      <trkpt lat="-38.16213999618539" lon="176.352977303071">
        <ele>361</ele>
      </trkpt>
      <trkpt lat="-38.16220198359718" lon="176.353045012398">
        <ele>361</ele>
      </trkpt>
      <trkpt lat="-38.16220198359718" lon="176.353045012398">
        <ele>361</ele>
      </trkpt>
      <trkpt lat="-38.16250333778371" lon="176.352935342361">
        <ele>361</ele>
      </trkpt>
      <trkpt lat="-38.16263303452222" lon="176.352967766546">
        <ele>361</ele>
      </trkpt>
      <trkpt lat="-38.16263017356476" lon="176.353180431051">
        <ele>362</ele>
      </trkpt>
      <trkpt lat="-38.16259488842266" lon="176.353312988747">
        <ele>362</ele>
      </trkpt>
      <trkpt lat="-38.16269120732405" lon="176.353586687011">
        <ele>363</ele>
      </trkpt>
      <trkpt lat="-38.16284093076483" lon="176.35393477017">
        <ele>364</ele>
      </trkpt>
      <trkpt lat="-38.16280278466527" lon="176.354131222583">
        <ele>365</ele>
      </trkpt>
      <trkpt lat="-38.16258725920274" lon="176.354437345031">
        <ele>366</ele>
      </trkpt>
      <trkpt lat="-38.16241274079726" lon="176.354534617585">
        <ele>367</ele>
      </trkpt>
      <trkpt lat="-38.16213618157543" lon="176.354759679573">
        <ele>368</ele>
      </trkpt>
      <trkpt lat="-38.16191588785047" lon="176.35498855617">
        <ele>370</ele>
      </trkpt>
      <trkpt lat="-38.16182147625405" lon="176.355114438299">
        <ele>370</ele>
      </trkpt>
      <trkpt lat="-38.16166507724585" lon="176.355227922945">
        <ele>372</ele>
      </trkpt>
      <trkpt lat="-38.16152489032996" lon="176.355597940111">
        <ele>372</ele>
      </trkpt>
      <trkpt lat="-38.16151535380507" lon="176.355971771886">
        <ele>371</ele>
      </trkpt>
      <trkpt lat="-38.16141617394621" lon="176.356610719054">
        <ele>372</ele>
      </trkpt>
      <trkpt lat="-38.16147720770552" lon="176.357084684341">
        <ele>370</ele>
      </trkpt>
      <trkpt lat="-38.16155349990463" lon="176.357365058173">
        <ele>369</ele>
      </trkpt>
      <trkpt lat="-38.16182147625405" lon="176.357860957467">
        <ele>367</ele>
      </trkpt>
      <trkpt lat="-38.16202460423422" lon="176.358161358001">
        <ele>367</ele>
      </trkpt>
      <trkpt lat="-38.16210566469579" lon="176.358235742895">
        <ele>367</ele>
      </trkpt>
      <trkpt lat="-38.16217146671753" lon="176.358441731833">
        <ele>367</ele>
      </trkpt>
      <trkpt lat="-38.1622782757963" lon="176.358348273889">
        <ele>367</ele>
      </trkpt>
      <trkpt lat="-38.16245565515926" lon="176.358151821476">
        <ele>366</ele>
      </trkpt>
      <trkpt lat="-38.1625824909403" lon="176.358067900057">
        <ele>366</ele>
      </trkpt>
      <trkpt lat="-38.16271409498379" lon="176.358003051688">
        <ele>365</ele>
      </trkpt>
      <trkpt lat="-38.16276177760824" lon="176.358051687965">
        <ele>365</ele>
      </trkpt>
      <trkpt lat="-38.16278119629447" lon="176.358102698245">
        <ele>364</ele>
      </trkpt>
      <trkpt lat="-38.16278180431051" lon="176.358102231547">
        <ele>364</ele>
      </trkpt>
      <trkpt lat="-38.16311367537669" lon="176.357847606332">
        <ele>364</ele>
      </trkpt>
      <trkpt lat="-38.16321190158307" lon="176.357653061225">
        <ele>364</ele>
      </trkpt>
      <trkpt lat="-38.16326435246996" lon="176.35742513828">
        <ele>364</ele>
      </trkpt>
      <trkpt lat="-38.16327770360481" lon="176.357150486363">
        <ele>364</ele>
      </trkpt>
      <trkpt lat="-38.16326625977494" lon="176.35693114629">
        <ele>363</ele>
      </trkpt>
      <trkpt lat="-38.16331108144193" lon="176.356825290864">
        <ele>363</ele>
      </trkpt>
      <trkpt lat="-38.16347224871257" lon="176.356656494373">
        <ele>363</ele>
      </trkpt>
      <trkpt lat="-38.16375357619683" lon="176.356236887278">
        <ele>360</ele>
      </trkpt>
      <trkpt lat="-38.16394526034713" lon="176.355991798589">
        <ele>359</ele>
      </trkpt>
      <trkpt lat="-38.16399996831448" lon="176.355991210331">
        <ele>358</ele>
      </trkpt>
      <trkpt lat="-38.16399996831448" lon="176.355991210331">
        <ele>358</ele>
      </trkpt>
      <trkpt lat="-38.16394526034713" lon="176.355991798589">
        <ele>359</ele>
      </trkpt>
      <trkpt lat="-38.16375357619683" lon="176.356236887278">
        <ele>360</ele>
      </trkpt>
      <trkpt lat="-38.16347224871257" lon="176.356656494373">
        <ele>363</ele>
      </trkpt>
      <trkpt lat="-38.16331108144193" lon="176.356825290864">
        <ele>363</ele>
      </trkpt>
      <trkpt lat="-38.16326625977494" lon="176.35693114629">
        <ele>363</ele>
      </trkpt>
      <trkpt lat="-38.16327770360481" lon="176.357150486363">
        <ele>364</ele>
      </trkpt>
      <trkpt lat="-38.16326435246996" lon="176.35742513828">
        <ele>364</ele>
      </trkpt>
      <trkpt lat="-38.16321190158307" lon="176.357653061225">
        <ele>364</ele>
      </trkpt>
      <trkpt lat="-38.16311367537669" lon="176.357847606332">
        <ele>364</ele>
      </trkpt>
      <trkpt lat="-38.16278180431051" lon="176.358102231547">
        <ele>364</ele>
      </trkpt>
      <trkpt lat="-38.16278119629447" lon="176.358102698245">
        <ele>364</ele>
      </trkpt>
      <trkpt lat="-38.16282567232501" lon="176.358219530803">
        <ele>364</ele>
      </trkpt>
      <trkpt lat="-38.16270932672134" lon="176.358538050734">
        <ele>364</ele>
      </trkpt>
      <trkpt lat="-38.16258725920274" lon="176.358719244707">
        <ele>364</ele>
      </trkpt>
      <trkpt lat="-38.16257676902537" lon="176.358992942972">
        <ele>364</ele>
      </trkpt>
      <trkpt lat="-38.16248045012398" lon="176.359215144002">
        <ele>363</ele>
      </trkpt>
      <trkpt lat="-38.1621914934198" lon="176.359550829678">
        <ele>366</ele>
      </trkpt>
      <trkpt lat="-38.16211043295823" lon="176.359798779325">
        <ele>367</ele>
      </trkpt>
      <trkpt lat="-38.16201506770933" lon="176.36">
        <ele>368</ele>
      </trkpt>
      <trkpt lat="-38.16201506770933" lon="176.36">
        <ele>368</ele>
      </trkpt>
      <trkpt lat="-38.16196643143239" lon="176.360106809079">
        <ele>368</ele>
      </trkpt>
      <trkpt lat="-38.16191779515545" lon="176.36021457181">
        <ele>369</ele>
      </trkpt>
      <trkpt lat="-38.16192065611291" lon="176.360320427236">
        <ele>368</ele>
      </trkpt>
      <trkpt lat="-38.16197119969483" lon="176.360426282663">
        <ele>367</ele>
      </trkpt>
      <trkpt lat="-38.16197119969483" lon="176.360426282663">
        <ele>367</ele>
      </trkpt>
      <trkpt lat="-38.16200076292199" lon="176.360408163265">
        <ele>367</ele>
      </trkpt>
      <trkpt lat="-38.16204176997902" lon="176.360405302308">
        <ele>366</ele>
      </trkpt>
      <trkpt lat="-38.16206656494374" lon="176.360426282663">
        <ele>366</ele>
      </trkpt>
      <trkpt lat="-38.16208373068854" lon="176.360486362769">
        <ele>365</ele>
      </trkpt>
      <trkpt lat="-38.16207324051116" lon="176.360544535571">
        <ele>365</ele>
      </trkpt>
      <trkpt lat="-38.1620623899493" lon="176.360570757762">
        <ele>365</ele>
      </trkpt>
    </trkseg>
  </trk>
</gpx>