<?xml version="1.0" encoding="UTF-8" standalone="yes"?>
<gpx
 version="1.1"
 creator="Generated by MapOut iPhone App. See https://mapout.app"
 xmlns="http://www.topografix.com/GPX/1/1"
 xmlns:xsi="http://www.w3.org/2001/XMLSchema-instance"
 xmlns:gpxx="http://www.garmin.com/xmlschemas/GpxExtensions/v3"
 xmlns:mapout="https://mapout.app/xmlschemas/MapOutExtensions"
 xsi:schemaLocation="http://www.topografix.com/GPX/1/1 https://www.topografix.com/GPX/1/1/gpx.xsd http://www.garmin.com/xmlschemas/GpxExtensions/v3 https://www8.garmin.com/xmlschemas/GpxExtensionsv3.xsd https://mapout.app/xmlschemas/MapOutExtensions https://mapout.app/xmlschemas/MapOutExtensions.xsd">
  <metadata>
    <name>Gollum Pool</name>
    <author><name>iPhone</name></author>
    <time>2026-05-20T08:07:37Z</time>
    <bounds minlat="-39.17548445546443" minlon="175.513401743501" maxlat="-39.17297062750334" maxlon="175.514650963189"/>
  </metadata>
  <trk>
    <name>Gollum Pool</name>
    <trkseg>
      <trkpt lat="-39.175469801802" lon="175.513401743501">
        <ele>967</ele>
      </trkpt>
      <trkpt lat="-39.17548445546443" lon="175.513427427046">
        <ele>967</ele>
      </trkpt>
      <trkpt lat="-39.17548445546443" lon="175.513427427046">
        <ele>967</ele>
      </trkpt>
      <trkpt lat="-39.17531661262636" lon="175.513599084494">
        <ele>967</ele>
      </trkpt>
      <trkpt lat="-39.17531661262636" lon="175.513599084494">
        <ele>967</ele>
      </trkpt>
      <trkpt lat="-39.17529467861911" lon="175.513650581728">
        <ele>967</ele>
      </trkpt>
      <trkpt lat="-39.17521647911502" lon="175.513732595842">
        <ele>966</ele>
      </trkpt>
      <trkpt lat="-39.1751039481213" lon="175.513774556552">
        <ele>966</ele>
      </trkpt>
      <trkpt lat="-39.17479591836735" lon="175.513932862865">
        <ele>964</ele>
      </trkpt>
      <trkpt lat="-39.17470818233836" lon="175.513957657829">
        <ele>963</ele>
      </trkpt>
      <trkpt lat="-39.17463665840168" lon="175.513971008964">
        <ele>963</ele>
      </trkpt>
      <trkpt lat="-39.17456513446501" lon="175.513984360099">
        <ele>962</ele>
      </trkpt>
      <trkpt lat="-39.17447549113103" lon="175.513994850277">
        <ele>961</ele>
      </trkpt>
      <trkpt lat="-39.17438489414457" lon="175.514006294106">
        <ele>960</ele>
      </trkpt>
      <trkpt lat="-39.17428285332825" lon="175.514026320809">
        <ele>959</ele>
      </trkpt>
      <trkpt lat="-39.17421895861148" lon="175.514025367156">
        <ele>959</ele>
      </trkpt>
      <trkpt lat="-39.17415411024223" lon="175.514024413504">
        <ele>958</ele>
      </trkpt>
      <trkpt lat="-39.17413980545489" lon="175.514047301163">
        <ele>958</ele>
      </trkpt>
      <trkpt lat="-39.17417985885943" lon="175.514163646767">
        <ele>958</ele>
      </trkpt>
      <trkpt lat="-39.17419702460423" lon="175.514194163647">
        <ele>958</ele>
      </trkpt>
      <trkpt lat="-39.17418844173184" lon="175.514231356094">
        <ele>957</ele>
      </trkpt>
      <trkpt lat="-39.17416841502956" lon="175.514241846271">
        <ele>957</ele>
      </trkpt>
      <trkpt lat="-39.17411501049018" lon="175.514251382796">
        <ele>957</ele>
      </trkpt>
      <trkpt lat="-39.17404253290101" lon="175.514243753576">
        <ele>956</ele>
      </trkpt>
      <trkpt lat="-39.17397005531185" lon="175.514236124356">
        <ele>955</ele>
      </trkpt>
      <trkpt lat="-39.17388422658783" lon="175.514249475491">
        <ele>954</ele>
      </trkpt>
      <trkpt lat="-39.17382414648102" lon="175.514242799924">
        <ele>954</ele>
      </trkpt>
      <trkpt lat="-39.17373831775701" lon="175.514243753576">
        <ele>953</ele>
      </trkpt>
      <trkpt lat="-39.17363723059317" lon="175.514277131413">
        <ele>951</ele>
      </trkpt>
      <trkpt lat="-39.17353614342934" lon="175.514311462903">
        <ele>950</ele>
      </trkpt>
      <trkpt lat="-39.17347987793249" lon="175.514304787335">
        <ele>950</ele>
      </trkpt>
      <trkpt lat="-39.17341598321572" lon="175.514312416555">
        <ele>949</ele>
      </trkpt>
      <trkpt lat="-39.17335208849895" lon="175.514320045775">
        <ele>949</ele>
      </trkpt>
      <trkpt lat="-39.1732786572573" lon="175.514343887088">
        <ele>948</ele>
      </trkpt>
      <trkpt lat="-39.17324814037764" lon="175.514412550067">
        <ele>948</ele>
      </trkpt>
      <trkpt lat="-39.173217623498" lon="175.514481213046">
        <ele>948</ele>
      </trkpt>
      <trkpt lat="-39.17316135800115" lon="175.514520312798">
        <ele>947</ele>
      </trkpt>
      <trkpt lat="-39.17308125119207" lon="175.514533663933">
        <ele>947</ele>
      </trkpt>
      <trkpt lat="-39.17300114438299" lon="175.514547015068">
        <ele>946</ele>
      </trkpt>
      <trkpt lat="-39.17300114438299" lon="175.514547015068">
        <ele>946</ele>
      </trkpt>
      <trkpt lat="-39.17297062750334" lon="175.514588022125">
        <ele>946</ele>
      </trkpt>
      <trkpt lat="-39.17298779324814" lon="175.514650963189">
        <ele>946</ele>
      </trkpt>
    </trkseg>
  </trk>
</gpx>