<?xml version="1.0" encoding="UTF-8" standalone="yes"?>
<gpx
 version="1.1"
 creator="Generated by MapOut iPhone App. See https://mapout.app"
 xmlns="http://www.topografix.com/GPX/1/1"
 xmlns:xsi="http://www.w3.org/2001/XMLSchema-instance"
 xmlns:gpxx="http://www.garmin.com/xmlschemas/GpxExtensions/v3"
 xmlns:mapout="https://mapout.app/xmlschemas/MapOutExtensions"
 xsi:schemaLocation="http://www.topografix.com/GPX/1/1 https://www.topografix.com/GPX/1/1/gpx.xsd http://www.garmin.com/xmlschemas/GpxExtensions/v3 https://www8.garmin.com/xmlschemas/GpxExtensionsv3.xsd https://mapout.app/xmlschemas/MapOutExtensions https://mapout.app/xmlschemas/MapOutExtensions.xsd">
  <metadata>
    <name>Putangiura Pinnacles</name>
    <author><name>iPhone</name></author>
    <time>2026-08-02T08:30:03Z</time>
    <bounds minlat="-41.45150772458516" minlon="175.223007555384" maxlat="-41.4468081251192" maxlon="175.243096509632"/>
  </metadata>
  <trk>
    <name>Putangiura Pinnacles</name>
    <trkseg>
      <trkpt lat="-41.44990437419997" lon="175.223252497215">
        <ele>17</ele>
      </trkpt>
      <trkpt lat="-41.44987180037802" lon="175.22327262621">
        <ele>18</ele>
      </trkpt>
      <trkpt lat="-41.44965910994322" lon="175.223353880857">
        <ele>28</ele>
      </trkpt>
      <trkpt lat="-41.44965910994322" lon="175.223353880857">
        <ele>28</ele>
      </trkpt>
      <trkpt lat="-41.44966145336639" lon="175.223365439634">
        <ele>28</ele>
      </trkpt>
      <trkpt lat="-41.44974537478542" lon="175.223695403395">
        <ele>27</ele>
      </trkpt>
      <trkpt lat="-41.44987507152393" lon="175.224050162121">
        <ele>24</ele>
      </trkpt>
      <trkpt lat="-41.44990272744612" lon="175.224159832157">
        <ele>24</ele>
      </trkpt>
      <trkpt lat="-41.44997520503528" lon="175.224609956132">
        <ele>22</ele>
      </trkpt>
      <trkpt lat="-41.45002002670226" lon="175.224759679573">
        <ele>22</ele>
      </trkpt>
      <trkpt lat="-41.45008106046156" lon="175.224878886134">
        <ele>24</ele>
      </trkpt>
      <trkpt lat="-41.45010108716383" lon="175.224920846843">
        <ele>24</ele>
      </trkpt>
      <trkpt lat="-41.45012397482357" lon="175.224999046348">
        <ele>25</ele>
      </trkpt>
      <trkpt lat="-41.45016021361815" lon="175.22525653252">
        <ele>27</ele>
      </trkpt>
      <trkpt lat="-41.45016593553309" lon="175.225414838833">
        <ele>28</ele>
      </trkpt>
      <trkpt lat="-41.45014400152584" lon="175.225702841884">
        <ele>29</ele>
      </trkpt>
      <trkpt lat="-41.45014400152584" lon="175.225802975396">
        <ele>30</ele>
      </trkpt>
      <trkpt lat="-41.45014400152584" lon="175.225802975396">
        <ele>30</ele>
      </trkpt>
      <trkpt lat="-41.45017070379554" lon="175.225874499332">
        <ele>31</ele>
      </trkpt>
      <trkpt lat="-41.45019740606523" lon="175.225946976922">
        <ele>32</ele>
      </trkpt>
      <trkpt lat="-41.45021552546252" lon="175.226009917986">
        <ele>33</ele>
      </trkpt>
      <trkpt lat="-41.45023269120732" lon="175.226073812703">
        <ele>34</ele>
      </trkpt>
      <trkpt lat="-41.4502431813847" lon="175.226135800114">
        <ele>34</ele>
      </trkpt>
      <trkpt lat="-41.45024508868968" lon="175.226230211711">
        <ele>35</ele>
      </trkpt>
      <trkpt lat="-41.45024699599465" lon="175.22632557696">
        <ele>36</ele>
      </trkpt>
      <trkpt lat="-41.45022410833492" lon="175.226444783521">
        <ele>37</ele>
      </trkpt>
      <trkpt lat="-41.45021647911501" lon="175.226527751287">
        <ele>38</ele>
      </trkpt>
      <trkpt lat="-41.45022029372496" lon="175.226606904444">
        <ele>39</ele>
      </trkpt>
      <trkpt lat="-41.45029944688155" lon="175.227034140759">
        <ele>43</ele>
      </trkpt>
      <trkpt lat="-41.45034522220102" lon="175.227330726683">
        <ele>46</ele>
      </trkpt>
      <trkpt lat="-41.45035189776845" lon="175.227408926187">
        <ele>47</ele>
      </trkpt>
      <trkpt lat="-41.4503480831585" lon="175.227491893954">
        <ele>47</ele>
      </trkpt>
      <trkpt lat="-41.45032328819378" lon="175.227592027465">
        <ele>49</ele>
      </trkpt>
      <trkpt lat="-41.4503299637612" lon="175.227656875834">
        <ele>49</ele>
      </trkpt>
      <trkpt lat="-41.45035666603089" lon="175.227766545871">
        <ele>49</ele>
      </trkpt>
      <trkpt lat="-41.45035666603089" lon="175.22785046729">
        <ele>50</ele>
      </trkpt>
      <trkpt lat="-41.4503557123784" lon="175.227935342361">
        <ele>51</ele>
      </trkpt>
      <trkpt lat="-41.45038336830059" lon="175.228041197788">
        <ele>51</ele>
      </trkpt>
      <trkpt lat="-41.45041960709517" lon="175.228119397292">
        <ele>51</ele>
      </trkpt>
      <trkpt lat="-41.45045584588976" lon="175.228197596796">
        <ele>50</ele>
      </trkpt>
      <trkpt lat="-41.45049017737936" lon="175.228307266832">
        <ele>50</ele>
      </trkpt>
      <trkpt lat="-41.45050162120923" lon="175.228370207896">
        <ele>50</ele>
      </trkpt>
      <trkpt lat="-41.45050162120923" lon="175.228436009918">
        <ele>50</ele>
      </trkpt>
      <trkpt lat="-41.45050162120923" lon="175.228502765592">
        <ele>51</ele>
      </trkpt>
      <trkpt lat="-41.4505130650391" lon="175.228621972153">
        <ele>51</ele>
      </trkpt>
      <trkpt lat="-41.45053690635132" lon="175.228737364105">
        <ele>52</ele>
      </trkpt>
      <trkpt lat="-41.45057791340835" lon="175.228829868396">
        <ele>51</ele>
      </trkpt>
      <trkpt lat="-41.45061892046538" lon="175.228922372687">
        <ele>51</ele>
      </trkpt>
      <trkpt lat="-41.45065802021743" lon="175.229032042724">
        <ele>50</ele>
      </trkpt>
      <trkpt lat="-41.45065039099752" lon="175.229083539958">
        <ele>51</ele>
      </trkpt>
      <trkpt lat="-41.45063036429524" lon="175.229138851802">
        <ele>52</ele>
      </trkpt>
      <trkpt lat="-41.45062845699027" lon="175.229193209994">
        <ele>52</ele>
      </trkpt>
      <trkpt lat="-41.45065134465001" lon="175.229307648293">
        <ele>52</ele>
      </trkpt>
      <trkpt lat="-41.45067423230974" lon="175.229423040244">
        <ele>51</ele>
      </trkpt>
      <trkpt lat="-41.45071142475681" lon="175.229496471486">
        <ele>50</ele>
      </trkpt>
      <trkpt lat="-41.45073335876406" lon="175.229571810032">
        <ele>50</ele>
      </trkpt>
      <trkpt lat="-41.45075433911882" lon="175.229648102232">
        <ele>49</ele>
      </trkpt>
      <trkpt lat="-41.45076101468624" lon="175.229752050353">
        <ele>49</ele>
      </trkpt>
      <trkpt lat="-41.45079820713332" lon="175.229814037765">
        <ele>48</ele>
      </trkpt>
      <trkpt lat="-41.45080392904825" lon="175.229921800496">
        <ele>48</ele>
      </trkpt>
      <trkpt lat="-41.45085542628266" lon="175.2300381461">
        <ele>48</ele>
      </trkpt>
      <trkpt lat="-41.45090596986458" lon="175.230155445356">
        <ele>50</ele>
      </trkpt>
      <trkpt lat="-41.45097558649628" lon="175.230231737555">
        <ele>52</ele>
      </trkpt>
      <trkpt lat="-41.45104424947549" lon="175.230308983406">
        <ele>53</ele>
      </trkpt>
      <trkpt lat="-41.45108334922754" lon="175.230361434293">
        <ele>54</ele>
      </trkpt>
      <trkpt lat="-41.4510957467099" lon="175.230390997521">
        <ele>54</ele>
      </trkpt>
      <trkpt lat="-41.45109670036238" lon="175.230437726492">
        <ele>54</ele>
      </trkpt>
      <trkpt lat="-41.4511386610719" lon="175.230511157734">
        <ele>54</ele>
      </trkpt>
      <trkpt lat="-41.45123307266832" lon="175.230822048446">
        <ele>52</ele>
      </trkpt>
      <trkpt lat="-41.45125500667557" lon="175.230852565325">
        <ele>52</ele>
      </trkpt>
      <trkpt lat="-41.45127503337783" lon="175.230917413694">
        <ele>52</ele>
      </trkpt>
      <trkpt lat="-41.4512950600801" lon="175.230983215716">
        <ele>52</ele>
      </trkpt>
      <trkpt lat="-41.45130173564753" lon="175.231055693305">
        <ele>52</ele>
      </trkpt>
      <trkpt lat="-41.45130745756246" lon="175.231128170895">
        <ele>52</ele>
      </trkpt>
      <trkpt lat="-41.45129315277512" lon="175.231171085257">
        <ele>52</ele>
      </trkpt>
      <trkpt lat="-41.4512778943353" lon="175.231242609193">
        <ele>53</ele>
      </trkpt>
      <trkpt lat="-41.45126263589547" lon="175.23131413313">
        <ele>53</ele>
      </trkpt>
      <trkpt lat="-41.45127026511539" lon="175.231387564372">
        <ele>53</ele>
      </trkpt>
      <trkpt lat="-41.45131508678237" lon="175.231504863628">
        <ele>53</ele>
      </trkpt>
      <trkpt lat="-41.45135990844935" lon="175.231622162884">
        <ele>52</ele>
      </trkpt>
      <trkpt lat="-41.45139996185389" lon="175.231690825863">
        <ele>52</ele>
      </trkpt>
      <trkpt lat="-41.45144001525843" lon="175.231759488842">
        <ele>52</ele>
      </trkpt>
      <trkpt lat="-41.45145718100324" lon="175.231831966431">
        <ele>52</ele>
      </trkpt>
      <trkpt lat="-41.45148579057791" lon="175.231903490368">
        <ele>52</ele>
      </trkpt>
      <trkpt lat="-41.45150772458516" lon="175.232009345794">
        <ele>52</ele>
      </trkpt>
      <trkpt lat="-41.45148579057791" lon="175.232074194164">
        <ele>53</ele>
      </trkpt>
      <trkpt lat="-41.45146290291817" lon="175.232139996185">
        <ele>54</ele>
      </trkpt>
      <trkpt lat="-41.45144192256341" lon="175.232238222392">
        <ele>55</ele>
      </trkpt>
      <trkpt lat="-41.45139614724394" lon="175.232345985123">
        <ele>56</ele>
      </trkpt>
      <trkpt lat="-41.45140186915887" lon="175.232447072287">
        <ele>56</ele>
      </trkpt>
      <trkpt lat="-41.45129792103757" lon="175.232550066756">
        <ele>58</ele>
      </trkpt>
      <trkpt lat="-41.45127407972534" lon="175.23258249094">
        <ele>58</ele>
      </trkpt>
      <trkpt lat="-41.45120637039862" lon="175.232641617395">
        <ele>59</ele>
      </trkpt>
      <trkpt lat="-41.45113770741941" lon="175.232700743849">
        <ele>60</ele>
      </trkpt>
      <trkpt lat="-41.451086210185" lon="175.23350562655">
        <ele>64</ele>
      </trkpt>
      <trkpt lat="-41.45106141522029" lon="175.233792675949">
        <ele>66</ele>
      </trkpt>
      <trkpt lat="-41.45103185199313" lon="175.23391188251">
        <ele>66</ele>
      </trkpt>
      <trkpt lat="-41.45100133511348" lon="175.234031089071">
        <ele>67</ele>
      </trkpt>
      <trkpt lat="-41.45100514972344" lon="175.234115964143">
        <ele>67</ele>
      </trkpt>
      <trkpt lat="-41.4510080106809" lon="175.234201792867">
        <ele>68</ele>
      </trkpt>
      <trkpt lat="-41.45091646004196" lon="175.234295250811">
        <ele>68</ele>
      </trkpt>
      <trkpt lat="-41.45089261872973" lon="175.234397291627">
        <ele>69</ele>
      </trkpt>
      <trkpt lat="-41.45090120160213" lon="175.234508868968">
        <ele>69</ele>
      </trkpt>
      <trkpt lat="-41.45090883082204" lon="175.234620446309">
        <ele>69</ele>
      </trkpt>
      <trkpt lat="-41.45092599656684" lon="175.234731069998">
        <ele>70</ele>
      </trkpt>
      <trkpt lat="-41.45094316231165" lon="175.234842647339">
        <ele>70</ele>
      </trkpt>
      <trkpt lat="-41.45094125500667" lon="175.234940873546">
        <ele>70</ele>
      </trkpt>
      <trkpt lat="-41.4509383940492" lon="175.235039099752">
        <ele>70</ele>
      </trkpt>
      <trkpt lat="-41.45092599656684" lon="175.235110623689">
        <ele>71</ele>
      </trkpt>
      <trkpt lat="-41.45091359908449" lon="175.235183101278">
        <ele>71</ele>
      </trkpt>
      <trkpt lat="-41.45103089834064" lon="175.23547873355">
        <ele>71</ele>
      </trkpt>
      <trkpt lat="-41.45092313560938" lon="175.236005149723">
        <ele>71</ele>
      </trkpt>
      <trkpt lat="-41.45091169177951" lon="175.236096700362">
        <ele>71</ele>
      </trkpt>
      <trkpt lat="-41.45089929429715" lon="175.236189204654">
        <ele>71</ele>
      </trkpt>
      <trkpt lat="-41.45094888422658" lon="175.236461949266">
        <ele>71</ele>
      </trkpt>
      <trkpt lat="-41.45088403585733" lon="175.23672038909">
        <ele>69</ele>
      </trkpt>
      <trkpt lat="-41.4509908449361" lon="175.237132366965">
        <ele>73</ele>
      </trkpt>
      <trkpt lat="-41.45100419607095" lon="175.237242037002">
        <ele>73</ele>
      </trkpt>
      <trkpt lat="-41.45101659355331" lon="175.237351707038">
        <ele>74</ele>
      </trkpt>
      <trkpt lat="-41.45104138851802" lon="175.237460423422">
        <ele>75</ele>
      </trkpt>
      <trkpt lat="-41.45106522983025" lon="175.237570093458">
        <ele>76</ele>
      </trkpt>
      <trkpt lat="-41.45105569330536" lon="175.237640663742">
        <ele>76</ele>
      </trkpt>
      <trkpt lat="-41.45104520312798" lon="175.237711234026">
        <ele>76</ele>
      </trkpt>
      <trkpt lat="-41.45100419607095" lon="175.237790387183">
        <ele>74</ele>
      </trkpt>
      <trkpt lat="-41.45096223536143" lon="175.237870493992">
        <ele>73</ele>
      </trkpt>
      <trkpt lat="-41.45089357238222" lon="175.237942971581">
        <ele>70</ele>
      </trkpt>
      <trkpt lat="-41.45082395575052" lon="175.23801544917">
        <ele>68</ele>
      </trkpt>
      <trkpt lat="-41.4507476635514" lon="175.23807266832">
        <ele>72</ele>
      </trkpt>
      <trkpt lat="-41.45067041769978" lon="175.238129887469">
        <ele>75</ele>
      </trkpt>
      <trkpt lat="-41.45070951745183" lon="175.23891188251">
        <ele>76</ele>
      </trkpt>
      <trkpt lat="-41.45069044440206" lon="175.239388708755">
        <ele>79</ele>
      </trkpt>
      <trkpt lat="-41.45066564943734" lon="175.239476444784">
        <ele>80</ele>
      </trkpt>
      <trkpt lat="-41.45067613961472" lon="175.239562273508">
        <ele>81</ele>
      </trkpt>
      <trkpt lat="-41.45054262826626" lon="175.239886515354">
        <ele>85</ele>
      </trkpt>
      <trkpt lat="-41.45050543581918" lon="175.24">
        <ele>86</ele>
      </trkpt>
      <trkpt lat="-41.45050543581918" lon="175.24">
        <ele>86</ele>
      </trkpt>
      <trkpt lat="-41.45041388518024" lon="175.240298493229">
        <ele>88</ele>
      </trkpt>
      <trkpt lat="-41.45045012397482" lon="175.240498760252">
        <ele>89</ele>
      </trkpt>
      <trkpt lat="-41.45044630936486" lon="175.240618920465">
        <ele>89</ele>
      </trkpt>
      <trkpt lat="-41.4504520312798" lon="175.240794392523">
        <ele>90</ele>
      </trkpt>
      <trkpt lat="-41.45046538241464" lon="175.240933625787">
        <ele>91</ele>
      </trkpt>
      <trkpt lat="-41.45045870684722" lon="175.241010871638">
        <ele>91</ele>
      </trkpt>
      <trkpt lat="-41.45047968720198" lon="175.2410919321">
        <ele>92</ele>
      </trkpt>
      <trkpt lat="-41.4505473965287" lon="175.241581155827">
        <ele>93</ele>
      </trkpt>
      <trkpt lat="-41.45058077436582" lon="175.241740415792">
        <ele>94</ele>
      </trkpt>
      <trkpt lat="-41.45058172801831" lon="175.241802403204">
        <ele>95</ele>
      </trkpt>
      <trkpt lat="-41.45060747663551" lon="175.241894907496">
        <ele>95</ele>
      </trkpt>
      <trkpt lat="-41.45053690635132" lon="175.242063703986">
        <ele>97</ele>
      </trkpt>
      <trkpt lat="-41.45044917032233" lon="175.242162883845">
        <ele>98</ele>
      </trkpt>
      <trkpt lat="-41.45024794964714" lon="175.242238222392">
        <ele>100</ele>
      </trkpt>
      <trkpt lat="-41.45007057028418" lon="175.242286858669">
        <ele>101</ele>
      </trkpt>
      <trkpt lat="-41.44986458134655" lon="175.24241750906">
        <ele>107</ele>
      </trkpt>
      <trkpt lat="-41.44971867251573" lon="175.242550066756">
        <ele>113</ele>
      </trkpt>
      <trkpt lat="-41.44971867251573" lon="175.242550066756">
        <ele>113</ele>
      </trkpt>
      <trkpt lat="-41.44972916269311" lon="175.242444211329">
        <ele>112</ele>
      </trkpt>
      <trkpt lat="-41.449738699218" lon="175.242338355903">
        <ele>111</ele>
      </trkpt>
      <trkpt lat="-41.44971104329582" lon="175.242227732214">
        <ele>111</ele>
      </trkpt>
      <trkpt lat="-41.44968243372115" lon="175.242140949838">
        <ele>112</ele>
      </trkpt>
      <trkpt lat="-41.44965382414647" lon="175.242054167461">
        <ele>113</ele>
      </trkpt>
      <trkpt lat="-41.44962139996185" lon="175.24199218005">
        <ele>114</ele>
      </trkpt>
      <trkpt lat="-41.44958897577722" lon="175.241930192638">
        <ele>115</ele>
      </trkpt>
      <trkpt lat="-41.44955178333015" lon="175.24198073622">
        <ele>116</ele>
      </trkpt>
      <trkpt lat="-41.44954987602517" lon="175.242055121114">
        <ele>117</ele>
      </trkpt>
      <trkpt lat="-41.4495479687202" lon="175.242130459661">
        <ele>117</ele>
      </trkpt>
      <trkpt lat="-41.44952508106046" lon="175.242208659165">
        <ele>118</ele>
      </trkpt>
      <trkpt lat="-41.44948025939348" lon="175.242254434484">
        <ele>120</ele>
      </trkpt>
      <trkpt lat="-41.44939919893191" lon="175.242243944307">
        <ele>123</ele>
      </trkpt>
      <trkpt lat="-41.44936677474728" lon="175.24215716193">
        <ele>124</ele>
      </trkpt>
      <trkpt lat="-41.44933911882509" lon="175.242050352851">
        <ele>124</ele>
      </trkpt>
      <trkpt lat="-41.44928285332824" lon="175.242050352851">
        <ele>126</ele>
      </trkpt>
      <trkpt lat="-41.44926282662598" lon="175.242111386611">
        <ele>127</ele>
      </trkpt>
      <trkpt lat="-41.4492427999237" lon="175.242173374023">
        <ele>128</ele>
      </trkpt>
      <trkpt lat="-41.44923803166126" lon="175.242291626931">
        <ele>129</ele>
      </trkpt>
      <trkpt lat="-41.44920274651916" lon="175.24238317757">
        <ele>130</ele>
      </trkpt>
      <trkpt lat="-41.44909784474537" lon="175.242414648102">
        <ele>134</ele>
      </trkpt>
      <trkpt lat="-41.44902155254625" lon="175.242350753385">
        <ele>137</ele>
      </trkpt>
      <trkpt lat="-41.44900534045394" lon="175.242232500477">
        <ele>138</ele>
      </trkpt>
      <trkpt lat="-41.44900915506389" lon="175.242165744803">
        <ele>137</ele>
      </trkpt>
      <trkpt lat="-41.44901296967384" lon="175.242098989128">
        <ele>137</ele>
      </trkpt>
      <trkpt lat="-41.44904539385848" lon="175.241996948312">
        <ele>136</ele>
      </trkpt>
      <trkpt lat="-41.44905779134083" lon="175.241905397673">
        <ele>135</ele>
      </trkpt>
      <trkpt lat="-41.44900152584398" lon="175.241878695403">
        <ele>137</ele>
      </trkpt>
      <trkpt lat="-41.44892904825481" lon="175.241894907496">
        <ele>140</ele>
      </trkpt>
      <trkpt lat="-41.44886896814801" lon="175.242001716574">
        <ele>143</ele>
      </trkpt>
      <trkpt lat="-41.44885657066565" lon="175.242071333206">
        <ele>143</ele>
      </trkpt>
      <trkpt lat="-41.44878409307648" lon="175.242093267213">
        <ele>146</ele>
      </trkpt>
      <trkpt lat="-41.44872019835972" lon="175.242079916079">
        <ele>149</ele>
      </trkpt>
      <trkpt lat="-41.44865534999046" lon="175.242066564944">
        <ele>151</ele>
      </trkpt>
      <trkpt lat="-41.44855521647911" lon="175.242087545298">
        <ele>156</ele>
      </trkpt>
      <trkpt lat="-41.44848273888994" lon="175.242162883845">
        <ele>159</ele>
      </trkpt>
      <trkpt lat="-41.44836639328629" lon="175.242189586115">
        <ele>164</ele>
      </trkpt>
      <trkpt lat="-41.44824909403013" lon="175.242216288385">
        <ele>169</ele>
      </trkpt>
      <trkpt lat="-41.4481995041007" lon="175.242280183101">
        <ele>171</ele>
      </trkpt>
      <trkpt lat="-41.44814896051879" lon="175.242345031471">
        <ele>173</ele>
      </trkpt>
      <trkpt lat="-41.44804405874499" lon="175.242426091932">
        <ele>177</ele>
      </trkpt>
      <trkpt lat="-41.44797825672325" lon="175.242441350372">
        <ele>180</ele>
      </trkpt>
      <trkpt lat="-41.44791150104901" lon="175.242457562464">
        <ele>182</ele>
      </trkpt>
      <trkpt lat="-41.44783902345985" lon="175.242538622926">
        <ele>184</ele>
      </trkpt>
      <trkpt lat="-41.4477303070761" lon="175.242581537288">
        <ele>188</ele>
      </trkpt>
      <trkpt lat="-41.44761300781995" lon="175.242701697501">
        <ele>190</ele>
      </trkpt>
      <trkpt lat="-41.4474947549113" lon="175.242821857715">
        <ele>193</ele>
      </trkpt>
      <trkpt lat="-41.44745756246424" lon="175.242909593744">
        <ele>193</ele>
      </trkpt>
      <trkpt lat="-41.44739748235742" lon="175.242955369064">
        <ele>194</ele>
      </trkpt>
      <trkpt lat="-41.4473040244135" lon="175.24305359527">
        <ele>195</ele>
      </trkpt>
      <trkpt lat="-41.4472429906542" lon="175.243074575625">
        <ele>197</ele>
      </trkpt>
      <trkpt lat="-41.4471819568949" lon="175.243096509632">
        <ele>198</ele>
      </trkpt>
      <trkpt lat="-41.44709326721343" lon="175.243010680908">
        <ele>202</ele>
      </trkpt>
      <trkpt lat="-41.44707133320617" lon="175.242997329773">
        <ele>202</ele>
      </trkpt>
      <trkpt lat="-41.44703700171657" lon="175.242918176616">
        <ele>204</ele>
      </trkpt>
      <trkpt lat="-41.44700171657448" lon="175.242839977112">
        <ele>205</ele>
      </trkpt>
      <trkpt lat="-41.44696070951745" lon="175.242498569521">
        <ele>208</ele>
      </trkpt>
      <trkpt lat="-41.44688251001335" lon="175.242426091932">
        <ele>209</ele>
      </trkpt>
      <trkpt lat="-41.44686820522601" lon="175.24240606523">
        <ele>209</ele>
      </trkpt>
      <trkpt lat="-41.44686820522601" lon="175.24240606523">
        <ele>209</ele>
      </trkpt>
      <trkpt lat="-41.44682815182147" lon="175.24234884608">
        <ele>209</ele>
      </trkpt>
      <trkpt lat="-41.4468081251192" lon="175.242227732214">
        <ele>208</ele>
      </trkpt>
      <trkpt lat="-41.44682624451649" lon="175.242144764448">
        <ele>207</ele>
      </trkpt>
      <trkpt lat="-41.44684436391378" lon="175.242061796681">
        <ele>207</ele>
      </trkpt>
      <trkpt lat="-41.44684436391378" lon="175.241966431432">
        <ele>206</ele>
      </trkpt>
      <trkpt lat="-41.44684436391378" lon="175.241871066183">
        <ele>205</ele>
      </trkpt>
      <trkpt lat="-41.4468863246233" lon="175.24176997902">
        <ele>204</ele>
      </trkpt>
      <trkpt lat="-41.44692828533282" lon="175.241669845508">
        <ele>202</ele>
      </trkpt>
      <trkpt lat="-41.44698550448216" lon="175.241562082777">
        <ele>201</ele>
      </trkpt>
      <trkpt lat="-41.4470427236315" lon="175.241455273698">
        <ele>201</ele>
      </trkpt>
      <trkpt lat="-41.44709898912836" lon="175.241187297349">
        <ele>200</ele>
      </trkpt>
      <trkpt lat="-41.44709803547587" lon="175.240884035857">
        <ele>200</ele>
      </trkpt>
      <trkpt lat="-41.44715334732023" lon="175.240494945642">
        <ele>198</ele>
      </trkpt>
      <trkpt lat="-41.44724108334923" lon="175.2404215144">
        <ele>196</ele>
      </trkpt>
      <trkpt lat="-41.4472773221438" lon="175.240333778371">
        <ele>195</ele>
      </trkpt>
      <trkpt lat="-41.4473126072859" lon="175.240246042342">
        <ele>194</ele>
      </trkpt>
      <trkpt lat="-41.44735456799542" lon="175.240168796491">
        <ele>193</ele>
      </trkpt>
      <trkpt lat="-41.44739557505245" lon="175.240092504291">
        <ele>191</ele>
      </trkpt>
      <trkpt lat="-41.44746805264161" lon="175.240050543582">
        <ele>190</ele>
      </trkpt>
      <trkpt lat="-41.44749761586878" lon="175.24001525844">
        <ele>189</ele>
      </trkpt>
      <trkpt lat="-41.44751859622353" lon="175.24">
        <ele>188</ele>
      </trkpt>
      <trkpt lat="-41.44751859622353" lon="175.24">
        <ele>188</ele>
      </trkpt>
      <trkpt lat="-41.44763875643715" lon="175.239916078581">
        <ele>184</ele>
      </trkpt>
      <trkpt lat="-41.44775796299828" lon="175.239832157162">
        <ele>180</ele>
      </trkpt>
      <trkpt lat="-41.44785523555216" lon="175.239742513828">
        <ele>177</ele>
      </trkpt>
      <trkpt lat="-41.4478867060843" lon="175.239677665459">
        <ele>176</ele>
      </trkpt>
      <trkpt lat="-41.44791722296394" lon="175.239612817089">
        <ele>176</ele>
      </trkpt>
      <trkpt lat="-41.44794011062368" lon="175.239493610528">
        <ele>176</ele>
      </trkpt>
      <trkpt lat="-41.44795727636848" lon="175.239432576769">
        <ele>176</ele>
      </trkpt>
      <trkpt lat="-41.44797444211329" lon="175.23937154301">
        <ele>176</ele>
      </trkpt>
      <trkpt lat="-41.44806885370971" lon="175.239281899676">
        <ele>175</ele>
      </trkpt>
      <trkpt lat="-41.44812607285905" lon="175.239192256342">
        <ele>176</ele>
      </trkpt>
      <trkpt lat="-41.4481823383559" lon="175.23910356666">
        <ele>175</ele>
      </trkpt>
      <trkpt lat="-41.4481909212283" lon="175.239015830631">
        <ele>175</ele>
      </trkpt>
      <trkpt lat="-41.4482691207324" lon="175.238713522792">
        <ele>172</ele>
      </trkpt>
      <trkpt lat="-41.44825958420751" lon="175.238614342933">
        <ele>171</ele>
      </trkpt>
      <trkpt lat="-41.44832538622926" lon="175.238525653252">
        <ele>169</ele>
      </trkpt>
      <trkpt lat="-41.44835781041388" lon="175.238439824528">
        <ele>168</ele>
      </trkpt>
      <trkpt lat="-41.4484255197406" lon="175.238377837116">
        <ele>165</ele>
      </trkpt>
      <trkpt lat="-41.44849227541484" lon="175.238316803357">
        <ele>163</ele>
      </trkpt>
      <trkpt lat="-41.44856284569902" lon="175.238216669846">
        <ele>160</ele>
      </trkpt>
      <trkpt lat="-41.44863246233072" lon="175.238116536334">
        <ele>158</ele>
      </trkpt>
      <trkpt lat="-41.44862387945832" lon="175.238026893">
        <ele>158</ele>
      </trkpt>
      <trkpt lat="-41.44871161548731" lon="175.237689300019">
        <ele>154</ele>
      </trkpt>
      <trkpt lat="-41.44870207896242" lon="175.237591073813">
        <ele>154</ele>
      </trkpt>
      <trkpt lat="-41.44869158878505" lon="175.237492847606">
        <ele>154</ele>
      </trkpt>
      <trkpt lat="-41.44867346938775" lon="175.23741369445">
        <ele>153</ele>
      </trkpt>
      <trkpt lat="-41.44865534999046" lon="175.237334541293">
        <ele>152</ele>
      </trkpt>
      <trkpt lat="-41.4486257867633" lon="175.237271600229">
        <ele>152</ele>
      </trkpt>
      <trkpt lat="-41.44859526988365" lon="175.237208659165">
        <ele>151</ele>
      </trkpt>
      <trkpt lat="-41.44847415601755" lon="175.237101850086">
        <ele>152</ele>
      </trkpt>
      <trkpt lat="-41.44844077818043" lon="175.237029372497">
        <ele>151</ele>
      </trkpt>
      <trkpt lat="-41.44843600991798" lon="175.23691970246">
        <ele>149</ele>
      </trkpt>
      <trkpt lat="-41.4483301544917" lon="175.236669845508">
        <ele>146</ele>
      </trkpt>
      <trkpt lat="-41.44830726683196" lon="175.236600228877">
        <ele>146</ele>
      </trkpt>
      <trkpt lat="-41.44829963761205" lon="175.23651726111">
        <ele>145</ele>
      </trkpt>
      <trkpt lat="-41.44834350562655" lon="175.236462902918">
        <ele>143</ele>
      </trkpt>
      <trkpt lat="-41.44844650009536" lon="175.236433339691">
        <ele>141</ele>
      </trkpt>
      <trkpt lat="-41.44848846080488" lon="175.236377074194">
        <ele>140</ele>
      </trkpt>
      <trkpt lat="-41.44855521647911" lon="175.236318901392">
        <ele>138</ele>
      </trkpt>
      <trkpt lat="-41.44859622353614" lon="175.236244516498">
        <ele>136</ele>
      </trkpt>
      <trkpt lat="-41.44863723059317" lon="175.236171085257">
        <ele>135</ele>
      </trkpt>
      <trkpt lat="-41.44865534999046" lon="175.236063322525">
        <ele>133</ele>
      </trkpt>
      <trkpt lat="-41.44867346938775" lon="175.235956513447">
        <ele>131</ele>
      </trkpt>
      <trkpt lat="-41.44875166889185" lon="175.235843982453">
        <ele>127</ele>
      </trkpt>
      <trkpt lat="-41.44877741750906" lon="175.235779134084">
        <ele>126</ele>
      </trkpt>
      <trkpt lat="-41.44880221247377" lon="175.235715239367">
        <ele>125</ele>
      </trkpt>
      <trkpt lat="-41.44886706084302" lon="175.235371924471">
        <ele>121</ele>
      </trkpt>
      <trkpt lat="-41.44897673087927" lon="175.235269883654">
        <ele>118</ele>
      </trkpt>
      <trkpt lat="-41.44904444020599" lon="175.235168796491">
        <ele>115</ele>
      </trkpt>
      <trkpt lat="-41.44911214953271" lon="175.235068662979">
        <ele>113</ele>
      </trkpt>
      <trkpt lat="-41.44911405683769" lon="175.235006675567">
        <ele>112</ele>
      </trkpt>
      <trkpt lat="-41.44911596414266" lon="175.234945641808">
        <ele>112</ele>
      </trkpt>
      <trkpt lat="-41.44911119588021" lon="175.234874117871">
        <ele>112</ele>
      </trkpt>
      <trkpt lat="-41.44910547396528" lon="175.234802593935">
        <ele>112</ele>
      </trkpt>
      <trkpt lat="-41.44911787144764" lon="175.234735838261">
        <ele>111</ele>
      </trkpt>
      <trkpt lat="-41.44913026893" lon="175.234669082586">
        <ele>111</ele>
      </trkpt>
      <trkpt lat="-41.44916841502956" lon="175.23457467099">
        <ele>110</ele>
      </trkpt>
      <trkpt lat="-41.449260919321" lon="175.234475491131">
        <ele>108</ele>
      </trkpt>
      <trkpt lat="-41.44931337020789" lon="175.234412550067">
        <ele>106</ele>
      </trkpt>
      <trkpt lat="-41.4493648674423" lon="175.234349609002">
        <ele>105</ele>
      </trkpt>
      <trkpt lat="-41.44944974251382" lon="175.234290482548">
        <ele>103</ele>
      </trkpt>
      <trkpt lat="-41.44949170322334" lon="175.234217051307">
        <ele>101</ele>
      </trkpt>
      <trkpt lat="-41.44953366393286" lon="175.234143620065">
        <ele>100</ele>
      </trkpt>
      <trkpt lat="-41.44960995613198" lon="175.234084493611">
        <ele>98</ele>
      </trkpt>
      <trkpt lat="-41.44964524127408" lon="175.234018691589">
        <ele>97</ele>
      </trkpt>
      <trkpt lat="-41.44968052641617" lon="175.233952889567">
        <ele>96</ele>
      </trkpt>
      <trkpt lat="-41.4497654014877" lon="175.233880411978">
        <ele>94</ele>
      </trkpt>
      <trkpt lat="-41.44981308411214" lon="175.233815563609">
        <ele>92</ele>
      </trkpt>
      <trkpt lat="-41.44988556170131" lon="175.233762159069">
        <ele>90</ele>
      </trkpt>
      <trkpt lat="-41.44995803929048" lon="175.23370875453">
        <ele>88</ele>
      </trkpt>
      <trkpt lat="-41.44995803929048" lon="175.233606713714">
        <ele>87</ele>
      </trkpt>
      <trkpt lat="-41.44991989319092" lon="175.233537097082">
        <ele>88</ele>
      </trkpt>
      <trkpt lat="-41.44991417127599" lon="175.233415983216">
        <ele>88</ele>
      </trkpt>
      <trkpt lat="-41.44993801258821" lon="175.233312988747">
        <ele>86</ele>
      </trkpt>
      <trkpt lat="-41.44996185390043" lon="175.233209994278">
        <ele>85</ele>
      </trkpt>
      <trkpt lat="-41.45001049017738" lon="175.233099370589">
        <ele>84</ele>
      </trkpt>
      <trkpt lat="-41.45003814609956" lon="175.232982071333">
        <ele>83</ele>
      </trkpt>
      <trkpt lat="-41.4501211138661" lon="175.232909593744">
        <ele>81</ele>
      </trkpt>
      <trkpt lat="-41.45020312798016" lon="175.232837116155">
        <ele>79</ele>
      </trkpt>
      <trkpt lat="-41.4502517642571" lon="175.232761777608">
        <ele>78</ele>
      </trkpt>
      <trkpt lat="-41.45023936677475" lon="175.232652107572">
        <ele>78</ele>
      </trkpt>
      <trkpt lat="-41.45020503528514" lon="175.232613961472">
        <ele>79</ele>
      </trkpt>
      <trkpt lat="-41.45022124737745" lon="175.232548159451">
        <ele>78</ele>
      </trkpt>
      <trkpt lat="-41.45023745946977" lon="175.232483311081">
        <ele>78</ele>
      </trkpt>
      <trkpt lat="-41.45028037383177" lon="175.232388899485">
        <ele>77</ele>
      </trkpt>
      <trkpt lat="-41.45035857333587" lon="175.232332633988">
        <ele>75</ele>
      </trkpt>
      <trkpt lat="-41.45046252145718" lon="175.232319282853">
        <ele>72</ele>
      </trkpt>
      <trkpt lat="-41.45056170131603" lon="175.232282090406">
        <ele>69</ele>
      </trkpt>
      <trkpt lat="-41.45063131794774" lon="175.232184817852">
        <ele>67</ele>
      </trkpt>
      <trkpt lat="-41.4506780469197" lon="175.232101850086">
        <ele>66</ele>
      </trkpt>
      <trkpt lat="-41.45072382223917" lon="175.232018882319">
        <ele>64</ele>
      </trkpt>
      <trkpt lat="-41.4507648292962" lon="175.231913980545">
        <ele>63</ele>
      </trkpt>
      <trkpt lat="-41.45082967766545" lon="175.231825290864">
        <ele>61</ele>
      </trkpt>
      <trkpt lat="-41.45089357238222" lon="175.231737554835">
        <ele>59</ele>
      </trkpt>
      <trkpt lat="-41.45097940110623" lon="175.231665077246">
        <ele>58</ele>
      </trkpt>
      <trkpt lat="-41.45100991798588" lon="175.231590692352">
        <ele>57</ele>
      </trkpt>
      <trkpt lat="-41.45103948121304" lon="175.23151726111">
        <ele>56</ele>
      </trkpt>
      <trkpt lat="-41.45103948121304" lon="175.231454320046">
        <ele>56</ele>
      </trkpt>
      <trkpt lat="-41.45103948121304" lon="175.231391378982">
        <ele>56</ele>
      </trkpt>
      <trkpt lat="-41.45106427617775" lon="175.231313179477">
        <ele>55</ele>
      </trkpt>
      <trkpt lat="-41.45115010490177" lon="175.231193019264">
        <ele>54</ele>
      </trkpt>
      <trkpt lat="-41.45118634369635" lon="175.231131031852">
        <ele>53</ele>
      </trkpt>
      <trkpt lat="-41.45122258249094" lon="175.231069998093">
        <ele>53</ele>
      </trkpt>
      <trkpt lat="-41.45121018500858" lon="175.230992752241">
        <ele>53</ele>
      </trkpt>
      <trkpt lat="-41.45119683387373" lon="175.230916460042">
        <ele>53</ele>
      </trkpt>
      <trkpt lat="-41.45115487316421" lon="175.230826816708">
        <ele>53</ele>
      </trkpt>
      <trkpt lat="-41.45113293915697" lon="175.230576006103">
        <ele>54</ele>
      </trkpt>
      <trkpt lat="-41.4511386610719" lon="175.230511157734">
        <ele>54</ele>
      </trkpt>
      <trkpt lat="-41.4511386610719" lon="175.230511157734">
        <ele>54</ele>
      </trkpt>
      <trkpt lat="-41.45109670036238" lon="175.230437726492">
        <ele>54</ele>
      </trkpt>
      <trkpt lat="-41.4510957467099" lon="175.230390997521">
        <ele>54</ele>
      </trkpt>
      <trkpt lat="-41.45108334922754" lon="175.230361434293">
        <ele>54</ele>
      </trkpt>
      <trkpt lat="-41.45104424947549" lon="175.230308983406">
        <ele>53</ele>
      </trkpt>
      <trkpt lat="-41.45097558649628" lon="175.230231737555">
        <ele>52</ele>
      </trkpt>
      <trkpt lat="-41.45090596986458" lon="175.230155445356">
        <ele>50</ele>
      </trkpt>
      <trkpt lat="-41.45085542628266" lon="175.2300381461">
        <ele>48</ele>
      </trkpt>
      <trkpt lat="-41.45080392904825" lon="175.229921800496">
        <ele>48</ele>
      </trkpt>
      <trkpt lat="-41.45079820713332" lon="175.229814037765">
        <ele>48</ele>
      </trkpt>
      <trkpt lat="-41.45076101468624" lon="175.229752050353">
        <ele>49</ele>
      </trkpt>
      <trkpt lat="-41.45075433911882" lon="175.229648102232">
        <ele>49</ele>
      </trkpt>
      <trkpt lat="-41.45073335876406" lon="175.229571810032">
        <ele>50</ele>
      </trkpt>
      <trkpt lat="-41.45071142475681" lon="175.229496471486">
        <ele>50</ele>
      </trkpt>
      <trkpt lat="-41.45067423230974" lon="175.229423040244">
        <ele>51</ele>
      </trkpt>
      <trkpt lat="-41.45065134465001" lon="175.229307648293">
        <ele>52</ele>
      </trkpt>
      <trkpt lat="-41.45062845699027" lon="175.229193209994">
        <ele>52</ele>
      </trkpt>
      <trkpt lat="-41.45063036429524" lon="175.229138851802">
        <ele>52</ele>
      </trkpt>
      <trkpt lat="-41.45065039099752" lon="175.229083539958">
        <ele>51</ele>
      </trkpt>
      <trkpt lat="-41.45065802021743" lon="175.229032042724">
        <ele>50</ele>
      </trkpt>
      <trkpt lat="-41.45061892046538" lon="175.228922372687">
        <ele>51</ele>
      </trkpt>
      <trkpt lat="-41.45057791340835" lon="175.228829868396">
        <ele>51</ele>
      </trkpt>
      <trkpt lat="-41.45053690635132" lon="175.228737364105">
        <ele>52</ele>
      </trkpt>
      <trkpt lat="-41.4505130650391" lon="175.228621972153">
        <ele>51</ele>
      </trkpt>
      <trkpt lat="-41.45050162120923" lon="175.228502765592">
        <ele>51</ele>
      </trkpt>
      <trkpt lat="-41.45050162120923" lon="175.228436009918">
        <ele>50</ele>
      </trkpt>
      <trkpt lat="-41.45050162120923" lon="175.228370207896">
        <ele>50</ele>
      </trkpt>
      <trkpt lat="-41.45049017737936" lon="175.228307266832">
        <ele>50</ele>
      </trkpt>
      <trkpt lat="-41.45045584588976" lon="175.228197596796">
        <ele>50</ele>
      </trkpt>
      <trkpt lat="-41.45041960709517" lon="175.228119397292">
        <ele>51</ele>
      </trkpt>
      <trkpt lat="-41.45038336830059" lon="175.228041197788">
        <ele>51</ele>
      </trkpt>
      <trkpt lat="-41.4503557123784" lon="175.227935342361">
        <ele>51</ele>
      </trkpt>
      <trkpt lat="-41.45035666603089" lon="175.22785046729">
        <ele>50</ele>
      </trkpt>
      <trkpt lat="-41.45035666603089" lon="175.227766545871">
        <ele>49</ele>
      </trkpt>
      <trkpt lat="-41.4503299637612" lon="175.227656875834">
        <ele>49</ele>
      </trkpt>
      <trkpt lat="-41.45032328819378" lon="175.227592027465">
        <ele>49</ele>
      </trkpt>
      <trkpt lat="-41.4503480831585" lon="175.227491893954">
        <ele>47</ele>
      </trkpt>
      <trkpt lat="-41.45035189776845" lon="175.227408926187">
        <ele>47</ele>
      </trkpt>
      <trkpt lat="-41.45034522220102" lon="175.227330726683">
        <ele>46</ele>
      </trkpt>
      <trkpt lat="-41.45029944688155" lon="175.227034140759">
        <ele>43</ele>
      </trkpt>
      <trkpt lat="-41.45022029372496" lon="175.226606904444">
        <ele>39</ele>
      </trkpt>
      <trkpt lat="-41.45021647911501" lon="175.226527751287">
        <ele>38</ele>
      </trkpt>
      <trkpt lat="-41.45022410833492" lon="175.226444783521">
        <ele>37</ele>
      </trkpt>
      <trkpt lat="-41.45024699599465" lon="175.22632557696">
        <ele>36</ele>
      </trkpt>
      <trkpt lat="-41.45024508868968" lon="175.226230211711">
        <ele>35</ele>
      </trkpt>
      <trkpt lat="-41.4502431813847" lon="175.226135800114">
        <ele>34</ele>
      </trkpt>
      <trkpt lat="-41.45023269120732" lon="175.226073812703">
        <ele>34</ele>
      </trkpt>
      <trkpt lat="-41.45021552546252" lon="175.226009917986">
        <ele>33</ele>
      </trkpt>
      <trkpt lat="-41.45019740606523" lon="175.225946976922">
        <ele>32</ele>
      </trkpt>
      <trkpt lat="-41.45017070379554" lon="175.225874499332">
        <ele>31</ele>
      </trkpt>
      <trkpt lat="-41.45014400152584" lon="175.225802975396">
        <ele>30</ele>
      </trkpt>
      <trkpt lat="-41.45014400152584" lon="175.225802975396">
        <ele>30</ele>
      </trkpt>
      <trkpt lat="-41.45014400152584" lon="175.225702841884">
        <ele>29</ele>
      </trkpt>
      <trkpt lat="-41.45016593553309" lon="175.225414838833">
        <ele>28</ele>
      </trkpt>
      <trkpt lat="-41.45016021361815" lon="175.22525653252">
        <ele>27</ele>
      </trkpt>
      <trkpt lat="-41.45012397482357" lon="175.224999046348">
        <ele>25</ele>
      </trkpt>
      <trkpt lat="-41.45010108716383" lon="175.224920846843">
        <ele>24</ele>
      </trkpt>
      <trkpt lat="-41.45008106046156" lon="175.224878886134">
        <ele>24</ele>
      </trkpt>
      <trkpt lat="-41.45002002670226" lon="175.224759679573">
        <ele>22</ele>
      </trkpt>
      <trkpt lat="-41.44997520503528" lon="175.224609956132">
        <ele>22</ele>
      </trkpt>
      <trkpt lat="-41.44990272744612" lon="175.224159832157">
        <ele>24</ele>
      </trkpt>
      <trkpt lat="-41.44987507152393" lon="175.224050162121">
        <ele>24</ele>
      </trkpt>
      <trkpt lat="-41.44974537478542" lon="175.223695403395">
        <ele>27</ele>
      </trkpt>
      <trkpt lat="-41.44966145336639" lon="175.223365439634">
        <ele>28</ele>
      </trkpt>
      <trkpt lat="-41.4495908830822" lon="175.223017356475">
        <ele>30</ele>
      </trkpt>
      <trkpt lat="-41.44958924196931" lon="175.223007555384">
        <ele>30</ele>
      </trkpt>
    </trkseg>
  </trk>
</gpx>