<?xml version="1.0" encoding="UTF-8" standalone="yes"?>
<gpx
 version="1.1"
 creator="Generated by MapOut iPhone App. See https://mapout.app"
 xmlns="http://www.topografix.com/GPX/1/1"
 xmlns:xsi="http://www.w3.org/2001/XMLSchema-instance"
 xmlns:gpxx="http://www.garmin.com/xmlschemas/GpxExtensions/v3"
 xmlns:mapout="https://mapout.app/xmlschemas/MapOutExtensions"
 xsi:schemaLocation="http://www.topografix.com/GPX/1/1 https://www.topografix.com/GPX/1/1/gpx.xsd http://www.garmin.com/xmlschemas/GpxExtensions/v3 https://www8.garmin.com/xmlschemas/GpxExtensionsv3.xsd https://mapout.app/xmlschemas/MapOutExtensions https://mapout.app/xmlschemas/MapOutExtensions.xsd">
  <metadata>
    <name>Longest footbridge in the south hemisphere</name>
    <author><name>iPhone</name></author>
    <time>2026-03-13T10:34:56Z</time>
    <bounds minlat="-35.51862769406828" minlon="174.45241750906" maxlat="-35.5151018720689" maxlon="174.452486171246"/>
  </metadata>
  <trk>
    <name>Longest footbridge in the south hemisphere</name>
    <trkseg>
      <trkpt lat="-35.5151018720689" lon="174.452486171246">
        <ele>2</ele>
      </trkpt>
      <trkpt lat="-35.51858859431623" lon="174.45241750906">
        <ele>3</ele>
      </trkpt>
      <trkpt lat="-35.51862769406828" lon="174.452441350372">
        <ele>3</ele>
      </trkpt>
    </trkseg>
  </trk>
</gpx>