<?xml version="1.0" encoding="UTF-8" standalone="yes"?>
<gpx
 version="1.1"
 creator="Generated by MapOut iPhone App. See https://mapout.app"
 xmlns="http://www.topografix.com/GPX/1/1"
 xmlns:xsi="http://www.w3.org/2001/XMLSchema-instance"
 xmlns:gpxx="http://www.garmin.com/xmlschemas/GpxExtensions/v3"
 xmlns:mapout="https://mapout.app/xmlschemas/MapOutExtensions"
 xsi:schemaLocation="http://www.topografix.com/GPX/1/1 https://www.topografix.com/GPX/1/1/gpx.xsd http://www.garmin.com/xmlschemas/GpxExtensions/v3 https://www8.garmin.com/xmlschemas/GpxExtensionsv3.xsd https://mapout.app/xmlschemas/MapOutExtensions https://mapout.app/xmlschemas/MapOutExtensions.xsd">
  <metadata>
    <name>Ohope Track</name>
    <author><name>iPhone</name></author>
    <time>2026-06-13T02:34:15Z</time>
    <bounds minlat="-37.96885847797063" minlon="177.029361052832" maxlat="-37.96400534045394" maxlon="177.033878508478"/>
  </metadata>
  <trk>
    <name>Ohope Track</name>
    <trkseg>
      <trkpt lat="-37.96401710576054" lon="177.033669693625">
        <ele>25</ele>
      </trkpt>
      <trkpt lat="-37.96400534045394" lon="177.033706847225">
        <ele>24</ele>
      </trkpt>
      <trkpt lat="-37.96400534045394" lon="177.033706847225">
        <ele>24</ele>
      </trkpt>
      <trkpt lat="-37.96411787144764" lon="177.033746900629">
        <ele>25</ele>
      </trkpt>
      <trkpt lat="-37.96418081251192" lon="177.03367823765">
        <ele>27</ele>
      </trkpt>
      <trkpt lat="-37.96424279992371" lon="177.033609574671">
        <ele>30</ele>
      </trkpt>
      <trkpt lat="-37.96432004577532" lon="177.033538050734">
        <ele>33</ele>
      </trkpt>
      <trkpt lat="-37.96437726492466" lon="177.033428380698">
        <ele>36</ele>
      </trkpt>
      <trkpt lat="-37.96452317375548" lon="177.03305740988">
        <ele>43</ele>
      </trkpt>
      <trkpt lat="-37.96456227350753" lon="177.032770360481">
        <ele>45</ele>
      </trkpt>
      <trkpt lat="-37.96459279038718" lon="177.032691207324">
        <ele>45</ele>
      </trkpt>
      <trkpt lat="-37.96477112340263" lon="177.032448025939">
        <ele>46</ele>
      </trkpt>
      <trkpt lat="-37.96503147053214" lon="177.031818615297">
        <ele>42</ele>
      </trkpt>
      <trkpt lat="-37.96508868968148" lon="177.031748045012">
        <ele>42</ele>
      </trkpt>
      <trkpt lat="-37.96514495517833" lon="177.031677474728">
        <ele>42</ele>
      </trkpt>
      <trkpt lat="-37.96514495517833" lon="177.031677474728">
        <ele>42</ele>
      </trkpt>
      <trkpt lat="-37.96516212092313" lon="177.031606904444">
        <ele>42</ele>
      </trkpt>
      <trkpt lat="-37.96514686248331" lon="177.03153633416">
        <ele>42</ele>
      </trkpt>
      <trkpt lat="-37.96512588212855" lon="177.031476254053">
        <ele>42</ele>
      </trkpt>
      <trkpt lat="-37.9650438680145" lon="177.031365630364">
        <ele>41</ele>
      </trkpt>
      <trkpt lat="-37.96504196070951" lon="177.031273126073">
        <ele>41</ele>
      </trkpt>
      <trkpt lat="-37.96504863627694" lon="177.031209231356">
        <ele>41</ele>
      </trkpt>
      <trkpt lat="-37.96505531184436" lon="177.031145336639">
        <ele>41</ele>
      </trkpt>
      <trkpt lat="-37.96509917985886" lon="177.031063322525">
        <ele>42</ele>
      </trkpt>
      <trkpt lat="-37.96517165744802" lon="177.03108811749">
        <ele>44</ele>
      </trkpt>
      <trkpt lat="-37.96515353805074" lon="177.031055693305">
        <ele>43</ele>
      </trkpt>
      <trkpt lat="-37.96515353805074" lon="177.031055693305">
        <ele>43</ele>
      </trkpt>
      <trkpt lat="-37.96514876978829" lon="177.031048064085">
        <ele>43</ele>
      </trkpt>
      <trkpt lat="-37.96514876978829" lon="177.031048064085">
        <ele>43</ele>
      </trkpt>
      <trkpt lat="-37.96508964333397" lon="177.030946976922">
        <ele>42</ele>
      </trkpt>
      <trkpt lat="-37.96507247758917" lon="177.03084684341">
        <ele>42</ele>
      </trkpt>
      <trkpt lat="-37.9650953652489" lon="177.030761014686">
        <ele>42</ele>
      </trkpt>
      <trkpt lat="-37.96511825290864" lon="177.030675185962">
        <ele>43</ele>
      </trkpt>
      <trkpt lat="-37.96526511539195" lon="177.030409116918">
        <ele>47</ele>
      </trkpt>
      <trkpt lat="-37.96532424184627" lon="177.030329010109">
        <ele>49</ele>
      </trkpt>
      <trkpt lat="-37.96534140759108" lon="177.030267022697">
        <ele>49</ele>
      </trkpt>
      <trkpt lat="-37.96535761968339" lon="177.030205035285">
        <ele>49</ele>
      </trkpt>
      <trkpt lat="-37.96536048064085" lon="177.030114438299">
        <ele>50</ele>
      </trkpt>
      <trkpt lat="-37.96538527560557" lon="177.03001144383">
        <ele>50</ele>
      </trkpt>
      <trkpt lat="-37.9654091169178" lon="177.029909403014">
        <ele>50</ele>
      </trkpt>
      <trkpt lat="-37.96550257486172" lon="177.029794964715">
        <ele>51</ele>
      </trkpt>
      <trkpt lat="-37.96559507915315" lon="177.029680526416">
        <ele>52</ele>
      </trkpt>
      <trkpt lat="-37.96593744039671" lon="177.029361052832">
        <ele>51</ele>
      </trkpt>
      <trkpt lat="-37.96596604997139" lon="177.029408735457">
        <ele>52</ele>
      </trkpt>
      <trkpt lat="-37.96602231546824" lon="177.029456418081">
        <ele>53</ele>
      </trkpt>
      <trkpt lat="-37.96606809078772" lon="177.029440205989">
        <ele>54</ele>
      </trkpt>
      <trkpt lat="-37.96606809078772" lon="177.029440205989">
        <ele>54</ele>
      </trkpt>
      <trkpt lat="-37.96622448979592" lon="177.029453557124">
        <ele>56</ele>
      </trkpt>
      <trkpt lat="-37.96622448979592" lon="177.029453557124">
        <ele>56</ele>
      </trkpt>
      <trkpt lat="-37.966304596605" lon="177.029508868968">
        <ele>58</ele>
      </trkpt>
      <trkpt lat="-37.96638374976158" lon="177.029565134465">
        <ele>60</ele>
      </trkpt>
      <trkpt lat="-37.96645241274079" lon="177.02955559794">
        <ele>61</ele>
      </trkpt>
      <trkpt lat="-37.96654587068472" lon="177.02957467099">
        <ele>63</ele>
      </trkpt>
      <trkpt lat="-37.96663837497616" lon="177.02959374404">
        <ele>65</ele>
      </trkpt>
      <trkpt lat="-37.96671466717528" lon="177.029619492657">
        <ele>67</ele>
      </trkpt>
      <trkpt lat="-37.96673278657257" lon="177.029704367728">
        <ele>69</ele>
      </trkpt>
      <trkpt lat="-37.96677570093458" lon="177.02977398436">
        <ele>71</ele>
      </trkpt>
      <trkpt lat="-37.96684531756627" lon="177.02979687202">
        <ele>74</ele>
      </trkpt>
      <trkpt lat="-37.96691111958802" lon="177.029847415602">
        <ele>76</ele>
      </trkpt>
      <trkpt lat="-37.96701220675186" lon="177.029851230212">
        <ele>79</ele>
      </trkpt>
      <trkpt lat="-37.96708468434102" lon="177.029829296204">
        <ele>81</ele>
      </trkpt>
      <trkpt lat="-37.96716193019264" lon="177.029855044822">
        <ele>84</ele>
      </trkpt>
      <trkpt lat="-37.96723822239176" lon="177.029880793439">
        <ele>86</ele>
      </trkpt>
      <trkpt lat="-37.96734979973298" lon="177.029909403014">
        <ele>90</ele>
      </trkpt>
      <trkpt lat="-37.96746042342171" lon="177.029861720389">
        <ele>92</ele>
      </trkpt>
      <trkpt lat="-37.96757581537288" lon="177.029790196452">
        <ele>95</ele>
      </trkpt>
      <trkpt lat="-37.96765496852947" lon="177.029722487126">
        <ele>97</ele>
      </trkpt>
      <trkpt lat="-37.96773412168606" lon="177.02978161358">
        <ele>100</ele>
      </trkpt>
      <trkpt lat="-37.96781232119016" lon="177.029841693687">
        <ele>104</ele>
      </trkpt>
      <trkpt lat="-37.96786381842457" lon="177.02981975968">
        <ele>106</ele>
      </trkpt>
      <trkpt lat="-37.96792866679382" lon="177.02974346748">
        <ele>107</ele>
      </trkpt>
      <trkpt lat="-37.96799828342552" lon="177.029829296204">
        <ele>111</ele>
      </trkpt>
      <trkpt lat="-37.96803929048254" lon="177.029851230212">
        <ele>113</ele>
      </trkpt>
      <trkpt lat="-37.96810127789433" lon="177.029780659928">
        <ele>114</ele>
      </trkpt>
      <trkpt lat="-37.968086973107" lon="177.029686248331">
        <ele>111</ele>
      </trkpt>
      <trkpt lat="-37.96807266831966" lon="177.029591836735">
        <ele>109</ele>
      </trkpt>
      <trkpt lat="-37.9680783902346" lon="177.02953271028">
        <ele>108</ele>
      </trkpt>
      <trkpt lat="-37.96815849704367" lon="177.029515544536">
        <ele>110</ele>
      </trkpt>
      <trkpt lat="-37.96822525271791" lon="177.029526034713">
        <ele>112</ele>
      </trkpt>
      <trkpt lat="-37.96825386229258" lon="177.029645241274">
        <ele>116</ele>
      </trkpt>
      <trkpt lat="-37.96828247186725" lon="177.029765401488">
        <ele>120</ele>
      </trkpt>
      <trkpt lat="-37.96833492275415" lon="177.029680526416">
        <ele>120</ele>
      </trkpt>
      <trkpt lat="-37.96839309555598" lon="177.029629029182">
        <ele>119</ele>
      </trkpt>
      <trkpt lat="-37.96846175853519" lon="177.029632843792">
        <ele>119</ele>
      </trkpt>
      <trkpt lat="-37.96847224871257" lon="177.029705321381">
        <ele>121</ele>
      </trkpt>
      <trkpt lat="-37.96848273888995" lon="177.029778752623">
        <ele>123</ele>
      </trkpt>
      <trkpt lat="-37.96850944115964" lon="177.029862674042">
        <ele>125</ele>
      </trkpt>
      <trkpt lat="-37.96861529658592" lon="177.029974251383">
        <ele>129</ele>
      </trkpt>
      <trkpt lat="-37.96866107190539" lon="177.029979019645">
        <ele>130</ele>
      </trkpt>
      <trkpt lat="-37.96870684722487" lon="177.029957085638">
        <ele>129</ele>
      </trkpt>
      <trkpt lat="-37.96878027846653" lon="177.030010490177">
        <ele>131</ele>
      </trkpt>
      <trkpt lat="-37.96879553690635" lon="177.030090596986">
        <ele>133</ele>
      </trkpt>
      <trkpt lat="-37.96881079534617" lon="177.030171657448">
        <ele>134</ele>
      </trkpt>
      <trkpt lat="-37.96881270265115" lon="177.030280373832">
        <ele>135</ele>
      </trkpt>
      <trkpt lat="-37.96884131222583" lon="177.03039862674">
        <ele>137</ele>
      </trkpt>
      <trkpt lat="-37.96885847797063" lon="177.030519740607">
        <ele>138</ele>
      </trkpt>
      <trkpt lat="-37.96885847797063" lon="177.030519740607">
        <ele>138</ele>
      </trkpt>
      <trkpt lat="-37.96880507343124" lon="177.030587449933">
        <ele>139</ele>
      </trkpt>
      <trkpt lat="-37.96869635704749" lon="177.030851611673">
        <ele>141</ele>
      </trkpt>
      <trkpt lat="-37.96867728399771" lon="177.030935533092">
        <ele>140</ele>
      </trkpt>
      <trkpt lat="-37.96865821094793" lon="177.031019454511">
        <ele>140</ele>
      </trkpt>
      <trkpt lat="-37.96855521647911" lon="177.03108048827">
        <ele>140</ele>
      </trkpt>
      <trkpt lat="-37.96845126835781" lon="177.031141522029">
        <ele>140</ele>
      </trkpt>
      <trkpt lat="-37.96835113484646" lon="177.031253099371">
        <ele>141</ele>
      </trkpt>
      <trkpt lat="-37.96825004768262" lon="177.031365630364">
        <ele>139</ele>
      </trkpt>
      <trkpt lat="-37.96821476254053" lon="177.031465763876">
        <ele>138</ele>
      </trkpt>
      <trkpt lat="-37.96817852374595" lon="177.031565897387">
        <ele>138</ele>
      </trkpt>
      <trkpt lat="-37.96817184817852" lon="177.031687011253">
        <ele>138</ele>
      </trkpt>
      <trkpt lat="-37.96816421895861" lon="177.031808125119">
        <ele>137</ele>
      </trkpt>
      <trkpt lat="-37.96818996757582" lon="177.031907304978">
        <ele>137</ele>
      </trkpt>
      <trkpt lat="-37.96821476254053" lon="177.032007438489">
        <ele>138</ele>
      </trkpt>
      <trkpt lat="-37.96812798016403" lon="177.03286572573">
        <ele>134</ele>
      </trkpt>
      <trkpt lat="-37.96797730307076" lon="177.033114629029">
        <ele>134</ele>
      </trkpt>
      <trkpt lat="-37.9679219912264" lon="177.033154682434">
        <ele>134</ele>
      </trkpt>
      <trkpt lat="-37.96784855998474" lon="177.033178523746">
        <ele>133</ele>
      </trkpt>
      <trkpt lat="-37.96780373831776" lon="177.033229067328">
        <ele>133</ele>
      </trkpt>
      <trkpt lat="-37.96772744611863" lon="177.033273888995">
        <ele>133</ele>
      </trkpt>
      <trkpt lat="-37.9676263589548" lon="177.033315849704">
        <ele>133</ele>
      </trkpt>
      <trkpt lat="-37.96752431813847" lon="177.033358764066">
        <ele>133</ele>
      </trkpt>
      <trkpt lat="-37.96746233072668" lon="177.033358764066">
        <ele>131</ele>
      </trkpt>
      <trkpt lat="-37.96740034331489" lon="177.033359717719">
        <ele>129</ele>
      </trkpt>
      <trkpt lat="-37.96728209040626" lon="177.033350181194">
        <ele>126</ele>
      </trkpt>
      <trkpt lat="-37.96726492466145" lon="177.033335876407">
        <ele>125</ele>
      </trkpt>
      <trkpt lat="-37.96735456799542" lon="177.03326816708">
        <ele>127</ele>
      </trkpt>
      <trkpt lat="-37.9674346748045" lon="177.033183292008">
        <ele>128</ele>
      </trkpt>
      <trkpt lat="-37.96758821285523" lon="177.0328542819">
        <ele>127</ele>
      </trkpt>
      <trkpt lat="-37.96767118062178" lon="177.032777036048">
        <ele>127</ele>
      </trkpt>
      <trkpt lat="-37.96775319473583" lon="177.032700743849">
        <ele>127</ele>
      </trkpt>
      <trkpt lat="-37.96779706275034" lon="177.03259012016">
        <ele>127</ele>
      </trkpt>
      <trkpt lat="-37.96783997711234" lon="177.032479496472">
        <ele>127</ele>
      </trkpt>
      <trkpt lat="-37.96783616250238" lon="177.032359336258">
        <ele>127</ele>
      </trkpt>
      <trkpt lat="-37.96777989700553" lon="177.032252527179">
        <ele>125</ele>
      </trkpt>
      <trkpt lat="-37.96775319473583" lon="177.0321457181">
        <ele>124</ele>
      </trkpt>
      <trkpt lat="-37.96772553881365" lon="177.032038909022">
        <ele>123</ele>
      </trkpt>
      <trkpt lat="-37.96771600228877" lon="177.031954987603">
        <ele>122</ele>
      </trkpt>
      <trkpt lat="-37.96770551211139" lon="177.031872019836">
        <ele>121</ele>
      </trkpt>
      <trkpt lat="-37.96765115391951" lon="177.031752813275">
        <ele>119</ele>
      </trkpt>
      <trkpt lat="-37.96759679572764" lon="177.031634560366">
        <ele>116</ele>
      </trkpt>
      <trkpt lat="-37.96764161739462" lon="177.031648865154">
        <ele>118</ele>
      </trkpt>
      <trkpt lat="-37.96765020026702" lon="177.031611672707">
        <ele>118</ele>
      </trkpt>
      <trkpt lat="-37.96760728590502" lon="177.031514400153">
        <ele>116</ele>
      </trkpt>
      <trkpt lat="-37.96756246423803" lon="177.031447644478">
        <ele>114</ele>
      </trkpt>
      <trkpt lat="-37.96755769597559" lon="177.031381842457">
        <ele>114</ele>
      </trkpt>
      <trkpt lat="-37.96755292771314" lon="177.031316994087">
        <ele>114</ele>
      </trkpt>
      <trkpt lat="-37.9675042914362" lon="177.031208277704">
        <ele>112</ele>
      </trkpt>
      <trkpt lat="-37.96748903299638" lon="177.031116727065">
        <ele>111</ele>
      </trkpt>
      <trkpt lat="-37.96748998664886" lon="177.031030898341">
        <ele>111</ele>
      </trkpt>
      <trkpt lat="-37.96743944306694" lon="177.030922181957">
        <ele>109</ele>
      </trkpt>
      <trkpt lat="-37.96744516498188" lon="177.031025176426">
        <ele>109</ele>
      </trkpt>
      <trkpt lat="-37.96732977303071" lon="177.030949837879">
        <ele>105</ele>
      </trkpt>
      <trkpt lat="-37.96721342742705" lon="177.030874499332">
        <ele>101</ele>
      </trkpt>
      <trkpt lat="-37.96711996948312" lon="177.030776273126">
        <ele>97</ele>
      </trkpt>
      <trkpt lat="-37.96700743848941" lon="177.030716193019">
        <ele>93</ele>
      </trkpt>
      <trkpt lat="-37.96675090596986" lon="177.030652298303">
        <ele>83</ele>
      </trkpt>
      <trkpt lat="-37.96669464047301" lon="177.030614152203">
        <ele>81</ele>
      </trkpt>
      <trkpt lat="-37.96676616440969" lon="177.030699980927">
        <ele>85</ele>
      </trkpt>
      <trkpt lat="-37.96676616440969" lon="177.030794392523">
        <ele>86</ele>
      </trkpt>
      <trkpt lat="-37.9667652107572" lon="177.030889757772">
        <ele>86</ele>
      </trkpt>
      <trkpt lat="-37.9667737936296" lon="177.030983215716">
        <ele>86</ele>
      </trkpt>
      <trkpt lat="-37.966782376502" lon="177.03107667366">
        <ele>86</ele>
      </trkpt>
      <trkpt lat="-37.96679763494183" lon="177.031167270647">
        <ele>86</ele>
      </trkpt>
      <trkpt lat="-37.966782376502" lon="177.031255960328">
        <ele>85</ele>
      </trkpt>
      <trkpt lat="-37.96676711806218" lon="177.031345603662">
        <ele>84</ele>
      </trkpt>
      <trkpt lat="-37.96668891855808" lon="177.031431432386">
        <ele>81</ele>
      </trkpt>
      <trkpt lat="-37.96660976540149" lon="177.03151726111">
        <ele>78</ele>
      </trkpt>
      <trkpt lat="-37.96656971199695" lon="177.031537287812">
        <ele>77</ele>
      </trkpt>
      <trkpt lat="-37.96654968529468" lon="177.031631699409">
        <ele>76</ele>
      </trkpt>
      <trkpt lat="-37.96660785809651" lon="177.031748045012">
        <ele>78</ele>
      </trkpt>
      <trkpt lat="-37.9666688918558" lon="177.031831012779">
        <ele>80</ele>
      </trkpt>
      <trkpt lat="-37.96671943543772" lon="177.031940682815">
        <ele>83</ele>
      </trkpt>
      <trkpt lat="-37.96676902536716" lon="177.032050352851">
        <ele>86</ele>
      </trkpt>
      <trkpt lat="-37.96668224299065" lon="177.032102803738">
        <ele>83</ele>
      </trkpt>
      <trkpt lat="-37.96659450696166" lon="177.032156208278">
        <ele>81</ele>
      </trkpt>
      <trkpt lat="-37.96647530040053" lon="177.032179095937">
        <ele>78</ele>
      </trkpt>
      <trkpt lat="-37.96642284951363" lon="177.032155254625">
        <ele>77</ele>
      </trkpt>
      <trkpt lat="-37.96637039862674" lon="177.03214190349">
        <ele>75</ele>
      </trkpt>
      <trkpt lat="-37.96629410642762" lon="177.032154300973">
        <ele>73</ele>
      </trkpt>
      <trkpt lat="-37.96622544344841" lon="177.032098989128">
        <ele>71</ele>
      </trkpt>
      <trkpt lat="-37.96615582681671" lon="177.032044630937">
        <ele>68</ele>
      </trkpt>
      <trkpt lat="-37.96605760061033" lon="177.032032233454">
        <ele>66</ele>
      </trkpt>
      <trkpt lat="-37.96593648674423" lon="177.031947358383">
        <ele>61</ele>
      </trkpt>
      <trkpt lat="-37.9658344459279" lon="177.031912073241">
        <ele>58</ele>
      </trkpt>
      <trkpt lat="-37.96573145145909" lon="177.031876788098">
        <ele>55</ele>
      </trkpt>
      <trkpt lat="-37.9656694640473" lon="177.031871066183">
        <ele>54</ele>
      </trkpt>
      <trkpt lat="-37.96560747663551" lon="177.031865344269">
        <ele>53</ele>
      </trkpt>
      <trkpt lat="-37.96550543581919" lon="177.031803356857">
        <ele>50</ele>
      </trkpt>
      <trkpt lat="-37.96540339500286" lon="177.031742323097">
        <ele>47</ele>
      </trkpt>
      <trkpt lat="-37.96530707610147" lon="177.031714667175">
        <ele>45</ele>
      </trkpt>
      <trkpt lat="-37.96520980354759" lon="177.031687964906">
        <ele>43</ele>
      </trkpt>
      <trkpt lat="-37.96514495517833" lon="177.031677474728">
        <ele>42</ele>
      </trkpt>
      <trkpt lat="-37.96508868968148" lon="177.031748045012">
        <ele>42</ele>
      </trkpt>
      <trkpt lat="-37.96503147053214" lon="177.031818615297">
        <ele>42</ele>
      </trkpt>
      <trkpt lat="-37.96477112340263" lon="177.032448025939">
        <ele>46</ele>
      </trkpt>
      <trkpt lat="-37.96459279038718" lon="177.032691207324">
        <ele>45</ele>
      </trkpt>
      <trkpt lat="-37.96456227350753" lon="177.032770360481">
        <ele>45</ele>
      </trkpt>
      <trkpt lat="-37.96452317375548" lon="177.03305740988">
        <ele>43</ele>
      </trkpt>
      <trkpt lat="-37.96437726492466" lon="177.033428380698">
        <ele>36</ele>
      </trkpt>
      <trkpt lat="-37.96432004577532" lon="177.033538050734">
        <ele>33</ele>
      </trkpt>
      <trkpt lat="-37.96424279992371" lon="177.033609574671">
        <ele>30</ele>
      </trkpt>
      <trkpt lat="-37.96418081251192" lon="177.03367823765">
        <ele>27</ele>
      </trkpt>
      <trkpt lat="-37.96411787144764" lon="177.033746900629">
        <ele>25</ele>
      </trkpt>
      <trkpt lat="-37.96408233462138" lon="177.033734251929">
        <ele>25</ele>
      </trkpt>
      <trkpt lat="-37.96408233456318" lon="177.033734251048">
        <ele>25</ele>
      </trkpt>
      <trkpt lat="-37.96406039426964" lon="177.033878508478">
        <ele>24</ele>
      </trkpt>
    </trkseg>
  </trk>
</gpx>