<?xml version="1.0" encoding="UTF-8" standalone="yes"?>
<gpx
 version="1.1"
 creator="Generated by MapOut iPhone App. See https://mapout.app"
 xmlns="http://www.topografix.com/GPX/1/1"
 xmlns:xsi="http://www.w3.org/2001/XMLSchema-instance"
 xmlns:gpxx="http://www.garmin.com/xmlschemas/GpxExtensions/v3"
 xmlns:mapout="https://mapout.app/xmlschemas/MapOutExtensions"
 xsi:schemaLocation="http://www.topografix.com/GPX/1/1 https://www.topografix.com/GPX/1/1/gpx.xsd http://www.garmin.com/xmlschemas/GpxExtensions/v3 https://www8.garmin.com/xmlschemas/GpxExtensionsv3.xsd https://mapout.app/xmlschemas/MapOutExtensions https://mapout.app/xmlschemas/MapOutExtensions.xsd">
  <metadata>
    <name>Whanganui River Morning Run</name>
    <author><name>iPhone</name></author>
    <time>2026-05-24T22:34:22Z</time>
    <bounds minlat="-39.93365209699336" minlon="175.049547015068" maxlat="-39.9107610938323" maxlon="175.058155636086"/>
  </metadata>
  <trk>
    <name>Whanganui River Morning Run</name>
    <trkseg>
      <trkpt lat="-39.93365209699336" lon="175.057872549492">
        <ele>6</ele>
      </trkpt>
      <trkpt lat="-39.93364581346557" lon="175.057881937822">
        <ele>6</ele>
      </trkpt>
      <trkpt lat="-39.9335132557696" lon="175.058017356475">
        <ele>6</ele>
      </trkpt>
      <trkpt lat="-39.9333826053786" lon="175.058099370589">
        <ele>5</ele>
      </trkpt>
      <trkpt lat="-39.93324527942018" lon="175.058150867824">
        <ele>6</ele>
      </trkpt>
      <trkpt lat="-39.93311176807171" lon="175.058155636086">
        <ele>6</ele>
      </trkpt>
      <trkpt lat="-39.9329734884608" lon="175.058110814419">
        <ele>7</ele>
      </trkpt>
      <trkpt lat="-39.93295918367347" lon="175.058126072859">
        <ele>7</ele>
      </trkpt>
      <trkpt lat="-39.93295918367347" lon="175.058126072859">
        <ele>7</ele>
      </trkpt>
      <trkpt lat="-39.93295060080107" lon="175.058051687965">
        <ele>7</ele>
      </trkpt>
      <trkpt lat="-39.93294106427618" lon="175.058036429525">
        <ele>8</ele>
      </trkpt>
      <trkpt lat="-39.932782757963" lon="175.057999237078">
        <ele>8</ele>
      </trkpt>
      <trkpt lat="-39.93252717909593" lon="175.057955369064">
        <ele>9</ele>
      </trkpt>
      <trkpt lat="-39.93238127026512" lon="175.057939156971">
        <ele>9</ele>
      </trkpt>
      <trkpt lat="-39.93213236696548" lon="175.057892427999">
        <ele>9</ele>
      </trkpt>
      <trkpt lat="-39.931955941255" lon="175.057805645623">
        <ele>9</ele>
      </trkpt>
      <trkpt lat="-39.93189490749571" lon="175.057741750906">
        <ele>10</ele>
      </trkpt>
      <trkpt lat="-39.93186534426855" lon="175.057721724204">
        <ele>10</ele>
      </trkpt>
      <trkpt lat="-39.93148388327293" lon="175.057576769025">
        <ele>10</ele>
      </trkpt>
      <trkpt lat="-39.93119206561129" lon="175.057507152394">
        <ele>9</ele>
      </trkpt>
      <trkpt lat="-39.93109002479496" lon="175.057452794202">
        <ele>8</ele>
      </trkpt>
      <trkpt lat="-39.93089738699218" lon="175.057300209804">
        <ele>8</ele>
      </trkpt>
      <trkpt lat="-39.93068376883463" lon="175.057147625405">
        <ele>8</ele>
      </trkpt>
      <trkpt lat="-39.92985409116918" lon="175.056327484265">
        <ele>9</ele>
      </trkpt>
      <trkpt lat="-39.92944974251382" lon="175.055949837879">
        <ele>9</ele>
      </trkpt>
      <trkpt lat="-39.92929143620065" lon="175.055778180431">
        <ele>9</ele>
      </trkpt>
      <trkpt lat="-39.9291741369445" lon="175.055585542628">
        <ele>9</ele>
      </trkpt>
      <trkpt lat="-39.92847034140759" lon="175.054875071524">
        <ele>8</ele>
      </trkpt>
      <trkpt lat="-39.92797253480832" lon="175.054446881556">
        <ele>7</ele>
      </trkpt>
      <trkpt lat="-39.92609860766736" lon="175.053026893">
        <ele>12</ele>
      </trkpt>
      <trkpt lat="-39.92546728971963" lon="175.052558649628">
        <ele>13</ele>
      </trkpt>
      <trkpt lat="-39.92508010680908" lon="175.052266831966">
        <ele>13</ele>
      </trkpt>
      <trkpt lat="-39.92472057982071" lon="175.052041769979">
        <ele>12</ele>
      </trkpt>
      <trkpt lat="-39.92447644478352" lon="175.051928285333">
        <ele>12</ele>
      </trkpt>
      <trkpt lat="-39.92432862864772" lon="175.051877741751">
        <ele>11</ele>
      </trkpt>
      <trkpt lat="-39.9229830249857" lon="175.051497234408">
        <ele>9</ele>
      </trkpt>
      <trkpt lat="-39.92262731260728" lon="175.051359908449">
        <ele>10</ele>
      </trkpt>
      <trkpt lat="-39.92208945260347" lon="175.051121495327">
        <ele>10</ele>
      </trkpt>
      <trkpt lat="-39.92149818806027" lon="175.050875452985">
        <ele>11</ele>
      </trkpt>
      <trkpt lat="-39.92137135227923" lon="175.050829677665">
        <ele>10</ele>
      </trkpt>
      <trkpt lat="-39.92097177188632" lon="175.050776273126">
        <ele>8</ele>
      </trkpt>
      <trkpt lat="-39.92084207514782" lon="175.050728590502">
        <ele>8</ele>
      </trkpt>
      <trkpt lat="-39.92075147816136" lon="175.050652298303">
        <ele>8</ele>
      </trkpt>
      <trkpt lat="-39.92065134465001" lon="175.050589357238">
        <ele>8</ele>
      </trkpt>
      <trkpt lat="-39.92064085447263" lon="175.050558840359">
        <ele>8</ele>
      </trkpt>
      <trkpt lat="-39.92064085447263" lon="175.050558840359">
        <ele>8</ele>
      </trkpt>
      <trkpt lat="-39.92" lon="175.050213618158">
        <ele>10</ele>
      </trkpt>
      <trkpt lat="-39.91999999999999" lon="175.050213618158">
        <ele>10</ele>
      </trkpt>
      <trkpt lat="-39.91953938584779" lon="175.05000762922">
        <ele>9</ele>
      </trkpt>
      <trkpt lat="-39.9191388518024" lon="175.049840740034">
        <ele>8</ele>
      </trkpt>
      <trkpt lat="-39.91893572382224" lon="175.04977398436">
        <ele>9</ele>
      </trkpt>
      <trkpt lat="-39.91875357619683" lon="175.049722487126">
        <ele>10</ele>
      </trkpt>
      <trkpt lat="-39.91858954796871" lon="175.049686248331">
        <ele>11</ele>
      </trkpt>
      <trkpt lat="-39.9183997711234" lon="175.049653824147">
        <ele>11</ele>
      </trkpt>
      <trkpt lat="-39.91766164409689" lon="175.04955941255">
        <ele>13</ele>
      </trkpt>
      <trkpt lat="-39.91759488842266" lon="175.049550829678">
        <ele>13</ele>
      </trkpt>
      <trkpt lat="-39.91744993324432" lon="175.049547015068">
        <ele>13</ele>
      </trkpt>
      <trkpt lat="-39.91730116345603" lon="175.049562273508">
        <ele>13</ele>
      </trkpt>
      <trkpt lat="-39.91712092313561" lon="175.049598512302">
        <ele>14</ele>
      </trkpt>
      <trkpt lat="-39.91650963189014" lon="175.049760633225">
        <ele>14</ele>
      </trkpt>
      <trkpt lat="-39.9163303452222" lon="175.04981594507">
        <ele>14</ele>
      </trkpt>
      <trkpt lat="-39.91569139805455" lon="175.050032424185">
        <ele>14</ele>
      </trkpt>
      <trkpt lat="-39.91472534808315" lon="175.050390997521">
        <ele>11</ele>
      </trkpt>
      <trkpt lat="-39.91462807552927" lon="175.05044821667">
        <ele>11</ele>
      </trkpt>
      <trkpt lat="-39.91421228304406" lon="175.050729544154">
        <ele>10</ele>
      </trkpt>
      <trkpt lat="-39.91329296204463" lon="175.051399961854">
        <ele>8</ele>
      </trkpt>
      <trkpt lat="-39.91314705321381" lon="175.051518214763">
        <ele>9</ele>
      </trkpt>
      <trkpt lat="-39.91294869349608" lon="175.051700362388">
        <ele>9</ele>
      </trkpt>
      <trkpt lat="-39.91142189586115" lon="175.053192828533">
        <ele>9</ele>
      </trkpt>
      <trkpt lat="-39.91136181575433" lon="175.053243372115">
        <ele>9</ele>
      </trkpt>
      <trkpt lat="-39.9107610938323" lon="175.053705074296">
        <ele>10</ele>
      </trkpt>
      <trkpt lat="-39.9107610938323" lon="175.053705074296">
        <ele>10</ele>
      </trkpt>
      <trkpt lat="-39.91136181575433" lon="175.053243372115">
        <ele>9</ele>
      </trkpt>
      <trkpt lat="-39.91142189586115" lon="175.053192828533">
        <ele>9</ele>
      </trkpt>
      <trkpt lat="-39.91294869349608" lon="175.051700362388">
        <ele>9</ele>
      </trkpt>
      <trkpt lat="-39.91314705321381" lon="175.051518214763">
        <ele>9</ele>
      </trkpt>
      <trkpt lat="-39.91329296204463" lon="175.051399961854">
        <ele>8</ele>
      </trkpt>
      <trkpt lat="-39.91421228304406" lon="175.050729544154">
        <ele>10</ele>
      </trkpt>
      <trkpt lat="-39.91462807552927" lon="175.05044821667">
        <ele>11</ele>
      </trkpt>
      <trkpt lat="-39.91472534808315" lon="175.050390997521">
        <ele>11</ele>
      </trkpt>
      <trkpt lat="-39.91569139805455" lon="175.050032424185">
        <ele>14</ele>
      </trkpt>
      <trkpt lat="-39.9163303452222" lon="175.04981594507">
        <ele>14</ele>
      </trkpt>
      <trkpt lat="-39.91650963189014" lon="175.049760633225">
        <ele>14</ele>
      </trkpt>
      <trkpt lat="-39.91712092313561" lon="175.049598512302">
        <ele>14</ele>
      </trkpt>
      <trkpt lat="-39.91730116345603" lon="175.049562273508">
        <ele>13</ele>
      </trkpt>
      <trkpt lat="-39.91744993324432" lon="175.049547015068">
        <ele>13</ele>
      </trkpt>
      <trkpt lat="-39.91759488842266" lon="175.049550829678">
        <ele>13</ele>
      </trkpt>
      <trkpt lat="-39.91766164409689" lon="175.04955941255">
        <ele>13</ele>
      </trkpt>
      <trkpt lat="-39.9183997711234" lon="175.049653824147">
        <ele>11</ele>
      </trkpt>
      <trkpt lat="-39.91858954796871" lon="175.049686248331">
        <ele>11</ele>
      </trkpt>
      <trkpt lat="-39.91875357619683" lon="175.049722487126">
        <ele>10</ele>
      </trkpt>
      <trkpt lat="-39.91893572382224" lon="175.04977398436">
        <ele>9</ele>
      </trkpt>
      <trkpt lat="-39.9191388518024" lon="175.049840740034">
        <ele>8</ele>
      </trkpt>
      <trkpt lat="-39.91953938584779" lon="175.05000762922">
        <ele>9</ele>
      </trkpt>
      <trkpt lat="-39.91953938584779" lon="175.05000762922">
        <ele>9</ele>
      </trkpt>
      <trkpt lat="-39.91955622261964" lon="175.049943088261">
        <ele>9</ele>
      </trkpt>
      <trkpt lat="-39.91955622263231" lon="175.049943088268">
        <ele>9</ele>
      </trkpt>
      <trkpt lat="-39.91999999999999" lon="175.050130650391">
        <ele>10</ele>
      </trkpt>
      <trkpt lat="-39.92" lon="175.050130650391">
        <ele>10</ele>
      </trkpt>
      <trkpt lat="-39.92011825290864" lon="175.050183101278">
        <ele>10</ele>
      </trkpt>
      <trkpt lat="-39.92011825290864" lon="175.050183101278">
        <ele>10</ele>
      </trkpt>
      <trkpt lat="-39.92064657638756" lon="175.050411024223">
        <ele>8</ele>
      </trkpt>
      <trkpt lat="-39.92064657638756" lon="175.050411024223">
        <ele>8</ele>
      </trkpt>
      <trkpt lat="-39.92070761014686" lon="175.050433911883">
        <ele>8</ele>
      </trkpt>
      <trkpt lat="-39.92070761014686" lon="175.050433911883">
        <ele>8</ele>
      </trkpt>
      <trkpt lat="-39.92079725348083" lon="175.050494945642">
        <ele>8</ele>
      </trkpt>
      <trkpt lat="-39.92090596986458" lon="175.050532138089">
        <ele>8</ele>
      </trkpt>
      <trkpt lat="-39.92097081823383" lon="175.050528323479">
        <ele>8</ele>
      </trkpt>
      <trkpt lat="-39.92097081823383" lon="175.050528323479">
        <ele>8</ele>
      </trkpt>
      <trkpt lat="-39.92098512302117" lon="175.050560747664">
        <ele>8</ele>
      </trkpt>
      <trkpt lat="-39.92101087163837" lon="175.050594125501">
        <ele>8</ele>
      </trkpt>
      <trkpt lat="-39.92104424947549" lon="175.050615105855">
        <ele>8</ele>
      </trkpt>
      <trkpt lat="-39.92108048827007" lon="175.05062082777">
        <ele>9</ele>
      </trkpt>
      <trkpt lat="-39.92108048827007" lon="175.05062082777">
        <ele>9</ele>
      </trkpt>
      <trkpt lat="-39.92115105855427" lon="175.050660881175">
        <ele>9</ele>
      </trkpt>
      <trkpt lat="-39.92122067518596" lon="175.050700934579">
        <ele>9</ele>
      </trkpt>
      <trkpt lat="-39.92132080869731" lon="175.050717146672">
        <ele>10</ele>
      </trkpt>
      <trkpt lat="-39.92132080869731" lon="175.050717146672">
        <ele>10</ele>
      </trkpt>
      <trkpt lat="-39.92151630745757" lon="175.050801068091">
        <ele>11</ele>
      </trkpt>
      <trkpt lat="-39.922695021934" lon="175.05130650391">
        <ele>10</ele>
      </trkpt>
      <trkpt lat="-39.92303166126263" lon="175.051430478734">
        <ele>9</ele>
      </trkpt>
      <trkpt lat="-39.92431718481785" lon="175.051795727637">
        <ele>12</ele>
      </trkpt>
      <trkpt lat="-39.92448788861339" lon="175.051854854091">
        <ele>12</ele>
      </trkpt>
      <trkpt lat="-39.92455941255007" lon="175.051883463666">
        <ele>12</ele>
      </trkpt>
      <trkpt lat="-39.92484264733931" lon="175.052022696929">
        <ele>12</ele>
      </trkpt>
      <trkpt lat="-39.92509155063895" lon="175.052181956895">
        <ele>13</ele>
      </trkpt>
      <trkpt lat="-39.92738985313752" lon="175.053906160595">
        <ele>6</ele>
      </trkpt>
      <trkpt lat="-39.92828342551974" lon="175.05460518787">
        <ele>8</ele>
      </trkpt>
      <trkpt lat="-39.92851707037956" lon="175.05480450124">
        <ele>9</ele>
      </trkpt>
      <trkpt lat="-39.9291131031852" lon="175.055399580393">
        <ele>9</ele>
      </trkpt>
      <trkpt lat="-39.93063799351516" lon="175.056955941255">
        <ele>9</ele>
      </trkpt>
      <trkpt lat="-39.93073431241655" lon="175.057047491894">
        <ele>9</ele>
      </trkpt>
      <trkpt lat="-39.93085447263017" lon="175.05713427427">
        <ele>9</ele>
      </trkpt>
      <trkpt lat="-39.93085447263017" lon="175.05713427427">
        <ele>9</ele>
      </trkpt>
      <trkpt lat="-39.93104806408545" lon="175.056787144764">
        <ele>12</ele>
      </trkpt>
      <trkpt lat="-39.93144859813084" lon="175.056150104902">
        <ele>13</ele>
      </trkpt>
      <trkpt lat="-39.93166793820332" lon="175.055773412169">
        <ele>14</ele>
      </trkpt>
      <trkpt lat="-39.93166793820332" lon="175.055773412169">
        <ele>14</ele>
      </trkpt>
      <trkpt lat="-39.93181956894907" lon="175.055905016212">
        <ele>14</ele>
      </trkpt>
      <trkpt lat="-39.93188918558077" lon="175.055985123021">
        <ele>14</ele>
      </trkpt>
      <trkpt lat="-39.93188918558077" lon="175.055985123021">
        <ele>14</ele>
      </trkpt>
      <trkpt lat="-39.93310699980927" lon="175.054771123403">
        <ele>14</ele>
      </trkpt>
      <trkpt lat="-39.93345167157032" lon="175.054413510274">
        <ele>13</ele>
      </trkpt>
    </trkseg>
  </trk>
</gpx>