<?xml version="1.0" encoding="UTF-8" standalone="yes"?>
<gpx
 version="1.1"
 creator="Generated by MapOut iPhone App. See https://mapout.app"
 xmlns="http://www.topografix.com/GPX/1/1"
 xmlns:xsi="http://www.w3.org/2001/XMLSchema-instance"
 xmlns:gpxx="http://www.garmin.com/xmlschemas/GpxExtensions/v3"
 xmlns:mapout="https://mapout.app/xmlschemas/MapOutExtensions"
 xsi:schemaLocation="http://www.topografix.com/GPX/1/1 https://www.topografix.com/GPX/1/1/gpx.xsd http://www.garmin.com/xmlschemas/GpxExtensions/v3 https://www8.garmin.com/xmlschemas/GpxExtensionsv3.xsd https://mapout.app/xmlschemas/MapOutExtensions https://mapout.app/xmlschemas/MapOutExtensions.xsd">
  <metadata>
    <name>Whirinaki Waterfall Loop</name>
    <author><name>iPhone</name></author>
    <time>2026-09-01T00:27:42Z</time>
    <bounds minlat="-38.7106608811749" minlon="176.688088880412" maxlat="-38.67546634479809" maxlon="176.703394049208"/>
  </metadata>
  <trk>
    <name>Whirinaki Waterfall Loop</name>
    <trkseg>
      <trkpt lat="-38.67546634479809" lon="176.6990739422">
        <ele>427</ele>
      </trkpt>
      <trkpt lat="-38.67556837688347" lon="176.699013923326">
        <ele>429</ele>
      </trkpt>
      <trkpt lat="-38.67564276177761" lon="176.698998664887">
        <ele>430</ele>
      </trkpt>
      <trkpt lat="-38.67564276177761" lon="176.698998664887">
        <ele>430</ele>
      </trkpt>
      <trkpt lat="-38.67599561319855" lon="176.699490749571">
        <ele>422</ele>
      </trkpt>
      <trkpt lat="-38.67623593362579" lon="176.699631890139">
        <ele>421</ele>
      </trkpt>
      <trkpt lat="-38.67705798207133" lon="176.699531756628">
        <ele>427</ele>
      </trkpt>
      <trkpt lat="-38.67738413122258" lon="176.699327674995">
        <ele>429</ele>
      </trkpt>
      <trkpt lat="-38.6775042914362" lon="176.699291436201">
        <ele>428</ele>
      </trkpt>
      <trkpt lat="-38.6775042914362" lon="176.699291436201">
        <ele>428</ele>
      </trkpt>
      <trkpt lat="-38.67756818615297" lon="176.699373450315">
        <ele>428</ele>
      </trkpt>
      <trkpt lat="-38.67756818615297" lon="176.699373450315">
        <ele>428</ele>
      </trkpt>
      <trkpt lat="-38.67752908640092" lon="176.699465954606">
        <ele>428</ele>
      </trkpt>
      <trkpt lat="-38.67687964905588" lon="176.699799732977">
        <ele>423</ele>
      </trkpt>
      <trkpt lat="-38.67669368682053" lon="176.699958992943">
        <ele>419</ele>
      </trkpt>
      <trkpt lat="-38.67668796490559" lon="176.7">
        <ele>418</ele>
      </trkpt>
      <trkpt lat="-38.67668796490559" lon="176.7">
        <ele>418</ele>
      </trkpt>
      <trkpt lat="-38.6766784283807" lon="176.700070570284">
        <ele>417</ele>
      </trkpt>
      <trkpt lat="-38.67673755483502" lon="176.700198359718">
        <ele>417</ele>
      </trkpt>
      <trkpt lat="-38.67701792866679" lon="176.700356666031">
        <ele>419</ele>
      </trkpt>
      <trkpt lat="-38.67732595842075" lon="176.700357619683">
        <ele>422</ele>
      </trkpt>
      <trkpt lat="-38.67751764257105" lon="176.700401487698">
        <ele>423</ele>
      </trkpt>
      <trkpt lat="-38.67778657257296" lon="176.700534045394">
        <ele>421</ele>
      </trkpt>
      <trkpt lat="-38.67804596604997" lon="176.700490177379">
        <ele>421</ele>
      </trkpt>
      <trkpt lat="-38.67862483311082" lon="176.70062082777">
        <ele>416</ele>
      </trkpt>
      <trkpt lat="-38.6790177379363" lon="176.700521647911">
        <ele>415</ele>
      </trkpt>
      <trkpt lat="-38.67938203318711" lon="176.70062464238">
        <ele>412</ele>
      </trkpt>
      <trkpt lat="-38.67991035666603" lon="176.700836353233">
        <ele>409</ele>
      </trkpt>
      <trkpt lat="-38.68" lon="176.700883082205">
        <ele>408</ele>
      </trkpt>
      <trkpt lat="-38.68" lon="176.700883082205">
        <ele>408</ele>
      </trkpt>
      <trkpt lat="-38.68049876025176" lon="176.701142475682">
        <ele>407</ele>
      </trkpt>
      <trkpt lat="-38.68093980090481" lon="176.701350180198">
        <ele>406</ele>
      </trkpt>
      <trkpt lat="-38.68093980089014" lon="176.701350180191">
        <ele>406</ele>
      </trkpt>
      <trkpt lat="-38.68098893763113" lon="176.70132939157">
        <ele>406</ele>
      </trkpt>
      <trkpt lat="-38.68106522983025" lon="176.70131794774">
        <ele>407</ele>
      </trkpt>
      <trkpt lat="-38.68112817089452" lon="176.701292199123">
        <ele>407</ele>
      </trkpt>
      <trkpt lat="-38.68119015830631" lon="176.701266450505">
        <ele>407</ele>
      </trkpt>
      <trkpt lat="-38.68130364295251" lon="176.701200648484">
        <ele>408</ele>
      </trkpt>
      <trkpt lat="-38.68141617394621" lon="176.701134846462">
        <ele>408</ele>
      </trkpt>
      <trkpt lat="-38.68149341979782" lon="176.701131031852">
        <ele>408</ele>
      </trkpt>
      <trkpt lat="-38.68175090596986" lon="176.700961281709">
        <ele>409</ele>
      </trkpt>
      <trkpt lat="-38.68183101277894" lon="176.700953652489">
        <ele>408</ele>
      </trkpt>
      <trkpt lat="-38.68191016593553" lon="176.700946023269">
        <ele>408</ele>
      </trkpt>
      <trkpt lat="-38.68202746519168" lon="176.700958420751">
        <ele>408</ele>
      </trkpt>
      <trkpt lat="-38.68233644859813" lon="176.700825863055">
        <ele>407</ele>
      </trkpt>
      <trkpt lat="-38.68268262445165" lon="176.700783902346">
        <ele>409</ele>
      </trkpt>
      <trkpt lat="-38.68304978065993" lon="176.7006704177">
        <ele>414</ele>
      </trkpt>
      <trkpt lat="-38.68310223154682" lon="176.700618920465">
        <ele>415</ele>
      </trkpt>
      <trkpt lat="-38.68315658973869" lon="176.700586496281">
        <ele>415</ele>
      </trkpt>
      <trkpt lat="-38.68321953080297" lon="176.700574098798">
        <ele>416</ele>
      </trkpt>
      <trkpt lat="-38.68328247186725" lon="176.700562654969">
        <ele>417</ele>
      </trkpt>
      <trkpt lat="-38.68339500286096" lon="176.700507343124">
        <ele>418</ele>
      </trkpt>
      <trkpt lat="-38.68350753385466" lon="176.70045203128">
        <ele>419</ele>
      </trkpt>
      <trkpt lat="-38.68361815754339" lon="176.70041007057">
        <ele>419</ele>
      </trkpt>
      <trkpt lat="-38.68371447644478" lon="176.700395765783">
        <ele>420</ele>
      </trkpt>
      <trkpt lat="-38.68380411977875" lon="176.70040244135">
        <ele>420</ele>
      </trkpt>
      <trkpt lat="-38.68389376311272" lon="176.700409116918">
        <ele>420</ele>
      </trkpt>
      <trkpt lat="-38.68395384321953" lon="176.700479687202">
        <ele>419</ele>
      </trkpt>
      <trkpt lat="-38.68400724775891" lon="176.700486362769">
        <ele>419</ele>
      </trkpt>
      <trkpt lat="-38.68408449361053" lon="176.700481594507">
        <ele>419</ele>
      </trkpt>
      <trkpt lat="-38.68416173946214" lon="176.700476826244">
        <ele>419</ele>
      </trkpt>
      <trkpt lat="-38.68428285332824" lon="176.700493991989">
        <ele>418</ele>
      </trkpt>
      <trkpt lat="-38.68440301354186" lon="176.700512111387">
        <ele>417</ele>
      </trkpt>
      <trkpt lat="-38.68447072286858" lon="176.700486362769">
        <ele>417</ele>
      </trkpt>
      <trkpt lat="-38.68453747854281" lon="176.700461567805">
        <ele>417</ele>
      </trkpt>
      <trkpt lat="-38.68460232691207" lon="176.700472057982">
        <ele>416</ele>
      </trkpt>
      <trkpt lat="-38.68466717528133" lon="176.700482548159">
        <ele>415</ele>
      </trkpt>
      <trkpt lat="-38.68477875262254" lon="176.700442494755">
        <ele>415</ele>
      </trkpt>
      <trkpt lat="-38.68485218386419" lon="176.700372878123">
        <ele>416</ele>
      </trkpt>
      <trkpt lat="-38.68489414457372" lon="176.700426282663">
        <ele>415</ele>
      </trkpt>
      <trkpt lat="-38.68488556170131" lon="176.700493991989">
        <ele>413</ele>
      </trkpt>
      <trkpt lat="-38.68496090024794" lon="176.700509250429">
        <ele>413</ele>
      </trkpt>
      <trkpt lat="-38.68503623879458" lon="176.700525462521">
        <ele>412</ele>
      </trkpt>
      <trkpt lat="-38.68511729925615" lon="176.700557886706">
        <ele>412</ele>
      </trkpt>
      <trkpt lat="-38.68519835971772" lon="176.700590310891">
        <ele>412</ele>
      </trkpt>
      <trkpt lat="-38.68530040053405" lon="176.700593171848">
        <ele>412</ele>
      </trkpt>
      <trkpt lat="-38.6854167461377" lon="176.700545489224">
        <ele>414</ele>
      </trkpt>
      <trkpt lat="-38.68553213808888" lon="176.700498760252">
        <ele>416</ele>
      </trkpt>
      <trkpt lat="-38.68559412550066" lon="176.700503528514">
        <ele>416</ele>
      </trkpt>
      <trkpt lat="-38.68565515925997" lon="176.700508296777">
        <ele>416</ele>
      </trkpt>
      <trkpt lat="-38.68590787716956" lon="176.70061319855">
        <ele>415</ele>
      </trkpt>
      <trkpt lat="-38.6859994278085" lon="176.700576006103">
        <ele>416</ele>
      </trkpt>
      <trkpt lat="-38.6862864772077" lon="176.700722868587">
        <ele>413</ele>
      </trkpt>
      <trkpt lat="-38.68639805454892" lon="176.700804882701">
        <ele>412</ele>
      </trkpt>
      <trkpt lat="-38.68650867823765" lon="176.700886896815">
        <ele>412</ele>
      </trkpt>
      <trkpt lat="-38.68657161930192" lon="176.70089643334">
        <ele>412</ele>
      </trkpt>
      <trkpt lat="-38.6866345603662" lon="176.700905969865">
        <ele>412</ele>
      </trkpt>
      <trkpt lat="-38.68671657448026" lon="176.700891665077">
        <ele>413</ele>
      </trkpt>
      <trkpt lat="-38.68679763494183" lon="176.70087736029">
        <ele>413</ele>
      </trkpt>
      <trkpt lat="-38.68691398054548" lon="176.700910738127">
        <ele>415</ele>
      </trkpt>
      <trkpt lat="-38.68702937249666" lon="176.700945069617">
        <ele>416</ele>
      </trkpt>
      <trkpt lat="-38.68714953271028" lon="176.700991798589">
        <ele>416</ele>
      </trkpt>
      <trkpt lat="-38.6872696929239" lon="176.701038527561">
        <ele>417</ele>
      </trkpt>
      <trkpt lat="-38.68737554835018" lon="176.701066183483">
        <ele>417</ele>
      </trkpt>
      <trkpt lat="-38.68747949647148" lon="176.701141522029">
        <ele>416</ele>
      </trkpt>
      <trkpt lat="-38.68758344459279" lon="176.701217814228">
        <ele>415</ele>
      </trkpt>
      <trkpt lat="-38.68803738317757" lon="176.701602136182">
        <ele>408</ele>
      </trkpt>
      <trkpt lat="-38.68811748998665" lon="176.701662216288">
        <ele>407</ele>
      </trkpt>
      <trkpt lat="-38.68819568949075" lon="176.701639328629">
        <ele>408</ele>
      </trkpt>
      <trkpt lat="-38.68827293534236" lon="176.701616440969">
        <ele>409</ele>
      </trkpt>
      <trkpt lat="-38.68836639328629" lon="176.701542056075">
        <ele>412</ele>
      </trkpt>
      <trkpt lat="-38.68843600991799" lon="176.701519168415">
        <ele>413</ele>
      </trkpt>
      <trkpt lat="-38.6885046728972" lon="176.701496280755">
        <ele>414</ele>
      </trkpt>
      <trkpt lat="-38.68858096509631" lon="176.701484836925">
        <ele>415</ele>
      </trkpt>
      <trkpt lat="-38.68865725729544" lon="176.701474346748">
        <ele>416</ele>
      </trkpt>
      <trkpt lat="-38.68872878123211" lon="176.701488651535">
        <ele>416</ele>
      </trkpt>
      <trkpt lat="-38.68900247949647" lon="176.701421895861">
        <ele>420</ele>
      </trkpt>
      <trkpt lat="-38.68907304978066" lon="176.701477207705">
        <ele>419</ele>
      </trkpt>
      <trkpt lat="-38.68914362006485" lon="176.701533473202">
        <ele>418</ele>
      </trkpt>
      <trkpt lat="-38.68926282662598" lon="176.701558268167">
        <ele>418</ele>
      </trkpt>
      <trkpt lat="-38.68938107953461" lon="176.701584016784">
        <ele>418</ele>
      </trkpt>
      <trkpt lat="-38.68948407400343" lon="176.701522029372">
        <ele>420</ele>
      </trkpt>
      <trkpt lat="-38.68958706847225" lon="176.701460041961">
        <ele>423</ele>
      </trkpt>
      <trkpt lat="-38.68968434102613" lon="176.701439061606">
        <ele>424</ele>
      </trkpt>
      <trkpt lat="-38.68978161358001" lon="176.701418081251">
        <ele>425</ele>
      </trkpt>
      <trkpt lat="-38.6898950982262" lon="176.701407591074">
        <ele>426</ele>
      </trkpt>
      <trkpt lat="-38.69000572191493" lon="176.701424756819">
        <ele>426</ele>
      </trkpt>
      <trkpt lat="-38.6900781995041" lon="176.701417127599">
        <ele>426</ele>
      </trkpt>
      <trkpt lat="-38.69014972344078" lon="176.701410452031">
        <ele>426</ele>
      </trkpt>
      <trkpt lat="-38.69022696929239" lon="176.701443829868">
        <ele>425</ele>
      </trkpt>
      <trkpt lat="-38.690304215144" lon="176.701478161358">
        <ele>424</ele>
      </trkpt>
      <trkpt lat="-38.69038050734312" lon="176.701484836925">
        <ele>424</ele>
      </trkpt>
      <trkpt lat="-38.69045584588976" lon="176.701492466145">
        <ele>424</ele>
      </trkpt>
      <trkpt lat="-38.69051783330154" lon="176.701520122068">
        <ele>423</ele>
      </trkpt>
      <trkpt lat="-38.69057886706084" lon="176.701548731642">
        <ele>422</ele>
      </trkpt>
      <trkpt lat="-38.6906427617776" lon="176.701584970437">
        <ele>422</ele>
      </trkpt>
      <trkpt lat="-38.69070665649437" lon="176.701622162884">
        <ele>421</ele>
      </trkpt>
      <trkpt lat="-38.69082109479306" lon="176.701675567423">
        <ele>420</ele>
      </trkpt>
      <trkpt lat="-38.69088308220484" lon="176.701687011253">
        <ele>420</ele>
      </trkpt>
      <trkpt lat="-38.69094506961663" lon="176.701699408735">
        <ele>420</ele>
      </trkpt>
      <trkpt lat="-38.69104997139042" lon="176.701687011253">
        <ele>421</ele>
      </trkpt>
      <trkpt lat="-38.6911214953271" lon="176.701670799161">
        <ele>421</ele>
      </trkpt>
      <trkpt lat="-38.69119206561129" lon="176.701654587068">
        <ele>422</ele>
      </trkpt>
      <trkpt lat="-38.69130650390997" lon="176.701656494373">
        <ele>423</ele>
      </trkpt>
      <trkpt lat="-38.69142094220866" lon="176.701659355331">
        <ele>423</ele>
      </trkpt>
      <trkpt lat="-38.69149246614533" lon="176.701642189586">
        <ele>424</ele>
      </trkpt>
      <trkpt lat="-38.69156399008201" lon="176.701625977494">
        <ele>425</ele>
      </trkpt>
      <trkpt lat="-38.69167556742323" lon="176.701634560366">
        <ele>425</ele>
      </trkpt>
      <trkpt lat="-38.69174423040244" lon="176.701632653061">
        <ele>425</ele>
      </trkpt>
      <trkpt lat="-38.69181193972916" lon="176.701630745756">
        <ele>425</ele>
      </trkpt>
      <trkpt lat="-38.69189490749571" lon="176.701654587068">
        <ele>425</ele>
      </trkpt>
      <trkpt lat="-38.69197692160976" lon="176.701679382033">
        <ele>424</ele>
      </trkpt>
      <trkpt lat="-38.69208182338355" lon="176.701693686821">
        <ele>424</ele>
      </trkpt>
      <trkpt lat="-38.69218672515735" lon="176.701707991608">
        <ele>424</ele>
      </trkpt>
      <trkpt lat="-38.69225634178905" lon="176.70174327675">
        <ele>423</ele>
      </trkpt>
      <trkpt lat="-38.69232500476826" lon="176.701778561892">
        <ele>423</ele>
      </trkpt>
      <trkpt lat="-38.69241655540721" lon="176.701802403204">
        <ele>422</ele>
      </trkpt>
      <trkpt lat="-38.69250715239367" lon="176.701826244516">
        <ele>422</ele>
      </trkpt>
      <trkpt lat="-38.69280469197025" lon="176.701684150296">
        <ele>421</ele>
      </trkpt>
      <trkpt lat="-38.69287430860194" lon="176.701657448026">
        <ele>420</ele>
      </trkpt>
      <trkpt lat="-38.69294297158115" lon="176.701630745756">
        <ele>420</ele>
      </trkpt>
      <trkpt lat="-38.69300400534045" lon="176.701592599657">
        <ele>421</ele>
      </trkpt>
      <trkpt lat="-38.69307743658211" lon="176.701581155827">
        <ele>421</ele>
      </trkpt>
      <trkpt lat="-38.69314991417127" lon="176.701570665649">
        <ele>420</ele>
      </trkpt>
      <trkpt lat="-38.69324527942018" lon="176.701503909975">
        <ele>421</ele>
      </trkpt>
      <trkpt lat="-38.69334064466908" lon="176.701437154301">
        <ele>423</ele>
      </trkpt>
      <trkpt lat="-38.69344459279039" lon="176.701350371924">
        <ele>424</ele>
      </trkpt>
      <trkpt lat="-38.6935475872592" lon="176.7012645432">
        <ele>426</ele>
      </trkpt>
      <trkpt lat="-38.69361052832348" lon="176.701199694831">
        <ele>427</ele>
      </trkpt>
      <trkpt lat="-38.69367251573527" lon="176.701134846462">
        <ele>428</ele>
      </trkpt>
      <trkpt lat="-38.69376406637421" lon="176.70107285905">
        <ele>428</ele>
      </trkpt>
      <trkpt lat="-38.69385561701316" lon="176.701011825291">
        <ele>428</ele>
      </trkpt>
      <trkpt lat="-38.69396433339691" lon="176.700945069617">
        <ele>427</ele>
      </trkpt>
      <trkpt lat="-38.69407209612817" lon="176.700879267595">
        <ele>426</ele>
      </trkpt>
      <trkpt lat="-38.69418653442685" lon="176.700761014686">
        <ele>426</ele>
      </trkpt>
      <trkpt lat="-38.69430001907305" lon="176.70064371543">
        <ele>428</ele>
      </trkpt>
      <trkpt lat="-38.69464905588404" lon="176.700422468053">
        <ele>429</ele>
      </trkpt>
      <trkpt lat="-38.69492275414839" lon="176.700274651917">
        <ele>428</ele>
      </trkpt>
      <trkpt lat="-38.69502288765973" lon="176.700170703796">
        <ele>428</ele>
      </trkpt>
      <trkpt lat="-38.6951220675186" lon="176.700067709327">
        <ele>428</ele>
      </trkpt>
      <trkpt lat="-38.69518691588785" lon="176.700033377837">
        <ele>428</ele>
      </trkpt>
      <trkpt lat="-38.69525081060461" lon="176.7">
        <ele>427</ele>
      </trkpt>
      <trkpt lat="-38.69525081060461" lon="176.7">
        <ele>427</ele>
      </trkpt>
      <trkpt lat="-38.69534426854854" lon="176.699955178333">
        <ele>426</ele>
      </trkpt>
      <trkpt lat="-38.69543677283998" lon="176.699910356666">
        <ele>426</ele>
      </trkpt>
      <trkpt lat="-38.69555407209612" lon="176.699833110814">
        <ele>425</ele>
      </trkpt>
      <trkpt lat="-38.69567041769979" lon="176.699755864963">
        <ele>424</ele>
      </trkpt>
      <trkpt lat="-38.69578867060843" lon="176.699685294679">
        <ele>424</ele>
      </trkpt>
      <trkpt lat="-38.69590692351707" lon="176.699614724394">
        <ele>423</ele>
      </trkpt>
      <trkpt lat="-38.69596891092885" lon="176.699585161167">
        <ele>423</ele>
      </trkpt>
      <trkpt lat="-38.69603089834064" lon="176.69955559794">
        <ele>422</ele>
      </trkpt>
      <trkpt lat="-38.69611005149723" lon="176.699499332443">
        <ele>422</ele>
      </trkpt>
      <trkpt lat="-38.69618825100133" lon="176.699443066946">
        <ele>422</ele>
      </trkpt>
      <trkpt lat="-38.69626168224299" lon="176.699342933435">
        <ele>422</ele>
      </trkpt>
      <trkpt lat="-38.69633511348464" lon="176.699243753576">
        <ele>421</ele>
      </trkpt>
      <trkpt lat="-38.69635895479687" lon="176.699176044249">
        <ele>421</ele>
      </trkpt>
      <trkpt lat="-38.6963827961091" lon="176.699109288575">
        <ele>422</ele>
      </trkpt>
      <trkpt lat="-38.69644573717337" lon="176.699032042724">
        <ele>422</ele>
      </trkpt>
      <trkpt lat="-38.69650772458516" lon="176.698954796872">
        <ele>422</ele>
      </trkpt>
      <trkpt lat="-38.69657448025939" lon="176.698837497616">
        <ele>423</ele>
      </trkpt>
      <trkpt lat="-38.69664028228114" lon="176.69872019836">
        <ele>423</ele>
      </trkpt>
      <trkpt lat="-38.6967470913599" lon="176.698608621019">
        <ele>424</ele>
      </trkpt>
      <trkpt lat="-38.69685390043868" lon="176.69849799733">
        <ele>425</ele>
      </trkpt>
      <trkpt lat="-38.69694449742514" lon="176.698417890521">
        <ele>425</ele>
      </trkpt>
      <trkpt lat="-38.69703414075911" lon="176.698338737364">
        <ele>425</ele>
      </trkpt>
      <trkpt lat="-38.69723154682433" lon="176.698088880412">
        <ele>427</ele>
      </trkpt>
      <trkpt lat="-38.69727255388136" lon="176.698024032043">
        <ele>427</ele>
      </trkpt>
      <trkpt lat="-38.69731356093839" lon="176.697960137326">
        <ele>427</ele>
      </trkpt>
      <trkpt lat="-38.69749666221629" lon="176.697553881366">
        <ele>428</ele>
      </trkpt>
      <trkpt lat="-38.69750238413122" lon="176.697461377074">
        <ele>430</ele>
      </trkpt>
      <trkpt lat="-38.69750810604616" lon="176.697368872783">
        <ele>432</ele>
      </trkpt>
      <trkpt lat="-38.69754053023078" lon="176.697281136754">
        <ele>434</ele>
      </trkpt>
      <trkpt lat="-38.69757295441541" lon="176.697193400725">
        <ele>436</ele>
      </trkpt>
      <trkpt lat="-38.69763875643715" lon="176.697131413313">
        <ele>436</ele>
      </trkpt>
      <trkpt lat="-38.69772649246615" lon="176.697029372497">
        <ele>437</ele>
      </trkpt>
      <trkpt lat="-38.69781422849513" lon="176.696928285333">
        <ele>437</ele>
      </trkpt>
      <trkpt lat="-38.69792485218386" lon="176.696858668701">
        <ele>436</ele>
      </trkpt>
      <trkpt lat="-38.69802498569521" lon="176.696745184055">
        <ele>436</ele>
      </trkpt>
      <trkpt lat="-38.69809174136945" lon="176.696698455083">
        <ele>435</ele>
      </trkpt>
      <trkpt lat="-38.69815754339118" lon="176.696652679764">
        <ele>434</ele>
      </trkpt>
      <trkpt lat="-38.69826816707992" lon="176.696373259584">
        <ele>436</ele>
      </trkpt>
      <trkpt lat="-38.69835399580393" lon="176.696266450505">
        <ele>437</ele>
      </trkpt>
      <trkpt lat="-38.69845317566278" lon="176.696270265115">
        <ele>436</ele>
      </trkpt>
      <trkpt lat="-38.69855712378409" lon="176.696326530612">
        <ele>434</ele>
      </trkpt>
      <trkpt lat="-38.6986610719054" lon="176.696383749762">
        <ele>432</ele>
      </trkpt>
      <trkpt lat="-38.69872305931718" lon="176.696391378982">
        <ele>431</ele>
      </trkpt>
      <trkpt lat="-38.69878504672897" lon="176.696399961854">
        <ele>430</ele>
      </trkpt>
      <trkpt lat="-38.69888708754529" lon="176.696362769407">
        <ele>430</ele>
      </trkpt>
      <trkpt lat="-38.69898817470914" lon="176.696326530612">
        <ele>429</ele>
      </trkpt>
      <trkpt lat="-38.69910928857524" lon="176.696257867633">
        <ele>429</ele>
      </trkpt>
      <trkpt lat="-38.69915887850467" lon="176.696186343696">
        <ele>429</ele>
      </trkpt>
      <trkpt lat="-38.69920751478161" lon="176.69611481976">
        <ele>430</ele>
      </trkpt>
      <trkpt lat="-38.69924756818615" lon="176.696003242418">
        <ele>430</ele>
      </trkpt>
      <trkpt lat="-38.6992866679382" lon="176.695891665077">
        <ele>431</ele>
      </trkpt>
      <trkpt lat="-38.6992866679382" lon="176.695822048446">
        <ele>431</ele>
      </trkpt>
      <trkpt lat="-38.6992866679382" lon="176.695752431814">
        <ele>433</ele>
      </trkpt>
      <trkpt lat="-38.69933148960519" lon="176.695667556742">
        <ele>433</ele>
      </trkpt>
      <trkpt lat="-38.69942017928667" lon="176.695614152203">
        <ele>433</ele>
      </trkpt>
      <trkpt lat="-38.69949647148579" lon="176.695499713904">
        <ele>434</ele>
      </trkpt>
      <trkpt lat="-38.69957276368491" lon="176.695386229258">
        <ele>436</ele>
      </trkpt>
      <trkpt lat="-38.69967480450124" lon="176.695353805073">
        <ele>436</ele>
      </trkpt>
      <trkpt lat="-38.69977589166508" lon="176.695321380889">
        <ele>436</ele>
      </trkpt>
      <trkpt lat="-38.69987221056647" lon="176.695308983406">
        <ele>435</ele>
      </trkpt>
      <trkpt lat="-38.69996757581537" lon="176.695296585924">
        <ele>435</ele>
      </trkpt>
      <trkpt lat="-38.7" lon="176.695314705321">
        <ele>434</ele>
      </trkpt>
      <trkpt lat="-38.7" lon="176.695314705321">
        <ele>434</ele>
      </trkpt>
      <trkpt lat="-38.70008582872401" lon="176.695363341598">
        <ele>432</ele>
      </trkpt>
      <trkpt lat="-38.70031565897387" lon="176.69541007057">
        <ele>430</ele>
      </trkpt>
      <trkpt lat="-38.70051497234408" lon="176.695412931528">
        <ele>430</ele>
      </trkpt>
      <trkpt lat="-38.70075243181385" lon="176.695530230784">
        <ele>427</ele>
      </trkpt>
      <trkpt lat="-38.70090978447454" lon="176.695667556742">
        <ele>424</ele>
      </trkpt>
      <trkpt lat="-38.70106236887278" lon="176.69586210185">
        <ele>421</ele>
      </trkpt>
      <trkpt lat="-38.70124547015068" lon="176.696028037383">
        <ele>423</ele>
      </trkpt>
      <trkpt lat="-38.70146671752813" lon="176.696178714476">
        <ele>424</ele>
      </trkpt>
      <trkpt lat="-38.70164505054358" lon="176.696358954797">
        <ele>422</ele>
      </trkpt>
      <trkpt lat="-38.7017652107572" lon="176.696379935152">
        <ele>422</ele>
      </trkpt>
      <trkpt lat="-38.70184627121877" lon="176.696404730116">
        <ele>423</ele>
      </trkpt>
      <trkpt lat="-38.70198645813466" lon="176.696463856571">
        <ele>423</ele>
      </trkpt>
      <trkpt lat="-38.70214381079535" lon="176.696605950792">
        <ele>423</ele>
      </trkpt>
      <trkpt lat="-38.7023126072859" lon="176.696568758344">
        <ele>425</ele>
      </trkpt>
      <trkpt lat="-38.7024089261873" lon="176.69649818806">
        <ele>428</ele>
      </trkpt>
      <trkpt lat="-38.70263303452222" lon="176.696445737173">
        <ele>428</ele>
      </trkpt>
      <trkpt lat="-38.70276749952318" lon="176.696470532138">
        <ele>427</ele>
      </trkpt>
      <trkpt lat="-38.70297062750334" lon="176.696542056075">
        <ele>424</ele>
      </trkpt>
      <trkpt lat="-38.70315372878123" lon="176.696303642953">
        <ele>424</ele>
      </trkpt>
      <trkpt lat="-38.70332729353424" lon="176.695696166317">
        <ele>427</ele>
      </trkpt>
      <trkpt lat="-38.70338928094603" lon="176.69523364486">
        <ele>434</ele>
      </trkpt>
      <trkpt lat="-38.70347510967004" lon="176.695018119397">
        <ele>438</ele>
      </trkpt>
      <trkpt lat="-38.70351230211711" lon="176.694794011062">
        <ele>442</ele>
      </trkpt>
      <trkpt lat="-38.70365439633797" lon="176.694485981308">
        <ele>447</ele>
      </trkpt>
      <trkpt lat="-38.70372305931718" lon="176.694221819569">
        <ele>449</ele>
      </trkpt>
      <trkpt lat="-38.70374308601946" lon="176.694012969674">
        <ele>450</ele>
      </trkpt>
      <trkpt lat="-38.70403204272363" lon="176.693497043677">
        <ele>442</ele>
      </trkpt>
      <trkpt lat="-38.70414552736982" lon="176.69281232119">
        <ele>449</ele>
      </trkpt>
      <trkpt lat="-38.70425424375357" lon="176.6926053786">
        <ele>450</ele>
      </trkpt>
      <trkpt lat="-38.70437726492466" lon="176.692405111577">
        <ele>450</ele>
      </trkpt>
      <trkpt lat="-38.70471008964333" lon="176.692178142285">
        <ele>443</ele>
      </trkpt>
      <trkpt lat="-38.70475109670036" lon="176.692081823384">
        <ele>444</ele>
      </trkpt>
      <trkpt lat="-38.70471008964333" lon="176.691948312035">
        <ele>448</ele>
      </trkpt>
      <trkpt lat="-38.70521934007248" lon="176.691937821858">
        <ele>436</ele>
      </trkpt>
      <trkpt lat="-38.70540244135037" lon="176.691796681289">
        <ele>435</ele>
      </trkpt>
      <trkpt lat="-38.70576196833874" lon="176.691591646004">
        <ele>434</ele>
      </trkpt>
      <trkpt lat="-38.7058783139424" lon="176.691570665649">
        <ele>434</ele>
      </trkpt>
      <trkpt lat="-38.706000381461" lon="176.691489605188">
        <ele>435</ele>
      </trkpt>
      <trkpt lat="-38.70622258249094" lon="176.691227350753">
        <ele>440</ele>
      </trkpt>
      <trkpt lat="-38.70636276940683" lon="176.691168224299">
        <ele>438</ele>
      </trkpt>
      <trkpt lat="-38.70655349990464" lon="176.690822048446">
        <ele>439</ele>
      </trkpt>
      <trkpt lat="-38.70658497043677" lon="176.690679954225">
        <ele>441</ele>
      </trkpt>
      <trkpt lat="-38.70657829486935" lon="176.690549303834">
        <ele>444</ele>
      </trkpt>
      <trkpt lat="-38.70665363341598" lon="176.69041769979">
        <ele>445</ele>
      </trkpt>
      <trkpt lat="-38.70678809841694" lon="176.69023745947">
        <ele>446</ele>
      </trkpt>
      <trkpt lat="-38.7068615296586" lon="176.690029563227">
        <ele>450</ele>
      </trkpt>
      <trkpt lat="-38.70697215334732" lon="176.689909403014">
        <ele>452</ele>
      </trkpt>
      <trkpt lat="-38.70710947930574" lon="176.689938012588">
        <ele>449</ele>
      </trkpt>
      <trkpt lat="-38.70746233072668" lon="176.68997329773">
        <ele>441</ele>
      </trkpt>
      <trkpt lat="-38.70757295441541" lon="176.689928476063">
        <ele>442</ele>
      </trkpt>
      <trkpt lat="-38.70773221438108" lon="176.689930383368">
        <ele>441</ele>
      </trkpt>
      <trkpt lat="-38.70781613580012" lon="176.689891283616">
        <ele>441</ele>
      </trkpt>
      <trkpt lat="-38.70800591264543" lon="176.689610909784">
        <ele>447</ele>
      </trkpt>
      <trkpt lat="-38.70811939729163" lon="176.68931432386">
        <ele>453</ele>
      </trkpt>
      <trkpt lat="-38.70813179477398" lon="176.689167461377">
        <ele>456</ele>
      </trkpt>
      <trkpt lat="-38.70804882700744" lon="176.688667747473">
        <ele>463</ele>
      </trkpt>
      <trkpt lat="-38.70808411214954" lon="176.688453175663">
        <ele>464</ele>
      </trkpt>
      <trkpt lat="-38.70817852374595" lon="176.688234789243">
        <ele>462</ele>
      </trkpt>
      <trkpt lat="-38.70830535952699" lon="176.688121304597">
        <ele>458</ele>
      </trkpt>
      <trkpt lat="-38.70844650009536" lon="176.688088880412">
        <ele>456</ele>
      </trkpt>
      <trkpt lat="-38.70858096509632" lon="176.688125119207">
        <ele>454</ele>
      </trkpt>
      <trkpt lat="-38.70866679382033" lon="176.68822620637">
        <ele>453</ele>
      </trkpt>
      <trkpt lat="-38.70882033187107" lon="176.688273888995">
        <ele>450</ele>
      </trkpt>
      <trkpt lat="-38.70887755102041" lon="176.688342551974">
        <ele>449</ele>
      </trkpt>
      <trkpt lat="-38.7088870875453" lon="176.688498950982">
        <ele>448</ele>
      </trkpt>
      <trkpt lat="-38.70895002860958" lon="176.688586687011">
        <ele>447</ele>
      </trkpt>
      <trkpt lat="-38.7090263208087" lon="176.688633415983">
        <ele>446</ele>
      </trkpt>
      <trkpt lat="-38.70909784474537" lon="176.688849895098">
        <ele>444</ele>
      </trkpt>
      <trkpt lat="-38.70904634751097" lon="176.689004386801">
        <ele>445</ele>
      </trkpt>
      <trkpt lat="-38.70893286286477" lon="176.689108334923">
        <ele>446</ele>
      </trkpt>
      <trkpt lat="-38.70887182910548" lon="176.689217051307">
        <ele>446</ele>
      </trkpt>
      <trkpt lat="-38.7088613389281" lon="176.689322906733">
        <ele>446</ele>
      </trkpt>
      <trkpt lat="-38.70895288956704" lon="176.689603280565">
        <ele>447</ele>
      </trkpt>
      <trkpt lat="-38.70909689109288" lon="176.689786381842">
        <ele>449</ele>
      </trkpt>
      <trkpt lat="-38.70929143620065" lon="176.689861720389">
        <ele>452</ele>
      </trkpt>
      <trkpt lat="-38.70945069616632" lon="176.689899866489">
        <ele>454</ele>
      </trkpt>
      <trkpt lat="-38.70955750524509" lon="176.689901773794">
        <ele>455</ele>
      </trkpt>
      <trkpt lat="-38.70964238031662" lon="176.689999046348">
        <ele>456</ele>
      </trkpt>
      <trkpt lat="-38.70978542818997" lon="176.690273698264">
        <ele>460</ele>
      </trkpt>
      <trkpt lat="-38.70989891283617" lon="176.690585542628">
        <ele>464</ele>
      </trkpt>
      <trkpt lat="-38.7100696166317" lon="176.6908811749">
        <ele>467</ele>
      </trkpt>
      <trkpt lat="-38.71021457181003" lon="176.691018500858">
        <ele>468</ele>
      </trkpt>
      <trkpt lat="-38.71031947358383" lon="176.691025176426">
        <ele>468</ele>
      </trkpt>
      <trkpt lat="-38.71046347510967" lon="176.691146290292">
        <ele>468</ele>
      </trkpt>
      <trkpt lat="-38.71058935723822" lon="176.691353232882">
        <ele>468</ele>
      </trkpt>
      <trkpt lat="-38.71063227160023" lon="176.691873927141">
        <ele>467</ele>
      </trkpt>
      <trkpt lat="-38.7106608811749" lon="176.692358382605">
        <ele>468</ele>
      </trkpt>
      <trkpt lat="-38.71051687964906" lon="176.692719816899">
        <ele>470</ele>
      </trkpt>
      <trkpt lat="-38.71034522220103" lon="176.692998283426">
        <ele>471</ele>
      </trkpt>
      <trkpt lat="-38.71013827961091" lon="176.693162311654">
        <ele>472</ele>
      </trkpt>
      <trkpt lat="-38.71002288765974" lon="176.693407400343">
        <ele>475</ele>
      </trkpt>
      <trkpt lat="-38.70983692542438" lon="176.693591455274">
        <ele>479</ele>
      </trkpt>
      <trkpt lat="-38.70975395765783" lon="176.693858477971">
        <ele>486</ele>
      </trkpt>
      <trkpt lat="-38.70958706847225" lon="176.693978638184">
        <ele>490</ele>
      </trkpt>
      <trkpt lat="-38.70952698836544" lon="176.693868968148">
        <ele>487</ele>
      </trkpt>
      <trkpt lat="-38.70949837879077" lon="176.693742132367">
        <ele>483</ele>
      </trkpt>
      <trkpt lat="-38.70934960900248" lon="176.693453175663">
        <ele>474</ele>
      </trkpt>
      <trkpt lat="-38.70885275605569" lon="176.693215716193">
        <ele>472</ele>
      </trkpt>
      <trkpt lat="-38.70871543009727" lon="176.693003051688">
        <ele>470</ele>
      </trkpt>
      <trkpt lat="-38.70869826435247" lon="176.69278180431">
        <ele>465</ele>
      </trkpt>
      <trkpt lat="-38.70858573335877" lon="176.692629219912">
        <ele>462</ele>
      </trkpt>
      <trkpt lat="-38.70836162502384" lon="176.692641617395">
        <ele>462</ele>
      </trkpt>
      <trkpt lat="-38.70817566278848" lon="176.692497615869">
        <ele>460</ele>
      </trkpt>
      <trkpt lat="-38.70796585924089" lon="176.692454701507">
        <ele>462</ele>
      </trkpt>
      <trkpt lat="-38.70761491512493" lon="176.69258630555">
        <ele>469</ele>
      </trkpt>
      <trkpt lat="-38.7070961281709" lon="176.692942017929">
        <ele>467</ele>
      </trkpt>
      <trkpt lat="-38.70693591455274" lon="176.693167079916">
        <ele>468</ele>
      </trkpt>
      <trkpt lat="-38.7068519931337" lon="176.693383559031">
        <ele>470</ele>
      </trkpt>
      <trkpt lat="-38.706608811749" lon="176.693607667366">
        <ele>466</ele>
      </trkpt>
      <trkpt lat="-38.70632748426473" lon="176.694064466908">
        <ele>466</ele>
      </trkpt>
      <trkpt lat="-38.70619397291627" lon="176.694328628648">
        <ele>466</ele>
      </trkpt>
      <trkpt lat="-38.70609097844746" lon="176.6945784856">
        <ele>465</ele>
      </trkpt>
      <trkpt lat="-38.70588117489987" lon="176.694755864963">
        <ele>463</ele>
      </trkpt>
      <trkpt lat="-38.70570284188442" lon="176.694824527942">
        <ele>462</ele>
      </trkpt>
      <trkpt lat="-38.70529372496662" lon="176.694855044822">
        <ele>461</ele>
      </trkpt>
      <trkpt lat="-38.7051659355331" lon="176.694970436773">
        <ele>461</ele>
      </trkpt>
      <trkpt lat="-38.70482834255198" lon="176.695384321953">
        <ele>459</ele>
      </trkpt>
      <trkpt lat="-38.70457943925233" lon="176.695099179859">
        <ele>453</ele>
      </trkpt>
      <trkpt lat="-38.70439729162693" lon="176.695021934007">
        <ele>449</ele>
      </trkpt>
      <trkpt lat="-38.70414457371734" lon="176.695298493229">
        <ele>444</ele>
      </trkpt>
      <trkpt lat="-38.70401678428381" lon="176.695510204082">
        <ele>441</ele>
      </trkpt>
      <trkpt lat="-38.70396433339691" lon="176.695673278657">
        <ele>439</ele>
      </trkpt>
      <trkpt lat="-38.70398722105665" lon="176.695813465573">
        <ele>439</ele>
      </trkpt>
      <trkpt lat="-38.70375452984933" lon="176.696286477208">
        <ele>430</ele>
      </trkpt>
      <trkpt lat="-38.70364867442304" lon="176.696637421324">
        <ele>425</ele>
      </trkpt>
      <trkpt lat="-38.70356284569903" lon="176.697011253099">
        <ele>428</ele>
      </trkpt>
      <trkpt lat="-38.70339786381842" lon="176.697369826435">
        <ele>433</ele>
      </trkpt>
      <trkpt lat="-38.70325004768262" lon="176.697580583635">
        <ele>437</ele>
      </trkpt>
      <trkpt lat="-38.70250810604616" lon="176.697863818425">
        <ele>445</ele>
      </trkpt>
      <trkpt lat="-38.70223154682434" lon="176.697859050162">
        <ele>447</ele>
      </trkpt>
      <trkpt lat="-38.70192447072287" lon="176.697751287431">
        <ele>443</ele>
      </trkpt>
      <trkpt lat="-38.70162788479878" lon="176.697468052642">
        <ele>433</ele>
      </trkpt>
      <trkpt lat="-38.70140091550639" lon="176.697317375548">
        <ele>434</ele>
      </trkpt>
      <trkpt lat="-38.70110051497235" lon="176.696836734694">
        <ele>428</ele>
      </trkpt>
      <trkpt lat="-38.7010261300782" lon="176.696580202174">
        <ele>425</ele>
      </trkpt>
      <trkpt lat="-38.70071714667176" lon="176.696225443448">
        <ele>423</ele>
      </trkpt>
      <trkpt lat="-38.70049685294678" lon="176.696071905398">
        <ele>420</ele>
      </trkpt>
      <trkpt lat="-38.7002088498951" lon="176.695925042914">
        <ele>418</ele>
      </trkpt>
      <trkpt lat="-38.7" lon="176.695899294297">
        <ele>417</ele>
      </trkpt>
      <trkpt lat="-38.7" lon="176.695899294297">
        <ele>417</ele>
      </trkpt>
      <trkpt lat="-38.69998760251764" lon="176.695897386992">
        <ele>417</ele>
      </trkpt>
      <trkpt lat="-38.69970436772839" lon="176.696073812703">
        <ele>423</ele>
      </trkpt>
      <trkpt lat="-38.6996261682243" lon="176.696202555789">
        <ele>425</ele>
      </trkpt>
      <trkpt lat="-38.69955845889758" lon="176.696446690826">
        <ele>425</ele>
      </trkpt>
      <trkpt lat="-38.69969673850849" lon="176.696795727637">
        <ele>427</ele>
      </trkpt>
      <trkpt lat="-38.69978638184246" lon="176.697393667747">
        <ele>434</ele>
      </trkpt>
      <trkpt lat="-38.69972248712569" lon="176.697591073813">
        <ele>436</ele>
      </trkpt>
      <trkpt lat="-38.69957562464238" lon="176.697649246615">
        <ele>434</ele>
      </trkpt>
      <trkpt lat="-38.69936391378981" lon="176.697680717147">
        <ele>432</ele>
      </trkpt>
      <trkpt lat="-38.69873545679954" lon="176.697532901011">
        <ele>429</ele>
      </trkpt>
      <trkpt lat="-38.69853805073431" lon="176.697386038528">
        <ele>429</ele>
      </trkpt>
      <trkpt lat="-38.69831871066183" lon="176.697442304024">
        <ele>429</ele>
      </trkpt>
      <trkpt lat="-38.69801163456037" lon="176.697415601755">
        <ele>430</ele>
      </trkpt>
      <trkpt lat="-38.69786572572954" lon="176.697535761968">
        <ele>429</ele>
      </trkpt>
      <trkpt lat="-38.69769692923898" lon="176.698009727255">
        <ele>426</ele>
      </trkpt>
      <trkpt lat="-38.69760919320999" lon="176.698462712188">
        <ele>423</ele>
      </trkpt>
      <trkpt lat="-38.69732119015831" lon="176.698984360099">
        <ele>422</ele>
      </trkpt>
      <trkpt lat="-38.6964867442304" lon="176.699844554644">
        <ele>414</ele>
      </trkpt>
      <trkpt lat="-38.69636372305931" lon="176.7">
        <ele>413</ele>
      </trkpt>
      <trkpt lat="-38.69636372305931" lon="176.7">
        <ele>413</ele>
      </trkpt>
      <trkpt lat="-38.6959994278085" lon="176.700460614152">
        <ele>415</ele>
      </trkpt>
      <trkpt lat="-38.69579725348083" lon="176.700616059508">
        <ele>414</ele>
      </trkpt>
      <trkpt lat="-38.69527655922182" lon="176.700797253481">
        <ele>416</ele>
      </trkpt>
      <trkpt lat="-38.69480736219721" lon="176.701157734122">
        <ele>418</ele>
      </trkpt>
      <trkpt lat="-38.6945212664505" lon="176.701411405684">
        <ele>418</ele>
      </trkpt>
      <trkpt lat="-38.69346748045012" lon="176.701819568949">
        <ele>416</ele>
      </trkpt>
      <trkpt lat="-38.69318901392332" lon="176.702088498951">
        <ele>418</ele>
      </trkpt>
      <trkpt lat="-38.69246709898913" lon="176.702494754911">
        <ele>413</ele>
      </trkpt>
      <trkpt lat="-38.69220484455465" lon="176.702791340835">
        <ele>416</ele>
      </trkpt>
      <trkpt lat="-38.69197215334732" lon="176.702927713141">
        <ele>416</ele>
      </trkpt>
      <trkpt lat="-38.69179000572191" lon="176.703006866298">
        <ele>415</ele>
      </trkpt>
      <trkpt lat="-38.69143810795346" lon="176.703099370589">
        <ele>413</ele>
      </trkpt>
      <trkpt lat="-38.69108525653252" lon="176.70325672325">
        <ele>411</ele>
      </trkpt>
      <trkpt lat="-38.69087736028991" lon="176.703292962045">
        <ele>410</ele>
      </trkpt>
      <trkpt lat="-38.69072668319664" lon="176.703394049208">
        <ele>411</ele>
      </trkpt>
      <trkpt lat="-38.69034617585352" lon="176.703344459279">
        <ele>408</ele>
      </trkpt>
      <trkpt lat="-38.68995327102804" lon="176.70323383559">
        <ele>406</ele>
      </trkpt>
      <trkpt lat="-38.68977303070761" lon="176.703271028037">
        <ele>408</ele>
      </trkpt>
      <trkpt lat="-38.6894955178333" lon="176.703240511158">
        <ele>410</ele>
      </trkpt>
      <trkpt lat="-38.68924089261873" lon="176.703129887469">
        <ele>410</ele>
      </trkpt>
      <trkpt lat="-38.68896910165935" lon="176.702932481404">
        <ele>408</ele>
      </trkpt>
      <trkpt lat="-38.68874213236696" lon="176.702901964524">
        <ele>409</ele>
      </trkpt>
      <trkpt lat="-38.68828151821476" lon="176.702682624452">
        <ele>409</ele>
      </trkpt>
      <trkpt lat="-38.68818901392332" lon="176.702565325195">
        <ele>408</ele>
      </trkpt>
      <trkpt lat="-38.68798683959565" lon="176.702499523174">
        <ele>410</ele>
      </trkpt>
      <trkpt lat="-38.68778371161549" lon="176.702442304024">
        <ele>414</ele>
      </trkpt>
      <trkpt lat="-38.6876778561892" lon="176.702347892428">
        <ele>415</ele>
      </trkpt>
      <trkpt lat="-38.68772077055121" lon="176.702288765974">
        <ele>413</ele>
      </trkpt>
      <trkpt lat="-38.68755006675567" lon="176.702125691398">
        <ele>413</ele>
      </trkpt>
      <trkpt lat="-38.68721342742705" lon="176.701924470723">
        <ele>413</ele>
      </trkpt>
      <trkpt lat="-38.68679286667938" lon="176.701812893382">
        <ele>416</ele>
      </trkpt>
      <trkpt lat="-38.68652012206751" lon="176.701541102422">
        <ele>416</ele>
      </trkpt>
      <trkpt lat="-38.68631317947739" lon="176.701407591074">
        <ele>417</ele>
      </trkpt>
      <trkpt lat="-38.68617203890902" lon="176.701231165363">
        <ele>415</ele>
      </trkpt>
      <trkpt lat="-38.68601945451078" lon="176.701157734122">
        <ele>415</ele>
      </trkpt>
      <trkpt lat="-38.68573717337402" lon="176.701140568377">
        <ele>415</ele>
      </trkpt>
      <trkpt lat="-38.6856341789052" lon="176.701166316994">
        <ele>415</ele>
      </trkpt>
      <trkpt lat="-38.68548922372687" lon="176.701193019264">
        <ele>414</ele>
      </trkpt>
      <trkpt lat="-38.68523650581728" lon="176.701255006676">
        <ele>414</ele>
      </trkpt>
      <trkpt lat="-38.68523650581728" lon="176.701255006676">
        <ele>414</ele>
      </trkpt>
      <trkpt lat="-38.68500762921991" lon="176.701220675186">
        <ele>412</ele>
      </trkpt>
      <trkpt lat="-38.68493133702079" lon="176.701244516498">
        <ele>413</ele>
      </trkpt>
      <trkpt lat="-38.68456608811749" lon="176.701433339691">
        <ele>418</ele>
      </trkpt>
      <trkpt lat="-38.68428952889567" lon="176.701370398627">
        <ele>419</ele>
      </trkpt>
      <trkpt lat="-38.68405397673088" lon="176.701396147244">
        <ele>420</ele>
      </trkpt>
      <trkpt lat="-38.68372782757963" lon="176.7013408354">
        <ele>419</ele>
      </trkpt>
      <trkpt lat="-38.68350753385466" lon="176.70133702079">
        <ele>419</ele>
      </trkpt>
      <trkpt lat="-38.68326530612244" lon="176.701399961854">
        <ele>419</ele>
      </trkpt>
      <trkpt lat="-38.682956322716" lon="176.701573526607">
        <ele>417</ele>
      </trkpt>
      <trkpt lat="-38.68252908640091" lon="176.701614533664">
        <ele>412</ele>
      </trkpt>
      <trkpt lat="-38.6821390425329" lon="176.701688918558">
        <ele>411</ele>
      </trkpt>
      <trkpt lat="-38.68186725157352" lon="176.701709898913">
        <ele>410</ele>
      </trkpt>
      <trkpt lat="-38.6813389280946" lon="176.701632653061">
        <ele>407</ele>
      </trkpt>
      <trkpt lat="-38.68122925805836" lon="176.701632653061">
        <ele>406</ele>
      </trkpt>
      <trkpt lat="-38.68114056837688" lon="176.70175090597">
        <ele>407</ele>
      </trkpt>
      <trkpt lat="-38.681043295823" lon="176.70176997902">
        <ele>407</ele>
      </trkpt>
      <trkpt lat="-38.68099561319855" lon="176.701666030898">
        <ele>405</ele>
      </trkpt>
      <trkpt lat="-38.68099561319855" lon="176.701666030898">
        <ele>405</ele>
      </trkpt>
      <trkpt lat="-38.68100514972344" lon="176.701584970437">
        <ele>405</ele>
      </trkpt>
      <trkpt lat="-38.68101373259584" lon="176.701504863628">
        <ele>406</ele>
      </trkpt>
      <trkpt lat="-38.68101373259584" lon="176.701504863628">
        <ele>406</ele>
      </trkpt>
      <trkpt lat="-38.68097463284379" lon="176.701366584017">
        <ele>406</ele>
      </trkpt>
      <trkpt lat="-38.68049876025176" lon="176.701142475682">
        <ele>407</ele>
      </trkpt>
      <trkpt lat="-38.68" lon="176.700883082205">
        <ele>408</ele>
      </trkpt>
      <trkpt lat="-38.68" lon="176.700883082205">
        <ele>408</ele>
      </trkpt>
      <trkpt lat="-38.67991035666603" lon="176.700836353233">
        <ele>409</ele>
      </trkpt>
      <trkpt lat="-38.67938203318711" lon="176.70062464238">
        <ele>412</ele>
      </trkpt>
      <trkpt lat="-38.6790177379363" lon="176.700521647911">
        <ele>415</ele>
      </trkpt>
      <trkpt lat="-38.67862483311082" lon="176.70062082777">
        <ele>416</ele>
      </trkpt>
      <trkpt lat="-38.67804596604997" lon="176.700490177379">
        <ele>421</ele>
      </trkpt>
      <trkpt lat="-38.67778657257296" lon="176.700534045394">
        <ele>421</ele>
      </trkpt>
      <trkpt lat="-38.67751764257105" lon="176.700401487698">
        <ele>423</ele>
      </trkpt>
      <trkpt lat="-38.67732595842075" lon="176.700357619683">
        <ele>422</ele>
      </trkpt>
      <trkpt lat="-38.67701792866679" lon="176.700356666031">
        <ele>419</ele>
      </trkpt>
      <trkpt lat="-38.67673755483502" lon="176.700198359718">
        <ele>417</ele>
      </trkpt>
      <trkpt lat="-38.6766784283807" lon="176.700070570284">
        <ele>417</ele>
      </trkpt>
      <trkpt lat="-38.67668796490559" lon="176.7">
        <ele>418</ele>
      </trkpt>
      <trkpt lat="-38.67668796490559" lon="176.7">
        <ele>418</ele>
      </trkpt>
      <trkpt lat="-38.67669368682053" lon="176.699958992943">
        <ele>419</ele>
      </trkpt>
      <trkpt lat="-38.67687964905588" lon="176.699799732977">
        <ele>423</ele>
      </trkpt>
      <trkpt lat="-38.67752908640092" lon="176.699465954606">
        <ele>428</ele>
      </trkpt>
      <trkpt lat="-38.67756818615297" lon="176.699373450315">
        <ele>428</ele>
      </trkpt>
      <trkpt lat="-38.67756818615297" lon="176.699373450315">
        <ele>428</ele>
      </trkpt>
      <trkpt lat="-38.67755171366382" lon="176.699352306523">
        <ele>428</ele>
      </trkpt>
      <trkpt lat="-38.67755171366382" lon="176.699352306523">
        <ele>428</ele>
      </trkpt>
      <trkpt lat="-38.6775042914362" lon="176.699291436201">
        <ele>428</ele>
      </trkpt>
      <trkpt lat="-38.6775042914362" lon="176.699291436201">
        <ele>428</ele>
      </trkpt>
      <trkpt lat="-38.67738413122258" lon="176.699327674995">
        <ele>429</ele>
      </trkpt>
      <trkpt lat="-38.67705798207133" lon="176.699531756628">
        <ele>427</ele>
      </trkpt>
      <trkpt lat="-38.67632845989876" lon="176.699620619538">
        <ele>422</ele>
      </trkpt>
      <trkpt lat="-38.67632845989876" lon="176.699620619538">
        <ele>422</ele>
      </trkpt>
      <trkpt lat="-38.67623593362579" lon="176.699631890139">
        <ele>421</ele>
      </trkpt>
      <trkpt lat="-38.67599561319855" lon="176.699490749571">
        <ele>422</ele>
      </trkpt>
      <trkpt lat="-38.67564276177761" lon="176.698998664887">
        <ele>430</ele>
      </trkpt>
      <trkpt lat="-38.67564276177761" lon="176.698998664887">
        <ele>430</ele>
      </trkpt>
      <trkpt lat="-38.67578348206719" lon="176.69891153667">
        <ele>432</ele>
      </trkpt>
    </trkseg>
  </trk>
</gpx>