<?xml version="1.0" encoding="UTF-8" standalone="yes"?>
<gpx
 version="1.1"
 creator="Generated by MapOut iPhone App. See https://mapout.app"
 xmlns="http://www.topografix.com/GPX/1/1"
 xmlns:xsi="http://www.w3.org/2001/XMLSchema-instance"
 xmlns:gpxx="http://www.garmin.com/xmlschemas/GpxExtensions/v3"
 xmlns:mapout="https://mapout.app/xmlschemas/MapOutExtensions"
 xsi:schemaLocation="http://www.topografix.com/GPX/1/1 https://www.topografix.com/GPX/1/1/gpx.xsd http://www.garmin.com/xmlschemas/GpxExtensions/v3 https://www8.garmin.com/xmlschemas/GpxExtensionsv3.xsd https://mapout.app/xmlschemas/MapOutExtensions https://mapout.app/xmlschemas/MapOutExtensions.xsd">
  <metadata>
    <name>Blue Springs</name>
    <author><name>iPhone</name></author>
    <time>2026-09-10T09:34:02Z</time>
    <bounds minlat="-38.038391188251" minlon="174.766722296395" maxlat="-36.84355180131009" maxlon="175.841848471087"/>
  </metadata>
  <trk>
    <name>Blue Springs</name>
    <trkseg>
      <trkpt lat="-38.03551299792721" lon="175.82833594167">
        <ele>122</ele>
      </trkpt>
      <trkpt lat="-38.03576292199123" lon="175.828489414457">
        <ele>126</ele>
      </trkpt>
      <trkpt lat="-38.03587926759489" lon="175.828532328819">
        <ele>126</ele>
      </trkpt>
      <trkpt lat="-38.03594697692161" lon="175.828519931337">
        <ele>126</ele>
      </trkpt>
      <trkpt lat="-38.0360614152203" lon="175.828512302117">
        <ele>126</ele>
      </trkpt>
      <trkpt lat="-38.03641045203128" lon="175.828282471867">
        <ele>125</ele>
      </trkpt>
      <trkpt lat="-38.03647243944307" lon="175.828163265306">
        <ele>127</ele>
      </trkpt>
      <trkpt lat="-38.03653442685486" lon="175.828044058745">
        <ele>128</ele>
      </trkpt>
      <trkpt lat="-38.03657257295442" lon="175.827925805836">
        <ele>130</ele>
      </trkpt>
      <trkpt lat="-38.03662025557887" lon="175.827857142857">
        <ele>131</ele>
      </trkpt>
      <trkpt lat="-38.03666793820332" lon="175.82778943353">
        <ele>132</ele>
      </trkpt>
      <trkpt lat="-38.03671657448026" lon="175.827727446119">
        <ele>134</ele>
      </trkpt>
      <trkpt lat="-38.03676425710471" lon="175.827666412359">
        <ele>135</ele>
      </trkpt>
      <trkpt lat="-38.03679572763685" lon="175.827581537288">
        <ele>137</ele>
      </trkpt>
      <trkpt lat="-38.0368262445165" lon="175.827497615869">
        <ele>139</ele>
      </trkpt>
      <trkpt lat="-38.03687201983598" lon="175.827496662216">
        <ele>139</ele>
      </trkpt>
      <trkpt lat="-38.03696929238986" lon="175.827552927713">
        <ele>140</ele>
      </trkpt>
      <trkpt lat="-38.03706656494374" lon="175.82760919321">
        <ele>140</ele>
      </trkpt>
      <trkpt lat="-38.03712283044059" lon="175.827670226969">
        <ele>139</ele>
      </trkpt>
      <trkpt lat="-38.03717814228495" lon="175.827732214381">
        <ele>139</ele>
      </trkpt>
      <trkpt lat="-38.03721056646958" lon="175.827818996758">
        <ele>138</ele>
      </trkpt>
      <trkpt lat="-38.03724203700172" lon="175.827905779134">
        <ele>137</ele>
      </trkpt>
      <trkpt lat="-38.03725920274652" lon="175.828009727255">
        <ele>135</ele>
      </trkpt>
      <trkpt lat="-38.03727541483883" lon="175.828113675377">
        <ele>133</ele>
      </trkpt>
      <trkpt lat="-38.03727255388137" lon="175.828182338356">
        <ele>132</ele>
      </trkpt>
      <trkpt lat="-38.0372696929239" lon="175.828251954988">
        <ele>130</ele>
      </trkpt>
      <trkpt lat="-38.0372868586687" lon="175.828358764066">
        <ele>129</ele>
      </trkpt>
      <trkpt lat="-38.03730402441351" lon="175.828465573145">
        <ele>129</ele>
      </trkpt>
      <trkpt lat="-38.03734598512303" lon="175.828560938394">
        <ele>130</ele>
      </trkpt>
      <trkpt lat="-38.03738794583254" lon="175.828656303643">
        <ele>130</ele>
      </trkpt>
      <trkpt lat="-38.03727636849132" lon="175.82890043868">
        <ele>129</ele>
      </trkpt>
      <trkpt lat="-38.03718767880984" lon="175.828954796872">
        <ele>129</ele>
      </trkpt>
      <trkpt lat="-38.03711138661072" lon="175.828978638184">
        <ele>128</ele>
      </trkpt>
      <trkpt lat="-38.0370350944116" lon="175.829003433149">
        <ele>127</ele>
      </trkpt>
      <trkpt lat="-38.03699313370208" lon="175.829046347511">
        <ele>127</ele>
      </trkpt>
      <trkpt lat="-38.03698774856169" lon="175.829452540958">
        <ele>130</ele>
      </trkpt>
      <trkpt lat="-38.03698774856169" lon="175.829452540958">
        <ele>130</ele>
      </trkpt>
      <trkpt lat="-38.03698645813466" lon="175.829549876025">
        <ele>131</ele>
      </trkpt>
      <trkpt lat="-38.03699027274461" lon="175.829966622163">
        <ele>134</ele>
      </trkpt>
      <trkpt lat="-38.03697024604234" lon="175.830048636277">
        <ele>134</ele>
      </trkpt>
      <trkpt lat="-38.03694926568758" lon="175.830131604043">
        <ele>135</ele>
      </trkpt>
      <trkpt lat="-38.03695212664505" lon="175.830511157734">
        <ele>136</ele>
      </trkpt>
      <trkpt lat="-38.03696261682243" lon="175.830582681671">
        <ele>137</ele>
      </trkpt>
      <trkpt lat="-38.03697215334732" lon="175.830654205607">
        <ele>137</ele>
      </trkpt>
      <trkpt lat="-38.03702555788671" lon="175.830762921991">
        <ele>138</ele>
      </trkpt>
      <trkpt lat="-38.03707800877361" lon="175.830871638375">
        <ele>139</ele>
      </trkpt>
      <trkpt lat="-38.03712473774556" lon="175.830951745184">
        <ele>140</ele>
      </trkpt>
      <trkpt lat="-38.03717051306504" lon="175.831032805646">
        <ele>141</ele>
      </trkpt>
      <trkpt lat="-38.03724775891665" lon="175.831070951745">
        <ele>141</ele>
      </trkpt>
      <trkpt lat="-38.03732405111577" lon="175.831110051497">
        <ele>141</ele>
      </trkpt>
      <trkpt lat="-38.03758821285523" lon="175.831160595079">
        <ele>141</ele>
      </trkpt>
      <trkpt lat="-38.03766164409689" lon="175.831120541675">
        <ele>141</ele>
      </trkpt>
      <trkpt lat="-38.03773507533855" lon="175.83108048827">
        <ele>141</ele>
      </trkpt>
      <trkpt lat="-38.0378352088499" lon="175.830991798589">
        <ele>142</ele>
      </trkpt>
      <trkpt lat="-38.03792962044631" lon="175.830973679191">
        <ele>142</ele>
      </trkpt>
      <trkpt lat="-38.03802403204273" lon="175.830956513446">
        <ele>142</ele>
      </trkpt>
      <trkpt lat="-38.0381127217242" lon="175.830959374404">
        <ele>142</ele>
      </trkpt>
      <trkpt lat="-38.03817470913599" lon="175.830995613199">
        <ele>142</ele>
      </trkpt>
      <trkpt lat="-38.03823669654778" lon="175.831032805646">
        <ele>142</ele>
      </trkpt>
      <trkpt lat="-38.03828328640661" lon="175.831088395818">
        <ele>142</ele>
      </trkpt>
      <trkpt lat="-38.03828328640661" lon="175.831088395818">
        <ele>142</ele>
      </trkpt>
      <trkpt lat="-38.03832061796681" lon="175.831132939157">
        <ele>142</ele>
      </trkpt>
      <trkpt lat="-38.03837688346367" lon="175.831226397101">
        <ele>142</ele>
      </trkpt>
      <trkpt lat="-38.03838451268358" lon="175.83132939157">
        <ele>142</ele>
      </trkpt>
      <trkpt lat="-38.038391188251" lon="175.831432386039">
        <ele>142</ele>
      </trkpt>
      <trkpt lat="-38.03837211520122" lon="175.831534426855">
        <ele>141</ele>
      </trkpt>
      <trkpt lat="-38.03835208849895" lon="175.831636467671">
        <ele>140</ele>
      </trkpt>
      <trkpt lat="-38.03831584970437" lon="175.831700362388">
        <ele>141</ele>
      </trkpt>
      <trkpt lat="-38.03827865725729" lon="175.831764257105">
        <ele>142</ele>
      </trkpt>
      <trkpt lat="-38.0382519549876" lon="175.831854854091">
        <ele>143</ele>
      </trkpt>
      <trkpt lat="-38.03818806027084" lon="175.83191588785">
        <ele>144</ele>
      </trkpt>
      <trkpt lat="-38.03812416555407" lon="175.831977875262">
        <ele>144</ele>
      </trkpt>
      <trkpt lat="-38.03811558268167" lon="175.832092313561">
        <ele>146</ele>
      </trkpt>
      <trkpt lat="-38.03799732977303" lon="175.832358382605">
        <ele>148</ele>
      </trkpt>
      <trkpt lat="-38.03798016402823" lon="175.832464238032">
        <ele>149</ele>
      </trkpt>
      <trkpt lat="-38.03796204463094" lon="175.83257104711">
        <ele>150</ele>
      </trkpt>
      <trkpt lat="-38.03793248140378" lon="175.832828533282">
        <ele>151</ele>
      </trkpt>
      <trkpt lat="-38.03792008392142" lon="175.832902918177">
        <ele>151</ele>
      </trkpt>
      <trkpt lat="-38.03790768643906" lon="175.832977303071">
        <ele>151</ele>
      </trkpt>
      <trkpt lat="-38.03786477207706" lon="175.833041197788">
        <ele>150</ele>
      </trkpt>
      <trkpt lat="-38.03782185771505" lon="175.833106046157">
        <ele>149</ele>
      </trkpt>
      <trkpt lat="-38.03780469197024" lon="175.833181384703">
        <ele>149</ele>
      </trkpt>
      <trkpt lat="-38.03778752622544" lon="175.83325672325">
        <ele>148</ele>
      </trkpt>
      <trkpt lat="-38.03772744611864" lon="175.833333015449">
        <ele>146</ele>
      </trkpt>
      <trkpt lat="-38.0373564753004" lon="175.833503719245">
        <ele>140</ele>
      </trkpt>
      <trkpt lat="-38.03729162693115" lon="175.833546633607">
        <ele>140</ele>
      </trkpt>
      <trkpt lat="-38.03722677856189" lon="175.833590501621">
        <ele>141</ele>
      </trkpt>
      <trkpt lat="-38.03695117299256" lon="175.833705893572">
        <ele>140</ele>
      </trkpt>
      <trkpt lat="-38.03688537097082" lon="175.833751668892">
        <ele>140</ele>
      </trkpt>
      <trkpt lat="-38.03676997901965" lon="175.833859431623">
        <ele>139</ele>
      </trkpt>
      <trkpt lat="-38.03665363341599" lon="175.833968148007">
        <ele>138</ele>
      </trkpt>
      <trkpt lat="-38.03662693114629" lon="175.833996757582">
        <ele>138</ele>
      </trkpt>
      <trkpt lat="-38.03656971199695" lon="175.83408830822">
        <ele>138</ele>
      </trkpt>
      <trkpt lat="-38.03654014876979" lon="175.834102613008">
        <ele>137</ele>
      </trkpt>
      <trkpt lat="-38.03650867823765" lon="175.834105473965">
        <ele>137</ele>
      </trkpt>
      <trkpt lat="-38.03648102231547" lon="175.834115964143">
        <ele>137</ele>
      </trkpt>
      <trkpt lat="-38.03636753766927" lon="175.834194163647">
        <ele>137</ele>
      </trkpt>
      <trkpt lat="-38.03625405302308" lon="175.834273316803">
        <ele>137</ele>
      </trkpt>
      <trkpt lat="-38.03619778752623" lon="175.834335304215">
        <ele>137</ele>
      </trkpt>
      <trkpt lat="-38.03614056837689" lon="175.834397291627">
        <ele>137</ele>
      </trkpt>
      <trkpt lat="-38.03611195880222" lon="175.834444974251">
        <ele>137</ele>
      </trkpt>
      <trkpt lat="-38.03610623688728" lon="175.834496471486">
        <ele>137</ele>
      </trkpt>
      <trkpt lat="-38.03613484646195" lon="175.834841693687">
        <ele>139</ele>
      </trkpt>
      <trkpt lat="-38.03615964142666" lon="175.834932290673">
        <ele>140</ele>
      </trkpt>
      <trkpt lat="-38.03620732405112" lon="175.835040053405">
        <ele>141</ele>
      </trkpt>
      <trkpt lat="-38.03626645050544" lon="175.835333778371">
        <ele>145</ele>
      </trkpt>
      <trkpt lat="-38.03627121876788" lon="175.83543677284">
        <ele>146</ele>
      </trkpt>
      <trkpt lat="-38.03626549685295" lon="175.835534045394">
        <ele>146</ele>
      </trkpt>
      <trkpt lat="-38.03622258249094" lon="175.835878313942">
        <ele>148</ele>
      </trkpt>
      <trkpt lat="-38.03610814419226" lon="175.836313179477">
        <ele>144</ele>
      </trkpt>
      <trkpt lat="-38.03608811748999" lon="175.836427617776">
        <ele>143</ele>
      </trkpt>
      <trkpt lat="-38.03606809078772" lon="175.836543009727">
        <ele>142</ele>
      </trkpt>
      <trkpt lat="-38.03605569330536" lon="175.836663169941">
        <ele>141</ele>
      </trkpt>
      <trkpt lat="-38.03604234217051" lon="175.836784283807">
        <ele>139</ele>
      </trkpt>
      <trkpt lat="-38.03603852756056" lon="175.836869158878">
        <ele>139</ele>
      </trkpt>
      <trkpt lat="-38.03604043486553" lon="175.836913980545">
        <ele>138</ele>
      </trkpt>
      <trkpt lat="-38.03606713713523" lon="175.837007438489">
        <ele>138</ele>
      </trkpt>
      <trkpt lat="-38.03610909784474" lon="175.837061796681">
        <ele>138</ele>
      </trkpt>
      <trkpt lat="-38.03613198550448" lon="175.837071333206">
        <ele>138</ele>
      </trkpt>
      <trkpt lat="-38.0363999618539" lon="175.837085637994">
        <ele>142</ele>
      </trkpt>
      <trkpt lat="-38.03647911501049" lon="175.837106618348">
        <ele>143</ele>
      </trkpt>
      <trkpt lat="-38.03654110242228" lon="175.837131413313">
        <ele>143</ele>
      </trkpt>
      <trkpt lat="-38.03660308983407" lon="175.83715716193">
        <ele>143</ele>
      </trkpt>
      <trkpt lat="-38.03671466717528" lon="175.837227732214">
        <ele>143</ele>
      </trkpt>
      <trkpt lat="-38.03680621781423" lon="175.837297348846">
        <ele>143</ele>
      </trkpt>
      <trkpt lat="-38.03692733168034" lon="175.837414648102">
        <ele>143</ele>
      </trkpt>
      <trkpt lat="-38.0369998092695" lon="175.837521457181">
        <ele>143</ele>
      </trkpt>
      <trkpt lat="-38.03707133320618" lon="175.837629219912">
        <ele>144</ele>
      </trkpt>
      <trkpt lat="-38.03731451459088" lon="175.837932481404">
        <ele>144</ele>
      </trkpt>
      <trkpt lat="-38.03737173374023" lon="175.838052641617">
        <ele>142</ele>
      </trkpt>
      <trkpt lat="-38.03742895288957" lon="175.838173755483">
        <ele>141</ele>
      </trkpt>
      <trkpt lat="-38.0374518405493" lon="175.838257676903">
        <ele>139</ele>
      </trkpt>
      <trkpt lat="-38.03746614533664" lon="175.838346366584">
        <ele>138</ele>
      </trkpt>
      <trkpt lat="-38.03746614533664" lon="175.838346366584">
        <ele>138</ele>
      </trkpt>
      <trkpt lat="-38.03747377455655" lon="175.838415029563">
        <ele>138</ele>
      </trkpt>
      <trkpt lat="-38.03748140377647" lon="175.838483692542">
        <ele>138</ele>
      </trkpt>
      <trkpt lat="-38.03748140377647" lon="175.838483692542">
        <ele>138</ele>
      </trkpt>
      <trkpt lat="-38.03754053023079" lon="175.838975777227">
        <ele>140</ele>
      </trkpt>
      <trkpt lat="-38.03763971008964" lon="175.839407781804">
        <ele>140</ele>
      </trkpt>
      <trkpt lat="-38.03765115391951" lon="175.839572763685">
        <ele>140</ele>
      </trkpt>
      <trkpt lat="-38.03763971008964" lon="175.839640473012">
        <ele>140</ele>
      </trkpt>
      <trkpt lat="-38.03761491512493" lon="175.839728209041">
        <ele>140</ele>
      </trkpt>
      <trkpt lat="-38.03755864962807" lon="175.839843600992">
        <ele>139</ele>
      </trkpt>
      <trkpt lat="-38.03746137707419" lon="175.84">
        <ele>139</ele>
      </trkpt>
      <trkpt lat="-38.03746137707419" lon="175.84">
        <ele>139</ele>
      </trkpt>
      <trkpt lat="-38.03743181384704" lon="175.840043868015">
        <ele>140</ele>
      </trkpt>
      <trkpt lat="-38.0373822239176" lon="175.840093457944">
        <ele>140</ele>
      </trkpt>
      <trkpt lat="-38.0372868586687" lon="175.840156399008">
        <ele>140</ele>
      </trkpt>
      <trkpt lat="-38.03716765210757" lon="175.84021838642">
        <ele>140</ele>
      </trkpt>
      <trkpt lat="-38.03709135990845" lon="175.84023745947">
        <ele>140</ele>
      </trkpt>
      <trkpt lat="-38.03701411405684" lon="175.84025653252">
        <ele>139</ele>
      </trkpt>
      <trkpt lat="-38.03691970246042" lon="175.840264161739">
        <ele>139</ele>
      </trkpt>
      <trkpt lat="-38.03682529086401" lon="175.840272744612">
        <ele>138</ele>
      </trkpt>
      <trkpt lat="-38.03674232309746" lon="175.840275605569">
        <ele>137</ele>
      </trkpt>
      <trkpt lat="-38.03665935533092" lon="175.840279420179">
        <ele>137</ele>
      </trkpt>
      <trkpt lat="-38.03660690444402" lon="175.840294678619">
        <ele>137</ele>
      </trkpt>
      <trkpt lat="-38.03656685103948" lon="175.840323288194">
        <ele>137</ele>
      </trkpt>
      <trkpt lat="-38.0365391951173" lon="175.840351897768">
        <ele>137</ele>
      </trkpt>
      <trkpt lat="-38.03648769788289" lon="175.840415792485">
        <ele>137</ele>
      </trkpt>
      <trkpt lat="-38.0364524127408" lon="175.840484455464">
        <ele>137</ele>
      </trkpt>
      <trkpt lat="-38.0364171275987" lon="175.840553118444">
        <ele>136</ele>
      </trkpt>
      <trkpt lat="-38.03629887469006" lon="175.840878313942">
        <ele>135</ele>
      </trkpt>
      <trkpt lat="-38.03599275224109" lon="175.841780469197">
        <ele>134</ele>
      </trkpt>
      <trkpt lat="-38.03595365248903" lon="175.841829105474">
        <ele>134</ele>
      </trkpt>
      <trkpt lat="-38.0359300997165" lon="175.841848471087">
        <ele>134</ele>
      </trkpt>
    </trkseg>
  </trk>
</gpx>