<?xml version="1.0" encoding="UTF-8" standalone="yes"?>
<gpx
 version="1.1"
 creator="Generated by MapOut iPhone App. See https://mapout.app"
 xmlns="http://www.topografix.com/GPX/1/1"
 xmlns:xsi="http://www.w3.org/2001/XMLSchema-instance"
 xmlns:gpxx="http://www.garmin.com/xmlschemas/GpxExtensions/v3"
 xmlns:mapout="https://mapout.app/xmlschemas/MapOutExtensions"
 xsi:schemaLocation="http://www.topografix.com/GPX/1/1 https://www.topografix.com/GPX/1/1/gpx.xsd http://www.garmin.com/xmlschemas/GpxExtensions/v3 https://www8.garmin.com/xmlschemas/GpxExtensionsv3.xsd https://mapout.app/xmlschemas/MapOutExtensions https://mapout.app/xmlschemas/MapOutExtensions.xsd">
  <metadata>
    <name>Marokopa Falls</name>
    <author><name>iPhone</name></author>
    <time>2026-05-30T23:50:28Z</time>
    <bounds minlat="-38.2614518719523" minlon="174.848409307648" maxlat="-38.25919608611563" maxlon="174.850757410915"/>
  </metadata>
  <wpt lat="-38.2614518719523" lon="174.850757410915">
    <ele>83</ele>
    <name>Marokopa Falls</name>
    <sym>Waypoint</sym>
    <extensions>
      <mapout:extension>
        <mapout:color>FF2E1B</mapout:color>
      </mapout:extension>
    </extensions>
  </wpt>
  <trk>
    <trkseg>
      <trkpt lat="-38.25919608611563" lon="174.848436926924">
        <ele>116</ele>
      </trkpt>
      <trkpt lat="-38.25920751478161" lon="174.848409307648">
        <ele>116</ele>
      </trkpt>
      <trkpt lat="-38.25932672134275" lon="174.848479877933">
        <ele>114</ele>
      </trkpt>
      <trkpt lat="-38.25940110623689" lon="174.848600038146">
        <ele>114</ele>
      </trkpt>
      <trkpt lat="-38.25947549113103" lon="174.848721152012">
        <ele>114</ele>
      </trkpt>
      <trkpt lat="-38.25956894907495" lon="174.848751668892">
        <ele>112</ele>
      </trkpt>
      <trkpt lat="-38.25966145336639" lon="174.848783139424">
        <ele>111</ele>
      </trkpt>
      <trkpt lat="-38.25973774556552" lon="174.848748807934">
        <ele>109</ele>
      </trkpt>
      <trkpt lat="-38.25981308411215" lon="174.848715430097">
        <ele>107</ele>
      </trkpt>
      <trkpt lat="-38.25986648865153" lon="174.848650581728">
        <ele>104</ele>
      </trkpt>
      <trkpt lat="-38.25991989319092" lon="174.848586687011">
        <ele>102</ele>
      </trkpt>
      <trkpt lat="-38.26" lon="174.848571428571">
        <ele>100</ele>
      </trkpt>
      <trkpt lat="-38.26" lon="174.848571428571">
        <ele>100</ele>
      </trkpt>
      <trkpt lat="-38.26008487507152" lon="174.848555216479">
        <ele>98</ele>
      </trkpt>
      <trkpt lat="-38.26015163074575" lon="174.848860385276">
        <ele>103</ele>
      </trkpt>
      <trkpt lat="-38.26025367156208" lon="174.848929048255">
        <ele>102</ele>
      </trkpt>
      <trkpt lat="-38.26025367156208" lon="174.848929048255">
        <ele>102</ele>
      </trkpt>
      <trkpt lat="-38.26029372496662" lon="174.848956704177">
        <ele>102</ele>
      </trkpt>
      <trkpt lat="-38.26029372496662" lon="174.848956704177">
        <ele>102</ele>
      </trkpt>
      <trkpt lat="-38.26053499904634" lon="174.849117871448">
        <ele>100</ele>
      </trkpt>
      <trkpt lat="-38.2606255960328" lon="174.849295250811">
        <ele>100</ele>
      </trkpt>
      <trkpt lat="-38.26078390234598" lon="174.849900820141">
        <ele>98</ele>
      </trkpt>
      <trkpt lat="-38.26079820713332" lon="174.850091550639">
        <ele>99</ele>
      </trkpt>
      <trkpt lat="-38.26092504291436" lon="174.850244135037">
        <ele>97</ele>
      </trkpt>
      <trkpt lat="-38.26104711043295" lon="174.85018786954">
        <ele>94</ele>
      </trkpt>
      <trkpt lat="-38.26121781422849" lon="174.85026034713">
        <ele>90</ele>
      </trkpt>
      <trkpt lat="-38.26119874117871" lon="174.850338546634">
        <ele>91</ele>
      </trkpt>
      <trkpt lat="-38.26128361625023" lon="174.850533091741">
        <ele>89</ele>
      </trkpt>
      <trkpt lat="-38.26128361625023" lon="174.850533091741">
        <ele>89</ele>
      </trkpt>
      <trkpt lat="-38.26129982834255" lon="174.850569330536">
        <ele>88</ele>
      </trkpt>
      <trkpt lat="-38.26129982834255" lon="174.850569330536">
        <ele>88</ele>
      </trkpt>
      <trkpt lat="-38.26132080869731" lon="174.850708563799">
        <ele>88</ele>
      </trkpt>
    </trkseg>
  </trk>
</gpx>