<?xml version="1.0" encoding="UTF-8" standalone="yes"?>
<gpx
 version="1.1"
 creator="Generated by MapOut iPhone App. See https://mapout.app"
 xmlns="http://www.topografix.com/GPX/1/1"
 xmlns:xsi="http://www.w3.org/2001/XMLSchema-instance"
 xmlns:gpxx="http://www.garmin.com/xmlschemas/GpxExtensions/v3"
 xmlns:mapout="https://mapout.app/xmlschemas/MapOutExtensions"
 xsi:schemaLocation="http://www.topografix.com/GPX/1/1 https://www.topografix.com/GPX/1/1/gpx.xsd http://www.garmin.com/xmlschemas/GpxExtensions/v3 https://www8.garmin.com/xmlschemas/GpxExtensionsv3.xsd https://mapout.app/xmlschemas/MapOutExtensions https://mapout.app/xmlschemas/MapOutExtensions.xsd">
  <metadata>
    <name>Pancake Rocks and Blowholes</name>
    <author><name>iPhone</name></author>
    <time>2026-09-20T00:43:40Z</time>
    <bounds minlat="-42.11610242227732" minlon="171.326053786" maxlat="-42.11348083158497" maxlon="171.329964148328"/>
  </metadata>
  <trk>
    <name>Pancake Rocks and Blowholes</name>
    <trkseg>
      <trkpt lat="-42.11556437249177" lon="171.329799827868">
        <ele>28</ele>
      </trkpt>
      <trkpt lat="-42.11556265496853" lon="171.32980068663">
        <ele>28</ele>
      </trkpt>
      <trkpt lat="-42.1154863627694" lon="171.329839786382">
        <ele>28</ele>
      </trkpt>
      <trkpt lat="-42.11543564119253" lon="171.329838518342">
        <ele>28</ele>
      </trkpt>
      <trkpt lat="-42.115435641218" lon="171.329838518349">
        <ele>28</ele>
      </trkpt>
      <trkpt lat="-42.11540530230784" lon="171.329622353614">
        <ele>27</ele>
      </trkpt>
      <trkpt lat="-42.11540530230784" lon="171.329622353614">
        <ele>27</ele>
      </trkpt>
      <trkpt lat="-42.1153909975205" lon="171.329523173755">
        <ele>27</ele>
      </trkpt>
      <trkpt lat="-42.1153909975205" lon="171.329523173755">
        <ele>27</ele>
      </trkpt>
      <trkpt lat="-42.11543581918749" lon="171.329454510776">
        <ele>27</ele>
      </trkpt>
      <trkpt lat="-42.11551592599657" lon="171.329442113294">
        <ele>27</ele>
      </trkpt>
      <trkpt lat="-42.11561987411787" lon="171.329445927904">
        <ele>27</ele>
      </trkpt>
      <trkpt lat="-42.11570761014686" lon="171.329387755102">
        <ele>27</ele>
      </trkpt>
      <trkpt lat="-42.11575910738127" lon="171.329295250811">
        <ele>27</ele>
      </trkpt>
      <trkpt lat="-42.11581060461567" lon="171.329202746519">
        <ele>27</ele>
      </trkpt>
      <trkpt lat="-42.11586496280755" lon="171.32917222964">
        <ele>27</ele>
      </trkpt>
      <trkpt lat="-42.11592790387183" lon="171.329158878505">
        <ele>26</ele>
      </trkpt>
      <trkpt lat="-42.11595269883654" lon="171.329129315277">
        <ele>26</ele>
      </trkpt>
      <trkpt lat="-42.11597272553881" lon="171.329072096128">
        <ele>25</ele>
      </trkpt>
      <trkpt lat="-42.11599752050353" lon="171.329023459851">
        <ele>25</ele>
      </trkpt>
      <trkpt lat="-42.11608239557505" lon="171.32893858478">
        <ele>24</ele>
      </trkpt>
      <trkpt lat="-42.11609956131986" lon="171.328909021553">
        <ele>23</ele>
      </trkpt>
      <trkpt lat="-42.11610242227732" lon="171.328861338928">
        <ele>23</ele>
      </trkpt>
      <trkpt lat="-42.11609097844745" lon="171.328828914743">
        <ele>22</ele>
      </trkpt>
      <trkpt lat="-42.11606713713523" lon="171.328788861339">
        <ele>22</ele>
      </trkpt>
      <trkpt lat="-42.11601850085829" lon="171.328750715239">
        <ele>22</ele>
      </trkpt>
      <trkpt lat="-42.1159565134465" lon="171.328676330345">
        <ele>21</ele>
      </trkpt>
      <trkpt lat="-42.11589452603472" lon="171.328601945451">
        <ele>21</ele>
      </trkpt>
      <trkpt lat="-42.11583158497044" lon="171.328500858287">
        <ele>20</ele>
      </trkpt>
      <trkpt lat="-42.11576864390616" lon="171.328400724776">
        <ele>20</ele>
      </trkpt>
      <trkpt lat="-42.11572763684913" lon="171.328379744421">
        <ele>19</ele>
      </trkpt>
      <trkpt lat="-42.11567709326722" lon="171.328395956513">
        <ele>20</ele>
      </trkpt>
      <trkpt lat="-42.11562464238032" lon="171.328394049208">
        <ele>20</ele>
      </trkpt>
      <trkpt lat="-42.11559317184818" lon="171.328376883464">
        <ele>20</ele>
      </trkpt>
      <trkpt lat="-42.11554453557124" lon="171.328293915697">
        <ele>19</ele>
      </trkpt>
      <trkpt lat="-42.11547110432958" lon="171.328204272363">
        <ele>19</ele>
      </trkpt>
      <trkpt lat="-42.11539671943544" lon="171.328115582682">
        <ele>18</ele>
      </trkpt>
      <trkpt lat="-42.11535761968339" lon="171.328040244135">
        <ele>18</ele>
      </trkpt>
      <trkpt lat="-42.11533187106618" lon="171.327925805836">
        <ele>17</ele>
      </trkpt>
      <trkpt lat="-42.11530516879649" lon="171.327880984169">
        <ele>16</ele>
      </trkpt>
      <trkpt lat="-42.11525081060461" lon="171.32781995041">
        <ele>16</ele>
      </trkpt>
      <trkpt lat="-42.11516021361815" lon="171.327741750906">
        <ele>16</ele>
      </trkpt>
      <trkpt lat="-42.11514495517833" lon="171.327713141331">
        <ele>16</ele>
      </trkpt>
      <trkpt lat="-42.11513351134846" lon="171.327621590692">
        <ele>16</ele>
      </trkpt>
      <trkpt lat="-42.115130650391" lon="171.327523364486">
        <ele>15</ele>
      </trkpt>
      <trkpt lat="-42.11513637230593" lon="171.327448979592">
        <ele>14</ele>
      </trkpt>
      <trkpt lat="-42.11516688918558" lon="171.327342170513">
        <ele>13</ele>
      </trkpt>
      <trkpt lat="-42.11514495517833" lon="171.327291626931">
        <ele>13</ele>
      </trkpt>
      <trkpt lat="-42.11512016021361" lon="171.327263017356">
        <ele>13</ele>
      </trkpt>
      <trkpt lat="-42.11507724585161" lon="171.327155254625">
        <ele>13</ele>
      </trkpt>
      <trkpt lat="-42.11504291436201" lon="171.327105664696">
        <ele>12</ele>
      </trkpt>
      <trkpt lat="-42.115" lon="171.327066564944">
        <ele>13</ele>
      </trkpt>
      <trkpt lat="-42.1149389662407" lon="171.327038909022">
        <ele>13</ele>
      </trkpt>
      <trkpt lat="-42.11486553499905" lon="171.327075147816">
        <ele>13</ele>
      </trkpt>
      <trkpt lat="-42.11481117680717" lon="171.327135227923">
        <ele>14</ele>
      </trkpt>
      <trkpt lat="-42.11477875262254" lon="171.327140949838">
        <ele>15</ele>
      </trkpt>
      <trkpt lat="-42.11475205035285" lon="171.327118062178">
        <ele>15</ele>
      </trkpt>
      <trkpt lat="-42.11472057982071" lon="171.327064657639">
        <ele>14</ele>
      </trkpt>
      <trkpt lat="-42.11469483120351" lon="171.327039862674">
        <ele>14</ele>
      </trkpt>
      <trkpt lat="-42.11467289719626" lon="171.327025557887">
        <ele>14</ele>
      </trkpt>
      <trkpt lat="-42.11463379744421" lon="171.327016975014">
        <ele>14</ele>
      </trkpt>
      <trkpt lat="-42.11454510776273" lon="171.327023650582">
        <ele>15</ele>
      </trkpt>
      <trkpt lat="-42.11447644478352" lon="171.327034140759">
        <ele>16</ele>
      </trkpt>
      <trkpt lat="-42.11440778180431" lon="171.327044630936">
        <ele>16</ele>
      </trkpt>
      <trkpt lat="-42.11434484074003" lon="171.327074194164">
        <ele>17</ele>
      </trkpt>
      <trkpt lat="-42.11428189967576" lon="171.327103757391">
        <ele>17</ele>
      </trkpt>
      <trkpt lat="-42.11419893190921" lon="171.327131413313">
        <ele>18</ele>
      </trkpt>
      <trkpt lat="-42.11419797825673" lon="171.327046538241">
        <ele>17</ele>
      </trkpt>
      <trkpt lat="-42.11419034903681" lon="171.327014114057">
        <ele>17</ele>
      </trkpt>
      <trkpt lat="-42.11417222963952" lon="171.326981689872">
        <ele>17</ele>
      </trkpt>
      <trkpt lat="-42.11412263971009" lon="171.326958802212">
        <ele>16</ele>
      </trkpt>
      <trkpt lat="-42.11410070570284" lon="171.32693877551">
        <ele>16</ele>
      </trkpt>
      <trkpt lat="-42.11409307648293" lon="171.32691970246">
        <ele>16</ele>
      </trkpt>
      <trkpt lat="-42.11409307648293" lon="171.32691970246">
        <ele>16</ele>
      </trkpt>
      <trkpt lat="-42.11409403013542" lon="171.326898722106">
        <ele>15</ele>
      </trkpt>
      <trkpt lat="-42.11410547396529" lon="171.326879649056">
        <ele>15</ele>
      </trkpt>
      <trkpt lat="-42.11413408353996" lon="171.326854854091">
        <ele>15</ele>
      </trkpt>
      <trkpt lat="-42.11414838832729" lon="171.326823383559">
        <ele>15</ele>
      </trkpt>
      <trkpt lat="-42.11414075910738" lon="171.326790005722">
        <ele>15</ele>
      </trkpt>
      <trkpt lat="-42.11411119588022" lon="171.326715620828">
        <ele>14</ele>
      </trkpt>
      <trkpt lat="-42.11408163265306" lon="171.326641235934">
        <ele>13</ele>
      </trkpt>
      <trkpt lat="-42.11408163265306" lon="171.326641235934">
        <ele>13</ele>
      </trkpt>
      <trkpt lat="-42.11407781804311" lon="171.326606904444">
        <ele>13</ele>
      </trkpt>
      <trkpt lat="-42.11408353995804" lon="171.326567804692">
        <ele>12</ele>
      </trkpt>
      <trkpt lat="-42.11412263971009" lon="171.326504863628">
        <ele>12</ele>
      </trkpt>
      <trkpt lat="-42.11416173946214" lon="171.326441922563">
        <ele>12</ele>
      </trkpt>
      <trkpt lat="-42.11417222963952" lon="171.326412359336">
        <ele>12</ele>
      </trkpt>
      <trkpt lat="-42.1141741369445" lon="171.326379935152">
        <ele>11</ele>
      </trkpt>
      <trkpt lat="-42.11414934197978" lon="171.326259774938">
        <ele>10</ele>
      </trkpt>
      <trkpt lat="-42.11412645432004" lon="171.326181575434">
        <ele>9</ele>
      </trkpt>
      <trkpt lat="-42.11410356666031" lon="171.326104329582">
        <ele>8</ele>
      </trkpt>
      <trkpt lat="-42.11408449361053" lon="171.326068090788">
        <ele>8</ele>
      </trkpt>
      <trkpt lat="-42.11407209612817" lon="171.326058554263">
        <ele>8</ele>
      </trkpt>
      <trkpt lat="-42.11402059889376" lon="171.326053786">
        <ele>7</ele>
      </trkpt>
      <trkpt lat="-42.11399485027656" lon="171.32606904444">
        <ele>7</ele>
      </trkpt>
      <trkpt lat="-42.11397005531185" lon="171.326102422277">
        <ele>7</ele>
      </trkpt>
      <trkpt lat="-42.11393953843219" lon="171.326174899866">
        <ele>8</ele>
      </trkpt>
      <trkpt lat="-42.11394049208469" lon="171.326243562846">
        <ele>8</ele>
      </trkpt>
      <trkpt lat="-42.11395765782949" lon="171.326300781995">
        <ele>9</ele>
      </trkpt>
      <trkpt lat="-42.11396147243944" lon="171.326347510967">
        <ele>10</ele>
      </trkpt>
      <trkpt lat="-42.11394526034713" lon="171.326390425329">
        <ele>10</ele>
      </trkpt>
      <trkpt lat="-42.11394526034713" lon="171.326390425329">
        <ele>10</ele>
      </trkpt>
      <trkpt lat="-42.11391665077246" lon="171.326434293343">
        <ele>10</ele>
      </trkpt>
      <trkpt lat="-42.11391665077246" lon="171.326434293343">
        <ele>10</ele>
      </trkpt>
      <trkpt lat="-42.11384894144574" lon="171.326491512493">
        <ele>10</ele>
      </trkpt>
      <trkpt lat="-42.11380602708373" lon="171.326504863628">
        <ele>10</ele>
      </trkpt>
      <trkpt lat="-42.11374976158687" lon="171.326552546252">
        <ele>10</ele>
      </trkpt>
      <trkpt lat="-42.11364867442304" lon="171.326580202174">
        <ele>9</ele>
      </trkpt>
      <trkpt lat="-42.11364867442304" lon="171.326580202174">
        <ele>9</ele>
      </trkpt>
      <trkpt lat="-42.1136257867633" lon="171.326577341217">
        <ele>9</ele>
      </trkpt>
      <trkpt lat="-42.11361338928094" lon="171.326593553309">
        <ele>9</ele>
      </trkpt>
      <trkpt lat="-42.11360576006103" lon="171.326643143239">
        <ele>9</ele>
      </trkpt>
      <trkpt lat="-42.1135828724013" lon="171.326664123593">
        <ele>9</ele>
      </trkpt>
      <trkpt lat="-42.1135828724013" lon="171.326664123593">
        <ele>9</ele>
      </trkpt>
      <trkpt lat="-42.11352088498951" lon="171.326689872211">
        <ele>9</ele>
      </trkpt>
      <trkpt lat="-42.11349704367728" lon="171.3267242037">
        <ele>9</ele>
      </trkpt>
      <trkpt lat="-42.11349227541483" lon="171.326761396147">
        <ele>9</ele>
      </trkpt>
      <trkpt lat="-42.11349227541483" lon="171.326761396147">
        <ele>9</ele>
      </trkpt>
      <trkpt lat="-42.11349513637231" lon="171.326799542247">
        <ele>9</ele>
      </trkpt>
      <trkpt lat="-42.11348178523746" lon="171.326858668701">
        <ele>9</ele>
      </trkpt>
      <trkpt lat="-42.11348083158497" lon="171.326891092886">
        <ele>9</ele>
      </trkpt>
      <trkpt lat="-42.11349513637231" lon="171.326928285333">
        <ele>9</ele>
      </trkpt>
      <trkpt lat="-42.11349513637231" lon="171.326928285333">
        <ele>9</ele>
      </trkpt>
      <trkpt lat="-42.11351516307457" lon="171.326939729163">
        <ele>9</ele>
      </trkpt>
      <trkpt lat="-42.11352851420942" lon="171.326967385085">
        <ele>10</ele>
      </trkpt>
      <trkpt lat="-42.11353232881937" lon="171.326996948312">
        <ele>10</ele>
      </trkpt>
      <trkpt lat="-42.11354091169178" lon="171.327081823384">
        <ele>10</ele>
      </trkpt>
      <trkpt lat="-42.11354949456418" lon="171.327167652108">
        <ele>10</ele>
      </trkpt>
      <trkpt lat="-42.11357142857143" lon="171.327256341789">
        <ele>11</ele>
      </trkpt>
      <trkpt lat="-42.1136000381461" lon="171.327344077818">
        <ele>12</ele>
      </trkpt>
      <trkpt lat="-42.11363723059317" lon="171.327426091932">
        <ele>12</ele>
      </trkpt>
      <trkpt lat="-42.11367442304024" lon="171.327509059699">
        <ele>13</ele>
      </trkpt>
      <trkpt lat="-42.1137039862674" lon="171.327521457181">
        <ele>14</ele>
      </trkpt>
      <trkpt lat="-42.11378409307648" lon="171.327510013351">
        <ele>15</ele>
      </trkpt>
      <trkpt lat="-42.11386324623307" lon="171.327498569521">
        <ele>17</ele>
      </trkpt>
      <trkpt lat="-42.11393572382224" lon="171.327501430479">
        <ele>18</ele>
      </trkpt>
      <trkpt lat="-42.1139910356666" lon="171.327606332253">
        <ele>19</ele>
      </trkpt>
      <trkpt lat="-42.11404634751096" lon="171.327711234026">
        <ele>20</ele>
      </trkpt>
      <trkpt lat="-42.11406828151821" lon="171.32780850658">
        <ele>21</ele>
      </trkpt>
      <trkpt lat="-42.11409021552547" lon="171.327906732787">
        <ele>21</ele>
      </trkpt>
      <trkpt lat="-42.11422277322144" lon="171.328314896052">
        <ele>22</ele>
      </trkpt>
      <trkpt lat="-42.11423898531375" lon="171.328379744421">
        <ele>22</ele>
      </trkpt>
      <trkpt lat="-42.11425519740607" lon="171.328445546443">
        <ele>22</ele>
      </trkpt>
      <trkpt lat="-42.11428094602327" lon="171.328507533855">
        <ele>23</ele>
      </trkpt>
      <trkpt lat="-42.11431432386038" lon="171.328545679954">
        <ele>23</ele>
      </trkpt>
      <trkpt lat="-42.11433625786763" lon="171.328559031089">
        <ele>23</ele>
      </trkpt>
      <trkpt lat="-42.1144173183292" lon="171.328558077437">
        <ele>23</ele>
      </trkpt>
      <trkpt lat="-42.11449742513828" lon="171.328558077437">
        <ele>23</ele>
      </trkpt>
      <trkpt lat="-42.11456894907496" lon="171.328546633607">
        <ele>23</ele>
      </trkpt>
      <trkpt lat="-42.11462139996186" lon="171.328525653252">
        <ele>23</ele>
      </trkpt>
      <trkpt lat="-42.11466622162884" lon="171.328522792294">
        <ele>23</ele>
      </trkpt>
      <trkpt lat="-42.11471199694831" lon="171.328537097082">
        <ele>23</ele>
      </trkpt>
      <trkpt lat="-42.11475205035285" lon="171.328571428571">
        <ele>23</ele>
      </trkpt>
      <trkpt lat="-42.11478447453748" lon="171.328641998856">
        <ele>23</ele>
      </trkpt>
      <trkpt lat="-42.11479401106237" lon="171.32871638375">
        <ele>24</ele>
      </trkpt>
      <trkpt lat="-42.11480354758726" lon="171.328790768644">
        <ele>24</ele>
      </trkpt>
      <trkpt lat="-42.11482166698455" lon="171.328876597368">
        <ele>25</ele>
      </trkpt>
      <trkpt lat="-42.11488270074385" lon="171.328996757582">
        <ele>25</ele>
      </trkpt>
      <trkpt lat="-42.1149475491131" lon="171.329102613008">
        <ele>26</ele>
      </trkpt>
      <trkpt lat="-42.11501525843983" lon="171.329188441732">
        <ele>27</ele>
      </trkpt>
      <trkpt lat="-42.11510013351135" lon="171.329245660881">
        <ele>27</ele>
      </trkpt>
      <trkpt lat="-42.11521075720007" lon="171.329296204463">
        <ele>27</ele>
      </trkpt>
      <trkpt lat="-42.11528037383177" lon="171.329346748045">
        <ele>27</ele>
      </trkpt>
      <trkpt lat="-42.11532996376121" lon="171.329448788861">
        <ele>27</ele>
      </trkpt>
      <trkpt lat="-42.1153909975205" lon="171.329523173755">
        <ele>27</ele>
      </trkpt>
      <trkpt lat="-42.1153909975205" lon="171.329523173755">
        <ele>27</ele>
      </trkpt>
      <trkpt lat="-42.11540530230784" lon="171.329622353614">
        <ele>27</ele>
      </trkpt>
      <trkpt lat="-42.11540530230784" lon="171.329622353614">
        <ele>27</ele>
      </trkpt>
      <trkpt lat="-42.115435641218" lon="171.329838518349">
        <ele>28</ele>
      </trkpt>
      <trkpt lat="-42.11543564119253" lon="171.329838518342">
        <ele>28</ele>
      </trkpt>
      <trkpt lat="-42.11546503364232" lon="171.329839253154">
        <ele>28</ele>
      </trkpt>
      <trkpt lat="-42.11546633606714" lon="171.329842647339">
        <ele>28</ele>
      </trkpt>
      <trkpt lat="-42.11549780659927" lon="171.329924661453">
        <ele>28</ele>
      </trkpt>
      <trkpt lat="-42.11551974060652" lon="171.329955178333">
        <ele>28</ele>
      </trkpt>
      <trkpt lat="-42.11552836560212" lon="171.329964148328">
        <ele>28</ele>
      </trkpt>
    </trkseg>
  </trk>
</gpx>