<?xml version="1.0" encoding="UTF-8" standalone="yes"?>
<gpx
 version="1.1"
 creator="Generated by MapOut iPhone App. See https://mapout.app"
 xmlns="http://www.topografix.com/GPX/1/1"
 xmlns:xsi="http://www.w3.org/2001/XMLSchema-instance"
 xmlns:gpxx="http://www.garmin.com/xmlschemas/GpxExtensions/v3"
 xmlns:mapout="https://mapout.app/xmlschemas/MapOutExtensions"
 xsi:schemaLocation="http://www.topografix.com/GPX/1/1 https://www.topografix.com/GPX/1/1/gpx.xsd http://www.garmin.com/xmlschemas/GpxExtensions/v3 https://www8.garmin.com/xmlschemas/GpxExtensionsv3.xsd https://mapout.app/xmlschemas/MapOutExtensions https://mapout.app/xmlschemas/MapOutExtensions.xsd">
  <metadata>
    <name>Pupū Springs</name>
    <author><name>iPhone</name></author>
    <time>2026-09-19T03:05:24Z</time>
    <bounds minlat="-40.85006294106428" minlon="172.768410261301" maxlat="-40.84792103757391" maxlon="172.770761606141"/>
  </metadata>
  <trk>
    <name>Pupū Springs</name>
    <trkseg>
      <trkpt lat="-40.8482415535003" lon="172.770761606141">
        <ele>32</ele>
      </trkpt>
      <trkpt lat="-40.84824432576769" lon="172.770756246424">
        <ele>32</ele>
      </trkpt>
      <trkpt lat="-40.84824909403014" lon="172.770725729544">
        <ele>32</ele>
      </trkpt>
      <trkpt lat="-40.84824718672516" lon="172.770696166317">
        <ele>31</ele>
      </trkpt>
      <trkpt lat="-40.84822910987306" lon="172.770670146606">
        <ele>31</ele>
      </trkpt>
      <trkpt lat="-40.84823097463285" lon="172.770667556742">
        <ele>31</ele>
      </trkpt>
      <trkpt lat="-40.84831680335686" lon="172.770548350181">
        <ele>31</ele>
      </trkpt>
      <trkpt lat="-40.84840167842838" lon="172.77042914362">
        <ele>30</ele>
      </trkpt>
      <trkpt lat="-40.84847892427999" lon="172.77042914362">
        <ele>31</ele>
      </trkpt>
      <trkpt lat="-40.84851707037956" lon="172.770422468053">
        <ele>31</ele>
      </trkpt>
      <trkpt lat="-40.84851707037956" lon="172.770422468053">
        <ele>31</ele>
      </trkpt>
      <trkpt lat="-40.84860289910357" lon="172.770445355712">
        <ele>32</ele>
      </trkpt>
      <trkpt lat="-40.84868777417509" lon="172.770469197025">
        <ele>33</ele>
      </trkpt>
      <trkpt lat="-40.84879839786382" lon="172.770418653443">
        <ele>33</ele>
      </trkpt>
      <trkpt lat="-40.84890902155255" lon="172.770369063513">
        <ele>34</ele>
      </trkpt>
      <trkpt lat="-40.8489919893191" lon="172.770427236315">
        <ele>35</ele>
      </trkpt>
      <trkpt lat="-40.84907495708564" lon="172.770486362769">
        <ele>37</ele>
      </trkpt>
      <trkpt lat="-40.84934960900248" lon="172.770493991989">
        <ele>40</ele>
      </trkpt>
      <trkpt lat="-40.84945641808125" lon="172.77040244135">
        <ele>40</ele>
      </trkpt>
      <trkpt lat="-40.84956322716003" lon="172.770311844364">
        <ele>40</ele>
      </trkpt>
      <trkpt lat="-40.84961090978447" lon="172.770266069044">
        <ele>39</ele>
      </trkpt>
      <trkpt lat="-40.84965763875644" lon="172.77020312798">
        <ele>38</ele>
      </trkpt>
      <trkpt lat="-40.84969101659355" lon="172.770102994469">
        <ele>36</ele>
      </trkpt>
      <trkpt lat="-40.84969673850849" lon="172.770057219149">
        <ele>35</ele>
      </trkpt>
      <trkpt lat="-40.84973106999809" lon="172.769989509823">
        <ele>34</ele>
      </trkpt>
      <trkpt lat="-40.84977589166508" lon="172.769925615106">
        <ele>34</ele>
      </trkpt>
      <trkpt lat="-40.84985790577914" lon="172.769906542056">
        <ele>35</ele>
      </trkpt>
      <trkpt lat="-40.84991893953843" lon="172.769834064467">
        <ele>35</ele>
      </trkpt>
      <trkpt lat="-40.84994850276559" lon="172.769724394431">
        <ele>34</ele>
      </trkpt>
      <trkpt lat="-40.84997806599275" lon="172.769614724394">
        <ele>34</ele>
      </trkpt>
      <trkpt lat="-40.85006294106428" lon="172.769556551593">
        <ele>34</ele>
      </trkpt>
      <trkpt lat="-40.85006294106428" lon="172.769491703223">
        <ele>33</ele>
      </trkpt>
      <trkpt lat="-40.84997711234026" lon="172.769446881556">
        <ele>32</ele>
      </trkpt>
      <trkpt lat="-40.84994087354568" lon="172.769346748045">
        <ele>31</ele>
      </trkpt>
      <trkpt lat="-40.84992275414839" lon="172.769255197406">
        <ele>30</ele>
      </trkpt>
      <trkpt lat="-40.84985695212664" lon="172.769188441732">
        <ele>30</ele>
      </trkpt>
      <trkpt lat="-40.84985695212664" lon="172.769188441732">
        <ele>30</ele>
      </trkpt>
      <trkpt lat="-40.84978542818997" lon="172.769169368682">
        <ele>30</ele>
      </trkpt>
      <trkpt lat="-40.84978542818997" lon="172.769169368682">
        <ele>30</ele>
      </trkpt>
      <trkpt lat="-40.84974632843792" lon="172.769121686058">
        <ele>30</ele>
      </trkpt>
      <trkpt lat="-40.84973869921801" lon="172.769027274461">
        <ele>29</ele>
      </trkpt>
      <trkpt lat="-40.8497301163456" lon="172.768933816517">
        <ele>29</ele>
      </trkpt>
      <trkpt lat="-40.84972725538814" lon="172.768887087545">
        <ele>29</ele>
      </trkpt>
      <trkpt lat="-40.84976063322525" lon="172.768786954034">
        <ele>28</ele>
      </trkpt>
      <trkpt lat="-40.8497396528705" lon="172.768724966622">
        <ele>28</ele>
      </trkpt>
      <trkpt lat="-40.84971867251573" lon="172.768663932863">
        <ele>28</ele>
      </trkpt>
      <trkpt lat="-40.8496786191112" lon="172.768578104139">
        <ele>27</ele>
      </trkpt>
      <trkpt lat="-40.84963951935914" lon="172.768600038146">
        <ele>27</ele>
      </trkpt>
      <trkpt lat="-40.84955464428762" lon="172.76867823765">
        <ele>28</ele>
      </trkpt>
      <trkpt lat="-40.84949456418082" lon="172.768743086019">
        <ele>28</ele>
      </trkpt>
      <trkpt lat="-40.84945737173374" lon="172.768766927332">
        <ele>28</ele>
      </trkpt>
      <trkpt lat="-40.84941541102422" lon="172.768820331871">
        <ele>29</ele>
      </trkpt>
      <trkpt lat="-40.84934388708755" lon="172.76888136563">
        <ele>29</ele>
      </trkpt>
      <trkpt lat="-40.84930860194545" lon="172.76893477017">
        <ele>30</ele>
      </trkpt>
      <trkpt lat="-40.84928285332825" lon="172.768928094602">
        <ele>30</ele>
      </trkpt>
      <trkpt lat="-40.84925805836353" lon="172.768886133893">
        <ele>29</ele>
      </trkpt>
      <trkpt lat="-40.84916173946214" lon="172.768821285524">
        <ele>29</ele>
      </trkpt>
      <trkpt lat="-40.84909403013542" lon="172.768795536906">
        <ele>28</ele>
      </trkpt>
      <trkpt lat="-40.84905493038337" lon="172.768812702651">
        <ele>28</ele>
      </trkpt>
      <trkpt lat="-40.84902441350372" lon="172.768801258821">
        <ele>28</ele>
      </trkpt>
      <trkpt lat="-40.84902822811367" lon="172.768764066374">
        <ele>28</ele>
      </trkpt>
      <trkpt lat="-40.84898531375167" lon="172.768661071905">
        <ele>27</ele>
      </trkpt>
      <trkpt lat="-40.84890616059508" lon="172.768574289529">
        <ele>26</ele>
      </trkpt>
      <trkpt lat="-40.84883177570094" lon="172.768575243181">
        <ele>25</ele>
      </trkpt>
      <trkpt lat="-40.84876025176426" lon="172.768567613961">
        <ele>25</ele>
      </trkpt>
      <trkpt lat="-40.84870684722488" lon="172.768515163075">
        <ele>24</ele>
      </trkpt>
      <trkpt lat="-40.8486172038909" lon="172.768504672897">
        <ele>24</ele>
      </trkpt>
      <trkpt lat="-40.84853995803929" lon="172.768536143429">
        <ele>23</ele>
      </trkpt>
      <trkpt lat="-40.84848273888995" lon="172.768536143429">
        <ele>23</ele>
      </trkpt>
      <trkpt lat="-40.84846843410261" lon="172.76849418272">
        <ele>23</ele>
      </trkpt>
      <trkpt lat="-40.84837306885371" lon="172.768410261301">
        <ele>22</ele>
      </trkpt>
      <trkpt lat="-40.84828819378219" lon="172.768419797826">
        <ele>22</ele>
      </trkpt>
      <trkpt lat="-40.84820331871067" lon="172.768429334351">
        <ele>22</ele>
      </trkpt>
      <trkpt lat="-40.84809269502193" lon="172.768415029563">
        <ele>21</ele>
      </trkpt>
      <trkpt lat="-40.84797825672325" lon="172.768441731833">
        <ele>21</ele>
      </trkpt>
      <trkpt lat="-40.84792103757391" lon="172.768508487507">
        <ele>20</ele>
      </trkpt>
      <trkpt lat="-40.84794964714858" lon="172.768574289529">
        <ele>20</ele>
      </trkpt>
      <trkpt lat="-40.84800209803548" lon="172.768612435628">
        <ele>20</ele>
      </trkpt>
      <trkpt lat="-40.84806217814229" lon="172.768641045203">
        <ele>21</ele>
      </trkpt>
      <trkpt lat="-40.84809174136944" lon="172.768702078962">
        <ele>21</ele>
      </trkpt>
      <trkpt lat="-40.8481213045966" lon="172.768763112722">
        <ele>21</ele>
      </trkpt>
      <trkpt lat="-40.84818806027084" lon="172.768843219531">
        <ele>21</ele>
      </trkpt>
      <trkpt lat="-40.84825386229258" lon="172.76892332634">
        <ele>21</ele>
      </trkpt>
      <trkpt lat="-40.84827102803739" lon="172.769001525844">
        <ele>21</ele>
      </trkpt>
      <trkpt lat="-40.84829677665459" lon="172.769062559603">
        <ele>21</ele>
      </trkpt>
      <trkpt lat="-40.84830535952699" lon="172.769117871448">
        <ele>21</ele>
      </trkpt>
      <trkpt lat="-40.84831012778943" lon="172.769210375739">
        <ele>21</ele>
      </trkpt>
      <trkpt lat="-40.84831394239939" lon="172.769303833683">
        <ele>22</ele>
      </trkpt>
      <trkpt lat="-40.84799446881556" lon="172.769821666985">
        <ele>23</ele>
      </trkpt>
      <trkpt lat="-40.84799446881556" lon="172.769926568758">
        <ele>23</ele>
      </trkpt>
      <trkpt lat="-40.84799351516308" lon="172.770032424185">
        <ele>23</ele>
      </trkpt>
      <trkpt lat="-40.84797730307076" lon="172.770107762731">
        <ele>24</ele>
      </trkpt>
      <trkpt lat="-40.84800114438299" lon="172.770147816136">
        <ele>24</ele>
      </trkpt>
      <trkpt lat="-40.84808315849705" lon="172.770097272554">
        <ele>25</ele>
      </trkpt>
      <trkpt lat="-40.8481213045966" lon="172.770101087164">
        <ele>25</ele>
      </trkpt>
      <trkpt lat="-40.84818043105093" lon="172.770078199504">
        <ele>25</ele>
      </trkpt>
      <trkpt lat="-40.84826625977494" lon="172.77002670227">
        <ele>25</ele>
      </trkpt>
      <trkpt lat="-40.84834159832157" lon="172.769929429716">
        <ele>25</ele>
      </trkpt>
      <trkpt lat="-40.84842075147817" lon="172.769895098226">
        <ele>26</ele>
      </trkpt>
      <trkpt lat="-40.84848846080489" lon="172.769852183864">
        <ele>26</ele>
      </trkpt>
      <trkpt lat="-40.84855617013161" lon="172.769810223155">
        <ele>26</ele>
      </trkpt>
      <trkpt lat="-40.84862292580583" lon="172.76981213046">
        <ele>26</ele>
      </trkpt>
      <trkpt lat="-40.84868968148007" lon="172.769814991417">
        <ele>27</ele>
      </trkpt>
      <trkpt lat="-40.84878504672897" lon="172.769873164219">
        <ele>27</ele>
      </trkpt>
      <trkpt lat="-40.84885657066565" lon="172.769906542056">
        <ele>28</ele>
      </trkpt>
      <trkpt lat="-40.84885657066565" lon="172.769906542056">
        <ele>28</ele>
      </trkpt>
      <trkpt lat="-40.84881365630365" lon="172.769989509823">
        <ele>28</ele>
      </trkpt>
      <trkpt lat="-40.84877074194164" lon="172.770072477589">
        <ele>28</ele>
      </trkpt>
      <trkpt lat="-40.84877074194164" lon="172.770072477589">
        <ele>28</ele>
      </trkpt>
      <trkpt lat="-40.84873831775701" lon="172.770095365249">
        <ele>29</ele>
      </trkpt>
      <trkpt lat="-40.84866393286286" lon="172.770122067519">
        <ele>29</ele>
      </trkpt>
      <trkpt lat="-40.84857810413885" lon="172.770076292199">
        <ele>28</ele>
      </trkpt>
      <trkpt lat="-40.84850848750715" lon="172.770104901774">
        <ele>28</ele>
      </trkpt>
      <trkpt lat="-40.84820999427809" lon="172.770325195499">
        <ele>28</ele>
      </trkpt>
      <trkpt lat="-40.84816231165364" lon="172.770376692733">
        <ele>28</ele>
      </trkpt>
      <trkpt lat="-40.84814323860385" lon="172.770415792485">
        <ele>28</ele>
      </trkpt>
      <trkpt lat="-40.84817947739844" lon="172.770435819187">
        <ele>28</ele>
      </trkpt>
      <trkpt lat="-40.84823574289529" lon="172.77040244135">
        <ele>29</ele>
      </trkpt>
      <trkpt lat="-40.84833110814419" lon="172.770359526988">
        <ele>29</ele>
      </trkpt>
      <trkpt lat="-40.84842456608812" lon="172.77039099752">
        <ele>30</ele>
      </trkpt>
      <trkpt lat="-40.84851707037956" lon="172.770422468053">
        <ele>31</ele>
      </trkpt>
      <trkpt lat="-40.84851707037956" lon="172.770422468053">
        <ele>31</ele>
      </trkpt>
      <trkpt lat="-40.84847892427999" lon="172.77042914362">
        <ele>31</ele>
      </trkpt>
      <trkpt lat="-40.84840167842838" lon="172.77042914362">
        <ele>30</ele>
      </trkpt>
      <trkpt lat="-40.84831680335686" lon="172.770548350181">
        <ele>31</ele>
      </trkpt>
      <trkpt lat="-40.84823097463285" lon="172.770667556742">
        <ele>31</ele>
      </trkpt>
      <trkpt lat="-40.84822910987306" lon="172.770670146606">
        <ele>31</ele>
      </trkpt>
      <trkpt lat="-40.84818424566088" lon="172.770605569331">
        <ele>30</ele>
      </trkpt>
      <trkpt lat="-40.8481703226725" lon="172.770594224673">
        <ele>30</ele>
      </trkpt>
    </trkseg>
  </trk>
</gpx>