<?xml version="1.0" encoding="UTF-8" standalone="yes"?>
<gpx
 version="1.1"
 creator="Generated by MapOut iPhone App. See https://mapout.app"
 xmlns="http://www.topografix.com/GPX/1/1"
 xmlns:xsi="http://www.w3.org/2001/XMLSchema-instance"
 xmlns:gpxx="http://www.garmin.com/xmlschemas/GpxExtensions/v3"
 xmlns:mapout="https://mapout.app/xmlschemas/MapOutExtensions"
 xsi:schemaLocation="http://www.topografix.com/GPX/1/1 https://www.topografix.com/GPX/1/1/gpx.xsd http://www.garmin.com/xmlschemas/GpxExtensions/v3 https://www8.garmin.com/xmlschemas/GpxExtensionsv3.xsd https://mapout.app/xmlschemas/MapOutExtensions https://mapout.app/xmlschemas/MapOutExtensions.xsd">
  <metadata>
    <name>Kaikoura Peninsula</name>
    <author><name>iPhone</name></author>
    <time>2026-09-22T01:51:51Z</time>
    <bounds minlat="-42.4309350685418" minlon="173.681699408735" maxlat="-42.4028784512282" maxlon="173.716710852565"/>
  </metadata>
  <trk>
    <name>Kaikoura Peninsula</name>
    <trkseg>
      <trkpt lat="-42.4028784512282" lon="173.683100228769">
        <ele>13</ele>
      </trkpt>
      <trkpt lat="-42.40322143810795" lon="173.683580965096">
        <ele>11</ele>
      </trkpt>
      <trkpt lat="-42.40327674995231" lon="173.683650581728">
        <ele>11</ele>
      </trkpt>
      <trkpt lat="-42.40328799925663" lon="173.683662299753">
        <ele>11</ele>
      </trkpt>
      <trkpt lat="-42.40328799925391" lon="173.683662299772">
        <ele>11</ele>
      </trkpt>
      <trkpt lat="-42.40320904062559" lon="173.683773602899">
        <ele>10</ele>
      </trkpt>
      <trkpt lat="-42.40320904062559" lon="173.683773602899">
        <ele>10</ele>
      </trkpt>
      <trkpt lat="-42.40326625977494" lon="173.683814609956">
        <ele>10</ele>
      </trkpt>
      <trkpt lat="-42.40334445927903" lon="173.683856570666">
        <ele>10</ele>
      </trkpt>
      <trkpt lat="-42.40342170513065" lon="173.683899485028">
        <ele>10</ele>
      </trkpt>
      <trkpt lat="-42.40354186534427" lon="173.683949074957">
        <ele>10</ele>
      </trkpt>
      <trkpt lat="-42.4036610719054" lon="173.683999618539">
        <ele>10</ele>
      </trkpt>
      <trkpt lat="-42.40377837116154" lon="173.684038718291">
        <ele>10</ele>
      </trkpt>
      <trkpt lat="-42.40380125882128" lon="173.684053023078">
        <ele>10</ele>
      </trkpt>
      <trkpt lat="-42.40385943162311" lon="173.684140759107">
        <ele>9</ele>
      </trkpt>
      <trkpt lat="-42.40389090215525" lon="173.684177951554">
        <ele>9</ele>
      </trkpt>
      <trkpt lat="-42.40395002860957" lon="173.684217051306">
        <ele>9</ele>
      </trkpt>
      <trkpt lat="-42.40403776463856" lon="173.684287621591">
        <ele>9</ele>
      </trkpt>
      <trkpt lat="-42.40403776463856" lon="173.684287621591">
        <ele>9</ele>
      </trkpt>
      <trkpt lat="-42.40409307648292" lon="173.684373450315">
        <ele>8</ele>
      </trkpt>
      <trkpt lat="-42.40414838832729" lon="173.684460232691">
        <ele>7</ele>
      </trkpt>
      <trkpt lat="-42.40417985885943" lon="173.684498378791">
        <ele>7</ele>
      </trkpt>
      <trkpt lat="-42.40421037573908" lon="173.684524127408">
        <ele>7</ele>
      </trkpt>
      <trkpt lat="-42.40425996566851" lon="173.684554644288">
        <ele>7</ele>
      </trkpt>
      <trkpt lat="-42.40434674804501" lon="173.68458611482">
        <ele>7</ele>
      </trkpt>
      <trkpt lat="-42.4044259012016" lon="173.684588975777">
        <ele>7</ele>
      </trkpt>
      <trkpt lat="-42.4044611863437" lon="173.6845784856">
        <ele>7</ele>
      </trkpt>
      <trkpt lat="-42.40455941255006" lon="173.684519359146">
        <ele>7</ele>
      </trkpt>
      <trkpt lat="-42.40465763875643" lon="173.684461186344">
        <ele>8</ele>
      </trkpt>
      <trkpt lat="-42.40492370780088" lon="173.684285714286">
        <ele>10</ele>
      </trkpt>
      <trkpt lat="-42.40498378790768" lon="173.684218004959">
        <ele>10</ele>
      </trkpt>
      <trkpt lat="-42.40504261973794" lon="173.684150633024">
        <ele>11</ele>
      </trkpt>
      <trkpt lat="-42.40504261948875" lon="173.684150633005">
        <ele>11</ele>
      </trkpt>
      <trkpt lat="-42.40577531947358" lon="173.684223726874">
        <ele>9</ele>
      </trkpt>
      <trkpt lat="-42.40661167270646" lon="173.684416364677">
        <ele>9</ele>
      </trkpt>
      <trkpt lat="-42.40671466717528" lon="173.684444974251">
        <ele>9</ele>
      </trkpt>
      <trkpt lat="-42.40682052260156" lon="173.684489795918">
        <ele>9</ele>
      </trkpt>
      <trkpt lat="-42.40682052260156" lon="173.684489795918">
        <ele>9</ele>
      </trkpt>
      <trkpt lat="-42.40684531756627" lon="173.684611863437">
        <ele>8</ele>
      </trkpt>
      <trkpt lat="-42.40751573526607" lon="173.685120160214">
        <ele>8</ele>
      </trkpt>
      <trkpt lat="-42.40781995041007" lon="173.685391951173">
        <ele>7</ele>
      </trkpt>
      <trkpt lat="-42.40822906732786" lon="173.685707610147">
        <ele>6</ele>
      </trkpt>
      <trkpt lat="-42.40822906732786" lon="173.685707610147">
        <ele>6</ele>
      </trkpt>
      <trkpt lat="-42.40859622353614" lon="173.685985123021">
        <ele>6</ele>
      </trkpt>
      <trkpt lat="-42.40875262254434" lon="173.686115773412">
        <ele>6</ele>
      </trkpt>
      <trkpt lat="-42.40905779134084" lon="173.686335113485">
        <ele>7</ele>
      </trkpt>
      <trkpt lat="-42.40922086591646" lon="173.68649055884">
        <ele>6</ele>
      </trkpt>
      <trkpt lat="-42.40953747854282" lon="173.686700362388">
        <ele>8</ele>
      </trkpt>
      <trkpt lat="-42.40981022315468" lon="173.686925424375">
        <ele>8</ele>
      </trkpt>
      <trkpt lat="-42.40981022315468" lon="173.686925424375">
        <ele>8</ele>
      </trkpt>
      <trkpt lat="-42.40992084684341" lon="173.687017928667">
        <ele>8</ele>
      </trkpt>
      <trkpt lat="-42.40998855617013" lon="173.687098989128">
        <ele>8</ele>
      </trkpt>
      <trkpt lat="-42.41004482166698" lon="173.687154300973">
        <ele>8</ele>
      </trkpt>
      <trkpt lat="-42.41009822620637" lon="173.687201029945">
        <ele>7</ele>
      </trkpt>
      <trkpt lat="-42.41016402822811" lon="173.687249666222">
        <ele>7</ele>
      </trkpt>
      <trkpt lat="-42.41022983024985" lon="173.687298302499">
        <ele>7</ele>
      </trkpt>
      <trkpt lat="-42.41032901010871" lon="173.687397482357">
        <ele>7</ele>
      </trkpt>
      <trkpt lat="-42.4104081632653" lon="173.687461377074">
        <ele>7</ele>
      </trkpt>
      <trkpt lat="-42.4104949456418" lon="173.687520503529">
        <ele>8</ele>
      </trkpt>
      <trkpt lat="-42.41057123784093" lon="173.687591073813">
        <ele>8</ele>
      </trkpt>
      <trkpt lat="-42.41064657638756" lon="173.687662597749">
        <ele>8</ele>
      </trkpt>
      <trkpt lat="-42.41075147816135" lon="173.687720770551">
        <ele>8</ele>
      </trkpt>
      <trkpt lat="-42.41078962426091" lon="173.687757009346">
        <ele>8</ele>
      </trkpt>
      <trkpt lat="-42.41084875071524" lon="173.687825672325">
        <ele>7</ele>
      </trkpt>
      <trkpt lat="-42.41090692351707" lon="173.687894335304">
        <ele>7</ele>
      </trkpt>
      <trkpt lat="-42.41090692351707" lon="173.687894335304">
        <ele>7</ele>
      </trkpt>
      <trkpt lat="-42.41096986458135" lon="173.687839977112">
        <ele>7</ele>
      </trkpt>
      <trkpt lat="-42.41101182529086" lon="173.687775128743">
        <ele>8</ele>
      </trkpt>
      <trkpt lat="-42.41101468624833" lon="173.687771314133">
        <ele>8</ele>
      </trkpt>
      <trkpt lat="-42.41101468624833" lon="173.687771314133">
        <ele>8</ele>
      </trkpt>
      <trkpt lat="-42.41105436260069" lon="173.687682400862">
        <ele>9</ele>
      </trkpt>
      <trkpt lat="-42.41105436297197" lon="173.687682401147">
        <ele>9</ele>
      </trkpt>
      <trkpt lat="-42.41113484646195" lon="173.687743658211">
        <ele>8</ele>
      </trkpt>
      <trkpt lat="-42.41139900820141" lon="173.687959183673">
        <ele>7</ele>
      </trkpt>
      <trkpt lat="-42.41142537000364" lon="173.687983543313">
        <ele>7</ele>
      </trkpt>
      <trkpt lat="-42.41142537000364" lon="173.687983543313">
        <ele>7</ele>
      </trkpt>
      <trkpt lat="-42.41147434674804" lon="173.688028800305">
        <ele>7</ele>
      </trkpt>
      <trkpt lat="-42.41161453366393" lon="173.688182338356">
        <ele>7</ele>
      </trkpt>
      <trkpt lat="-42.41353995803929" lon="173.690460614152">
        <ele>5</ele>
      </trkpt>
      <trkpt lat="-42.41410547396529" lon="173.691133892809">
        <ele>6</ele>
      </trkpt>
      <trkpt lat="-42.4142523364486" lon="173.691318901392">
        <ele>6</ele>
      </trkpt>
      <trkpt lat="-42.4142523364486" lon="173.691318901392">
        <ele>6</ele>
      </trkpt>
      <trkpt lat="-42.41433339691016" lon="173.691428571429">
        <ele>7</ele>
      </trkpt>
      <trkpt lat="-42.41438966240702" lon="173.691534426855">
        <ele>7</ele>
      </trkpt>
      <trkpt lat="-42.41460995613198" lon="173.692003623879">
        <ele>8</ele>
      </trkpt>
      <trkpt lat="-42.41525557886705" lon="173.693460804883">
        <ele>9</ele>
      </trkpt>
      <trkpt lat="-42.41541102422277" lon="173.693824146481">
        <ele>8</ele>
      </trkpt>
      <trkpt lat="-42.41546442876216" lon="173.693963379744">
        <ele>8</ele>
      </trkpt>
      <trkpt lat="-42.4155216479115" lon="173.694150295632">
        <ele>7</ele>
      </trkpt>
      <trkpt lat="-42.41555216479114" lon="173.694297158116">
        <ele>8</ele>
      </trkpt>
      <trkpt lat="-42.415608430288" lon="173.694666221629">
        <ele>9</ele>
      </trkpt>
      <trkpt lat="-42.41563894716765" lon="173.695000953652">
        <ele>10</ele>
      </trkpt>
      <trkpt lat="-42.41564085447263" lon="173.695208849895">
        <ele>11</ele>
      </trkpt>
      <trkpt lat="-42.41561796681289" lon="173.695560747664">
        <ele>12</ele>
      </trkpt>
      <trkpt lat="-42.41558077436581" lon="173.695867823765">
        <ele>13</ele>
      </trkpt>
      <trkpt lat="-42.41552069425901" lon="173.696181575434">
        <ele>15</ele>
      </trkpt>
      <trkpt lat="-42.41540148769788" lon="173.696622162884">
        <ele>17</ele>
      </trkpt>
      <trkpt lat="-42.41496948312034" lon="173.698099370589">
        <ele>11</ele>
      </trkpt>
      <trkpt lat="-42.41473679191302" lon="173.698932862865">
        <ele>15</ele>
      </trkpt>
      <trkpt lat="-42.41465477779897" lon="173.699278085066">
        <ele>15</ele>
      </trkpt>
      <trkpt lat="-42.41463379744421" lon="173.699396337974">
        <ele>15</ele>
      </trkpt>
      <trkpt lat="-42.41460995613198" lon="173.699616631699">
        <ele>14</ele>
      </trkpt>
      <trkpt lat="-42.41460995613198" lon="173.699616631699">
        <ele>14</ele>
      </trkpt>
      <trkpt lat="-42.41459660499714" lon="173.699916078581">
        <ele>14</ele>
      </trkpt>
      <trkpt lat="-42.41459660499714" lon="173.699916078581">
        <ele>14</ele>
      </trkpt>
      <trkpt lat="-42.41459851230211" lon="173.7">
        <ele>14</ele>
      </trkpt>
      <trkpt lat="-42.41459851230211" lon="173.7">
        <ele>14</ele>
      </trkpt>
      <trkpt lat="-42.41460614152203" lon="173.700087736029">
        <ele>14</ele>
      </trkpt>
      <trkpt lat="-42.41461377074194" lon="173.70017642571">
        <ele>14</ele>
      </trkpt>
      <trkpt lat="-42.41462807552927" lon="173.700244135037">
        <ele>14</ele>
      </trkpt>
      <trkpt lat="-42.41464142666412" lon="173.700311844364">
        <ele>14</ele>
      </trkpt>
      <trkpt lat="-42.41547587259203" lon="173.703451268358">
        <ele>11</ele>
      </trkpt>
      <trkpt lat="-42.4155645622735" lon="173.703754529849">
        <ele>10</ele>
      </trkpt>
      <trkpt lat="-42.41560556933053" lon="173.703853709708">
        <ele>10</ele>
      </trkpt>
      <trkpt lat="-42.41564562273507" lon="173.703952889567">
        <ele>10</ele>
      </trkpt>
      <trkpt lat="-42.41579439252336" lon="173.704269502193">
        <ele>8</ele>
      </trkpt>
      <trkpt lat="-42.41628838451268" lon="173.705294678619">
        <ele>9</ele>
      </trkpt>
      <trkpt lat="-42.41633320617967" lon="173.705400534045">
        <ele>9</ele>
      </trkpt>
      <trkpt lat="-42.41635704749189" lon="173.70547491894">
        <ele>9</ele>
      </trkpt>
      <trkpt lat="-42.41637993515162" lon="173.705550257486">
        <ele>9</ele>
      </trkpt>
      <trkpt lat="-42.41639042532901" lon="173.70562082777">
        <ele>9</ele>
      </trkpt>
      <trkpt lat="-42.41639423993896" lon="173.705703795537">
        <ele>9</ele>
      </trkpt>
      <trkpt lat="-42.41638947167652" lon="173.705765782949">
        <ele>9</ele>
      </trkpt>
      <trkpt lat="-42.41638374976159" lon="173.70582777036">
        <ele>9</ele>
      </trkpt>
      <trkpt lat="-42.41621304596605" lon="173.707022696929">
        <ele>5</ele>
      </trkpt>
      <trkpt lat="-42.41620160213618" lon="173.707121876788">
        <ele>4</ele>
      </trkpt>
      <trkpt lat="-42.41619015830631" lon="173.707222010299">
        <ele>4</ele>
      </trkpt>
      <trkpt lat="-42.4161911119588" lon="173.707300209804">
        <ele>4</ele>
      </trkpt>
      <trkpt lat="-42.41621113866107" lon="173.707407972535">
        <ele>3</ele>
      </trkpt>
      <trkpt lat="-42.41623879458325" lon="173.707479496471">
        <ele>3</ele>
      </trkpt>
      <trkpt lat="-42.41627407972535" lon="173.707543391188">
        <ele>3</ele>
      </trkpt>
      <trkpt lat="-42.41631508678238" lon="173.707595842075">
        <ele>2</ele>
      </trkpt>
      <trkpt lat="-42.41638851802403" lon="173.707658783139">
        <ele>2</ele>
      </trkpt>
      <trkpt lat="-42.41644096891093" lon="173.707687392714">
        <ele>2</ele>
      </trkpt>
      <trkpt lat="-42.41650772458516" lon="173.707708373069">
        <ele>2</ele>
      </trkpt>
      <trkpt lat="-42.41657066564943" lon="173.707716002289">
        <ele>2</ele>
      </trkpt>
      <trkpt lat="-42.41665744802594" lon="173.707702651154">
        <ele>2</ele>
      </trkpt>
      <trkpt lat="-42.41665744802594" lon="173.707702651154">
        <ele>2</ele>
      </trkpt>
      <trkpt lat="-42.41674899866489" lon="173.707659736792">
        <ele>2</ele>
      </trkpt>
      <trkpt lat="-42.41681480068662" lon="173.707595842075">
        <ele>2</ele>
      </trkpt>
      <trkpt lat="-42.41697215334732" lon="173.707346938775">
        <ele>3</ele>
      </trkpt>
      <trkpt lat="-42.41716383749761" lon="173.707092313561">
        <ele>4</ele>
      </trkpt>
      <trkpt lat="-42.41741083349227" lon="173.706736601183">
        <ele>6</ele>
      </trkpt>
      <trkpt lat="-42.41746328437917" lon="173.706655540721">
        <ele>6</ele>
      </trkpt>
      <trkpt lat="-42.41751478161358" lon="173.706575433912">
        <ele>7</ele>
      </trkpt>
      <trkpt lat="-42.41754529849322" lon="173.7065134465">
        <ele>7</ele>
      </trkpt>
      <trkpt lat="-42.41757486172038" lon="173.706451459088">
        <ele>8</ele>
      </trkpt>
      <trkpt lat="-42.41760728590501" lon="173.706376120542">
        <ele>8</ele>
      </trkpt>
      <trkpt lat="-42.41770551211138" lon="173.706094793057">
        <ele>10</ele>
      </trkpt>
      <trkpt lat="-42.41774079725348" lon="173.706019454511">
        <ele>10</ele>
      </trkpt>
      <trkpt lat="-42.41777608239557" lon="173.705956513446">
        <ele>10</ele>
      </trkpt>
      <trkpt lat="-42.41781136753767" lon="173.705894526035">
        <ele>10</ele>
      </trkpt>
      <trkpt lat="-42.41798397863818" lon="173.705616059508">
        <ele>12</ele>
      </trkpt>
      <trkpt lat="-42.41823669654777" lon="173.705150677093">
        <ele>14</ele>
      </trkpt>
      <trkpt lat="-42.4183215716193" lon="173.705043868014">
        <ele>14</ele>
      </trkpt>
      <trkpt lat="-42.41837974442113" lon="173.705000953652">
        <ele>14</ele>
      </trkpt>
      <trkpt lat="-42.41846748045012" lon="173.70496948312">
        <ele>14</ele>
      </trkpt>
      <trkpt lat="-42.41852565325195" lon="173.704967575815">
        <ele>14</ele>
      </trkpt>
      <trkpt lat="-42.41856189204653" lon="173.704971390425">
        <ele>14</ele>
      </trkpt>
      <trkpt lat="-42.41864676711806" lon="173.705004768262">
        <ele>14</ele>
      </trkpt>
      <trkpt lat="-42.41870493991989" lon="173.70504196071">
        <ele>13</ele>
      </trkpt>
      <trkpt lat="-42.41875929811177" lon="173.705102040816">
        <ele>13</ele>
      </trkpt>
      <trkpt lat="-42.41884131222582" lon="173.705213618158">
        <ele>11</ele>
      </trkpt>
      <trkpt lat="-42.41892237268739" lon="173.705325195499">
        <ele>10</ele>
      </trkpt>
      <trkpt lat="-42.4195212664505" lon="173.706213045966">
        <ele>8</ele>
      </trkpt>
      <trkpt lat="-42.41999999999999" lon="173.706939729163">
        <ele>5</ele>
      </trkpt>
      <trkpt lat="-42.42" lon="173.706939729163">
        <ele>5</ele>
      </trkpt>
      <trkpt lat="-42.4203299637612" lon="173.707448979592">
        <ele>6</ele>
      </trkpt>
      <trkpt lat="-42.42037669273316" lon="173.707537669273">
        <ele>6</ele>
      </trkpt>
      <trkpt lat="-42.42042246805264" lon="173.707626358955">
        <ele>6</ele>
      </trkpt>
      <trkpt lat="-42.42046633606714" lon="173.707722677856">
        <ele>6</ele>
      </trkpt>
      <trkpt lat="-42.42079439252336" lon="173.708590501621">
        <ele>5</ele>
      </trkpt>
      <trkpt lat="-42.42113484646195" lon="173.709547015068">
        <ele>10</ele>
      </trkpt>
      <trkpt lat="-42.42126645050543" lon="173.709944688156">
        <ele>11</ele>
      </trkpt>
      <trkpt lat="-42.42129887469006" lon="173.710057219149">
        <ele>12</ele>
      </trkpt>
      <trkpt lat="-42.4213303452222" lon="173.710170703796">
        <ele>12</ele>
      </trkpt>
      <trkpt lat="-42.42135132557696" lon="173.710270837307">
        <ele>12</ele>
      </trkpt>
      <trkpt lat="-42.42137230593172" lon="173.710370970818">
        <ele>12</ele>
      </trkpt>
      <trkpt lat="-42.42144096891093" lon="173.710887850467">
        <ele>12</ele>
      </trkpt>
      <trkpt lat="-42.42153442685485" lon="173.711692733168">
        <ele>10</ele>
      </trkpt>
      <trkpt lat="-42.4215563608621" lon="173.711810032424">
        <ele>10</ele>
      </trkpt>
      <trkpt lat="-42.42158115582681" lon="173.711924470723">
        <ele>10</ele>
      </trkpt>
      <trkpt lat="-42.42160308983406" lon="173.711996948312">
        <ele>10</ele>
      </trkpt>
      <trkpt lat="-42.42162407018882" lon="173.712069425901">
        <ele>10</ele>
      </trkpt>
      <trkpt lat="-42.42165840167843" lon="173.712163837498">
        <ele>9</ele>
      </trkpt>
      <trkpt lat="-42.42169177951554" lon="173.712259202747">
        <ele>9</ele>
      </trkpt>
      <trkpt lat="-42.42173660118253" lon="173.71236028991">
        <ele>9</ele>
      </trkpt>
      <trkpt lat="-42.42179000572192" lon="173.712458516117">
        <ele>9</ele>
      </trkpt>
      <trkpt lat="-42.4218434102613" lon="173.712556742323">
        <ele>9</ele>
      </trkpt>
      <trkpt lat="-42.4219216097654" lon="173.712673087927">
        <ele>9</ele>
      </trkpt>
      <trkpt lat="-42.42197787526226" lon="173.712740797253">
        <ele>9</ele>
      </trkpt>
      <trkpt lat="-42.42203318710662" lon="173.712809460233">
        <ele>9</ele>
      </trkpt>
      <trkpt lat="-42.4221047110433" lon="173.712882891474">
        <ele>9</ele>
      </trkpt>
      <trkpt lat="-42.42217909593744" lon="173.712945832539">
        <ele>9</ele>
      </trkpt>
      <trkpt lat="-42.42225634178905" lon="173.713003051688">
        <ele>8</ele>
      </trkpt>
      <trkpt lat="-42.42266545870685" lon="173.71326435247">
        <ele>9</ele>
      </trkpt>
      <trkpt lat="-42.42274556551592" lon="173.713326339882">
        <ele>9</ele>
      </trkpt>
      <trkpt lat="-42.4228170894526" lon="173.713393095556">
        <ele>9</ele>
      </trkpt>
      <trkpt lat="-42.42289242799924" lon="173.713472248713">
        <ele>10</ele>
      </trkpt>
      <trkpt lat="-42.42297444211329" lon="173.713570474919">
        <ele>10</ele>
      </trkpt>
      <trkpt lat="-42.42305550257486" lon="173.713669654778">
        <ele>10</ele>
      </trkpt>
      <trkpt lat="-42.42312225824909" lon="173.713763112722">
        <ele>10</ele>
      </trkpt>
      <trkpt lat="-42.42318901392333" lon="173.713856570666">
        <ele>10</ele>
      </trkpt>
      <trkpt lat="-42.42324623307267" lon="173.713976730879">
        <ele>10</ele>
      </trkpt>
      <trkpt lat="-42.42326816707992" lon="173.714040625596">
        <ele>10</ele>
      </trkpt>
      <trkpt lat="-42.42329010108716" lon="173.714105473965">
        <ele>9</ele>
      </trkpt>
      <trkpt lat="-42.42329963761205" lon="173.714177951554">
        <ele>9</ele>
      </trkpt>
      <trkpt lat="-42.42330917413695" lon="173.714251382796">
        <ele>9</ele>
      </trkpt>
      <trkpt lat="-42.42331012778943" lon="173.714327674995">
        <ele>10</ele>
      </trkpt>
      <trkpt lat="-42.42331012778943" lon="173.714404920847">
        <ele>10</ele>
      </trkpt>
      <trkpt lat="-42.42329773030708" lon="173.714494564181">
        <ele>10</ele>
      </trkpt>
      <trkpt lat="-42.42328437917223" lon="173.714585161167">
        <ele>10</ele>
      </trkpt>
      <trkpt lat="-42.42314991417128" lon="173.71518024032">
        <ele>10</ele>
      </trkpt>
      <trkpt lat="-42.42308029753958" lon="173.715530230784">
        <ele>9</ele>
      </trkpt>
      <trkpt lat="-42.4230698073622" lon="173.715641808125">
        <ele>9</ele>
      </trkpt>
      <trkpt lat="-42.4230698073622" lon="173.715641808125">
        <ele>9</ele>
      </trkpt>
      <trkpt lat="-42.42304405874499" lon="173.715738127026">
        <ele>8</ele>
      </trkpt>
      <trkpt lat="-42.42301640282281" lon="173.715799160786">
        <ele>8</ele>
      </trkpt>
      <trkpt lat="-42.42296193798649" lon="173.715876703943">
        <ele>7</ele>
      </trkpt>
      <trkpt lat="-42.42296193798693" lon="173.715876703963">
        <ele>7</ele>
      </trkpt>
      <trkpt lat="-42.42298970055312" lon="173.715939347702">
        <ele>7</ele>
      </trkpt>
      <trkpt lat="-42.42299446881556" lon="173.715981308411">
        <ele>7</ele>
      </trkpt>
      <trkpt lat="-42.42298874690063" lon="173.716035666603">
        <ele>6</ele>
      </trkpt>
      <trkpt lat="-42.42299065420561" lon="173.71608430288">
        <ele>6</ele>
      </trkpt>
      <trkpt lat="-42.4230087736029" lon="173.716113866107">
        <ele>6</ele>
      </trkpt>
      <trkpt lat="-42.42304978065993" lon="173.716157734122">
        <ele>6</ele>
      </trkpt>
      <trkpt lat="-42.42308983406447" lon="173.716187297349">
        <ele>6</ele>
      </trkpt>
      <trkpt lat="-42.42312321190158" lon="173.716190158306">
        <ele>7</ele>
      </trkpt>
      <trkpt lat="-42.42318329200839" lon="173.716157734122">
        <ele>7</ele>
      </trkpt>
      <trkpt lat="-42.42318329200839" lon="173.716157734122">
        <ele>7</ele>
      </trkpt>
      <trkpt lat="-42.42321666984551" lon="173.716131031852">
        <ele>8</ele>
      </trkpt>
      <trkpt lat="-42.42321666984551" lon="173.716131031852">
        <ele>8</ele>
      </trkpt>
      <trkpt lat="-42.42329105473965" lon="173.716499141713">
        <ele>5</ele>
      </trkpt>
      <trkpt lat="-42.42329105473965" lon="173.716499141713">
        <ele>5</ele>
      </trkpt>
      <trkpt lat="-42.42332443257677" lon="173.716552546252">
        <ele>5</ele>
      </trkpt>
      <trkpt lat="-42.42332443257677" lon="173.716552546252">
        <ele>5</ele>
      </trkpt>
      <trkpt lat="-42.42335971771886" lon="173.716609765401">
        <ele>5</ele>
      </trkpt>
      <trkpt lat="-42.42347701697501" lon="173.716660308983">
        <ele>5</ele>
      </trkpt>
      <trkpt lat="-42.42359431623117" lon="173.716710852565">
        <ele>6</ele>
      </trkpt>
      <trkpt lat="-42.42368491321762" lon="173.716698455083">
        <ele>6</ele>
      </trkpt>
      <trkpt lat="-42.42377455655159" lon="173.716686057601">
        <ele>7</ele>
      </trkpt>
      <trkpt lat="-42.4240349036811" lon="173.716514400153">
        <ele>11</ele>
      </trkpt>
      <trkpt lat="-42.424391569712" lon="173.716200648484">
        <ele>14</ele>
      </trkpt>
      <trkpt lat="-42.42447549113103" lon="173.716089071142">
        <ele>14</ele>
      </trkpt>
      <trkpt lat="-42.42455941255007" lon="173.715978447454">
        <ele>14</ele>
      </trkpt>
      <trkpt lat="-42.42462139996185" lon="173.715910738127">
        <ele>13</ele>
      </trkpt>
      <trkpt lat="-42.42468243372115" lon="173.7158430288">
        <ele>13</ele>
      </trkpt>
      <trkpt lat="-42.42472534808316" lon="173.715750524509">
        <ele>12</ele>
      </trkpt>
      <trkpt lat="-42.42476826244516" lon="173.715658020217">
        <ele>12</ele>
      </trkpt>
      <trkpt lat="-42.4248083158497" lon="173.715582681671">
        <ele>11</ele>
      </trkpt>
      <trkpt lat="-42.42484836925424" lon="173.715507343124">
        <ele>10</ele>
      </trkpt>
      <trkpt lat="-42.42485409116918" lon="173.715409116918">
        <ele>11</ele>
      </trkpt>
      <trkpt lat="-42.42485885943162" lon="173.715311844364">
        <ele>11</ele>
      </trkpt>
      <trkpt lat="-42.42488174709136" lon="173.715231737555">
        <ele>11</ele>
      </trkpt>
      <trkpt lat="-42.42490463475109" lon="173.715152584398">
        <ele>10</ele>
      </trkpt>
      <trkpt lat="-42.42492370780088" lon="173.715071523937">
        <ele>10</ele>
      </trkpt>
      <trkpt lat="-42.42494278085066" lon="173.714991417128">
        <ele>10</ele>
      </trkpt>
      <trkpt lat="-42.42492466145337" lon="173.714903681099">
        <ele>11</ele>
      </trkpt>
      <trkpt lat="-42.42490558840358" lon="173.714816898722">
        <ele>11</ele>
      </trkpt>
      <trkpt lat="-42.42494468815563" lon="173.714516498188">
        <ele>12</ele>
      </trkpt>
      <trkpt lat="-42.42494564180812" lon="173.714451649819">
        <ele>12</ele>
      </trkpt>
      <trkpt lat="-42.42494659546061" lon="173.71438680145">
        <ele>13</ele>
      </trkpt>
      <trkpt lat="-42.42491417127599" lon="173.714117871448">
        <ele>15</ele>
      </trkpt>
      <trkpt lat="-42.4249303833683" lon="173.714018691589">
        <ele>16</ele>
      </trkpt>
      <trkpt lat="-42.42498092695022" lon="173.713902345985">
        <ele>16</ele>
      </trkpt>
      <trkpt lat="-42.42503147053214" lon="173.713786000381">
        <ele>17</ele>
      </trkpt>
      <trkpt lat="-42.42505817280183" lon="173.713710661835">
        <ele>18</ele>
      </trkpt>
      <trkpt lat="-42.42508487507153" lon="173.713636276941">
        <ele>18</ele>
      </trkpt>
      <trkpt lat="-42.4251478161358" lon="173.713592408926">
        <ele>18</ele>
      </trkpt>
      <trkpt lat="-42.42521075720008" lon="173.713548540912">
        <ele>17</ele>
      </trkpt>
      <trkpt lat="-42.42531089071142" lon="173.71349036811">
        <ele>17</ele>
      </trkpt>
      <trkpt lat="-42.42541007057029" lon="173.713432195308">
        <ele>16</ele>
      </trkpt>
      <trkpt lat="-42.42588212855235" lon="173.713210947931">
        <ele>13</ele>
      </trkpt>
      <trkpt lat="-42.42671466717528" lon="173.712772267786">
        <ele>14</ele>
      </trkpt>
      <trkpt lat="-42.42680717146672" lon="173.712811367538">
        <ele>13</ele>
      </trkpt>
      <trkpt lat="-42.42689967575815" lon="173.71285046729">
        <ele>12</ele>
      </trkpt>
      <trkpt lat="-42.42696643143238" lon="173.712841884417">
        <ele>11</ele>
      </trkpt>
      <trkpt lat="-42.42707228685867" lon="173.712791340835">
        <ele>11</ele>
      </trkpt>
      <trkpt lat="-42.42718386419988" lon="173.712712187679">
        <ele>10</ele>
      </trkpt>
      <trkpt lat="-42.42722963951936" lon="173.712642571047">
        <ele>10</ele>
      </trkpt>
      <trkpt lat="-42.42728590501621" lon="173.712529086401">
        <ele>11</ele>
      </trkpt>
      <trkpt lat="-42.42734884608049" lon="173.712486172039">
        <ele>10</ele>
      </trkpt>
      <trkpt lat="-42.42739462139996" lon="173.712446118634">
        <ele>10</ele>
      </trkpt>
      <trkpt lat="-42.42742323097463" lon="173.71240606523">
        <ele>10</ele>
      </trkpt>
      <trkpt lat="-42.42744897959184" lon="173.712346938775">
        <ele>10</ele>
      </trkpt>
      <trkpt lat="-42.42753671562082" lon="173.712263017356">
        <ele>9</ele>
      </trkpt>
      <trkpt lat="-42.42756913980546" lon="173.71218767881">
        <ele>9</ele>
      </trkpt>
      <trkpt lat="-42.42757486172039" lon="173.712146671753">
        <ele>9</ele>
      </trkpt>
      <trkpt lat="-42.42759393477017" lon="173.712075147816">
        <ele>9</ele>
      </trkpt>
      <trkpt lat="-42.4275910738127" lon="173.711968338737">
        <ele>10</ele>
      </trkpt>
      <trkpt lat="-42.42753671562082" lon="173.711867251573">
        <ele>11</ele>
      </trkpt>
      <trkpt lat="-42.42748521838642" lon="173.711808125119">
        <ele>12</ele>
      </trkpt>
      <trkpt lat="-42.42744802593935" lon="173.71175090597">
        <ele>13</ele>
      </trkpt>
      <trkpt lat="-42.42738317757009" lon="173.711690825863">
        <ele>15</ele>
      </trkpt>
      <trkpt lat="-42.42731737554835" lon="173.711630745756">
        <ele>17</ele>
      </trkpt>
      <trkpt lat="-42.4272086591646" lon="173.711562082777">
        <ele>19</ele>
      </trkpt>
      <trkpt lat="-42.42709422086592" lon="173.710974632844">
        <ele>16</ele>
      </trkpt>
      <trkpt lat="-42.42711043295823" lon="173.710864962808">
        <ele>15</ele>
      </trkpt>
      <trkpt lat="-42.42706751859622" lon="173.710774365821">
        <ele>16</ele>
      </trkpt>
      <trkpt lat="-42.42705702841884" lon="173.710677093267">
        <ele>16</ele>
      </trkpt>
      <trkpt lat="-42.42706751859622" lon="173.710612244898">
        <ele>15</ele>
      </trkpt>
      <trkpt lat="-42.42707705512111" lon="173.710547396529">
        <ele>15</ele>
      </trkpt>
      <trkpt lat="-42.42709994278085" lon="173.710462521457">
        <ele>14</ele>
      </trkpt>
      <trkpt lat="-42.42712283044059" lon="173.710377646386">
        <ele>14</ele>
      </trkpt>
      <trkpt lat="-42.42715144001526" lon="173.710291817662">
        <ele>13</ele>
      </trkpt>
      <trkpt lat="-42.42718004958993" lon="173.71020694259">
        <ele>12</ele>
      </trkpt>
      <trkpt lat="-42.42726873927141" lon="173.709865534999">
        <ele>10</ele>
      </trkpt>
      <trkpt lat="-42.42728018310127" lon="173.709802593935">
        <ele>10</ele>
      </trkpt>
      <trkpt lat="-42.42729162693114" lon="173.70973965287">
        <ele>10</ele>
      </trkpt>
      <trkpt lat="-42.42731737554835" lon="173.709671943544">
        <ele>10</ele>
      </trkpt>
      <trkpt lat="-42.4273393095556" lon="173.709577531947">
        <ele>9</ele>
      </trkpt>
      <trkpt lat="-42.42742990654206" lon="173.709312416555">
        <ele>9</ele>
      </trkpt>
      <trkpt lat="-42.42765401487698" lon="173.708811748999">
        <ele>12</ele>
      </trkpt>
      <trkpt lat="-42.42772267785619" lon="173.70869349609">
        <ele>13</ele>
      </trkpt>
      <trkpt lat="-42.42778561892047" lon="173.708600991799">
        <ele>14</ele>
      </trkpt>
      <trkpt lat="-42.42784855998474" lon="173.70850944116">
        <ele>14</ele>
      </trkpt>
      <trkpt lat="-42.42790005721915" lon="173.708450314705">
        <ele>14</ele>
      </trkpt>
      <trkpt lat="-42.42800209803548" lon="173.708352088499">
        <ele>13</ele>
      </trkpt>
      <trkpt lat="-42.4280955559794" lon="173.708292962045">
        <ele>12</ele>
      </trkpt>
      <trkpt lat="-42.42818806027083" lon="173.708234789243">
        <ele>11</ele>
      </trkpt>
      <trkpt lat="-42.42827770360481" lon="173.708189967576">
        <ele>10</ele>
      </trkpt>
      <trkpt lat="-42.4283396910166" lon="173.708172801831">
        <ele>10</ele>
      </trkpt>
      <trkpt lat="-42.42840072477589" lon="173.708155636086">
        <ele>9</ele>
      </trkpt>
      <trkpt lat="-42.42847892427999" lon="173.708114629029">
        <ele>9</ele>
      </trkpt>
      <trkpt lat="-42.42853423612436" lon="173.708107953462">
        <ele>9</ele>
      </trkpt>
      <trkpt lat="-42.42858859431623" lon="173.708060270837">
        <ele>9</ele>
      </trkpt>
      <trkpt lat="-42.42862864772077" lon="173.708041197788">
        <ele>9</ele>
      </trkpt>
      <trkpt lat="-42.42866584016785" lon="173.708005912645">
        <ele>9</ele>
      </trkpt>
      <trkpt lat="-42.42870112530994" lon="173.707936296014">
        <ele>9</ele>
      </trkpt>
      <trkpt lat="-42.42874499332443" lon="173.707912454701">
        <ele>9</ele>
      </trkpt>
      <trkpt lat="-42.42876788098417" lon="173.707886706084">
        <ele>9</ele>
      </trkpt>
      <trkpt lat="-42.4287993515163" lon="173.707814228495">
        <ele>9</ele>
      </trkpt>
      <trkpt lat="-42.42885466336067" lon="173.707747472821">
        <ele>9</ele>
      </trkpt>
      <trkpt lat="-42.42890997520504" lon="173.707681670799">
        <ele>9</ele>
      </trkpt>
      <trkpt lat="-42.42895384321953" lon="173.707577722678">
        <ele>9</ele>
      </trkpt>
      <trkpt lat="-42.42899675758154" lon="173.707473774557">
        <ele>9</ele>
      </trkpt>
      <trkpt lat="-42.42901583063131" lon="173.707434674804">
        <ele>9</ele>
      </trkpt>
      <trkpt lat="-42.42906351325577" lon="173.707368872783">
        <ele>9</ele>
      </trkpt>
      <trkpt lat="-42.42907877169559" lon="173.707312607286">
        <ele>9</ele>
      </trkpt>
      <trkpt lat="-42.42911214953271" lon="173.707232500477">
        <ele>9</ele>
      </trkpt>
      <trkpt lat="-42.42913408353996" lon="173.707201029945">
        <ele>8</ele>
      </trkpt>
      <trkpt lat="-42.42916364676712" lon="173.707179095937">
        <ele>8</ele>
      </trkpt>
      <trkpt lat="-42.42919320999428" lon="173.707126645051">
        <ele>8</ele>
      </trkpt>
      <trkpt lat="-42.42920274651917" lon="173.707098035476">
        <ele>8</ele>
      </trkpt>
      <trkpt lat="-42.42920083921419" lon="173.707072286859">
        <ele>8</ele>
      </trkpt>
      <trkpt lat="-42.42918844173183" lon="173.707037955369">
        <ele>8</ele>
      </trkpt>
      <trkpt lat="-42.42918558077437" lon="173.706993133702">
        <ele>8</ele>
      </trkpt>
      <trkpt lat="-42.42919034903681" lon="173.706945451078">
        <ele>9</ele>
      </trkpt>
      <trkpt lat="-42.42918462712188" lon="173.706879649056">
        <ele>9</ele>
      </trkpt>
      <trkpt lat="-42.42919416364677" lon="173.706793820332">
        <ele>9</ele>
      </trkpt>
      <trkpt lat="-42.42920560747663" lon="173.706767118062">
        <ele>9</ele>
      </trkpt>
      <trkpt lat="-42.42926473393096" lon="173.706694640473">
        <ele>9</ele>
      </trkpt>
      <trkpt lat="-42.42928476063322" lon="173.706631699409">
        <ele>9</ele>
      </trkpt>
      <trkpt lat="-42.4293047873355" lon="173.706568758344">
        <ele>9</ele>
      </trkpt>
      <trkpt lat="-42.4293047873355" lon="173.706568758344">
        <ele>9</ele>
      </trkpt>
      <trkpt lat="-42.42933244325768" lon="173.706529658592">
        <ele>8</ele>
      </trkpt>
      <trkpt lat="-42.42933721152012" lon="173.706511539195">
        <ele>8</ele>
      </trkpt>
      <trkpt lat="-42.42933816517261" lon="173.706420942209">
        <ele>8</ele>
      </trkpt>
      <trkpt lat="-42.42934388708755" lon="173.706389471676">
        <ele>8</ele>
      </trkpt>
      <trkpt lat="-42.42936868205226" lon="173.706323669655">
        <ele>8</ele>
      </trkpt>
      <trkpt lat="-42.42939252336448" lon="173.706258821286">
        <ele>8</ele>
      </trkpt>
      <trkpt lat="-42.42945069616632" lon="173.706000381461">
        <ele>7</ele>
      </trkpt>
      <trkpt lat="-42.42946786191112" lon="173.705946023269">
        <ele>7</ele>
      </trkpt>
      <trkpt lat="-42.42950982262064" lon="173.705867823765">
        <ele>7</ele>
      </trkpt>
      <trkpt lat="-42.42951840549303" lon="173.705762921991">
        <ele>7</ele>
      </trkpt>
      <trkpt lat="-42.42959279038718" lon="173.705356666031">
        <ele>11</ele>
      </trkpt>
      <trkpt lat="-42.42960900247949" lon="173.705321380889">
        <ele>11</ele>
      </trkpt>
      <trkpt lat="-42.4296700362388" lon="173.705225061987">
        <ele>11</ele>
      </trkpt>
      <trkpt lat="-42.42969292389853" lon="173.705120160214">
        <ele>11</ele>
      </trkpt>
      <trkpt lat="-42.42971485790578" lon="173.705016212092">
        <ele>12</ele>
      </trkpt>
      <trkpt lat="-42.42976158687774" lon="173.704970436773">
        <ele>11</ele>
      </trkpt>
      <trkpt lat="-42.42976158687774" lon="173.704970436773">
        <ele>11</ele>
      </trkpt>
      <trkpt lat="-42.42981689872211" lon="173.704732023651">
        <ele>13</ele>
      </trkpt>
      <trkpt lat="-42.42990368109861" lon="173.704567995422">
        <ele>12</ele>
      </trkpt>
      <trkpt lat="-42.43000667556742" lon="173.704307648293">
        <ele>11</ele>
      </trkpt>
      <trkpt lat="-42.43003051687965" lon="173.704108334923">
        <ele>12</ele>
      </trkpt>
      <trkpt lat="-42.43001430478733" lon="173.703836543963">
        <ele>13</ele>
      </trkpt>
      <trkpt lat="-42.43003814609956" lon="173.703671562083">
        <ele>14</ele>
      </trkpt>
      <trkpt lat="-42.43005817280183" lon="173.703602899104">
        <ele>14</ele>
      </trkpt>
      <trkpt lat="-42.43020598893763" lon="173.703413122258">
        <ele>13</ele>
      </trkpt>
      <trkpt lat="-42.43026797634942" lon="173.703357810414">
        <ele>12</ele>
      </trkpt>
      <trkpt lat="-42.43026797634942" lon="173.703357810414">
        <ele>12</ele>
      </trkpt>
      <trkpt lat="-42.43028895670417" lon="173.70323383559">
        <ele>13</ele>
      </trkpt>
      <trkpt lat="-42.43035952698837" lon="173.703101277894">
        <ele>14</ele>
      </trkpt>
      <trkpt lat="-42.43061415220293" lon="173.702868586687">
        <ele>12</ele>
      </trkpt>
      <trkpt lat="-42.43073431241655" lon="173.702676902537">
        <ele>11</ele>
      </trkpt>
      <trkpt lat="-42.43078104138852" lon="173.702576769025">
        <ele>11</ele>
      </trkpt>
      <trkpt lat="-42.43079629982834" lon="173.702486172039">
        <ele>12</ele>
      </trkpt>
      <trkpt lat="-42.43080320577641" lon="173.702462315127">
        <ele>12</ele>
      </trkpt>
      <trkpt lat="-42.43080320577641" lon="173.702462315127">
        <ele>12</ele>
      </trkpt>
      <trkpt lat="-42.4309350685418" lon="173.702372633006">
        <ele>12</ele>
      </trkpt>
      <trkpt lat="-42.4309350685418" lon="173.702372633006">
        <ele>12</ele>
      </trkpt>
      <trkpt lat="-42.43090978447454" lon="173.70219149342">
        <ele>14</ele>
      </trkpt>
      <trkpt lat="-42.43090978447454" lon="173.70219149342">
        <ele>14</ele>
      </trkpt>
      <trkpt lat="-42.4308172801831" lon="173.702074194164">
        <ele>17</ele>
      </trkpt>
      <trkpt lat="-42.4308172801831" lon="173.702074194164">
        <ele>17</ele>
      </trkpt>
      <trkpt lat="-42.43072477589166" lon="173.702101850086">
        <ele>19</ele>
      </trkpt>
      <trkpt lat="-42.43063131794774" lon="173.702129506008">
        <ele>21</ele>
      </trkpt>
      <trkpt lat="-42.43054835018119" lon="173.702170513065">
        <ele>22</ele>
      </trkpt>
      <trkpt lat="-42.43048922372687" lon="173.702171466718">
        <ele>24</ele>
      </trkpt>
      <trkpt lat="-42.4304434484074" lon="173.702116154873">
        <ele>25</ele>
      </trkpt>
      <trkpt lat="-42.43040530230784" lon="173.702097081823">
        <ele>27</ele>
      </trkpt>
      <trkpt lat="-42.4304005340454" lon="173.702078008774">
        <ele>27</ele>
      </trkpt>
      <trkpt lat="-42.43048159450696" lon="173.702066564944">
        <ele>25</ele>
      </trkpt>
      <trkpt lat="-42.43054167461377" lon="173.701999809269">
        <ele>25</ele>
      </trkpt>
      <trkpt lat="-42.43060175472058" lon="173.701934007248">
        <ele>24</ele>
      </trkpt>
      <trkpt lat="-42.43061892046538" lon="173.701874880793">
        <ele>25</ele>
      </trkpt>
      <trkpt lat="-42.43062845699027" lon="173.701813847034">
        <ele>25</ele>
      </trkpt>
      <trkpt lat="-42.43062750333778" lon="173.701704176998">
        <ele>27</ele>
      </trkpt>
      <trkpt lat="-42.43064562273508" lon="173.701642189586">
        <ele>27</ele>
      </trkpt>
      <trkpt lat="-42.43066278847988" lon="173.70154777799">
        <ele>27</ele>
      </trkpt>
      <trkpt lat="-42.43064753004005" lon="173.701449551783">
        <ele>29</ele>
      </trkpt>
      <trkpt lat="-42.43062654968529" lon="173.701481975968">
        <ele>29</ele>
      </trkpt>
      <trkpt lat="-42.43059507915316" lon="173.701588785047">
        <ele>29</ele>
      </trkpt>
      <trkpt lat="-42.43051687964905" lon="173.701700362388">
        <ele>29</ele>
      </trkpt>
      <trkpt lat="-42.43043868014495" lon="173.701727064658">
        <ele>31</ele>
      </trkpt>
      <trkpt lat="-42.43036048064086" lon="173.701753766927">
        <ele>32</ele>
      </trkpt>
      <trkpt lat="-42.43026797634942" lon="173.70174709136">
        <ele>35</ele>
      </trkpt>
      <trkpt lat="-42.4301821476254" lon="173.701787144764">
        <ele>36</ele>
      </trkpt>
      <trkpt lat="-42.43010967003624" lon="173.701769025367">
        <ele>38</ele>
      </trkpt>
      <trkpt lat="-42.43006103375929" lon="173.701659355331">
        <ele>41</ele>
      </trkpt>
      <trkpt lat="-42.43006103375929" lon="173.701659355331">
        <ele>41</ele>
      </trkpt>
      <trkpt lat="-42.4300867823765" lon="173.701627884799">
        <ele>41</ele>
      </trkpt>
      <trkpt lat="-42.43033663932863" lon="173.701199694831">
        <ele>39</ele>
      </trkpt>
      <trkpt lat="-42.4303824146481" lon="173.701089071142">
        <ele>39</ele>
      </trkpt>
      <trkpt lat="-42.43039481213046" lon="173.701014686248">
        <ele>39</ele>
      </trkpt>
      <trkpt lat="-42.4303909975205" lon="173.700968910929">
        <ele>40</ele>
      </trkpt>
      <trkpt lat="-42.43016307457562" lon="173.70024127408">
        <ele>48</ele>
      </trkpt>
      <trkpt lat="-42.43009631890139" lon="173.700120160214">
        <ele>50</ele>
      </trkpt>
      <trkpt lat="-42.43002860957467" lon="173.7">
        <ele>53</ele>
      </trkpt>
      <trkpt lat="-42.43002860957467" lon="173.7">
        <ele>53</ele>
      </trkpt>
      <trkpt lat="-42.42997711234026" lon="173.699907495709">
        <ele>55</ele>
      </trkpt>
      <trkpt lat="-42.42992275414839" lon="173.699831203509">
        <ele>56</ele>
      </trkpt>
      <trkpt lat="-42.42989223726874" lon="173.69980450124">
        <ele>57</ele>
      </trkpt>
      <trkpt lat="-42.42949742513828" lon="173.699614724394">
        <ele>64</ele>
      </trkpt>
      <trkpt lat="-42.42943639137898" lon="173.699595651345">
        <ele>65</ele>
      </trkpt>
      <trkpt lat="-42.42937726492466" lon="173.699592790387">
        <ele>66</ele>
      </trkpt>
      <trkpt lat="-42.42929906542056" lon="173.699599465955">
        <ele>67</ele>
      </trkpt>
      <trkpt lat="-42.42921895861148" lon="173.699599465955">
        <ele>68</ele>
      </trkpt>
      <trkpt lat="-42.42913885180241" lon="173.699600419607">
        <ele>69</ele>
      </trkpt>
      <trkpt lat="-42.42905111577341" lon="173.699579439252">
        <ele>69</ele>
      </trkpt>
      <trkpt lat="-42.42896337974442" lon="173.699558458898">
        <ele>68</ele>
      </trkpt>
      <trkpt lat="-42.42888804119779" lon="173.699526988365">
        <ele>69</ele>
      </trkpt>
      <trkpt lat="-42.4288088880412" lon="173.699477398436">
        <ele>69</ele>
      </trkpt>
      <trkpt lat="-42.42872973488461" lon="173.699392523364">
        <ele>69</ele>
      </trkpt>
      <trkpt lat="-42.42866679382033" lon="173.699308601945">
        <ele>70</ele>
      </trkpt>
      <trkpt lat="-42.42860576006103" lon="173.699215144002">
        <ele>71</ele>
      </trkpt>
      <trkpt lat="-42.42856666030898" lon="173.699117871448">
        <ele>71</ele>
      </trkpt>
      <trkpt lat="-42.42852756055693" lon="173.699021552546">
        <ele>70</ele>
      </trkpt>
      <trkpt lat="-42.42852374594698" lon="173.698991035667">
        <ele>70</ele>
      </trkpt>
      <trkpt lat="-42.42852851420943" lon="173.698959565134">
        <ele>70</ele>
      </trkpt>
      <trkpt lat="-42.42857619683387" lon="173.69887373641">
        <ele>70</ele>
      </trkpt>
      <trkpt lat="-42.42862292580583" lon="173.698788861339">
        <ele>70</ele>
      </trkpt>
      <trkpt lat="-42.42878123211901" lon="173.698402632081">
        <ele>72</ele>
      </trkpt>
      <trkpt lat="-42.42888613389281" lon="173.698070761015">
        <ele>70</ele>
      </trkpt>
      <trkpt lat="-42.42890234598512" lon="173.697997329773">
        <ele>69</ele>
      </trkpt>
      <trkpt lat="-42.42891760442495" lon="173.697923898531">
        <ele>68</ele>
      </trkpt>
      <trkpt lat="-42.42894526034713" lon="173.697829486935">
        <ele>67</ele>
      </trkpt>
      <trkpt lat="-42.42911596414267" lon="173.697369826435">
        <ele>63</ele>
      </trkpt>
      <trkpt lat="-42.42922277322144" lon="173.697107572001">
        <ele>61</ele>
      </trkpt>
      <trkpt lat="-42.42925424375358" lon="173.697040816327">
        <ele>59</ele>
      </trkpt>
      <trkpt lat="-42.42928476063322" lon="173.696975014305">
        <ele>58</ele>
      </trkpt>
      <trkpt lat="-42.42939443066946" lon="173.696552546252">
        <ele>54</ele>
      </trkpt>
      <trkpt lat="-42.42944115964143" lon="173.696493419798">
        <ele>52</ele>
      </trkpt>
      <trkpt lat="-42.42952698836544" lon="173.696413312989">
        <ele>50</ele>
      </trkpt>
      <trkpt lat="-42.42964142666413" lon="173.696334159832">
        <ele>48</ele>
      </trkpt>
      <trkpt lat="-42.42972057982071" lon="173.696259774938">
        <ele>47</ele>
      </trkpt>
      <trkpt lat="-42.42978638184245" lon="173.696192065611">
        <ele>46</ele>
      </trkpt>
      <trkpt lat="-42.4298178523746" lon="173.696145336639">
        <ele>45</ele>
      </trkpt>
      <trkpt lat="-42.42982834255197" lon="173.696093839405">
        <ele>45</ele>
      </trkpt>
      <trkpt lat="-42.42982738889948" lon="173.695981308411">
        <ele>45</ele>
      </trkpt>
      <trkpt lat="-42.42981499141712" lon="173.6956322716">
        <ele>45</ele>
      </trkpt>
      <trkpt lat="-42.42980354758726" lon="173.695593171848">
        <ele>45</ele>
      </trkpt>
      <trkpt lat="-42.42975967957276" lon="173.695534045394">
        <ele>46</ele>
      </trkpt>
      <trkpt lat="-42.42973679191303" lon="173.695490177379">
        <ele>46</ele>
      </trkpt>
      <trkpt lat="-42.42966717528132" lon="173.695178333015">
        <ele>46</ele>
      </trkpt>
      <trkpt lat="-42.42965859240893" lon="173.695102040816">
        <ele>46</ele>
      </trkpt>
      <trkpt lat="-42.42966812893382" lon="173.69504196071">
        <ele>46</ele>
      </trkpt>
      <trkpt lat="-42.42968624833111" lon="173.694991417128">
        <ele>46</ele>
      </trkpt>
      <trkpt lat="-42.42971199694831" lon="173.694953271028">
        <ele>45</ele>
      </trkpt>
      <trkpt lat="-42.42974156017547" lon="173.694940873546">
        <ele>45</ele>
      </trkpt>
      <trkpt lat="-42.42981880602709" lon="173.694940873546">
        <ele>45</ele>
      </trkpt>
      <trkpt lat="-42.42989605187869" lon="173.694940873546">
        <ele>46</ele>
      </trkpt>
      <trkpt lat="-42.42996280755293" lon="173.694953271028">
        <ele>46</ele>
      </trkpt>
      <trkpt lat="-42.42995613198551" lon="173.694934197978">
        <ele>46</ele>
      </trkpt>
      <trkpt lat="-42.42989986648865" lon="173.694878886134">
        <ele>45</ele>
      </trkpt>
      <trkpt lat="-42.42984360099179" lon="173.694807362197">
        <ele>44</ele>
      </trkpt>
      <trkpt lat="-42.42977493801259" lon="173.6947510967">
        <ele>43</ele>
      </trkpt>
      <trkpt lat="-42.42968434102613" lon="173.694706275033">
        <ele>42</ele>
      </trkpt>
      <trkpt lat="-42.42959374403967" lon="173.694675758154">
        <ele>41</ele>
      </trkpt>
      <trkpt lat="-42.42957085637993" lon="173.694690062941">
        <ele>42</ele>
      </trkpt>
      <trkpt lat="-42.42955178333015" lon="173.694731069998">
        <ele>42</ele>
      </trkpt>
      <trkpt lat="-42.42952412740797" lon="173.69476254053">
        <ele>42</ele>
      </trkpt>
      <trkpt lat="-42.42945069616632" lon="173.694776845318">
        <ele>42</ele>
      </trkpt>
      <trkpt lat="-42.42940492084684" lon="173.69480450124">
        <ele>43</ele>
      </trkpt>
      <trkpt lat="-42.42937535761968" lon="173.694814037765">
        <ele>43</ele>
      </trkpt>
      <trkpt lat="-42.42934484074004" lon="173.694809269502">
        <ele>43</ele>
      </trkpt>
      <trkpt lat="-42.42928952889567" lon="173.694814037765">
        <ele>43</ele>
      </trkpt>
      <trkpt lat="-42.42925805836353" lon="173.69480450124">
        <ele>42</ele>
      </trkpt>
      <trkpt lat="-42.42923326339881" lon="173.69478542819">
        <ele>42</ele>
      </trkpt>
      <trkpt lat="-42.42922563417891" lon="173.69474728209">
        <ele>42</ele>
      </trkpt>
      <trkpt lat="-42.42924279992371" lon="173.694644287622">
        <ele>40</ele>
      </trkpt>
      <trkpt lat="-42.42925901201602" lon="173.694542246805">
        <ele>39</ele>
      </trkpt>
      <trkpt lat="-42.4292523364486" lon="173.694485027656">
        <ele>39</ele>
      </trkpt>
      <trkpt lat="-42.42926187297349" lon="173.694391569712">
        <ele>38</ele>
      </trkpt>
      <trkpt lat="-42.42924756818616" lon="173.69434102613">
        <ele>37</ele>
      </trkpt>
      <trkpt lat="-42.42922563417891" lon="173.694316231165">
        <ele>37</ele>
      </trkpt>
      <trkpt lat="-42.42914266641236" lon="173.694266641236">
        <ele>36</ele>
      </trkpt>
      <trkpt lat="-42.42910642761777" lon="173.694235170704">
        <ele>36</ele>
      </trkpt>
      <trkpt lat="-42.42908067900057" lon="173.694196070952">
        <ele>36</ele>
      </trkpt>
      <trkpt lat="-42.42906446690826" lon="173.694154110242">
        <ele>36</ele>
      </trkpt>
      <trkpt lat="-42.42905016212092" lon="173.694091169178">
        <ele>35</ele>
      </trkpt>
      <trkpt lat="-42.4290263208087" lon="173.694038718291">
        <ele>34</ele>
      </trkpt>
      <trkpt lat="-42.42896147243944" lon="173.693969101659">
        <ele>34</ele>
      </trkpt>
      <trkpt lat="-42.42889662407019" lon="173.69390043868">
        <ele>34</ele>
      </trkpt>
      <trkpt lat="-42.42883368300591" lon="173.693878504673">
        <ele>35</ele>
      </trkpt>
      <trkpt lat="-42.42877074194163" lon="173.693857524318">
        <ele>36</ele>
      </trkpt>
      <trkpt lat="-42.42873354949457" lon="173.693825100134">
        <ele>36</ele>
      </trkpt>
      <trkpt lat="-42.42870303261491" lon="173.693778371162">
        <ele>36</ele>
      </trkpt>
      <trkpt lat="-42.42867633034522" lon="173.693721152012">
        <ele>36</ele>
      </trkpt>
      <trkpt lat="-42.42862960137326" lon="173.693607667366">
        <ele>36</ele>
      </trkpt>
      <trkpt lat="-42.4285819187488" lon="173.693495136372">
        <ele>37</ele>
      </trkpt>
      <trkpt lat="-42.4285819187488" lon="173.693495136372">
        <ele>37</ele>
      </trkpt>
      <trkpt lat="-42.42851897768453" lon="173.693392141904">
        <ele>38</ele>
      </trkpt>
      <trkpt lat="-42.42845508296777" lon="173.693289147435">
        <ele>39</ele>
      </trkpt>
      <trkpt lat="-42.42835399580393" lon="173.693183292008">
        <ele>38</ele>
      </trkpt>
      <trkpt lat="-42.42830726683196" lon="173.693101277894">
        <ele>37</ele>
      </trkpt>
      <trkpt lat="-42.42827770360481" lon="173.693028800305">
        <ele>35</ele>
      </trkpt>
      <trkpt lat="-42.42825863055503" lon="173.692924852184">
        <ele>32</ele>
      </trkpt>
      <trkpt lat="-42.42822525271791" lon="173.692843791722">
        <ele>30</ele>
      </trkpt>
      <trkpt lat="-42.42818901392332" lon="173.69280087736">
        <ele>29</ele>
      </trkpt>
      <trkpt lat="-42.42814896051879" lon="173.692779897006">
        <ele>28</ele>
      </trkpt>
      <trkpt lat="-42.42804119778753" lon="173.692776082396">
        <ele>28</ele>
      </trkpt>
      <trkpt lat="-42.42795250810605" lon="173.692704558459">
        <ele>25</ele>
      </trkpt>
      <trkpt lat="-42.42786286477207" lon="173.692633988175">
        <ele>23</ele>
      </trkpt>
      <trkpt lat="-42.42781804310509" lon="173.692608239558">
        <ele>22</ele>
      </trkpt>
      <trkpt lat="-42.42775796299829" lon="173.692588212855">
        <ele>21</ele>
      </trkpt>
      <trkpt lat="-42.42770265115392" lon="173.692585351898">
        <ele>21</ele>
      </trkpt>
      <trkpt lat="-42.42765973679191" lon="173.69260156399">
        <ele>21</ele>
      </trkpt>
      <trkpt lat="-42.42763398817471" lon="173.69259774938">
        <ele>21</ele>
      </trkpt>
      <trkpt lat="-42.42758630555026" lon="173.692572954415">
        <ele>20</ele>
      </trkpt>
      <trkpt lat="-42.42754625214572" lon="173.692565325195">
        <ele>20</ele>
      </trkpt>
      <trkpt lat="-42.42749475491131" lon="173.692579629983">
        <ele>20</ele>
      </trkpt>
      <trkpt lat="-42.4274346748045" lon="173.69261300782">
        <ele>21</ele>
      </trkpt>
      <trkpt lat="-42.42736982643525" lon="173.692640663742">
        <ele>21</ele>
      </trkpt>
      <trkpt lat="-42.4273040244135" lon="173.692669273317">
        <ele>22</ele>
      </trkpt>
      <trkpt lat="-42.4272611100515" lon="173.692681670799">
        <ele>22</ele>
      </trkpt>
      <trkpt lat="-42.42723726873927" lon="173.692681670799">
        <ele>21</ele>
      </trkpt>
      <trkpt lat="-42.42713713522792" lon="173.692622544345">
        <ele>19</ele>
      </trkpt>
      <trkpt lat="-42.42703604806408" lon="173.692564371543">
        <ele>17</ele>
      </trkpt>
      <trkpt lat="-42.42694068281518" lon="173.692511920656">
        <ele>15</ele>
      </trkpt>
      <trkpt lat="-42.42684436391379" lon="173.692460423422">
        <ele>14</ele>
      </trkpt>
      <trkpt lat="-42.42637802784665" lon="173.692224871257">
        <ele>13</ele>
      </trkpt>
      <trkpt lat="-42.42628743086019" lon="173.692160022888">
        <ele>13</ele>
      </trkpt>
      <trkpt lat="-42.42619683387374" lon="173.692095174518">
        <ele>12</ele>
      </trkpt>
      <trkpt lat="-42.4261214953271" lon="173.692021743277">
        <ele>12</ele>
      </trkpt>
      <trkpt lat="-42.42609816657617" lon="173.691990877545">
        <ele>12</ele>
      </trkpt>
      <trkpt lat="-42.42609816657617" lon="173.691990877545">
        <ele>12</ele>
      </trkpt>
      <trkpt lat="-42.42608531299931" lon="173.691838877346">
        <ele>10</ele>
      </trkpt>
      <trkpt lat="-42.42608531299931" lon="173.691838877346">
        <ele>10</ele>
      </trkpt>
      <trkpt lat="-42.42603117621766" lon="173.691914545802">
        <ele>11</ele>
      </trkpt>
      <trkpt lat="-42.42603117642138" lon="173.691914545613">
        <ele>11</ele>
      </trkpt>
      <trkpt lat="-42.42600801068091" lon="173.691893953843">
        <ele>11</ele>
      </trkpt>
      <trkpt lat="-42.42590501621209" lon="173.691816707992">
        <ele>10</ele>
      </trkpt>
      <trkpt lat="-42.42581155826817" lon="173.69172038909">
        <ele>9</ele>
      </trkpt>
      <trkpt lat="-42.42572286858669" lon="173.691668891856">
        <ele>10</ele>
      </trkpt>
      <trkpt lat="-42.42563322525272" lon="173.691618348274">
        <ele>11</ele>
      </trkpt>
      <trkpt lat="-42.42557600610338" lon="173.691564943735">
        <ele>12</ele>
      </trkpt>
      <trkpt lat="-42.42552355521648" lon="173.691488651535">
        <ele>12</ele>
      </trkpt>
      <trkpt lat="-42.42547491893954" lon="173.691398054549">
        <ele>13</ele>
      </trkpt>
      <trkpt lat="-42.4254262826626" lon="173.691308411215">
        <ele>14</ele>
      </trkpt>
      <trkpt lat="-42.42539671943544" lon="173.691191111959">
        <ele>14</ele>
      </trkpt>
      <trkpt lat="-42.42536715620827" lon="173.691074766355">
        <ele>15</ele>
      </trkpt>
      <trkpt lat="-42.42535285142094" lon="173.690962235361">
        <ele>15</ele>
      </trkpt>
      <trkpt lat="-42.4253309174137" lon="173.69090024795">
        <ele>16</ele>
      </trkpt>
      <trkpt lat="-42.42532805645623" lon="173.690852565325">
        <ele>16</ele>
      </trkpt>
      <trkpt lat="-42.42532805645623" lon="173.690852565325">
        <ele>16</ele>
      </trkpt>
      <trkpt lat="-42.42533663932863" lon="173.690795346176">
        <ele>16</ele>
      </trkpt>
      <trkpt lat="-42.4255044821667" lon="173.690190730498">
        <ele>13</ele>
      </trkpt>
      <trkpt lat="-42.42551592599656" lon="173.690073431242">
        <ele>13</ele>
      </trkpt>
      <trkpt lat="-42.42551783330155" lon="173.69001144383">
        <ele>13</ele>
      </trkpt>
      <trkpt lat="-42.42551878695404" lon="173.689950410071">
        <ele>13</ele>
      </trkpt>
      <trkpt lat="-42.42551020408163" lon="173.689828342552">
        <ele>13</ele>
      </trkpt>
      <trkpt lat="-42.42550066755674" lon="173.689706275033">
        <ele>12</ele>
      </trkpt>
      <trkpt lat="-42.42548159450696" lon="173.689588975777">
        <ele>12</ele>
      </trkpt>
      <trkpt lat="-42.42546252145718" lon="173.689471676521">
        <ele>12</ele>
      </trkpt>
      <trkpt lat="-42.42543963379745" lon="173.689400152584">
        <ele>13</ele>
      </trkpt>
      <trkpt lat="-42.42541674613771" lon="173.6893295823">
        <ele>13</ele>
      </trkpt>
      <trkpt lat="-42.42541674613771" lon="173.6893295823">
        <ele>13</ele>
      </trkpt>
      <trkpt lat="-42.42526320808697" lon="173.688640091551">
        <ele>12</ele>
      </trkpt>
      <trkpt lat="-42.42526320808697" lon="173.688640091551">
        <ele>12</ele>
      </trkpt>
      <trkpt lat="-42.42535189776845" lon="173.688572382224">
        <ele>10</ele>
      </trkpt>
      <trkpt lat="-42.42542914362006" lon="173.68847129506">
        <ele>9</ele>
      </trkpt>
      <trkpt lat="-42.42547301163456" lon="173.688306313179">
        <ele>7</ele>
      </trkpt>
      <trkpt lat="-42.42550162120923" lon="173.688121304597">
        <ele>6</ele>
      </trkpt>
      <trkpt lat="-42.42550925042914" lon="173.68801163456">
        <ele>6</ele>
      </trkpt>
      <trkpt lat="-42.4254520312798" lon="173.687900057219">
        <ele>6</ele>
      </trkpt>
      <trkpt lat="-42.42520217432767" lon="173.687732214381">
        <ele>7</ele>
      </trkpt>
      <trkpt lat="-42.42495136372306" lon="173.687528132748">
        <ele>7</ele>
      </trkpt>
      <trkpt lat="-42.42475109670036" lon="173.687284951364">
        <ele>9</ele>
      </trkpt>
      <trkpt lat="-42.42453938584779" lon="173.68696929239">
        <ele>11</ele>
      </trkpt>
      <trkpt lat="-42.42435819187488" lon="173.686605950792">
        <ele>11</ele>
      </trkpt>
      <trkpt lat="-42.42435819187488" lon="173.686605950792">
        <ele>11</ele>
      </trkpt>
      <trkpt lat="-42.42433816517261" lon="173.686392332634">
        <ele>10</ele>
      </trkpt>
      <trkpt lat="-42.42431432386039" lon="173.686013732596">
        <ele>10</ele>
      </trkpt>
      <trkpt lat="-42.42419034903681" lon="173.683836543963">
        <ele>9</ele>
      </trkpt>
      <trkpt lat="-42.42418081251192" lon="173.683757390807">
        <ele>9</ele>
      </trkpt>
      <trkpt lat="-42.4241483883273" lon="173.683633415983">
        <ele>9</ele>
      </trkpt>
      <trkpt lat="-42.42409212283044" lon="173.683530421514">
        <ele>9</ele>
      </trkpt>
      <trkpt lat="-42.42404920846843" lon="173.68347892428">
        <ele>9</ele>
      </trkpt>
      <trkpt lat="-42.42399294297158" lon="173.683437917223">
        <ele>10</ele>
      </trkpt>
      <trkpt lat="-42.42379362960137" lon="173.683316803357">
        <ele>10</ele>
      </trkpt>
      <trkpt lat="-42.42318138470341" lon="173.682960137326">
        <ele>10</ele>
      </trkpt>
      <trkpt lat="-42.42192828533283" lon="173.6821838642">
        <ele>8</ele>
      </trkpt>
      <trkpt lat="-42.42165744802594" lon="173.682033187107">
        <ele>7</ele>
      </trkpt>
      <trkpt lat="-42.42151535380507" lon="173.681979782567">
        <ele>7</ele>
      </trkpt>
      <trkpt lat="-42.4213999618539" lon="173.681948312035">
        <ele>7</ele>
      </trkpt>
      <trkpt lat="-42.42125119206561" lon="173.681918748808">
        <ele>7</ele>
      </trkpt>
      <trkpt lat="-42.42107476635514" lon="173.681897768453">
        <ele>7</ele>
      </trkpt>
      <trkpt lat="-42.42" lon="173.681813847034">
        <ele>8</ele>
      </trkpt>
      <trkpt lat="-42.41999999999999" lon="173.681813847034">
        <ele>8</ele>
      </trkpt>
      <trkpt lat="-42.41993801258821" lon="173.681809078772">
        <ele>8</ele>
      </trkpt>
      <trkpt lat="-42.41984264733931" lon="173.681794773984">
        <ele>8</ele>
      </trkpt>
      <trkpt lat="-42.41974632843792" lon="173.681780469197">
        <ele>8</ele>
      </trkpt>
      <trkpt lat="-42.41965763875643" lon="173.681752813275">
        <ele>8</ele>
      </trkpt>
      <trkpt lat="-42.41965763875643" lon="173.681752813275">
        <ele>8</ele>
      </trkpt>
      <trkpt lat="-42.419565134465" lon="173.681699408735">
        <ele>8</ele>
      </trkpt>
      <trkpt lat="-42.419565134465" lon="173.681699408735">
        <ele>8</ele>
      </trkpt>
      <trkpt lat="-42.41939824527942" lon="173.681971199695">
        <ele>9</ele>
      </trkpt>
      <trkpt lat="-42.41903967194354" lon="173.682750333778">
        <ele>11</ele>
      </trkpt>
      <trkpt lat="-42.41869349609002" lon="173.683362578676">
        <ele>13</ele>
      </trkpt>
      <trkpt lat="-42.41849609002479" lon="173.683763112722">
        <ele>15</ele>
      </trkpt>
      <trkpt lat="-42.41841026130078" lon="173.683834636658">
        <ele>16</ele>
      </trkpt>
      <trkpt lat="-42.41828724012969" lon="173.683888041198">
        <ele>17</ele>
      </trkpt>
      <trkpt lat="-42.41810032424184" lon="173.68373164219">
        <ele>19</ele>
      </trkpt>
      <trkpt lat="-42.41773602899103" lon="173.683313942399">
        <ele>21</ele>
      </trkpt>
      <trkpt lat="-42.41760728590501" lon="173.683273888995">
        <ele>22</ele>
      </trkpt>
      <trkpt lat="-42.41743276749952" lon="173.683320617967">
        <ele>25</ele>
      </trkpt>
      <trkpt lat="-42.41720293724966" lon="173.683300591265">
        <ele>29</ele>
      </trkpt>
      <trkpt lat="-42.41671085256532" lon="173.683138470341">
        <ele>37</ele>
      </trkpt>
      <trkpt lat="-42.41634655731451" lon="173.682990654206">
        <ele>41</ele>
      </trkpt>
      <trkpt lat="-42.41608907114247" lon="173.683048827007">
        <ele>44</ele>
      </trkpt>
      <trkpt lat="-42.4157734121686" lon="173.683048827007">
        <ele>46</ele>
      </trkpt>
      <trkpt lat="-42.41566755674232" lon="173.682943925234">
        <ele>46</ele>
      </trkpt>
      <trkpt lat="-42.41579439252336" lon="173.68278561892">
        <ele>46</ele>
      </trkpt>
      <trkpt lat="-42.41518310127789" lon="173.682733168034">
        <ele>49</ele>
      </trkpt>
      <trkpt lat="-42.41498664886515" lon="173.682518596224">
        <ele>52</ele>
      </trkpt>
      <trkpt lat="-42.4145470150677" lon="173.682014114057">
        <ele>54</ele>
      </trkpt>
      <trkpt lat="-42.41437249666221" lon="173.681795727637">
        <ele>54</ele>
      </trkpt>
      <trkpt lat="-42.4141216860576" lon="173.681769025367">
        <ele>54</ele>
      </trkpt>
      <trkpt lat="-42.4128609574671" lon="173.683564753004">
        <ele>52</ele>
      </trkpt>
      <trkpt lat="-42.41277036048064" lon="173.683525653252">
        <ele>52</ele>
      </trkpt>
      <trkpt lat="-42.41277036048064" lon="173.683525653252">
        <ele>52</ele>
      </trkpt>
      <trkpt lat="-42.41266259774937" lon="173.683455082968">
        <ele>51</ele>
      </trkpt>
      <trkpt lat="-42.41262063703986" lon="173.683462712188">
        <ele>51</ele>
      </trkpt>
      <trkpt lat="-42.41258725920274" lon="173.68350562655">
        <ele>51</ele>
      </trkpt>
      <trkpt lat="-42.41250715239367" lon="173.683543772649">
        <ele>50</ele>
      </trkpt>
      <trkpt lat="-42.41246995994659" lon="173.683576196834">
        <ele>50</ele>
      </trkpt>
      <trkpt lat="-42.41243562845699" lon="173.683629601373">
        <ele>50</ele>
      </trkpt>
      <trkpt lat="-42.41238889948502" lon="173.683730688537">
        <ele>50</ele>
      </trkpt>
      <trkpt lat="-42.41234217051306" lon="173.683832729353">
        <ele>49</ele>
      </trkpt>
      <trkpt lat="-42.4123211901583" lon="173.683850848751">
        <ele>49</ele>
      </trkpt>
      <trkpt lat="-42.41230783902346" lon="173.683876597368">
        <ele>49</ele>
      </trkpt>
      <trkpt lat="-42.4123040244135" lon="173.683913789815">
        <ele>49</ele>
      </trkpt>
      <trkpt lat="-42.41230974632843" lon="173.683944306695">
        <ele>48</ele>
      </trkpt>
      <trkpt lat="-42.41234121686058" lon="173.684010108716">
        <ele>48</ele>
      </trkpt>
      <trkpt lat="-42.41237173374022" lon="173.684075910738">
        <ele>48</ele>
      </trkpt>
      <trkpt lat="-42.41241083349227" lon="173.684196070952">
        <ele>48</ele>
      </trkpt>
      <trkpt lat="-42.41241655540721" lon="173.684288575243">
        <ele>47</ele>
      </trkpt>
      <trkpt lat="-42.41240320427236" lon="173.684322906733">
        <ele>47</ele>
      </trkpt>
      <trkpt lat="-42.41238508487507" lon="173.684327674995">
        <ele>47</ele>
      </trkpt>
      <trkpt lat="-42.41236791913027" lon="173.684323860385">
        <ele>47</ele>
      </trkpt>
      <trkpt lat="-42.41230307076101" lon="173.684282853328">
        <ele>46</ele>
      </trkpt>
      <trkpt lat="-42.41223726873927" lon="173.684242799924">
        <ele>46</ele>
      </trkpt>
      <trkpt lat="-42.41213999618539" lon="173.684170322335">
        <ele>46</ele>
      </trkpt>
      <trkpt lat="-42.41211615487316" lon="173.684135990845">
        <ele>46</ele>
      </trkpt>
      <trkpt lat="-42.41210566469578" lon="173.684102613008">
        <ele>46</ele>
      </trkpt>
      <trkpt lat="-42.4121037573908" lon="173.684069235171">
        <ele>46</ele>
      </trkpt>
      <trkpt lat="-42.41216383749762" lon="173.683707800877">
        <ele>49</ele>
      </trkpt>
      <trkpt lat="-42.41216574480259" lon="173.683664886515">
        <ele>49</ele>
      </trkpt>
      <trkpt lat="-42.41214667175281" lon="173.683563799352">
        <ele>50</ele>
      </trkpt>
      <trkpt lat="-42.41214094983788" lon="173.683495136372">
        <ele>50</ele>
      </trkpt>
      <trkpt lat="-42.41213427427045" lon="173.683426473393">
        <ele>50</ele>
      </trkpt>
      <trkpt lat="-42.41213522792294" lon="173.683344459279">
        <ele>51</ele>
      </trkpt>
      <trkpt lat="-42.41213332061796" lon="173.683324432577">
        <ele>51</ele>
      </trkpt>
      <trkpt lat="-42.41212569139805" lon="173.683314896052">
        <ele>51</ele>
      </trkpt>
      <trkpt lat="-42.41212569139805" lon="173.683314896052">
        <ele>51</ele>
      </trkpt>
      <trkpt lat="-42.41207228685867" lon="173.683300591265">
        <ele>51</ele>
      </trkpt>
      <trkpt lat="-42.41207228685867" lon="173.683300591265">
        <ele>51</ele>
      </trkpt>
      <trkpt lat="-42.41206275033377" lon="173.683316803357">
        <ele>51</ele>
      </trkpt>
      <trkpt lat="-42.41204653824146" lon="173.683376883464">
        <ele>51</ele>
      </trkpt>
      <trkpt lat="-42.41198836543963" lon="173.683633415983">
        <ele>49</ele>
      </trkpt>
      <trkpt lat="-42.4119034903681" lon="173.683903299638">
        <ele>46</ele>
      </trkpt>
      <trkpt lat="-42.4119034903681" lon="173.684178905207">
        <ele>44</ele>
      </trkpt>
      <trkpt lat="-42.41189776845317" lon="173.684214190349">
        <ele>43</ele>
      </trkpt>
      <trkpt lat="-42.41186820522601" lon="173.684296204463">
        <ele>41</ele>
      </trkpt>
      <trkpt lat="-42.4118691588785" lon="173.684341979783">
        <ele>40</ele>
      </trkpt>
      <trkpt lat="-42.41191684150295" lon="173.684708182338">
        <ele>35</ele>
      </trkpt>
      <trkpt lat="-42.41191398054549" lon="173.684753004005">
        <ele>34</ele>
      </trkpt>
      <trkpt lat="-42.41190444402059" lon="173.684771123403">
        <ele>33</ele>
      </trkpt>
      <trkpt lat="-42.41183482738889" lon="173.684850276559">
        <ele>31</ele>
      </trkpt>
      <trkpt lat="-42.41180240320427" lon="173.684910356666">
        <ele>29</ele>
      </trkpt>
      <trkpt lat="-42.41180240320427" lon="173.684910356666">
        <ele>29</ele>
      </trkpt>
      <trkpt lat="-42.4117652107572" lon="173.684935151631">
        <ele>28</ele>
      </trkpt>
      <trkpt lat="-42.41178428380698" lon="173.684985695213">
        <ele>27</ele>
      </trkpt>
      <trkpt lat="-42.41178428380698" lon="173.684985695213">
        <ele>27</ele>
      </trkpt>
      <trkpt lat="-42.41179668128933" lon="173.684998092695">
        <ele>27</ele>
      </trkpt>
      <trkpt lat="-42.41181003242418" lon="173.685001907305">
        <ele>27</ele>
      </trkpt>
      <trkpt lat="-42.41182242990654" lon="173.684997139043">
        <ele>28</ele>
      </trkpt>
      <trkpt lat="-42.41189872210566" lon="173.684888422659">
        <ele>31</ele>
      </trkpt>
      <trkpt lat="-42.41193114629029" lon="173.684851230212">
        <ele>33</ele>
      </trkpt>
      <trkpt lat="-42.41195498760251" lon="173.684847415602">
        <ele>33</ele>
      </trkpt>
      <trkpt lat="-42.41195498760251" lon="173.684847415602">
        <ele>33</ele>
      </trkpt>
      <trkpt lat="-42.41196166316994" lon="173.684925615106">
        <ele>32</ele>
      </trkpt>
      <trkpt lat="-42.41196166316994" lon="173.684925615106">
        <ele>32</ele>
      </trkpt>
      <trkpt lat="-42.41192351707038" lon="173.685001907305">
        <ele>30</ele>
      </trkpt>
      <trkpt lat="-42.41188441731833" lon="173.685079153157">
        <ele>28</ele>
      </trkpt>
      <trkpt lat="-42.41191016593553" lon="173.685134465001">
        <ele>27</ele>
      </trkpt>
      <trkpt lat="-42.411913026893" lon="173.685181193973">
        <ele>27</ele>
      </trkpt>
      <trkpt lat="-42.41193496090025" lon="173.685216479115">
        <ele>26</ele>
      </trkpt>
      <trkpt lat="-42.41197882891474" lon="173.685250810605">
        <ele>27</ele>
      </trkpt>
      <trkpt lat="-42.41200267022697" lon="173.685290864009">
        <ele>26</ele>
      </trkpt>
      <trkpt lat="-42.41201506770933" lon="173.685329963761">
        <ele>26</ele>
      </trkpt>
      <trkpt lat="-42.41200553118443" lon="173.685368109861">
        <ele>25</ele>
      </trkpt>
      <trkpt lat="-42.41197692160976" lon="173.685401487698">
        <ele>24</ele>
      </trkpt>
      <trkpt lat="-42.41197692160976" lon="173.685401487698">
        <ele>24</ele>
      </trkpt>
      <trkpt lat="-42.41192447072287" lon="173.68541388518">
        <ele>23</ele>
      </trkpt>
      <trkpt lat="-42.41192447072287" lon="173.68541388518">
        <ele>23</ele>
      </trkpt>
      <trkpt lat="-42.41185676139614" lon="173.685400534045">
        <ele>22</ele>
      </trkpt>
      <trkpt lat="-42.41178905206942" lon="173.685388136563">
        <ele>21</ele>
      </trkpt>
      <trkpt lat="-42.41176902536715" lon="173.68539481213">
        <ele>20</ele>
      </trkpt>
      <trkpt lat="-42.41174995231737" lon="173.685414838833">
        <ele>20</ele>
      </trkpt>
      <trkpt lat="-42.4117385084875" lon="173.68545584589">
        <ele>19</ele>
      </trkpt>
      <trkpt lat="-42.41170608430288" lon="173.685522601564">
        <ele>18</ele>
      </trkpt>
      <trkpt lat="-42.41167278295706" lon="173.685589204256">
        <ele>16</ele>
      </trkpt>
      <trkpt lat="-42.41167278293887" lon="173.685589204246">
        <ele>16</ele>
      </trkpt>
      <trkpt lat="-42.41170513065039" lon="173.685615105855">
        <ele>16</ele>
      </trkpt>
      <trkpt lat="-42.41178418844319" lon="173.68568781079">
        <ele>16</ele>
      </trkpt>
      <trkpt lat="-42.4117841884302" lon="173.685687810778">
        <ele>16</ele>
      </trkpt>
      <trkpt lat="-42.4109736791913" lon="173.687619683387">
        <ele>9</ele>
      </trkpt>
      <trkpt lat="-42.41097326324933" lon="173.687620675059">
        <ele>9</ele>
      </trkpt>
      <trkpt lat="-42.41105436297197" lon="173.687682401147">
        <ele>9</ele>
      </trkpt>
      <trkpt lat="-42.41105436260069" lon="173.687682400862">
        <ele>9</ele>
      </trkpt>
      <trkpt lat="-42.41101468624833" lon="173.687771314133">
        <ele>8</ele>
      </trkpt>
      <trkpt lat="-42.41101468624833" lon="173.687771314133">
        <ele>8</ele>
      </trkpt>
      <trkpt lat="-42.41101182529086" lon="173.687775128743">
        <ele>8</ele>
      </trkpt>
      <trkpt lat="-42.41096986458135" lon="173.687839977112">
        <ele>7</ele>
      </trkpt>
      <trkpt lat="-42.41090692351707" lon="173.687894335304">
        <ele>7</ele>
      </trkpt>
      <trkpt lat="-42.41090692351707" lon="173.687894335304">
        <ele>7</ele>
      </trkpt>
      <trkpt lat="-42.41084875071524" lon="173.687825672325">
        <ele>7</ele>
      </trkpt>
      <trkpt lat="-42.41078962426091" lon="173.687757009346">
        <ele>8</ele>
      </trkpt>
      <trkpt lat="-42.41075147816135" lon="173.687720770551">
        <ele>8</ele>
      </trkpt>
      <trkpt lat="-42.41064657638756" lon="173.687662597749">
        <ele>8</ele>
      </trkpt>
      <trkpt lat="-42.41057123784093" lon="173.687591073813">
        <ele>8</ele>
      </trkpt>
      <trkpt lat="-42.4104949456418" lon="173.687520503529">
        <ele>8</ele>
      </trkpt>
      <trkpt lat="-42.4104081632653" lon="173.687461377074">
        <ele>7</ele>
      </trkpt>
      <trkpt lat="-42.41032901010871" lon="173.687397482357">
        <ele>7</ele>
      </trkpt>
      <trkpt lat="-42.41022983024985" lon="173.687298302499">
        <ele>7</ele>
      </trkpt>
      <trkpt lat="-42.41016402822811" lon="173.687249666222">
        <ele>7</ele>
      </trkpt>
      <trkpt lat="-42.41009822620637" lon="173.687201029945">
        <ele>7</ele>
      </trkpt>
      <trkpt lat="-42.41004482166698" lon="173.687154300973">
        <ele>8</ele>
      </trkpt>
      <trkpt lat="-42.40998855617013" lon="173.687098989128">
        <ele>8</ele>
      </trkpt>
      <trkpt lat="-42.40992084684341" lon="173.687017928667">
        <ele>8</ele>
      </trkpt>
      <trkpt lat="-42.40981022315468" lon="173.686925424375">
        <ele>8</ele>
      </trkpt>
      <trkpt lat="-42.40981022315468" lon="173.686925424375">
        <ele>8</ele>
      </trkpt>
      <trkpt lat="-42.40953747854282" lon="173.686700362388">
        <ele>8</ele>
      </trkpt>
      <trkpt lat="-42.40922086591646" lon="173.68649055884">
        <ele>6</ele>
      </trkpt>
      <trkpt lat="-42.40905779134084" lon="173.686335113485">
        <ele>7</ele>
      </trkpt>
      <trkpt lat="-42.40875262254434" lon="173.686115773412">
        <ele>6</ele>
      </trkpt>
      <trkpt lat="-42.40859622353614" lon="173.685985123021">
        <ele>6</ele>
      </trkpt>
      <trkpt lat="-42.40822906732786" lon="173.685707610147">
        <ele>6</ele>
      </trkpt>
      <trkpt lat="-42.40822906732786" lon="173.685707610147">
        <ele>6</ele>
      </trkpt>
      <trkpt lat="-42.40781995041007" lon="173.685391951173">
        <ele>7</ele>
      </trkpt>
      <trkpt lat="-42.40751573526607" lon="173.685120160214">
        <ele>8</ele>
      </trkpt>
      <trkpt lat="-42.40684531756627" lon="173.684611863437">
        <ele>8</ele>
      </trkpt>
      <trkpt lat="-42.40682052260156" lon="173.684489795918">
        <ele>9</ele>
      </trkpt>
      <trkpt lat="-42.40682052260156" lon="173.684489795918">
        <ele>9</ele>
      </trkpt>
      <trkpt lat="-42.40671466717528" lon="173.684444974251">
        <ele>9</ele>
      </trkpt>
      <trkpt lat="-42.40661167270646" lon="173.684416364677">
        <ele>9</ele>
      </trkpt>
      <trkpt lat="-42.40577531947358" lon="173.684223726874">
        <ele>9</ele>
      </trkpt>
      <trkpt lat="-42.40504261948875" lon="173.684150633005">
        <ele>11</ele>
      </trkpt>
      <trkpt lat="-42.40504261973794" lon="173.684150633024">
        <ele>11</ele>
      </trkpt>
      <trkpt lat="-42.40498378790768" lon="173.684218004959">
        <ele>10</ele>
      </trkpt>
      <trkpt lat="-42.40492370780088" lon="173.684285714286">
        <ele>10</ele>
      </trkpt>
      <trkpt lat="-42.40465763875643" lon="173.684461186344">
        <ele>8</ele>
      </trkpt>
      <trkpt lat="-42.40455941255006" lon="173.684519359146">
        <ele>7</ele>
      </trkpt>
      <trkpt lat="-42.4044611863437" lon="173.6845784856">
        <ele>7</ele>
      </trkpt>
      <trkpt lat="-42.4044259012016" lon="173.684588975777">
        <ele>7</ele>
      </trkpt>
      <trkpt lat="-42.40434674804501" lon="173.68458611482">
        <ele>7</ele>
      </trkpt>
      <trkpt lat="-42.40425996566851" lon="173.684554644288">
        <ele>7</ele>
      </trkpt>
      <trkpt lat="-42.40421037573908" lon="173.684524127408">
        <ele>7</ele>
      </trkpt>
      <trkpt lat="-42.40417985885943" lon="173.684498378791">
        <ele>7</ele>
      </trkpt>
      <trkpt lat="-42.40414838832729" lon="173.684460232691">
        <ele>7</ele>
      </trkpt>
      <trkpt lat="-42.40409307648292" lon="173.684373450315">
        <ele>8</ele>
      </trkpt>
      <trkpt lat="-42.40403776463856" lon="173.684287621591">
        <ele>9</ele>
      </trkpt>
      <trkpt lat="-42.40403776463856" lon="173.684287621591">
        <ele>9</ele>
      </trkpt>
      <trkpt lat="-42.40395002860957" lon="173.684217051306">
        <ele>9</ele>
      </trkpt>
      <trkpt lat="-42.40389090215525" lon="173.684177951554">
        <ele>9</ele>
      </trkpt>
      <trkpt lat="-42.40385943162311" lon="173.684140759107">
        <ele>9</ele>
      </trkpt>
      <trkpt lat="-42.40380125882128" lon="173.684053023078">
        <ele>10</ele>
      </trkpt>
      <trkpt lat="-42.40377837116154" lon="173.684038718291">
        <ele>10</ele>
      </trkpt>
      <trkpt lat="-42.4036610719054" lon="173.683999618539">
        <ele>10</ele>
      </trkpt>
      <trkpt lat="-42.40354186534427" lon="173.683949074957">
        <ele>10</ele>
      </trkpt>
      <trkpt lat="-42.40342170513065" lon="173.683899485028">
        <ele>10</ele>
      </trkpt>
      <trkpt lat="-42.40334445927903" lon="173.683856570666">
        <ele>10</ele>
      </trkpt>
      <trkpt lat="-42.40326625977494" lon="173.683814609956">
        <ele>10</ele>
      </trkpt>
      <trkpt lat="-42.40320904062559" lon="173.683773602899">
        <ele>10</ele>
      </trkpt>
      <trkpt lat="-42.40320904062559" lon="173.683773602899">
        <ele>10</ele>
      </trkpt>
      <trkpt lat="-42.40315086782376" lon="173.683744039672">
        <ele>9</ele>
      </trkpt>
      <trkpt lat="-42.40294011062368" lon="173.683465573145">
        <ele>10</ele>
      </trkpt>
    </trkseg>
  </trk>
</gpx>