<?xml version="1.0" encoding="UTF-8" standalone="yes"?>
<gpx
 version="1.1"
 creator="Generated by MapOut iPhone App. See https://mapout.app"
 xmlns="http://www.topografix.com/GPX/1/1"
 xmlns:xsi="http://www.w3.org/2001/XMLSchema-instance"
 xmlns:gpxx="http://www.garmin.com/xmlschemas/GpxExtensions/v3"
 xmlns:mapout="https://mapout.app/xmlschemas/MapOutExtensions"
 xsi:schemaLocation="http://www.topografix.com/GPX/1/1 https://www.topografix.com/GPX/1/1/gpx.xsd http://www.garmin.com/xmlschemas/GpxExtensions/v3 https://www8.garmin.com/xmlschemas/GpxExtensionsv3.xsd https://mapout.app/xmlschemas/MapOutExtensions https://mapout.app/xmlschemas/MapOutExtensions.xsd">
  <metadata>
    <name>Eskdale and Kauri Glen</name>
    <author><name>iPhone</name></author>
    <time>2026-03-04T20:22:50Z</time>
    <bounds minlat="-36.80891855807744" minlon="174.705442274622" maxlat="-36.79080297539576" maxlon="174.758700171657"/>
  </metadata>
  <trk>
    <name>Eskdale and Kauri Glen</name>
    <trkseg>
      <trkpt lat="-36.79271848042321" lon="174.706941506748">
        <ele>23</ele>
      </trkpt>
      <trkpt lat="-36.79248235742895" lon="174.706844363914">
        <ele>21</ele>
      </trkpt>
      <trkpt lat="-36.79242990654205" lon="174.706810032424">
        <ele>21</ele>
      </trkpt>
      <trkpt lat="-36.7923736410452" lon="174.706757581537">
        <ele>21</ele>
      </trkpt>
      <trkpt lat="-36.79233168033569" lon="174.706706084303">
        <ele>21</ele>
      </trkpt>
      <trkpt lat="-36.79186534426855" lon="174.705853518978">
        <ele>19</ele>
      </trkpt>
      <trkpt lat="-36.79164119897261" lon="174.705442274622">
        <ele>20</ele>
      </trkpt>
      <trkpt lat="-36.79164119989163" lon="174.705442276311">
        <ele>20</ele>
      </trkpt>
      <trkpt lat="-36.79156303642952" lon="174.705510204082">
        <ele>19</ele>
      </trkpt>
      <trkpt lat="-36.79156303642952" lon="174.705510204082">
        <ele>19</ele>
      </trkpt>
      <trkpt lat="-36.79116059507916" lon="174.705842075148">
        <ele>18</ele>
      </trkpt>
      <trkpt lat="-36.79116059507916" lon="174.705842075148">
        <ele>18</ele>
      </trkpt>
      <trkpt lat="-36.79108811748998" lon="174.705917413694">
        <ele>18</ele>
      </trkpt>
      <trkpt lat="-36.7910080106809" lon="174.70608811749">
        <ele>17</ele>
      </trkpt>
      <trkpt lat="-36.79091455273698" lon="174.706386610719">
        <ele>17</ele>
      </trkpt>
      <trkpt lat="-36.79089643333969" lon="174.70649055884">
        <ele>17</ele>
      </trkpt>
      <trkpt lat="-36.79089452603471" lon="174.706679382033">
        <ele>17</ele>
      </trkpt>
      <trkpt lat="-36.79089452603471" lon="174.706679382033">
        <ele>17</ele>
      </trkpt>
      <trkpt lat="-36.79085351897768" lon="174.706787144764">
        <ele>19</ele>
      </trkpt>
      <trkpt lat="-36.79081155826817" lon="174.706894907496">
        <ele>21</ele>
      </trkpt>
      <trkpt lat="-36.79081155826817" lon="174.706894907496">
        <ele>21</ele>
      </trkpt>
      <trkpt lat="-36.79080297539576" lon="174.706920656113">
        <ele>21</ele>
      </trkpt>
      <trkpt lat="-36.79080297539576" lon="174.706920656113">
        <ele>21</ele>
      </trkpt>
      <trkpt lat="-36.79087163837497" lon="174.707000762922">
        <ele>22</ele>
      </trkpt>
      <trkpt lat="-36.79094697692161" lon="174.707037001717">
        <ele>22</ele>
      </trkpt>
      <trkpt lat="-36.79102708373069" lon="174.707019835972">
        <ele>21</ele>
      </trkpt>
      <trkpt lat="-36.79107953461759" lon="174.707045584589">
        <ele>21</ele>
      </trkpt>
      <trkpt lat="-36.79117013160404" lon="174.707155254625">
        <ele>22</ele>
      </trkpt>
      <trkpt lat="-36.79124260919321" lon="174.707215334732">
        <ele>21</ele>
      </trkpt>
      <trkpt lat="-36.79131413312989" lon="174.707276368491">
        <ele>21</ele>
      </trkpt>
      <trkpt lat="-36.79146862483311" lon="174.707572954415">
        <ele>21</ele>
      </trkpt>
      <trkpt lat="-36.79156875834446" lon="174.707658783139">
        <ele>21</ele>
      </trkpt>
      <trkpt lat="-36.79161548731642" lon="174.707735075339">
        <ele>22</ele>
      </trkpt>
      <trkpt lat="-36.79166221628839" lon="174.707811367538">
        <ele>23</ele>
      </trkpt>
      <trkpt lat="-36.79172420370017" lon="174.707882891474">
        <ele>24</ele>
      </trkpt>
      <trkpt lat="-36.79176616440969" lon="174.707890520694">
        <ele>24</ele>
      </trkpt>
      <trkpt lat="-36.79181670799161" lon="174.707962998283">
        <ele>25</ele>
      </trkpt>
      <trkpt lat="-36.79186725157353" lon="174.708036429525">
        <ele>25</ele>
      </trkpt>
      <trkpt lat="-36.79197978256723" lon="174.708142284951">
        <ele>26</ele>
      </trkpt>
      <trkpt lat="-36.79200648483693" lon="174.708200457753">
        <ele>26</ele>
      </trkpt>
      <trkpt lat="-36.7920961281709" lon="174.708277703605">
        <ele>25</ele>
      </trkpt>
      <trkpt lat="-36.79218481785237" lon="174.708337783712">
        <ele>24</ele>
      </trkpt>
      <trkpt lat="-36.79225729544154" lon="174.708441731833">
        <ele>25</ele>
      </trkpt>
      <trkpt lat="-36.79228495136372" lon="174.708500858287">
        <ele>25</ele>
      </trkpt>
      <trkpt lat="-36.79237268739271" lon="174.708545679954">
        <ele>24</ele>
      </trkpt>
      <trkpt lat="-36.79246328437917" lon="174.708601945451">
        <ele>23</ele>
      </trkpt>
      <trkpt lat="-36.7925481594507" lon="174.708690635133">
        <ele>24</ele>
      </trkpt>
      <trkpt lat="-36.79262063703986" lon="174.708732595842">
        <ele>24</ele>
      </trkpt>
      <trkpt lat="-36.79269311462903" lon="174.708774556552">
        <ele>24</ele>
      </trkpt>
      <trkpt lat="-36.79269692923899" lon="174.708830822048">
        <ele>25</ele>
      </trkpt>
      <trkpt lat="-36.79272077055121" lon="174.708901392333">
        <ele>26</ele>
      </trkpt>
      <trkpt lat="-36.79279610909784" lon="174.708963379744">
        <ele>26</ele>
      </trkpt>
      <trkpt lat="-36.79283806980736" lon="174.709030135419">
        <ele>26</ele>
      </trkpt>
      <trkpt lat="-36.79297634941827" lon="174.70936009918">
        <ele>28</ele>
      </trkpt>
      <trkpt lat="-36.79302403204272" lon="174.709440205989">
        <ele>29</ele>
      </trkpt>
      <trkpt lat="-36.7931041388518" lon="174.709492656876">
        <ele>28</ele>
      </trkpt>
      <trkpt lat="-36.79318329200839" lon="174.709527942018">
        <ele>27</ele>
      </trkpt>
      <trkpt lat="-36.79326244516498" lon="174.70956322716">
        <ele>26</ele>
      </trkpt>
      <trkpt lat="-36.7933654396338" lon="174.709636658402">
        <ele>26</ele>
      </trkpt>
      <trkpt lat="-36.79346748045013" lon="174.709742513828">
        <ele>26</ele>
      </trkpt>
      <trkpt lat="-36.79356284569903" lon="174.709787335495">
        <ele>26</ele>
      </trkpt>
      <trkpt lat="-36.79365725729544" lon="174.709832157162">
        <ele>26</ele>
      </trkpt>
      <trkpt lat="-36.7936782376502" lon="174.709911310318">
        <ele>26</ele>
      </trkpt>
      <trkpt lat="-36.79369826435247" lon="174.709991417128">
        <ele>26</ele>
      </trkpt>
      <trkpt lat="-36.79377932481404" lon="174.710101087164">
        <ele>26</ele>
      </trkpt>
      <trkpt lat="-36.7938174709136" lon="174.710219340072">
        <ele>27</ele>
      </trkpt>
      <trkpt lat="-36.79385466336067" lon="174.710337592981">
        <ele>28</ele>
      </trkpt>
      <trkpt lat="-36.79386801449552" lon="174.71040625596">
        <ele>29</ele>
      </trkpt>
      <trkpt lat="-36.79388041197787" lon="174.710475872592">
        <ele>29</ele>
      </trkpt>
      <trkpt lat="-36.79388041197787" lon="174.710475872592">
        <ele>29</ele>
      </trkpt>
      <trkpt lat="-36.79392904825482" lon="174.710554072096">
        <ele>29</ele>
      </trkpt>
      <trkpt lat="-36.79400152584398" lon="174.710590310891">
        <ele>28</ele>
      </trkpt>
      <trkpt lat="-36.79408353995804" lon="174.710671371352">
        <ele>27</ele>
      </trkpt>
      <trkpt lat="-36.79426378027846" lon="174.71104234217">
        <ele>29</ele>
      </trkpt>
      <trkpt lat="-36.79433721152012" lon="174.711130078199">
        <ele>29</ele>
      </trkpt>
      <trkpt lat="-36.79440968910929" lon="174.711217814228">
        <ele>29</ele>
      </trkpt>
      <trkpt lat="-36.79440968910929" lon="174.711217814228">
        <ele>29</ele>
      </trkpt>
      <trkpt lat="-36.79456608811749" lon="174.711456227351">
        <ele>28</ele>
      </trkpt>
      <trkpt lat="-36.79463093648674" lon="174.711599275224">
        <ele>28</ele>
      </trkpt>
      <trkpt lat="-36.79467098989128" lon="174.711793820332">
        <ele>28</ele>
      </trkpt>
      <trkpt lat="-36.79466622162884" lon="174.711999809269">
        <ele>29</ele>
      </trkpt>
      <trkpt lat="-36.79459755864963" lon="174.712198168987">
        <ele>31</ele>
      </trkpt>
      <trkpt lat="-36.79463665840168" lon="174.71259012016">
        <ele>33</ele>
      </trkpt>
      <trkpt lat="-36.79458134655732" lon="174.712912454701">
        <ele>35</ele>
      </trkpt>
      <trkpt lat="-36.79460804882701" lon="174.713412168606">
        <ele>36</ele>
      </trkpt>
      <trkpt lat="-36.7945823002098" lon="174.713649628076">
        <ele>37</ele>
      </trkpt>
      <trkpt lat="-36.7945823002098" lon="174.713649628076">
        <ele>37</ele>
      </trkpt>
      <trkpt lat="-36.79456990272745" lon="174.713729734885">
        <ele>37</ele>
      </trkpt>
      <trkpt lat="-36.7945565515926" lon="174.713810795346">
        <ele>38</ele>
      </trkpt>
      <trkpt lat="-36.7945565515926" lon="174.713810795346">
        <ele>38</ele>
      </trkpt>
      <trkpt lat="-36.79454606141522" lon="174.713983406447">
        <ele>38</ele>
      </trkpt>
      <trkpt lat="-36.794565134465" lon="174.714096891093">
        <ele>38</ele>
      </trkpt>
      <trkpt lat="-36.79462902918176" lon="174.714243753576">
        <ele>38</ele>
      </trkpt>
      <trkpt lat="-36.79466049971391" lon="174.71459374404">
        <ele>38</ele>
      </trkpt>
      <trkpt lat="-36.79466049971391" lon="174.71459374404">
        <ele>38</ele>
      </trkpt>
      <trkpt lat="-36.79470722868587" lon="174.714668128934">
        <ele>38</ele>
      </trkpt>
      <trkpt lat="-36.79470722868587" lon="174.714668128934">
        <ele>38</ele>
      </trkpt>
      <trkpt lat="-36.79476254053023" lon="174.714704367728">
        <ele>38</ele>
      </trkpt>
      <trkpt lat="-36.79483024985695" lon="174.714724394431">
        <ele>37</ele>
      </trkpt>
      <trkpt lat="-36.79486362769407" lon="174.714818806027">
        <ele>38</ele>
      </trkpt>
      <trkpt lat="-36.7949561319855" lon="174.714924661453">
        <ele>37</ele>
      </trkpt>
      <trkpt lat="-36.79501144382986" lon="174.714994278085">
        <ele>38</ele>
      </trkpt>
      <trkpt lat="-36.79506675567423" lon="174.715064848369">
        <ele>38</ele>
      </trkpt>
      <trkpt lat="-36.79514400152584" lon="174.715092504291">
        <ele>39</ele>
      </trkpt>
      <trkpt lat="-36.79518691588785" lon="174.715194545108">
        <ele>40</ele>
      </trkpt>
      <trkpt lat="-36.79524318138471" lon="174.715259393477">
        <ele>40</ele>
      </trkpt>
      <trkpt lat="-36.79529849322907" lon="174.715325195499">
        <ele>41</ele>
      </trkpt>
      <trkpt lat="-36.79530993705893" lon="174.715433911882">
        <ele>41</ele>
      </trkpt>
      <trkpt lat="-36.7953213808888" lon="174.715542628266">
        <ele>42</ele>
      </trkpt>
      <trkpt lat="-36.79531184436392" lon="174.715612244898">
        <ele>42</ele>
      </trkpt>
      <trkpt lat="-36.79530230783902" lon="174.715682815182">
        <ele>42</ele>
      </trkpt>
      <trkpt lat="-36.79526606904444" lon="174.715740034331">
        <ele>42</ele>
      </trkpt>
      <trkpt lat="-36.79526606904444" lon="174.715740034331">
        <ele>42</ele>
      </trkpt>
      <trkpt lat="-36.79527274461186" lon="174.715853518978">
        <ele>43</ele>
      </trkpt>
      <trkpt lat="-36.79530326149151" lon="174.715941255007">
        <ele>43</ele>
      </trkpt>
      <trkpt lat="-36.79530326149151" lon="174.715941255007">
        <ele>43</ele>
      </trkpt>
      <trkpt lat="-36.79531375166889" lon="174.715998474156">
        <ele>44</ele>
      </trkpt>
      <trkpt lat="-36.79539195117299" lon="174.716111958802">
        <ele>44</ele>
      </trkpt>
      <trkpt lat="-36.79547873354949" lon="174.716221628838">
        <ele>45</ele>
      </trkpt>
      <trkpt lat="-36.79551497234408" lon="174.716467671181">
        <ele>45</ele>
      </trkpt>
      <trkpt lat="-36.79560461567804" lon="174.716634560366">
        <ele>45</ele>
      </trkpt>
      <trkpt lat="-36.79565992752241" lon="174.716889185581">
        <ele>45</ele>
      </trkpt>
      <trkpt lat="-36.79567137135228" lon="174.717042723631">
        <ele>45</ele>
      </trkpt>
      <trkpt lat="-36.79567137135228" lon="174.717042723631">
        <ele>45</ele>
      </trkpt>
      <trkpt lat="-36.79571905397673" lon="174.717151440015">
        <ele>45</ele>
      </trkpt>
      <trkpt lat="-36.79581251192066" lon="174.717265878314">
        <ele>44</ele>
      </trkpt>
      <trkpt lat="-36.79590120160213" lon="174.717322143811">
        <ele>45</ele>
      </trkpt>
      <trkpt lat="-36.79590120160213" lon="174.717322143811">
        <ele>45</ele>
      </trkpt>
      <trkpt lat="-36.79601563990082" lon="174.717424184627">
        <ele>46</ele>
      </trkpt>
      <trkpt lat="-36.79601563990082" lon="174.717424184627">
        <ele>46</ele>
      </trkpt>
      <trkpt lat="-36.79612435628457" lon="174.717536715621">
        <ele>47</ele>
      </trkpt>
      <trkpt lat="-36.79612435628457" lon="174.717536715621">
        <ele>47</ele>
      </trkpt>
      <trkpt lat="-36.79616369153579" lon="174.71790152488">
        <ele>47</ele>
      </trkpt>
      <trkpt lat="-36.79616369153579" lon="174.71790152488">
        <ele>47</ele>
      </trkpt>
      <trkpt lat="-36.79618729734884" lon="174.718083158497">
        <ele>48</ele>
      </trkpt>
      <trkpt lat="-36.79625500667557" lon="174.718395956513">
        <ele>49</ele>
      </trkpt>
      <trkpt lat="-36.79621972153348" lon="174.718676330345">
        <ele>50</ele>
      </trkpt>
      <trkpt lat="-36.79621972153348" lon="174.718676330345">
        <ele>50</ele>
      </trkpt>
      <trkpt lat="-36.79620923135609" lon="174.718738317757">
        <ele>50</ele>
      </trkpt>
      <trkpt lat="-36.79619874117871" lon="174.718800305169">
        <ele>50</ele>
      </trkpt>
      <trkpt lat="-36.79619874117871" lon="174.718800305169">
        <ele>50</ele>
      </trkpt>
      <trkpt lat="-36.79617680717146" lon="174.718925233645">
        <ele>50</ele>
      </trkpt>
      <trkpt lat="-36.79627121876788" lon="174.719086400915">
        <ele>52</ele>
      </trkpt>
      <trkpt lat="-36.79638947167652" lon="174.719237078009">
        <ele>53</ele>
      </trkpt>
      <trkpt lat="-36.79642189586114" lon="174.719468815564">
        <ele>55</ele>
      </trkpt>
      <trkpt lat="-36.7964171275987" lon="174.719672897196">
        <ele>57</ele>
      </trkpt>
      <trkpt lat="-36.79648865153538" lon="174.71975872592">
        <ele>58</ele>
      </trkpt>
      <trkpt lat="-36.79661262635896" lon="174.719822620637">
        <ele>59</ele>
      </trkpt>
      <trkpt lat="-36.79668224299066" lon="174.719881747091">
        <ele>60</ele>
      </trkpt>
      <trkpt lat="-36.79668224299066" lon="174.719881747091">
        <ele>60</ele>
      </trkpt>
      <trkpt lat="-36.79675281327484" lon="174.719940873546">
        <ele>61</ele>
      </trkpt>
      <trkpt lat="-36.79675281327484" lon="174.719940873546">
        <ele>61</ele>
      </trkpt>
      <trkpt lat="-36.79680907877169" lon="174.72">
        <ele>62</ele>
      </trkpt>
      <trkpt lat="-36.79680907877169" lon="174.72">
        <ele>62</ele>
      </trkpt>
      <trkpt lat="-36.79687201983597" lon="174.720065802022">
        <ele>63</ele>
      </trkpt>
      <trkpt lat="-36.79693496090024" lon="174.720131604044">
        <ele>64</ele>
      </trkpt>
      <trkpt lat="-36.79703318710662" lon="174.720139233263">
        <ele>66</ele>
      </trkpt>
      <trkpt lat="-36.7971304596605" lon="174.720146862483">
        <ele>67</ele>
      </trkpt>
      <trkpt lat="-36.79719912263971" lon="174.720258439825">
        <ele>69</ele>
      </trkpt>
      <trkpt lat="-36.79711901583063" lon="174.720299446882">
        <ele>68</ele>
      </trkpt>
      <trkpt lat="-36.79702460423422" lon="174.720289910357">
        <ele>67</ele>
      </trkpt>
      <trkpt lat="-36.79702460423422" lon="174.720289910357">
        <ele>67</ele>
      </trkpt>
      <trkpt lat="-36.79698645813465" lon="174.720336639329">
        <ele>67</ele>
      </trkpt>
      <trkpt lat="-36.79698645813465" lon="174.720336639329">
        <ele>67</ele>
      </trkpt>
      <trkpt lat="-36.79698168987221" lon="174.720342361244">
        <ele>67</ele>
      </trkpt>
      <trkpt lat="-36.79702460423422" lon="174.720363341598">
        <ele>67</ele>
      </trkpt>
      <trkpt lat="-36.79706847224871" lon="174.720395765783">
        <ele>68</ele>
      </trkpt>
      <trkpt lat="-36.79702555788671" lon="174.72043677284">
        <ele>68</ele>
      </trkpt>
      <trkpt lat="-36.79704463093648" lon="174.720498760252">
        <ele>69</ele>
      </trkpt>
      <trkpt lat="-36.79706370398627" lon="174.720560747664">
        <ele>69</ele>
      </trkpt>
      <trkpt lat="-36.79712664505054" lon="174.720614152203">
        <ele>71</ele>
      </trkpt>
      <trkpt lat="-36.79722296395194" lon="174.720709517452">
        <ele>72</ele>
      </trkpt>
      <trkpt lat="-36.79730307076101" lon="174.720805836353">
        <ele>74</ele>
      </trkpt>
      <trkpt lat="-36.7973822239176" lon="174.720903108907">
        <ele>76</ele>
      </trkpt>
      <trkpt lat="-36.79740320427236" lon="174.720989891284">
        <ele>77</ele>
      </trkpt>
      <trkpt lat="-36.79742323097463" lon="174.721077627313">
        <ele>78</ele>
      </trkpt>
      <trkpt lat="-36.79747186725157" lon="174.721153919512">
        <ele>79</ele>
      </trkpt>
      <trkpt lat="-36.79752050352851" lon="174.721231165363">
        <ele>81</ele>
      </trkpt>
      <trkpt lat="-36.79773221438108" lon="174.721610719054">
        <ele>86</ele>
      </trkpt>
      <trkpt lat="-36.79776177760824" lon="174.721671752813">
        <ele>87</ele>
      </trkpt>
      <trkpt lat="-36.7977913408354" lon="174.721732786573">
        <ele>88</ele>
      </trkpt>
      <trkpt lat="-36.79778180431051" lon="174.721826244517">
        <ele>88</ele>
      </trkpt>
      <trkpt lat="-36.797782757963" lon="174.721937821858">
        <ele>89</ele>
      </trkpt>
      <trkpt lat="-36.79781136753767" lon="174.722023650582">
        <ele>90</ele>
      </trkpt>
      <trkpt lat="-36.79789910356666" lon="174.722019835972">
        <ele>90</ele>
      </trkpt>
      <trkpt lat="-36.79794256183952" lon="174.722083129046">
        <ele>91</ele>
      </trkpt>
      <trkpt lat="-36.79794256183952" lon="174.722083129046">
        <ele>91</ele>
      </trkpt>
      <trkpt lat="-36.79794570195272" lon="174.722087702339">
        <ele>91</ele>
      </trkpt>
      <trkpt lat="-36.7979457020248" lon="174.722087702422">
        <ele>91</ele>
      </trkpt>
      <trkpt lat="-36.79784760633225" lon="174.722205798207">
        <ele>91</ele>
      </trkpt>
      <trkpt lat="-36.79779515544536" lon="174.722282090406">
        <ele>91</ele>
      </trkpt>
      <trkpt lat="-36.79779515544536" lon="174.722282090406">
        <ele>91</ele>
      </trkpt>
      <trkpt lat="-36.79768167079916" lon="174.722376502003">
        <ele>91</ele>
      </trkpt>
      <trkpt lat="-36.79768167079916" lon="174.722376502003">
        <ele>91</ele>
      </trkpt>
      <trkpt lat="-36.79774079725348" lon="174.722477589167">
        <ele>92</ele>
      </trkpt>
      <trkpt lat="-36.79783234789242" lon="174.722551020408">
        <ele>93</ele>
      </trkpt>
      <trkpt lat="-36.79786477207706" lon="174.722596795728">
        <ele>93</ele>
      </trkpt>
      <trkpt lat="-36.79794106427617" lon="174.722644478352">
        <ele>94</ele>
      </trkpt>
      <trkpt lat="-36.7980173564753" lon="174.722692160977">
        <ele>94</ele>
      </trkpt>
      <trkpt lat="-36.79812416555407" lon="174.722737936296">
        <ele>95</ele>
      </trkpt>
      <trkpt lat="-36.79813830750921" lon="174.72273729348">
        <ele>95</ele>
      </trkpt>
      <trkpt lat="-36.79813830750921" lon="174.72273729348">
        <ele>95</ele>
      </trkpt>
      <trkpt lat="-36.79818710661835" lon="174.722735075339">
        <ele>95</ele>
      </trkpt>
      <trkpt lat="-36.79818710661835" lon="174.722735075339">
        <ele>95</ele>
      </trkpt>
      <trkpt lat="-36.79818043105092" lon="174.722754148388">
        <ele>95</ele>
      </trkpt>
      <trkpt lat="-36.79818996757582" lon="174.722792294488">
        <ele>95</ele>
      </trkpt>
      <trkpt lat="-36.79820617966813" lon="174.722815182148">
        <ele>95</ele>
      </trkpt>
      <trkpt lat="-36.79822732921414" lon="174.72283513455">
        <ele>95</ele>
      </trkpt>
      <trkpt lat="-36.79822732921414" lon="174.72283513455">
        <ele>95</ele>
      </trkpt>
      <trkpt lat="-36.79824059675014" lon="174.722847651093">
        <ele>95</ele>
      </trkpt>
      <trkpt lat="-36.79824059675014" lon="174.722847651093">
        <ele>95</ele>
      </trkpt>
      <trkpt lat="-36.79825672325005" lon="174.722862864772">
        <ele>95</ele>
      </trkpt>
      <trkpt lat="-36.79825672325005" lon="174.722862864772">
        <ele>95</ele>
      </trkpt>
      <trkpt lat="-36.79832729353424" lon="174.722960137326">
        <ele>96</ele>
      </trkpt>
      <trkpt lat="-36.7983654396338" lon="174.722986839596">
        <ele>96</ele>
      </trkpt>
      <trkpt lat="-36.79837879076864" lon="174.723003051688">
        <ele>96</ele>
      </trkpt>
      <trkpt lat="-36.79840263208087" lon="174.723013541865">
        <ele>96</ele>
      </trkpt>
      <trkpt lat="-36.79840263208087" lon="174.723013541865">
        <ele>96</ele>
      </trkpt>
      <trkpt lat="-36.79868968148007" lon="174.723118443639">
        <ele>96</ele>
      </trkpt>
      <trkpt lat="-36.79874594697692" lon="174.723160404349">
        <ele>96</ele>
      </trkpt>
      <trkpt lat="-36.79890329963761" lon="174.723218577151">
        <ele>95</ele>
      </trkpt>
      <trkpt lat="-36.79890329963761" lon="174.723218577151">
        <ele>95</ele>
      </trkpt>
      <trkpt lat="-36.79887945832539" lon="174.723325386229">
        <ele>95</ele>
      </trkpt>
      <trkpt lat="-36.79885561701316" lon="174.723432195308">
        <ele>95</ele>
      </trkpt>
      <trkpt lat="-36.79889672533374" lon="174.723455552308">
        <ele>95</ele>
      </trkpt>
      <trkpt lat="-36.7988967253583" lon="174.72345555228">
        <ele>95</ele>
      </trkpt>
      <trkpt lat="-36.79887755102041" lon="174.723479877933">
        <ele>95</ele>
      </trkpt>
      <trkpt lat="-36.79883940492085" lon="174.723545679954">
        <ele>94</ele>
      </trkpt>
      <trkpt lat="-36.79882510013351" lon="174.723612435628">
        <ele>94</ele>
      </trkpt>
      <trkpt lat="-36.79880984169369" lon="174.723679191303">
        <ele>93</ele>
      </trkpt>
      <trkpt lat="-36.79880984169369" lon="174.723679191303">
        <ele>93</ele>
      </trkpt>
      <trkpt lat="-36.79922468052641" lon="174.723819378219">
        <ele>92</ele>
      </trkpt>
      <trkpt lat="-36.79970150677093" lon="174.724014876979">
        <ele>90</ele>
      </trkpt>
      <trkpt lat="-36.8" lon="174.72413026893">
        <ele>89</ele>
      </trkpt>
      <trkpt lat="-36.8" lon="174.72413026893">
        <ele>89</ele>
      </trkpt>
      <trkpt lat="-36.80153633415983" lon="174.724716765211">
        <ele>87</ele>
      </trkpt>
      <trkpt lat="-36.80176902536716" lon="174.724794964715">
        <ele>89</ele>
      </trkpt>
      <trkpt lat="-36.8025996566851" lon="174.725102040816">
        <ele>91</ele>
      </trkpt>
      <trkpt lat="-36.80280183101278" lon="174.725171657448">
        <ele>92</ele>
      </trkpt>
      <trkpt lat="-36.80296204463094" lon="174.725207896243">
        <ele>92</ele>
      </trkpt>
      <trkpt lat="-36.8031565897387" lon="174.725238413122">
        <ele>92</ele>
      </trkpt>
      <trkpt lat="-36.80333711392957" lon="174.725247439332">
        <ele>93</ele>
      </trkpt>
      <trkpt lat="-36.80333711401182" lon="174.725247439336">
        <ele>93</ele>
      </trkpt>
      <trkpt lat="-36.80339786381843" lon="174.725282281137">
        <ele>92</ele>
      </trkpt>
      <trkpt lat="-36.80346271218768" lon="174.725320427236">
        <ele>91</ele>
      </trkpt>
      <trkpt lat="-36.80349227541484" lon="174.725346175854">
        <ele>91</ele>
      </trkpt>
      <trkpt lat="-36.80351802403204" lon="174.725376692733">
        <ele>91</ele>
      </trkpt>
      <trkpt lat="-36.80354854091169" lon="174.725460614152">
        <ele>91</ele>
      </trkpt>
      <trkpt lat="-36.80355050457859" lon="174.725466014144">
        <ele>91</ele>
      </trkpt>
      <trkpt lat="-36.80349418271982" lon="174.725724775892">
        <ele>92</ele>
      </trkpt>
      <trkpt lat="-36.80318460266939" lon="174.727050972695">
        <ele>85</ele>
      </trkpt>
      <trkpt lat="-36.80318460266939" lon="174.727050972695">
        <ele>85</ele>
      </trkpt>
      <trkpt lat="-36.803385103987" lon="174.727015408354">
        <ele>85</ele>
      </trkpt>
      <trkpt lat="-36.803385103987" lon="174.727015408354">
        <ele>85</ele>
      </trkpt>
      <trkpt lat="-36.80364009155064" lon="174.72714190349">
        <ele>83</ele>
      </trkpt>
      <trkpt lat="-36.80417604424948" lon="174.727488079344">
        <ele>78</ele>
      </trkpt>
      <trkpt lat="-36.80417604424948" lon="174.727488079344">
        <ele>78</ele>
      </trkpt>
      <trkpt lat="-36.80425371045108" lon="174.727539544899">
        <ele>77</ele>
      </trkpt>
      <trkpt lat="-36.80425371055451" lon="174.727539544681">
        <ele>77</ele>
      </trkpt>
      <trkpt lat="-36.80423421705131" lon="174.727580583635">
        <ele>77</ele>
      </trkpt>
      <trkpt lat="-36.80397291626932" lon="174.727886706084">
        <ele>77</ele>
      </trkpt>
      <trkpt lat="-36.80394716765211" lon="174.727922944879">
        <ele>77</ele>
      </trkpt>
      <trkpt lat="-36.80393477016975" lon="174.727955369064">
        <ele>77</ele>
      </trkpt>
      <trkpt lat="-36.80370112530994" lon="174.729142666412">
        <ele>75</ele>
      </trkpt>
      <trkpt lat="-36.8035571237841" lon="174.72978542819">
        <ele>74</ele>
      </trkpt>
      <trkpt lat="-36.80355617013161" lon="174.729814037765">
        <ele>74</ele>
      </trkpt>
      <trkpt lat="-36.80355617013161" lon="174.729814037765">
        <ele>74</ele>
      </trkpt>
      <trkpt lat="-36.80351520330208" lon="174.729811565628">
        <ele>74</ele>
      </trkpt>
      <trkpt lat="-36.80351520320784" lon="174.729811566091">
        <ele>74</ele>
      </trkpt>
      <trkpt lat="-36.80349513637231" lon="174.729910356666">
        <ele>74</ele>
      </trkpt>
      <trkpt lat="-36.80349513637231" lon="174.729910356666">
        <ele>74</ele>
      </trkpt>
      <trkpt lat="-36.80351117071591" lon="174.729911384299">
        <ele>74</ele>
      </trkpt>
      <trkpt lat="-36.80351117071591" lon="174.729911384299">
        <ele>74</ele>
      </trkpt>
      <trkpt lat="-36.80443257676903" lon="174.729970436773">
        <ele>72</ele>
      </trkpt>
      <trkpt lat="-36.80450886896815" lon="174.730000953653">
        <ele>71</ele>
      </trkpt>
      <trkpt lat="-36.80454320045776" lon="174.730028609575">
        <ele>71</ele>
      </trkpt>
      <trkpt lat="-36.80456990272745" lon="174.730054358192">
        <ele>71</ele>
      </trkpt>
      <trkpt lat="-36.80482548159451" lon="174.730581728018">
        <ele>69</ele>
      </trkpt>
      <trkpt lat="-36.80501621209232" lon="174.731009917986">
        <ele>67</ele>
      </trkpt>
      <trkpt lat="-36.80504005340454" lon="174.73111100515">
        <ele>66</ele>
      </trkpt>
      <trkpt lat="-36.805" lon="174.732132366965">
        <ele>57</ele>
      </trkpt>
      <trkpt lat="-36.805" lon="174.732132366965">
        <ele>57</ele>
      </trkpt>
      <trkpt lat="-36.80505435819187" lon="174.732174327675">
        <ele>56</ele>
      </trkpt>
      <trkpt lat="-36.80512111386611" lon="174.732234407782">
        <ele>55</ele>
      </trkpt>
      <trkpt lat="-36.80518691588785" lon="174.732294487889">
        <ele>54</ele>
      </trkpt>
      <trkpt lat="-36.80517451840549" lon="174.732345985123">
        <ele>54</ele>
      </trkpt>
      <trkpt lat="-36.80518500858287" lon="174.732387945833">
        <ele>53</ele>
      </trkpt>
      <trkpt lat="-36.80521934007248" lon="174.732434674805">
        <ele>53</ele>
      </trkpt>
      <trkpt lat="-36.8052527179096" lon="174.732448025939">
        <ele>52</ele>
      </trkpt>
      <trkpt lat="-36.80528418844173" lon="174.732447072287">
        <ele>52</ele>
      </trkpt>
      <trkpt lat="-36.80528418844173" lon="174.732447072287">
        <ele>52</ele>
      </trkpt>
      <trkpt lat="-36.80530326149152" lon="174.732523364486">
        <ele>52</ele>
      </trkpt>
      <trkpt lat="-36.80530326149152" lon="174.732523364486">
        <ele>52</ele>
      </trkpt>
      <trkpt lat="-36.80531375166889" lon="174.732636849132">
        <ele>51</ele>
      </trkpt>
      <trkpt lat="-36.80530898340645" lon="174.732731260729">
        <ele>50</ele>
      </trkpt>
      <trkpt lat="-36.80530326149152" lon="174.732826625978">
        <ele>50</ele>
      </trkpt>
      <trkpt lat="-36.80528800305169" lon="174.732940110624">
        <ele>49</ele>
      </trkpt>
      <trkpt lat="-36.80525462521457" lon="174.73304978066">
        <ele>48</ele>
      </trkpt>
      <trkpt lat="-36.80522029372497" lon="174.733160404349">
        <ele>48</ele>
      </trkpt>
      <trkpt lat="-36.80521361815754" lon="174.733280564562">
        <ele>47</ele>
      </trkpt>
      <trkpt lat="-36.80521361815754" lon="174.733280564562">
        <ele>47</ele>
      </trkpt>
      <trkpt lat="-36.80522887659737" lon="174.733357810414">
        <ele>46</ele>
      </trkpt>
      <trkpt lat="-36.80524413503719" lon="174.733436009918">
        <ele>46</ele>
      </trkpt>
      <trkpt lat="-36.80524413503719" lon="174.733436009918">
        <ele>46</ele>
      </trkpt>
      <trkpt lat="-36.80529181766165" lon="174.733554262827">
        <ele>45</ele>
      </trkpt>
      <trkpt lat="-36.80529753957658" lon="174.733621018501">
        <ele>45</ele>
      </trkpt>
      <trkpt lat="-36.80530326149152" lon="174.733688727828">
        <ele>44</ele>
      </trkpt>
      <trkpt lat="-36.80533473202365" lon="174.733949074957">
        <ele>43</ele>
      </trkpt>
      <trkpt lat="-36.80561033759298" lon="174.73414934198">
        <ele>42</ele>
      </trkpt>
      <trkpt lat="-36.80572000762922" lon="174.734214190349">
        <ele>41</ele>
      </trkpt>
      <trkpt lat="-36.80582872401297" lon="174.734279038718">
        <ele>41</ele>
      </trkpt>
      <trkpt lat="-36.80582872401297" lon="174.734279038718">
        <ele>41</ele>
      </trkpt>
      <trkpt lat="-36.80586687011253" lon="174.734259965669">
        <ele>41</ele>
      </trkpt>
      <trkpt lat="-36.80586687011253" lon="174.734259965669">
        <ele>41</ele>
      </trkpt>
      <trkpt lat="-36.80592787359726" lon="174.734170736691">
        <ele>41</ele>
      </trkpt>
      <trkpt lat="-36.80592787359726" lon="174.734170736691">
        <ele>41</ele>
      </trkpt>
      <trkpt lat="-36.80599465954607" lon="174.734073049781">
        <ele>42</ele>
      </trkpt>
      <trkpt lat="-36.80631222582491" lon="174.734008201411">
        <ele>42</ele>
      </trkpt>
      <trkpt lat="-36.8065916460042" lon="174.733928094602">
        <ele>43</ele>
      </trkpt>
      <trkpt lat="-36.80678046919703" lon="174.733889948503">
        <ele>44</ele>
      </trkpt>
      <trkpt lat="-36.80678046919703" lon="174.733889948503">
        <ele>44</ele>
      </trkpt>
      <trkpt lat="-36.80681480068663" lon="174.733954796872">
        <ele>44</ele>
      </trkpt>
      <trkpt lat="-36.8067909593744" lon="174.734016784284">
        <ele>43</ele>
      </trkpt>
      <trkpt lat="-36.8067909593744" lon="174.734016784284">
        <ele>43</ele>
      </trkpt>
      <trkpt lat="-36.80675948884227" lon="174.73411501049">
        <ele>43</ele>
      </trkpt>
      <trkpt lat="-36.80675948884227" lon="174.734190349037">
        <ele>42</ele>
      </trkpt>
      <trkpt lat="-36.80676711806218" lon="174.734254243754">
        <ele>42</ele>
      </trkpt>
      <trkpt lat="-36.80675281327485" lon="174.734320999428">
        <ele>42</ele>
      </trkpt>
      <trkpt lat="-36.80673183292009" lon="174.7343677284">
        <ele>42</ele>
      </trkpt>
      <trkpt lat="-36.8066612626359" lon="174.734435437727">
        <ele>42</ele>
      </trkpt>
      <trkpt lat="-36.80661071905398" lon="174.734473583826">
        <ele>42</ele>
      </trkpt>
      <trkpt lat="-36.80656780469197" lon="174.734533663933">
        <ele>42</ele>
      </trkpt>
      <trkpt lat="-36.80649723440779" lon="174.734539385848">
        <ele>42</ele>
      </trkpt>
      <trkpt lat="-36.8064257104711" lon="174.734545107763">
        <ele>42</ele>
      </trkpt>
      <trkpt lat="-36.80637039862674" lon="174.734557505245">
        <ele>42</ele>
      </trkpt>
      <trkpt lat="-36.80624928476063" lon="174.734633797444">
        <ele>42</ele>
      </trkpt>
      <trkpt lat="-36.80617966812893" lon="174.734632843792">
        <ele>42</ele>
      </trkpt>
      <trkpt lat="-36.80611005149724" lon="174.734632843792">
        <ele>41</ele>
      </trkpt>
      <trkpt lat="-36.80603757390807" lon="174.734649055884">
        <ele>41</ele>
      </trkpt>
      <trkpt lat="-36.80597940110624" lon="174.734690062941">
        <ele>41</ele>
      </trkpt>
      <trkpt lat="-36.80588975777227" lon="174.73477779897">
        <ele>41</ele>
      </trkpt>
      <trkpt lat="-36.80582014114057" lon="174.734879839786">
        <ele>41</ele>
      </trkpt>
      <trkpt lat="-36.80574289528896" lon="174.735126835781">
        <ele>41</ele>
      </trkpt>
      <trkpt lat="-36.80572286858669" lon="174.735217432768">
        <ele>41</ele>
      </trkpt>
      <trkpt lat="-36.80570284188442" lon="174.735308983406">
        <ele>41</ele>
      </trkpt>
      <trkpt lat="-36.80560366202556" lon="174.735649437345">
        <ele>40</ele>
      </trkpt>
      <trkpt lat="-36.80555884035858" lon="174.735738127027">
        <ele>40</ele>
      </trkpt>
      <trkpt lat="-36.80549017737936" lon="174.735794392523">
        <ele>39</ele>
      </trkpt>
      <trkpt lat="-36.80542532901011" lon="174.735875452985">
        <ele>39</ele>
      </trkpt>
      <trkpt lat="-36.8053652489033" lon="174.735974632844">
        <ele>38</ele>
      </trkpt>
      <trkpt lat="-36.80533759298112" lon="174.736078580965">
        <ele>38</ele>
      </trkpt>
      <trkpt lat="-36.80533536175246" lon="174.73611778684">
        <ele>38</ele>
      </trkpt>
      <trkpt lat="-36.80533536175246" lon="174.73611778684">
        <ele>38</ele>
      </trkpt>
      <trkpt lat="-36.80536857960448" lon="174.736201472172">
        <ele>38</ele>
      </trkpt>
      <trkpt lat="-36.80536857960448" lon="174.736201472172">
        <ele>38</ele>
      </trkpt>
      <trkpt lat="-36.80539004386802" lon="174.736204463094">
        <ele>38</ele>
      </trkpt>
      <trkpt lat="-36.80549399198932" lon="174.73628361625">
        <ele>38</ele>
      </trkpt>
      <trkpt lat="-36.80559794011062" lon="174.736362769407">
        <ele>37</ele>
      </trkpt>
      <trkpt lat="-36.80559794011062" lon="174.736362769407">
        <ele>37</ele>
      </trkpt>
      <trkpt lat="-36.80562273507534" lon="174.736381842457">
        <ele>37</ele>
      </trkpt>
      <trkpt lat="-36.80562273507534" lon="174.736381842457">
        <ele>37</ele>
      </trkpt>
      <trkpt lat="-36.80567518596224" lon="174.736457181003">
        <ele>37</ele>
      </trkpt>
      <trkpt lat="-36.80576196833874" lon="174.736562082777">
        <ele>37</ele>
      </trkpt>
      <trkpt lat="-36.80576196833874" lon="174.736562082777">
        <ele>37</ele>
      </trkpt>
      <trkpt lat="-36.80582681670799" lon="174.736800495899">
        <ele>36</ele>
      </trkpt>
      <trkpt lat="-36.80588403585734" lon="174.736949265688">
        <ele>35</ele>
      </trkpt>
      <trkpt lat="-36.8060261300782" lon="174.737200076292">
        <ele>35</ele>
      </trkpt>
      <trkpt lat="-36.80604520312798" lon="174.737318329201">
        <ele>35</ele>
      </trkpt>
      <trkpt lat="-36.80604520312798" lon="174.737318329201">
        <ele>35</ele>
      </trkpt>
      <trkpt lat="-36.80604234217051" lon="174.737396528705">
        <ele>34</ele>
      </trkpt>
      <trkpt lat="-36.80604234217051" lon="174.737396528705">
        <ele>34</ele>
      </trkpt>
      <trkpt lat="-36.80603185199313" lon="174.737457562464">
        <ele>34</ele>
      </trkpt>
      <trkpt lat="-36.80602326912074" lon="174.737708373069">
        <ele>33</ele>
      </trkpt>
      <trkpt lat="-36.80602315628163" lon="174.737711670592">
        <ele>33</ele>
      </trkpt>
      <trkpt lat="-36.80596128170895" lon="174.737681670799">
        <ele>33</ele>
      </trkpt>
      <trkpt lat="-36.80593362578676" lon="174.737715048636">
        <ele>32</ele>
      </trkpt>
      <trkpt lat="-36.80593362578676" lon="174.737715048636">
        <ele>32</ele>
      </trkpt>
      <trkpt lat="-36.80581441922563" lon="174.737862864772">
        <ele>31</ele>
      </trkpt>
      <trkpt lat="-36.80575147816136" lon="174.737923898531">
        <ele>31</ele>
      </trkpt>
      <trkpt lat="-36.80570188823193" lon="174.738013541865">
        <ele>31</ele>
      </trkpt>
      <trkpt lat="-36.80567518596224" lon="174.738136563036">
        <ele>31</ele>
      </trkpt>
      <trkpt lat="-36.80560652298303" lon="174.738381651726">
        <ele>30</ele>
      </trkpt>
      <trkpt lat="-36.80560652298303" lon="174.738381651726">
        <ele>30</ele>
      </trkpt>
      <trkpt lat="-36.80549017737936" lon="174.738395956513">
        <ele>30</ele>
      </trkpt>
      <trkpt lat="-36.80549017737936" lon="174.738395956513">
        <ele>30</ele>
      </trkpt>
      <trkpt lat="-36.8054606141522" lon="174.738396910166">
        <ele>30</ele>
      </trkpt>
      <trkpt lat="-36.80537764638566" lon="174.738808888041">
        <ele>29</ele>
      </trkpt>
      <trkpt lat="-36.80537764638566" lon="174.738808888041">
        <ele>29</ele>
      </trkpt>
      <trkpt lat="-36.80530040053405" lon="174.7391569712">
        <ele>28</ele>
      </trkpt>
      <trkpt lat="-36.80530040053405" lon="174.7391569712">
        <ele>28</ele>
      </trkpt>
      <trkpt lat="-36.80528609574671" lon="174.739175090597">
        <ele>28</ele>
      </trkpt>
      <trkpt lat="-36.80527560556934" lon="174.739177951554">
        <ele>28</ele>
      </trkpt>
      <trkpt lat="-36.80525867860648" lon="174.73916861254">
        <ele>28</ele>
      </trkpt>
      <trkpt lat="-36.80525843982453" lon="174.739169368682">
        <ele>28</ele>
      </trkpt>
      <trkpt lat="-36.8052527179096" lon="174.739187488079">
        <ele>28</ele>
      </trkpt>
      <trkpt lat="-36.8052527179096" lon="174.739187488079">
        <ele>28</ele>
      </trkpt>
      <trkpt lat="-36.8052355521648" lon="174.739245660881">
        <ele>28</ele>
      </trkpt>
      <trkpt lat="-36.8052355521648" lon="174.739245660881">
        <ele>28</ele>
      </trkpt>
      <trkpt lat="-36.80522124737746" lon="174.739290482548">
        <ele>28</ele>
      </trkpt>
      <trkpt lat="-36.80522064248728" lon="174.739292377901">
        <ele>28</ele>
      </trkpt>
      <trkpt lat="-36.80531089071143" lon="174.73937154301">
        <ele>27</ele>
      </trkpt>
      <trkpt lat="-36.80539385847797" lon="174.739460232691">
        <ele>26</ele>
      </trkpt>
      <trkpt lat="-36.80540816326531" lon="174.739637612054">
        <ele>25</ele>
      </trkpt>
      <trkpt lat="-36.80551497234408" lon="174.74">
        <ele>23</ele>
      </trkpt>
      <trkpt lat="-36.80551497234408" lon="174.74">
        <ele>23</ele>
      </trkpt>
      <trkpt lat="-36.80553690635133" lon="174.740071523937">
        <ele>23</ele>
      </trkpt>
      <trkpt lat="-36.80554548922373" lon="174.740181193973">
        <ele>22</ele>
      </trkpt>
      <trkpt lat="-36.80553499904635" lon="174.740235552165">
        <ele>22</ele>
      </trkpt>
      <trkpt lat="-36.80542056074766" lon="174.740630364295">
        <ele>22</ele>
      </trkpt>
      <trkpt lat="-36.80542151440015" lon="174.740673278657">
        <ele>22</ele>
      </trkpt>
      <trkpt lat="-36.80542151440015" lon="174.740673278657">
        <ele>22</ele>
      </trkpt>
      <trkpt lat="-36.80543105092504" lon="174.740701888232">
        <ele>21</ele>
      </trkpt>
      <trkpt lat="-36.80543105092504" lon="174.740701888232">
        <ele>21</ele>
      </trkpt>
      <trkpt lat="-36.80538565584256" lon="174.740779732551">
        <ele>22</ele>
      </trkpt>
      <trkpt lat="-36.80538565584256" lon="174.740779732551">
        <ele>22</ele>
      </trkpt>
      <trkpt lat="-36.80534331489606" lon="174.740817280183">
        <ele>22</ele>
      </trkpt>
      <trkpt lat="-36.80534331489606" lon="174.740817280183">
        <ele>22</ele>
      </trkpt>
      <trkpt lat="-36.80528017418407" lon="174.740876140169">
        <ele>22</ele>
      </trkpt>
      <trkpt lat="-36.80527942017929" lon="174.740879267595">
        <ele>22</ele>
      </trkpt>
      <trkpt lat="-36.80522124737746" lon="174.741120541675">
        <ele>22</ele>
      </trkpt>
      <trkpt lat="-36.80522124737746" lon="174.741120541675">
        <ele>22</ele>
      </trkpt>
      <trkpt lat="-36.80514972344078" lon="174.741307457562">
        <ele>22</ele>
      </trkpt>
      <trkpt lat="-36.80521075720008" lon="174.741396147244">
        <ele>21</ele>
      </trkpt>
      <trkpt lat="-36.8052784665268" lon="174.741575433912">
        <ele>19</ele>
      </trkpt>
      <trkpt lat="-36.80540339500286" lon="174.741801449552">
        <ele>17</ele>
      </trkpt>
      <trkpt lat="-36.80553309174137" lon="174.742000762922">
        <ele>15</ele>
      </trkpt>
      <trkpt lat="-36.80567423230975" lon="174.742716002289">
        <ele>14</ele>
      </trkpt>
      <trkpt lat="-36.80569425901202" lon="174.743188060271">
        <ele>14</ele>
      </trkpt>
      <trkpt lat="-36.80561033759298" lon="174.743400724776">
        <ele>14</ele>
      </trkpt>
      <trkpt lat="-36.80547396528705" lon="174.743619111196">
        <ele>16</ele>
      </trkpt>
      <trkpt lat="-36.80546538241465" lon="174.743847034141">
        <ele>16</ele>
      </trkpt>
      <trkpt lat="-36.80546538241465" lon="174.743847034141">
        <ele>16</ele>
      </trkpt>
      <trkpt lat="-36.80545584588976" lon="174.743939538432">
        <ele>16</ele>
      </trkpt>
      <trkpt lat="-36.80543295823002" lon="174.744002479496">
        <ele>17</ele>
      </trkpt>
      <trkpt lat="-36.80537764638566" lon="174.744082586306">
        <ele>17</ele>
      </trkpt>
      <trkpt lat="-36.80532233454129" lon="174.744162693115">
        <ele>18</ele>
      </trkpt>
      <trkpt lat="-36.80532233454129" lon="174.744193209994">
        <ele>18</ele>
      </trkpt>
      <trkpt lat="-36.80532233454129" lon="174.744193209994">
        <ele>18</ele>
      </trkpt>
      <trkpt lat="-36.80544726301736" lon="174.744169368682">
        <ele>17</ele>
      </trkpt>
      <trkpt lat="-36.80568472248713" lon="174.744161739462">
        <ele>14</ele>
      </trkpt>
      <trkpt lat="-36.80575529277132" lon="174.744152202937">
        <ele>14</ele>
      </trkpt>
      <trkpt lat="-36.80575529277132" lon="174.744152202937">
        <ele>14</ele>
      </trkpt>
      <trkpt lat="-36.80579439252337" lon="174.7441569712">
        <ele>13</ele>
      </trkpt>
      <trkpt lat="-36.8058086973107" lon="174.744173183292">
        <ele>13</ele>
      </trkpt>
      <trkpt lat="-36.80581420134843" lon="174.744208615535">
        <ele>13</ele>
      </trkpt>
      <trkpt lat="-36.80581420026434" lon="174.744208615765">
        <ele>13</ele>
      </trkpt>
      <trkpt lat="-36.80644170957373" lon="174.744069851476">
        <ele>11</ele>
      </trkpt>
      <trkpt lat="-36.80644171080698" lon="174.744069851197">
        <ele>11</ele>
      </trkpt>
      <trkpt lat="-36.8064438298684" lon="174.744073049781">
        <ele>11</ele>
      </trkpt>
      <trkpt lat="-36.80645954205838" lon="174.744128504569">
        <ele>11</ele>
      </trkpt>
      <trkpt lat="-36.80645954184648" lon="174.744128504592">
        <ele>11</ele>
      </trkpt>
      <trkpt lat="-36.80654986463929" lon="174.744108575902">
        <ele>11</ele>
      </trkpt>
      <trkpt lat="-36.80654986463929" lon="174.744108575902">
        <ele>11</ele>
      </trkpt>
      <trkpt lat="-36.80656260321667" lon="174.744121817865">
        <ele>11</ele>
      </trkpt>
      <trkpt lat="-36.80656260321667" lon="174.744121817865">
        <ele>11</ele>
      </trkpt>
      <trkpt lat="-36.80664218958611" lon="174.744231356094">
        <ele>10</ele>
      </trkpt>
      <trkpt lat="-36.8067308792676" lon="174.744353423612">
        <ele>10</ele>
      </trkpt>
      <trkpt lat="-36.80680812511921" lon="174.744428762159">
        <ele>10</ele>
      </trkpt>
      <trkpt lat="-36.80687774175091" lon="174.744471676521">
        <ele>10</ele>
      </trkpt>
      <trkpt lat="-36.8069311462903" lon="174.744527942018">
        <ele>10</ele>
      </trkpt>
      <trkpt lat="-36.80696452412741" lon="174.74458611482">
        <ele>10</ele>
      </trkpt>
      <trkpt lat="-36.8069912263971" lon="174.744656685104">
        <ele>10</ele>
      </trkpt>
      <trkpt lat="-36.8070179286668" lon="174.744728209041">
        <ele>10</ele>
      </trkpt>
      <trkpt lat="-36.80708277703605" lon="174.744833110814">
        <ele>10</ele>
      </trkpt>
      <trkpt lat="-36.80709231356094" lon="174.744944688156">
        <ele>10</ele>
      </trkpt>
      <trkpt lat="-36.80712473774557" lon="174.74500762922">
        <ele>9</ele>
      </trkpt>
      <trkpt lat="-36.8071562082777" lon="174.745071523937">
        <ele>10</ele>
      </trkpt>
      <trkpt lat="-36.80718004958993" lon="174.745139233263">
        <ele>10</ele>
      </trkpt>
      <trkpt lat="-36.80720293724967" lon="174.745207896243">
        <ele>10</ele>
      </trkpt>
      <trkpt lat="-36.80722296395194" lon="174.745294678619">
        <ele>10</ele>
      </trkpt>
      <trkpt lat="-36.80722868586687" lon="174.745384321953">
        <ele>10</ele>
      </trkpt>
      <trkpt lat="-36.80721438107954" lon="174.745504482167">
        <ele>11</ele>
      </trkpt>
      <trkpt lat="-36.80719721533473" lon="174.745569330536">
        <ele>11</ele>
      </trkpt>
      <trkpt lat="-36.80718004958993" lon="174.745634178905">
        <ele>11</ele>
      </trkpt>
      <trkpt lat="-36.80716097654015" lon="174.745731451459">
        <ele>11</ele>
      </trkpt>
      <trkpt lat="-36.80714094983788" lon="174.745829677665">
        <ele>12</ele>
      </trkpt>
      <trkpt lat="-36.80714094983788" lon="174.74590406256">
        <ele>13</ele>
      </trkpt>
      <trkpt lat="-36.80713999618539" lon="174.745978447454">
        <ele>13</ele>
      </trkpt>
      <trkpt lat="-36.80713999618539" lon="174.745978447454">
        <ele>13</ele>
      </trkpt>
      <trkpt lat="-36.80715906923518" lon="174.746027083731">
        <ele>14</ele>
      </trkpt>
      <trkpt lat="-36.8072086591646" lon="174.746081441923">
        <ele>14</ele>
      </trkpt>
      <trkpt lat="-36.80728399771124" lon="174.74610337593">
        <ele>14</ele>
      </trkpt>
      <trkpt lat="-36.80735838260538" lon="174.74612626359">
        <ele>14</ele>
      </trkpt>
      <trkpt lat="-36.80745756246424" lon="174.746075720008">
        <ele>13</ele>
      </trkpt>
      <trkpt lat="-36.80755578867061" lon="174.746025176426">
        <ele>12</ele>
      </trkpt>
      <trkpt lat="-36.80781613580012" lon="174.746013732596">
        <ele>12</ele>
      </trkpt>
      <trkpt lat="-36.808086973107" lon="174.746125309937">
        <ele>13</ele>
      </trkpt>
      <trkpt lat="-36.80810516829621" lon="174.746127735962">
        <ele>13</ele>
      </trkpt>
      <trkpt lat="-36.80810516829621" lon="174.746127735962">
        <ele>13</ele>
      </trkpt>
      <trkpt lat="-36.80807727774318" lon="174.746244078144">
        <ele>14</ele>
      </trkpt>
      <trkpt lat="-36.80807727774318" lon="174.746244078144">
        <ele>14</ele>
      </trkpt>
      <trkpt lat="-36.80807552927713" lon="174.746265496853">
        <ele>14</ele>
      </trkpt>
      <trkpt lat="-36.80807552927713" lon="174.746265496853">
        <ele>14</ele>
      </trkpt>
      <trkpt lat="-36.80805168796491" lon="174.746558268167">
        <ele>16</ele>
      </trkpt>
      <trkpt lat="-36.80805168796491" lon="174.746558268167">
        <ele>16</ele>
      </trkpt>
      <trkpt lat="-36.80805578377918" lon="174.746559395455">
        <ele>16</ele>
      </trkpt>
      <trkpt lat="-36.80805578377918" lon="174.746559395455">
        <ele>16</ele>
      </trkpt>
      <trkpt lat="-36.80804160191953" lon="174.746615762077">
        <ele>16</ele>
      </trkpt>
      <trkpt lat="-36.80804160191953" lon="174.746615762077">
        <ele>16</ele>
      </trkpt>
      <trkpt lat="-36.80803070761015" lon="174.746621209231">
        <ele>16</ele>
      </trkpt>
      <trkpt lat="-36.80797634941828" lon="174.746689872211">
        <ele>17</ele>
      </trkpt>
      <trkpt lat="-36.80797634941828" lon="174.746689872211">
        <ele>17</ele>
      </trkpt>
      <trkpt lat="-36.80805454892238" lon="174.746757581537">
        <ele>17</ele>
      </trkpt>
      <trkpt lat="-36.80808792675949" lon="174.746795727637">
        <ele>17</ele>
      </trkpt>
      <trkpt lat="-36.80817757009346" lon="174.74692351707">
        <ele>17</ele>
      </trkpt>
      <trkpt lat="-36.8082090406256" lon="174.746982643525">
        <ele>17</ele>
      </trkpt>
      <trkpt lat="-36.8082691207324" lon="174.747119015831">
        <ele>17</ele>
      </trkpt>
      <trkpt lat="-36.80833015449171" lon="174.747297348846">
        <ele>17</ele>
      </trkpt>
      <trkpt lat="-36.80836698221702" lon="174.747461027625">
        <ele>17</ele>
      </trkpt>
      <trkpt lat="-36.80836698221702" lon="174.747461027625">
        <ele>17</ele>
      </trkpt>
      <trkpt lat="-36.80837718613203" lon="174.747506378359">
        <ele>17</ele>
      </trkpt>
      <trkpt lat="-36.80837718613203" lon="174.747506378359">
        <ele>17</ele>
      </trkpt>
      <trkpt lat="-36.80838165172612" lon="174.747526225443">
        <ele>17</ele>
      </trkpt>
      <trkpt lat="-36.80840072477589" lon="174.747658783139">
        <ele>16</ele>
      </trkpt>
      <trkpt lat="-36.80841026130079" lon="174.747790387183">
        <ele>16</ele>
      </trkpt>
      <trkpt lat="-36.80841026130079" lon="174.747870302038">
        <ele>15</ele>
      </trkpt>
      <trkpt lat="-36.80841026130079" lon="174.747870302112">
        <ele>15</ele>
      </trkpt>
      <trkpt lat="-36.80841026130079" lon="174.748020217433">
        <ele>14</ele>
      </trkpt>
      <trkpt lat="-36.80837879076864" lon="174.748290101087">
        <ele>13</ele>
      </trkpt>
      <trkpt lat="-36.8083215716193" lon="174.748610528323">
        <ele>11</ele>
      </trkpt>
      <trkpt lat="-36.8083215716193" lon="174.748610528323">
        <ele>11</ele>
      </trkpt>
      <trkpt lat="-36.80829486934961" lon="174.7486591646">
        <ele>11</ele>
      </trkpt>
      <trkpt lat="-36.80826721342743" lon="174.748742132367">
        <ele>10</ele>
      </trkpt>
      <trkpt lat="-36.8082433721152" lon="174.748789814991">
        <ele>10</ele>
      </trkpt>
      <trkpt lat="-36.80823288193783" lon="174.748846080488">
        <ele>9</ele>
      </trkpt>
      <trkpt lat="-36.80821476254053" lon="174.748843219531">
        <ele>10</ele>
      </trkpt>
      <trkpt lat="-36.80821406809083" lon="174.748843109869">
        <ele>10</ele>
      </trkpt>
      <trkpt lat="-36.80819759679573" lon="174.749222773221">
        <ele>7</ele>
      </trkpt>
      <trkpt lat="-36.80819855044822" lon="174.749362006485">
        <ele>6</ele>
      </trkpt>
      <trkpt lat="-36.80822811367538" lon="174.749832157162">
        <ele>3</ele>
      </trkpt>
      <trkpt lat="-36.80831680335686" lon="174.750447263017">
        <ele>1</ele>
      </trkpt>
      <trkpt lat="-36.80834922754148" lon="174.750591264543">
        <ele>1</ele>
      </trkpt>
      <trkpt lat="-36.80834922754148" lon="174.750591264543">
        <ele>1</ele>
      </trkpt>
      <trkpt lat="-36.80840358573336" lon="174.750522601564">
        <ele>1</ele>
      </trkpt>
      <trkpt lat="-36.80840358573336" lon="174.750522601564">
        <ele>1</ele>
      </trkpt>
      <trkpt lat="-36.80845412931528" lon="174.750593171848">
        <ele>1</ele>
      </trkpt>
      <trkpt lat="-36.80853423612436" lon="174.75069330536">
        <ele>1</ele>
      </trkpt>
      <trkpt lat="-36.80861434293344" lon="174.750794392523">
        <ele>1</ele>
      </trkpt>
      <trkpt lat="-36.80861434293344" lon="174.750794392523">
        <ele>1</ele>
      </trkpt>
      <trkpt lat="-36.80868586687011" lon="174.750912645432">
        <ele>1</ele>
      </trkpt>
      <trkpt lat="-36.80877360289911" lon="174.751008010681">
        <ele>1</ele>
      </trkpt>
      <trkpt lat="-36.80885943162312" lon="174.751082395575">
        <ele>2</ele>
      </trkpt>
      <trkpt lat="-36.80891855807744" lon="174.751120541675">
        <ele>2</ele>
      </trkpt>
      <trkpt lat="-36.80891855807744" lon="174.751120541675">
        <ele>2</ele>
      </trkpt>
      <trkpt lat="-36.80887945832539" lon="174.751206370399">
        <ele>2</ele>
      </trkpt>
      <trkpt lat="-36.8088613389281" lon="174.751288384513">
        <ele>2</ele>
      </trkpt>
      <trkpt lat="-36.80884321953081" lon="174.751370398627">
        <ele>2</ele>
      </trkpt>
      <trkpt lat="-36.80883272935343" lon="174.751443829868">
        <ele>2</ele>
      </trkpt>
      <trkpt lat="-36.80882223917605" lon="174.75151726111">
        <ele>2</ele>
      </trkpt>
      <trkpt lat="-36.8088174709136" lon="174.751578294869">
        <ele>2</ele>
      </trkpt>
      <trkpt lat="-36.80881270265115" lon="174.751639328629">
        <ele>3</ele>
      </trkpt>
      <trkpt lat="-36.80878504672897" lon="174.75175472058">
        <ele>3</ele>
      </trkpt>
      <trkpt lat="-36.80875739080679" lon="174.751790959374">
        <ele>3</ele>
      </trkpt>
      <trkpt lat="-36.80873354949457" lon="174.751822429907">
        <ele>3</ele>
      </trkpt>
      <trkpt lat="-36.80864962807553" lon="174.751869158878">
        <ele>3</ele>
      </trkpt>
      <trkpt lat="-36.80860289910357" lon="174.751883463666">
        <ele>3</ele>
      </trkpt>
      <trkpt lat="-36.80855426282663" lon="174.751910165936">
        <ele>4</ele>
      </trkpt>
      <trkpt lat="-36.8085132557696" lon="174.751948312035">
        <ele>4</ele>
      </trkpt>
      <trkpt lat="-36.80848750715239" lon="174.752050352851">
        <ele>4</ele>
      </trkpt>
      <trkpt lat="-36.80840167842838" lon="174.752147625405">
        <ele>5</ele>
      </trkpt>
      <trkpt lat="-36.8083654396338" lon="174.752243944307">
        <ele>5</ele>
      </trkpt>
      <trkpt lat="-36.80835018119397" lon="174.752355521648">
        <ele>6</ele>
      </trkpt>
      <trkpt lat="-36.80831298874691" lon="174.752475681862">
        <ele>6</ele>
      </trkpt>
      <trkpt lat="-36.80827484264734" lon="174.752595842075">
        <ele>8</ele>
      </trkpt>
      <trkpt lat="-36.80823669654778" lon="174.752631127217">
        <ele>8</ele>
      </trkpt>
      <trkpt lat="-36.80816421895862" lon="174.752722677856">
        <ele>9</ele>
      </trkpt>
      <trkpt lat="-36.80806599275224" lon="174.752802784665">
        <ele>11</ele>
      </trkpt>
      <trkpt lat="-36.80802880030517" lon="174.752824718673">
        <ele>11</ele>
      </trkpt>
      <trkpt lat="-36.80796776654587" lon="174.752882891474">
        <ele>12</ele>
      </trkpt>
      <trkpt lat="-36.80793248140378" lon="174.752955369063">
        <ele>13</ele>
      </trkpt>
      <trkpt lat="-36.80794297158116" lon="174.753026893">
        <ele>14</ele>
      </trkpt>
      <trkpt lat="-36.80794297158116" lon="174.753026893">
        <ele>14</ele>
      </trkpt>
      <trkpt lat="-36.8079744421133" lon="174.753102231547">
        <ele>14</ele>
      </trkpt>
      <trkpt lat="-36.80800495899295" lon="174.753177570093">
        <ele>15</ele>
      </trkpt>
      <trkpt lat="-36.80800495899295" lon="174.753177570093">
        <ele>15</ele>
      </trkpt>
      <trkpt lat="-36.80804501239749" lon="174.753271028037">
        <ele>16</ele>
      </trkpt>
      <trkpt lat="-36.80805264161739" lon="174.753332061797">
        <ele>17</ele>
      </trkpt>
      <trkpt lat="-36.80805267572608" lon="174.753332334542">
        <ele>17</ele>
      </trkpt>
      <trkpt lat="-36.80808601945451" lon="174.753337783712">
        <ele>17</ele>
      </trkpt>
      <trkpt lat="-36.80816803356857" lon="174.753337783712">
        <ele>17</ele>
      </trkpt>
      <trkpt lat="-36.80824909403014" lon="174.753337783712">
        <ele>17</ele>
      </trkpt>
      <trkpt lat="-36.80824909403014" lon="174.753337783712">
        <ele>17</ele>
      </trkpt>
      <trkpt lat="-36.80828914743468" lon="174.753364485981">
        <ele>17</ele>
      </trkpt>
      <trkpt lat="-36.80828914743468" lon="174.753364485981">
        <ele>17</ele>
      </trkpt>
      <trkpt lat="-36.8083568567614" lon="174.753412168606">
        <ele>18</ele>
      </trkpt>
      <trkpt lat="-36.8083568567614" lon="174.753412168606">
        <ele>18</ele>
      </trkpt>
      <trkpt lat="-36.80848846080489" lon="174.753563799352">
        <ele>20</ele>
      </trkpt>
      <trkpt lat="-36.80877932481404" lon="174.754284760633">
        <ele>27</ele>
      </trkpt>
      <trkpt lat="-36.80877837116155" lon="174.754327674995">
        <ele>26</ele>
      </trkpt>
      <trkpt lat="-36.80877837116155" lon="174.754327674995">
        <ele>26</ele>
      </trkpt>
      <trkpt lat="-36.80877837116155" lon="174.754385147503">
        <ele>26</ele>
      </trkpt>
      <trkpt lat="-36.80877837233295" lon="174.754385147659">
        <ele>26</ele>
      </trkpt>
      <trkpt lat="-36.80877646385657" lon="174.754384894145">
        <ele>26</ele>
      </trkpt>
      <trkpt lat="-36.80852389684689" lon="174.754356184819">
        <ele>27</ele>
      </trkpt>
      <trkpt lat="-36.80852374594698" lon="174.754357238222">
        <ele>27</ele>
      </trkpt>
      <trkpt lat="-36.80840167842838" lon="174.755185008583">
        <ele>22</ele>
      </trkpt>
      <trkpt lat="-36.80837688346367" lon="174.755277512874">
        <ele>22</ele>
      </trkpt>
      <trkpt lat="-36.80831203509442" lon="174.755422468053">
        <ele>21</ele>
      </trkpt>
      <trkpt lat="-36.80805168796491" lon="174.755952698837">
        <ele>18</ele>
      </trkpt>
      <trkpt lat="-36.80799065420561" lon="174.756002288766">
        <ele>18</ele>
      </trkpt>
      <trkpt lat="-36.80799065420561" lon="174.756002288766">
        <ele>18</ele>
      </trkpt>
      <trkpt lat="-36.80792294487889" lon="174.756035666603">
        <ele>18</ele>
      </trkpt>
      <trkpt lat="-36.80788095415127" lon="174.756102011953">
        <ele>18</ele>
      </trkpt>
      <trkpt lat="-36.80788095414582" lon="174.756102011955">
        <ele>18</ele>
      </trkpt>
      <trkpt lat="-36.80788098416937" lon="174.756102422277">
        <ele>18</ele>
      </trkpt>
      <trkpt lat="-36.80789242799924" lon="174.756136753767">
        <ele>17</ele>
      </trkpt>
      <trkpt lat="-36.80789242799924" lon="174.756136753767">
        <ele>17</ele>
      </trkpt>
      <trkpt lat="-36.8078867060843" lon="174.756145336639">
        <ele>17</ele>
      </trkpt>
      <trkpt lat="-36.80742132366966" lon="174.756360862102">
        <ele>16</ele>
      </trkpt>
      <trkpt lat="-36.8073831775701" lon="174.756437154301">
        <ele>16</ele>
      </trkpt>
      <trkpt lat="-36.80733835590311" lon="174.756571619302">
        <ele>14</ele>
      </trkpt>
      <trkpt lat="-36.80734503147053" lon="174.756604043487">
        <ele>14</ele>
      </trkpt>
      <trkpt lat="-36.80734503147053" lon="174.756604043487">
        <ele>14</ele>
      </trkpt>
      <trkpt lat="-36.8070093457944" lon="174.756646004196">
        <ele>13</ele>
      </trkpt>
      <trkpt lat="-36.80697952360727" lon="174.756659051403">
        <ele>13</ele>
      </trkpt>
      <trkpt lat="-36.80697952360915" lon="174.756659051401">
        <ele>13</ele>
      </trkpt>
      <trkpt lat="-36.80700171657448" lon="174.756721342743">
        <ele>12</ele>
      </trkpt>
      <trkpt lat="-36.80700171657448" lon="174.756721342743">
        <ele>12</ele>
      </trkpt>
      <trkpt lat="-36.80702555788671" lon="174.756929238985">
        <ele>11</ele>
      </trkpt>
      <trkpt lat="-36.80702555788671" lon="174.756929238985">
        <ele>11</ele>
      </trkpt>
      <trkpt lat="-36.80686343696357" lon="174.75673183292">
        <ele>12</ele>
      </trkpt>
      <trkpt lat="-36.80686343696357" lon="174.75673183292">
        <ele>12</ele>
      </trkpt>
      <trkpt lat="-36.80679191302689" lon="174.756787144764">
        <ele>11</ele>
      </trkpt>
      <trkpt lat="-36.80673660118253" lon="174.756867251574">
        <ele>11</ele>
      </trkpt>
      <trkpt lat="-36.80670322334542" lon="174.756897768453">
        <ele>11</ele>
      </trkpt>
      <trkpt lat="-36.80659927522411" lon="174.756928285333">
        <ele>10</ele>
      </trkpt>
      <trkpt lat="-36.80649437345032" lon="174.756959755865">
        <ele>11</ele>
      </trkpt>
      <trkpt lat="-36.80640568376884" lon="174.757003623879">
        <ele>10</ele>
      </trkpt>
      <trkpt lat="-36.80634941827199" lon="174.757039862674">
        <ele>10</ele>
      </trkpt>
      <trkpt lat="-36.80627789433531" lon="174.757094220866">
        <ele>10</ele>
      </trkpt>
      <trkpt lat="-36.80620541674614" lon="174.75714953271">
        <ele>10</ele>
      </trkpt>
      <trkpt lat="-36.80611195880221" lon="174.757235361434">
        <ele>9</ele>
      </trkpt>
      <trkpt lat="-36.80603185199313" lon="174.757312607286">
        <ele>8</ele>
      </trkpt>
      <trkpt lat="-36.80598226206371" lon="174.75737936296">
        <ele>7</ele>
      </trkpt>
      <trkpt lat="-36.80593267213428" lon="174.757430860195">
        <ele>7</ele>
      </trkpt>
      <trkpt lat="-36.80589738699219" lon="174.757442304024">
        <ele>7</ele>
      </trkpt>
      <trkpt lat="-36.8058611481976" lon="174.757436582109">
        <ele>7</ele>
      </trkpt>
      <trkpt lat="-36.8058611481976" lon="174.757436582109">
        <ele>7</ele>
      </trkpt>
      <trkpt lat="-36.80582872401297" lon="174.757423230975">
        <ele>7</ele>
      </trkpt>
      <trkpt lat="-36.80582872401297" lon="174.757423230975">
        <ele>7</ele>
      </trkpt>
      <trkpt lat="-36.80536620255579" lon="174.757229639519">
        <ele>9</ele>
      </trkpt>
      <trkpt lat="-36.80479877932482" lon="174.756869158879">
        <ele>12</ele>
      </trkpt>
      <trkpt lat="-36.80456322716002" lon="174.756652679764">
        <ele>14</ele>
      </trkpt>
      <trkpt lat="-36.80443162311654" lon="174.756643143239">
        <ele>14</ele>
      </trkpt>
      <trkpt lat="-36.80400247949648" lon="174.756713713523">
        <ele>11</ele>
      </trkpt>
      <trkpt lat="-36.80375357619683" lon="174.756717528133">
        <ele>9</ele>
      </trkpt>
      <trkpt lat="-36.80369826435247" lon="174.756664123593">
        <ele>9</ele>
      </trkpt>
      <trkpt lat="-36.80347510967004" lon="174.756565897387">
        <ele>7</ele>
      </trkpt>
      <trkpt lat="-36.80340072477589" lon="174.756453366393">
        <ele>7</ele>
      </trkpt>
      <trkpt lat="-36.80333778371162" lon="174.7563026893">
        <ele>6</ele>
      </trkpt>
      <trkpt lat="-36.80331394239939" lon="174.756152012207">
        <ele>6</ele>
      </trkpt>
      <trkpt lat="-36.80334541293153" lon="174.756040434866">
        <ele>7</ele>
      </trkpt>
      <trkpt lat="-36.80345126835781" lon="174.755871638375">
        <ele>9</ele>
      </trkpt>
      <trkpt lat="-36.8036172038909" lon="174.755690444402">
        <ele>11</ele>
      </trkpt>
      <trkpt lat="-36.80377932481404" lon="174.755428189968">
        <ele>13</ele>
      </trkpt>
      <trkpt lat="-36.80384894144574" lon="174.755294678619">
        <ele>13</ele>
      </trkpt>
      <trkpt lat="-36.80409307648293" lon="174.754880793439">
        <ele>14</ele>
      </trkpt>
      <trkpt lat="-36.804218004959" lon="174.754654777799">
        <ele>15</ele>
      </trkpt>
      <trkpt lat="-36.8043133702079" lon="174.754464047301">
        <ele>16</ele>
      </trkpt>
      <trkpt lat="-36.80441445737173" lon="174.754357238222">
        <ele>18</ele>
      </trkpt>
      <trkpt lat="-36.80441636467671" lon="174.754195117299">
        <ele>17</ele>
      </trkpt>
      <trkpt lat="-36.80439919893191" lon="174.753959565134">
        <ele>17</ele>
      </trkpt>
      <trkpt lat="-36.80439919893191" lon="174.753847034141">
        <ele>17</ele>
      </trkpt>
      <trkpt lat="-36.80441922563418" lon="174.753722105665">
        <ele>18</ele>
      </trkpt>
      <trkpt lat="-36.80441922563418" lon="174.753722105665">
        <ele>18</ele>
      </trkpt>
      <trkpt lat="-36.80442971581156" lon="174.753629601373">
        <ele>18</ele>
      </trkpt>
      <trkpt lat="-36.80442399389663" lon="174.753578104139">
        <ele>18</ele>
      </trkpt>
      <trkpt lat="-36.80442399389663" lon="174.753578104139">
        <ele>18</ele>
      </trkpt>
      <trkpt lat="-36.80441445737173" lon="174.75349418272">
        <ele>17</ele>
      </trkpt>
      <trkpt lat="-36.80440396719435" lon="174.753410261301">
        <ele>17</ele>
      </trkpt>
      <trkpt lat="-36.8044354377265" lon="174.753312988747">
        <ele>18</ele>
      </trkpt>
      <trkpt lat="-36.80445164981881" lon="174.75324527942">
        <ele>18</ele>
      </trkpt>
      <trkpt lat="-36.80446786191112" lon="174.753177570093">
        <ele>19</ele>
      </trkpt>
      <trkpt lat="-36.80446786191112" lon="174.753177570093">
        <ele>19</ele>
      </trkpt>
      <trkpt lat="-36.8044783520885" lon="174.753073621972">
        <ele>19</ele>
      </trkpt>
      <trkpt lat="-36.80446213999619" lon="174.752953461759">
        <ele>18</ele>
      </trkpt>
      <trkpt lat="-36.80446213999619" lon="174.752953461759">
        <ele>18</ele>
      </trkpt>
      <trkpt lat="-36.80435723822239" lon="174.752704558459">
        <ele>15</ele>
      </trkpt>
      <trkpt lat="-36.80433721152012" lon="174.752603471295">
        <ele>15</ele>
      </trkpt>
      <trkpt lat="-36.804260919321" lon="174.752385084875">
        <ele>13</ele>
      </trkpt>
      <trkpt lat="-36.80414552736983" lon="174.752092313561">
        <ele>11</ele>
      </trkpt>
      <trkpt lat="-36.8040701888232" lon="174.751845317566">
        <ele>11</ele>
      </trkpt>
      <trkpt lat="-36.8040263208087" lon="174.751757581537">
        <ele>11</ele>
      </trkpt>
      <trkpt lat="-36.80398149914171" lon="174.751689872211">
        <ele>10</ele>
      </trkpt>
      <trkpt lat="-36.80391760442495" lon="174.751604997139">
        <ele>10</ele>
      </trkpt>
      <trkpt lat="-36.80384226587832" lon="174.751522029372">
        <ele>10</ele>
      </trkpt>
      <trkpt lat="-36.80384226587832" lon="174.751522029372">
        <ele>10</ele>
      </trkpt>
      <trkpt lat="-36.80379362960137" lon="174.751476254053">
        <ele>10</ele>
      </trkpt>
      <trkpt lat="-36.80371829105474" lon="174.751423803166">
        <ele>10</ele>
      </trkpt>
      <trkpt lat="-36.80365344268549" lon="174.7513408354">
        <ele>10</ele>
      </trkpt>
      <trkpt lat="-36.80356379935152" lon="174.751276940683">
        <ele>9</ele>
      </trkpt>
      <trkpt lat="-36.80347415601755" lon="174.751213999619">
        <ele>8</ele>
      </trkpt>
      <trkpt lat="-36.80341312225825" lon="174.751191111959">
        <ele>7</ele>
      </trkpt>
      <trkpt lat="-36.80335113484647" lon="174.751169177952">
        <ele>7</ele>
      </trkpt>
      <trkpt lat="-36.80325863055503" lon="174.751154873164">
        <ele>7</ele>
      </trkpt>
      <trkpt lat="-36.80316707991608" lon="174.751123402632">
        <ele>7</ele>
      </trkpt>
      <trkpt lat="-36.80316707991608" lon="174.751123402632">
        <ele>7</ele>
      </trkpt>
      <trkpt lat="-36.80309650963189" lon="174.751101468625">
        <ele>7</ele>
      </trkpt>
      <trkpt lat="-36.80302498569522" lon="174.751079534618">
        <ele>7</ele>
      </trkpt>
      <trkpt lat="-36.8029477398436" lon="174.751067137135">
        <ele>7</ele>
      </trkpt>
      <trkpt lat="-36.8028695403395" lon="174.751055693305">
        <ele>7</ele>
      </trkpt>
      <trkpt lat="-36.80279706275034" lon="174.751063322525">
        <ele>7</ele>
      </trkpt>
      <trkpt lat="-36.8025481594507" lon="174.751022315468">
        <ele>7</ele>
      </trkpt>
      <trkpt lat="-36.80245851611673" lon="174.751016593553">
        <ele>8</ele>
      </trkpt>
      <trkpt lat="-36.80244039671944" lon="174.750997520504">
        <ele>8</ele>
      </trkpt>
      <trkpt lat="-36.80240225061988" lon="174.750985123021">
        <ele>8</ele>
      </trkpt>
      <trkpt lat="-36.80234979973298" lon="174.750978447454">
        <ele>8</ele>
      </trkpt>
      <trkpt lat="-36.80229925615106" lon="174.750955559794">
        <ele>8</ele>
      </trkpt>
      <trkpt lat="-36.80223917604425" lon="174.750952698837">
        <ele>8</ele>
      </trkpt>
      <trkpt lat="-36.802174327675" lon="174.750986076674">
        <ele>8</ele>
      </trkpt>
      <trkpt lat="-36.80205988937632" lon="174.750977493801">
        <ele>8</ele>
      </trkpt>
      <trkpt lat="-36.80201983597178" lon="174.750967957276">
        <ele>8</ele>
      </trkpt>
      <trkpt lat="-36.80201983597178" lon="174.750967957276">
        <ele>8</ele>
      </trkpt>
      <trkpt lat="-36.80198168987221" lon="174.750962235361">
        <ele>8</ele>
      </trkpt>
      <trkpt lat="-36.80173278657257" lon="174.750849704368">
        <ele>9</ele>
      </trkpt>
      <trkpt lat="-36.8016870112531" lon="174.750838260538">
        <ele>10</ele>
      </trkpt>
      <trkpt lat="-36.80159450696166" lon="174.750836353233">
        <ele>10</ele>
      </trkpt>
      <trkpt lat="-36.80151916841503" lon="174.750845889758">
        <ele>10</ele>
      </trkpt>
      <trkpt lat="-36.80143620064849" lon="174.750823002098">
        <ele>11</ele>
      </trkpt>
      <trkpt lat="-36.80135323288194" lon="174.750801068091">
        <ele>12</ele>
      </trkpt>
      <trkpt lat="-36.80132366965478" lon="174.750784855998">
        <ele>12</ele>
      </trkpt>
      <trkpt lat="-36.80132366965478" lon="174.750784855998">
        <ele>12</ele>
      </trkpt>
      <trkpt lat="-36.80123021171085" lon="174.750733358764">
        <ele>13</ele>
      </trkpt>
      <trkpt lat="-36.80113770741942" lon="174.750698073622">
        <ele>14</ele>
      </trkpt>
      <trkpt lat="-36.8010442494755" lon="174.750663742132">
        <ele>14</ele>
      </trkpt>
      <trkpt lat="-36.80098130841122" lon="174.750671371352">
        <ele>15</ele>
      </trkpt>
      <trkpt lat="-36.80091836734694" lon="174.750679000572">
        <ele>15</ele>
      </trkpt>
      <trkpt lat="-36.80084016784284" lon="174.750701888232">
        <ele>15</ele>
      </trkpt>
      <trkpt lat="-36.80084016784284" lon="174.750701888232">
        <ele>15</ele>
      </trkpt>
      <trkpt lat="-36.800739080679" lon="174.750749570856">
        <ele>15</ele>
      </trkpt>
      <trkpt lat="-36.80063799351517" lon="174.750798207133">
        <ele>16</ele>
      </trkpt>
      <trkpt lat="-36.80055884035858" lon="174.750863055503">
        <ele>15</ele>
      </trkpt>
      <trkpt lat="-36.80051020408163" lon="174.750947930574">
        <ele>15</ele>
      </trkpt>
      <trkpt lat="-36.8004615678047" lon="174.751032805646">
        <ele>14</ele>
      </trkpt>
      <trkpt lat="-36.80043963379745" lon="174.751048064085">
        <ele>14</ele>
      </trkpt>
      <trkpt lat="-36.80040816326531" lon="174.751053786">
        <ele>14</ele>
      </trkpt>
      <trkpt lat="-36.80037955369064" lon="174.751053786">
        <ele>14</ele>
      </trkpt>
      <trkpt lat="-36.80035857333588" lon="174.751044249475">
        <ele>14</ele>
      </trkpt>
      <trkpt lat="-36.80035857333588" lon="174.751044249475">
        <ele>14</ele>
      </trkpt>
      <trkpt lat="-36.8003480831585" lon="174.751077627313">
        <ele>14</ele>
      </trkpt>
      <trkpt lat="-36.80032519549876" lon="174.751102422277">
        <ele>14</ele>
      </trkpt>
      <trkpt lat="-36.80023650581728" lon="174.751169177952">
        <ele>13</ele>
      </trkpt>
      <trkpt lat="-36.80023650581728" lon="174.751169177952">
        <ele>13</ele>
      </trkpt>
      <trkpt lat="-36.80016402822812" lon="174.751221628838">
        <ele>13</ele>
      </trkpt>
      <trkpt lat="-36.80010871638375" lon="174.75127217242">
        <ele>12</ele>
      </trkpt>
      <trkpt lat="-36.8" lon="174.751388518024">
        <ele>10</ele>
      </trkpt>
      <trkpt lat="-36.8" lon="174.751388518024">
        <ele>10</ele>
      </trkpt>
      <trkpt lat="-36.79992752241083" lon="174.751450505436">
        <ele>10</ele>
      </trkpt>
      <trkpt lat="-36.79989986648865" lon="174.751485790578">
        <ele>10</ele>
      </trkpt>
      <trkpt lat="-36.79989986648865" lon="174.751485790578">
        <ele>10</ele>
      </trkpt>
      <trkpt lat="-36.79985313751668" lon="174.751583063132">
        <ele>9</ele>
      </trkpt>
      <trkpt lat="-36.79980545489224" lon="174.751681289338">
        <ele>8</ele>
      </trkpt>
      <trkpt lat="-36.79970627503338" lon="174.751926378028">
        <ele>9</ele>
      </trkpt>
      <trkpt lat="-36.79967480450124" lon="174.752026511539">
        <ele>9</ele>
      </trkpt>
      <trkpt lat="-36.79964238031661" lon="174.752126645051">
        <ele>9</ele>
      </trkpt>
      <trkpt lat="-36.79961377074194" lon="174.752190539767">
        <ele>10</ele>
      </trkpt>
      <trkpt lat="-36.79958420751478" lon="174.752255388137">
        <ele>10</ele>
      </trkpt>
      <trkpt lat="-36.7994955178333" lon="174.752370780088">
        <ele>11</ele>
      </trkpt>
      <trkpt lat="-36.79938584779706" lon="174.752478542819">
        <ele>12</ele>
      </trkpt>
      <trkpt lat="-36.79931432386039" lon="174.752566278848">
        <ele>12</ele>
      </trkpt>
      <trkpt lat="-36.79927236315087" lon="174.752653061224">
        <ele>12</ele>
      </trkpt>
      <trkpt lat="-36.79922944878886" lon="174.752740797253">
        <ele>13</ele>
      </trkpt>
      <trkpt lat="-36.79920465382415" lon="174.752839977112">
        <ele>12</ele>
      </trkpt>
      <trkpt lat="-36.79917985885943" lon="174.752939156971">
        <ele>12</ele>
      </trkpt>
      <trkpt lat="-36.79918939538432" lon="174.753028800305">
        <ele>12</ele>
      </trkpt>
      <trkpt lat="-36.79919797825672" lon="174.753119397292">
        <ele>12</ele>
      </trkpt>
      <trkpt lat="-36.79921609765401" lon="174.753183292008">
        <ele>11</ele>
      </trkpt>
      <trkpt lat="-36.79923421705131" lon="174.753247186725">
        <ele>11</ele>
      </trkpt>
      <trkpt lat="-36.7992427999237" lon="174.753359717719">
        <ele>11</ele>
      </trkpt>
      <trkpt lat="-36.79917985885943" lon="174.753878504673">
        <ele>12</ele>
      </trkpt>
      <trkpt lat="-36.79919893190921" lon="174.753971962617">
        <ele>12</ele>
      </trkpt>
      <trkpt lat="-36.79923898531375" lon="174.754080679001">
        <ele>12</ele>
      </trkpt>
      <trkpt lat="-36.79923898531375" lon="174.754080679001">
        <ele>12</ele>
      </trkpt>
      <trkpt lat="-36.799260919321" lon="174.754142666412">
        <ele>12</ele>
      </trkpt>
      <trkpt lat="-36.79928285332824" lon="174.754205607477">
        <ele>12</ele>
      </trkpt>
      <trkpt lat="-36.79929334350562" lon="174.754292389853">
        <ele>12</ele>
      </trkpt>
      <trkpt lat="-36.79930288003052" lon="174.754380125882">
        <ele>13</ele>
      </trkpt>
      <trkpt lat="-36.79930288003052" lon="174.754380125882">
        <ele>13</ele>
      </trkpt>
      <trkpt lat="-36.79933530421514" lon="174.754463093649">
        <ele>13</ele>
      </trkpt>
      <trkpt lat="-36.79939252336448" lon="174.754526034713">
        <ele>13</ele>
      </trkpt>
      <trkpt lat="-36.79944974251383" lon="174.75458992943">
        <ele>13</ele>
      </trkpt>
      <trkpt lat="-36.79953938584779" lon="174.754674804501">
        <ele>13</ele>
      </trkpt>
      <trkpt lat="-36.79965763875644" lon="174.754753004005">
        <ele>12</ele>
      </trkpt>
      <trkpt lat="-36.79972820904062" lon="174.754786381842">
        <ele>12</ele>
      </trkpt>
      <trkpt lat="-36.79979782567232" lon="174.75481975968">
        <ele>12</ele>
      </trkpt>
      <trkpt lat="-36.79988937631127" lon="174.754917032233">
        <ele>11</ele>
      </trkpt>
      <trkpt lat="-36.79992847606332" lon="174.755012397482">
        <ele>12</ele>
      </trkpt>
      <trkpt lat="-36.8" lon="174.755066755674">
        <ele>12</ele>
      </trkpt>
      <trkpt lat="-36.8" lon="174.755066755674">
        <ele>12</ele>
      </trkpt>
      <trkpt lat="-36.80005626549686" lon="174.755110623689">
        <ele>12</ele>
      </trkpt>
      <trkpt lat="-36.8001220675186" lon="174.755107762731">
        <ele>11</ele>
      </trkpt>
      <trkpt lat="-36.80018691588786" lon="174.755105855426">
        <ele>11</ele>
      </trkpt>
      <trkpt lat="-36.80027369826436" lon="174.755128743086">
        <ele>11</ele>
      </trkpt>
      <trkpt lat="-36.80033663932863" lon="174.755185962235">
        <ele>11</ele>
      </trkpt>
      <trkpt lat="-36.80039862674042" lon="174.755243181385">
        <ele>11</ele>
      </trkpt>
      <trkpt lat="-36.80046347510967" lon="174.755311844364">
        <ele>11</ele>
      </trkpt>
      <trkpt lat="-36.80056360862102" lon="174.755352851421">
        <ele>11</ele>
      </trkpt>
      <trkpt lat="-36.80063703986268" lon="174.755353805073">
        <ele>10</ele>
      </trkpt>
      <trkpt lat="-36.80070951745184" lon="174.755354758726">
        <ele>10</ele>
      </trkpt>
      <trkpt lat="-36.80083158497044" lon="174.755424375358">
        <ele>9</ele>
      </trkpt>
      <trkpt lat="-36.80085834388399" lon="174.755472121654">
        <ele>9</ele>
      </trkpt>
      <trkpt lat="-36.80085834388399" lon="174.755472121654">
        <ele>9</ele>
      </trkpt>
      <trkpt lat="-36.80087393795151" lon="174.755499946363">
        <ele>10</ele>
      </trkpt>
      <trkpt lat="-36.80098941223112" lon="174.755695596525">
        <ele>10</ele>
      </trkpt>
      <trkpt lat="-36.80103662025558" lon="174.755753385466">
        <ele>11</ele>
      </trkpt>
      <trkpt lat="-36.80103662025558" lon="174.755753385466">
        <ele>11</ele>
      </trkpt>
      <trkpt lat="-36.80110909784474" lon="174.755778180431">
        <ele>10</ele>
      </trkpt>
      <trkpt lat="-36.80117966812894" lon="174.755792485218">
        <ele>10</ele>
      </trkpt>
      <trkpt lat="-36.80124928476064" lon="174.755806790006">
        <ele>10</ele>
      </trkpt>
      <trkpt lat="-36.80135418653443" lon="174.755915506389">
        <ele>10</ele>
      </trkpt>
      <trkpt lat="-36.80142380316613" lon="174.755966049971">
        <ele>10</ele>
      </trkpt>
      <trkpt lat="-36.80149341979783" lon="174.756016593553">
        <ele>10</ele>
      </trkpt>
      <trkpt lat="-36.80154110242228" lon="174.756027083731">
        <ele>10</ele>
      </trkpt>
      <trkpt lat="-36.80162407018882" lon="174.756030898341">
        <ele>9</ele>
      </trkpt>
      <trkpt lat="-36.80170703795537" lon="174.756035666603">
        <ele>9</ele>
      </trkpt>
      <trkpt lat="-36.80176616440969" lon="174.756087163837">
        <ele>9</ele>
      </trkpt>
      <trkpt lat="-36.80180431050925" lon="174.756133892809">
        <ele>9</ele>
      </trkpt>
      <trkpt lat="-36.8018176616441" lon="174.756216860576">
        <ele>9</ele>
      </trkpt>
      <trkpt lat="-36.80185771504864" lon="174.756307457562">
        <ele>10</ele>
      </trkpt>
      <trkpt lat="-36.80189776845318" lon="174.756399008201">
        <ele>10</ele>
      </trkpt>
      <trkpt lat="-36.8019998092695" lon="174.756442876216">
        <ele>10</ele>
      </trkpt>
      <trkpt lat="-36.80210185008583" lon="174.75648674423">
        <ele>9</ele>
      </trkpt>
      <trkpt lat="-36.80219626168225" lon="174.756518214763">
        <ele>8</ele>
      </trkpt>
      <trkpt lat="-36.80228971962617" lon="174.756550638947">
        <ele>7</ele>
      </trkpt>
      <trkpt lat="-36.80235456799542" lon="174.756604997139">
        <ele>7</ele>
      </trkpt>
      <trkpt lat="-36.80240606522983" lon="174.756690825863">
        <ele>7</ele>
      </trkpt>
      <trkpt lat="-36.8023574289529" lon="174.756809078772">
        <ele>8</ele>
      </trkpt>
      <trkpt lat="-36.80233835590311" lon="174.756910165936">
        <ele>9</ele>
      </trkpt>
      <trkpt lat="-36.80236696547778" lon="174.757002670227">
        <ele>10</ele>
      </trkpt>
      <trkpt lat="-36.80236696547778" lon="174.757002670227">
        <ele>10</ele>
      </trkpt>
      <trkpt lat="-36.80232791876357" lon="174.757036268562">
        <ele>11</ele>
      </trkpt>
      <trkpt lat="-36.80232791876357" lon="174.757036268562">
        <ele>11</ele>
      </trkpt>
      <trkpt lat="-36.80236696547778" lon="174.757002670227">
        <ele>10</ele>
      </trkpt>
      <trkpt lat="-36.80236696547778" lon="174.757002670227">
        <ele>10</ele>
      </trkpt>
      <trkpt lat="-36.80243276749952" lon="174.757079916079">
        <ele>10</ele>
      </trkpt>
      <trkpt lat="-36.80249761586878" lon="174.757158115583">
        <ele>10</ele>
      </trkpt>
      <trkpt lat="-36.80260061033759" lon="174.757509059699">
        <ele>12</ele>
      </trkpt>
      <trkpt lat="-36.80260061033759" lon="174.757509059699">
        <ele>12</ele>
      </trkpt>
      <trkpt lat="-36.80267308792676" lon="174.757613961472">
        <ele>12</ele>
      </trkpt>
      <trkpt lat="-36.80278085065802" lon="174.757702651154">
        <ele>12</ele>
      </trkpt>
      <trkpt lat="-36.80283902345985" lon="174.757770360481">
        <ele>12</ele>
      </trkpt>
      <trkpt lat="-36.80289624260919" lon="174.757838069807">
        <ele>12</ele>
      </trkpt>
      <trkpt lat="-36.80301449551784" lon="174.75785809651">
        <ele>12</ele>
      </trkpt>
      <trkpt lat="-36.80307648292963" lon="174.757874308602">
        <ele>11</ele>
      </trkpt>
      <trkpt lat="-36.80313847034141" lon="174.757891474347">
        <ele>11</ele>
      </trkpt>
      <trkpt lat="-36.80320713332062" lon="174.757954415411">
        <ele>11</ele>
      </trkpt>
      <trkpt lat="-36.80327484264734" lon="174.758018310128">
        <ele>11</ele>
      </trkpt>
      <trkpt lat="-36.80332824718673" lon="174.758108907114">
        <ele>11</ele>
      </trkpt>
      <trkpt lat="-36.80341407591074" lon="174.758173755484">
        <ele>10</ele>
      </trkpt>
      <trkpt lat="-36.80352946786191" lon="174.758227160023">
        <ele>10</ele>
      </trkpt>
      <trkpt lat="-36.80362769406828" lon="174.758280564562">
        <ele>9</ele>
      </trkpt>
      <trkpt lat="-36.80365534999046" lon="174.758303452222">
        <ele>9</ele>
      </trkpt>
      <trkpt lat="-36.80367346938776" lon="174.758327293534">
        <ele>9</ele>
      </trkpt>
      <trkpt lat="-36.80370875452985" lon="174.758416936868">
        <ele>9</ele>
      </trkpt>
      <trkpt lat="-36.8037221056647" lon="174.75847892428">
        <ele>9</ele>
      </trkpt>
      <trkpt lat="-36.80373545679954" lon="174.758541865344">
        <ele>9</ele>
      </trkpt>
      <trkpt lat="-36.80373736410452" lon="174.758604806409">
        <ele>9</ele>
      </trkpt>
      <trkpt lat="-36.80372592027465" lon="174.758656303643">
        <ele>9</ele>
      </trkpt>
      <trkpt lat="-36.80371447644479" lon="174.758677283998">
        <ele>9</ele>
      </trkpt>
      <trkpt lat="-36.80368109860767" lon="174.758700171657">
        <ele>10</ele>
      </trkpt>
      <trkpt lat="-36.80368109860767" lon="174.758700171657">
        <ele>10</ele>
      </trkpt>
      <trkpt lat="-36.80365821094793" lon="174.758699218005">
        <ele>10</ele>
      </trkpt>
      <trkpt lat="-36.8036172038909" lon="174.758675376693">
        <ele>10</ele>
      </trkpt>
      <trkpt lat="-36.80355903108907" lon="174.758585733359">
        <ele>10</ele>
      </trkpt>
      <trkpt lat="-36.80350085828724" lon="174.758518024032">
        <ele>11</ele>
      </trkpt>
      <trkpt lat="-36.80345985123022" lon="174.75849418272">
        <ele>11</ele>
      </trkpt>
      <trkpt lat="-36.80341884417319" lon="174.758481785237">
        <ele>11</ele>
      </trkpt>
      <trkpt lat="-36.80338737364104" lon="174.758477970627">
        <ele>11</ele>
      </trkpt>
      <trkpt lat="-36.80335590310891" lon="174.758484646195">
        <ele>12</ele>
      </trkpt>
      <trkpt lat="-36.80333391241233" lon="174.758498492189">
        <ele>12</ele>
      </trkpt>
      <trkpt lat="-36.80333110814419" lon="174.75849799733">
        <ele>12</ele>
      </trkpt>
      <trkpt lat="-36.80312035094412" lon="174.758460804883">
        <ele>14</ele>
      </trkpt>
      <trkpt lat="-36.80288003051688" lon="174.758376883464">
        <ele>16</ele>
      </trkpt>
      <trkpt lat="-36.80219816898722" lon="174.758093648674">
        <ele>19</ele>
      </trkpt>
      <trkpt lat="-36.80219816898722" lon="174.758093648674">
        <ele>19</ele>
      </trkpt>
      <trkpt lat="-36.8021476254053" lon="174.758127026512">
        <ele>20</ele>
      </trkpt>
      <trkpt lat="-36.80196357047492" lon="174.758374976159">
        <ele>21</ele>
      </trkpt>
      <trkpt lat="-36.80188632462331" lon="174.75843696357">
        <ele>21</ele>
      </trkpt>
      <trkpt lat="-36.80181193972916" lon="174.75845222201">
        <ele>21</ele>
      </trkpt>
      <trkpt lat="-36.80173660118253" lon="174.758468434103">
        <ele>22</ele>
      </trkpt>
      <trkpt lat="-36.80169082586306" lon="174.758466526798">
        <ele>22</ele>
      </trkpt>
      <trkpt lat="-36.80106522983025" lon="174.75804215144">
        <ele>24</ele>
      </trkpt>
      <trkpt lat="-36.80103375929811" lon="174.758033568568">
        <ele>24</ele>
      </trkpt>
      <trkpt lat="-36.80101734954438" lon="174.758035087989">
        <ele>24</ele>
      </trkpt>
      <trkpt lat="-36.80101734953347" lon="174.758035088062">
        <ele>24</ele>
      </trkpt>
      <trkpt lat="-36.80101468624834" lon="174.757988746901">
        <ele>24</ele>
      </trkpt>
      <trkpt lat="-36.80099752050353" lon="174.757941064276">
        <ele>25</ele>
      </trkpt>
      <trkpt lat="-36.80097749380126" lon="174.757909593744">
        <ele>25</ele>
      </trkpt>
      <trkpt lat="-36.8009650963189" lon="174.757895288957">
        <ele>25</ele>
      </trkpt>
      <trkpt lat="-36.80089261872974" lon="174.75786191112">
        <ele>25</ele>
      </trkpt>
      <trkpt lat="-36.80082014114057" lon="174.757828533282">
        <ele>26</ele>
      </trkpt>
      <trkpt lat="-36.80079820713333" lon="174.757798970055">
        <ele>26</ele>
      </trkpt>
      <trkpt lat="-36.80058851403224" lon="174.757442491783">
        <ele>27</ele>
      </trkpt>
      <trkpt lat="-36.80058851390765" lon="174.757442491581">
        <ele>27</ele>
      </trkpt>
      <trkpt lat="-36.80053595269884" lon="174.757489986649">
        <ele>27</ele>
      </trkpt>
      <trkpt lat="-36.80053595269884" lon="174.757489986649">
        <ele>27</ele>
      </trkpt>
      <trkpt lat="-36.80026797634942" lon="174.757018882319">
        <ele>26</ele>
      </trkpt>
      <trkpt lat="-36.80018596223536" lon="174.756936868205">
        <ele>26</ele>
      </trkpt>
      <trkpt lat="-36.80006675567424" lon="174.756871066183">
        <ele>27</ele>
      </trkpt>
      <trkpt lat="-36.8" lon="174.756855807744">
        <ele>27</ele>
      </trkpt>
      <trkpt lat="-36.8" lon="174.756855807744">
        <ele>27</ele>
      </trkpt>
      <trkpt lat="-36.79999825391723" lon="174.756855384451">
        <ele>27</ele>
      </trkpt>
      <trkpt lat="-36.79999825391723" lon="174.756855384451">
        <ele>27</ele>
      </trkpt>
      <trkpt lat="-36.79996852946786" lon="174.756848178524">
        <ele>27</ele>
      </trkpt>
      <trkpt lat="-36.79988079343887" lon="174.756854854091">
        <ele>27</ele>
      </trkpt>
      <trkpt lat="-36.79977684531757" lon="174.756889185581">
        <ele>28</ele>
      </trkpt>
      <trkpt lat="-36.79968338737364" lon="174.75695403395">
        <ele>28</ele>
      </trkpt>
      <trkpt lat="-36.79960995613199" lon="174.757033187107">
        <ele>28</ele>
      </trkpt>
      <trkpt lat="-36.79955574497748" lon="174.757105239907">
        <ele>28</ele>
      </trkpt>
      <trkpt lat="-36.79955574497748" lon="174.757105239907">
        <ele>28</ele>
      </trkpt>
      <trkpt lat="-36.79955369063513" lon="174.757108525653">
        <ele>28</ele>
      </trkpt>
      <trkpt lat="-36.79955369063513" lon="174.757108525653">
        <ele>28</ele>
      </trkpt>
      <trkpt lat="-36.79955306419679" lon="174.75710880297">
        <ele>28</ele>
      </trkpt>
      <trkpt lat="-36.79955306420452" lon="174.75710880296">
        <ele>28</ele>
      </trkpt>
      <trkpt lat="-36.79953461758535" lon="174.757133320618">
        <ele>28</ele>
      </trkpt>
      <trkpt lat="-36.79945927903871" lon="174.757234407782">
        <ele>28</ele>
      </trkpt>
      <trkpt lat="-36.79944025985343" lon="174.757263302313">
        <ele>28</ele>
      </trkpt>
      <trkpt lat="-36.79944025985525" lon="174.75726330231">
        <ele>28</ele>
      </trkpt>
      <trkpt lat="-36.79944576969361" lon="174.757269586969">
        <ele>28</ele>
      </trkpt>
    </trkseg>
  </trk>
</gpx>