<?xml version="1.0" encoding="UTF-8" standalone="yes"?>
<gpx
 version="1.1"
 creator="Generated by MapOut iPhone App. See https://mapout.app"
 xmlns="http://www.topografix.com/GPX/1/1"
 xmlns:xsi="http://www.w3.org/2001/XMLSchema-instance"
 xmlns:gpxx="http://www.garmin.com/xmlschemas/GpxExtensions/v3"
 xmlns:mapout="https://mapout.app/xmlschemas/MapOutExtensions"
 xsi:schemaLocation="http://www.topografix.com/GPX/1/1 https://www.topografix.com/GPX/1/1/gpx.xsd http://www.garmin.com/xmlschemas/GpxExtensions/v3 https://www8.garmin.com/xmlschemas/GpxExtensionsv3.xsd https://mapout.app/xmlschemas/MapOutExtensions https://mapout.app/xmlschemas/MapOutExtensions.xsd">
  <metadata>
    <name>Cooks Cove</name>
    <author><name>iPhone</name></author>
    <time>2026-06-15T06:17:48Z</time>
    <bounds minlat="-38.38578962426092" minlon="178.317232500477" maxlat="-38.37993324432576" maxlon="178.335091763305"/>
  </metadata>
  <trk>
    <name>Cooks Cove</name>
    <trkseg>
      <trkpt lat="-38.38291913026893" lon="178.318576196834">
        <ele>22</ele>
      </trkpt>
      <trkpt lat="-38.38298588594316" lon="178.318502765592">
        <ele>23</ele>
      </trkpt>
      <trkpt lat="-38.38306217814228" lon="178.318430288003">
        <ele>23</ele>
      </trkpt>
      <trkpt lat="-38.38313847034141" lon="178.318357810414">
        <ele>24</ele>
      </trkpt>
      <trkpt lat="-38.38313847034141" lon="178.318357810414">
        <ele>24</ele>
      </trkpt>
      <trkpt lat="-38.38301449551783" lon="178.31801544917">
        <ele>15</ele>
      </trkpt>
      <trkpt lat="-38.38301200093476" lon="178.318008560289">
        <ele>15</ele>
      </trkpt>
      <trkpt lat="-38.3830354758726" lon="178.317779897006">
        <ele>12</ele>
      </trkpt>
      <trkpt lat="-38.3830354758726" lon="178.317779897006">
        <ele>12</ele>
      </trkpt>
      <trkpt lat="-38.38302689300019" lon="178.317717909594">
        <ele>11</ele>
      </trkpt>
      <trkpt lat="-38.3830173564753" lon="178.317655922182">
        <ele>10</ele>
      </trkpt>
      <trkpt lat="-38.38302117108525" lon="178.317553881366">
        <ele>9</ele>
      </trkpt>
      <trkpt lat="-38.38301449551783" lon="178.317450886897">
        <ele>8</ele>
      </trkpt>
      <trkpt lat="-38.38300686629792" lon="178.317347892428">
        <ele>8</ele>
      </trkpt>
      <trkpt lat="-38.38300702603792" lon="178.317348344917">
        <ele>8</ele>
      </trkpt>
      <trkpt lat="-38.3830783902346" lon="178.317317375548">
        <ele>9</ele>
      </trkpt>
      <trkpt lat="-38.38317852374595" lon="178.317277322144">
        <ele>9</ele>
      </trkpt>
      <trkpt lat="-38.38328151821477" lon="178.317249666222">
        <ele>9</ele>
      </trkpt>
      <trkpt lat="-38.38341026130078" lon="178.317232500477">
        <ele>10</ele>
      </trkpt>
      <trkpt lat="-38.38355617013161" lon="178.317256341789">
        <ele>11</ele>
      </trkpt>
      <trkpt lat="-38.38369158878505" lon="178.317298302499">
        <ele>12</ele>
      </trkpt>
      <trkpt lat="-38.38388136563037" lon="178.317336448598">
        <ele>13</ele>
      </trkpt>
      <trkpt lat="-38.38427236315087" lon="178.317325004768">
        <ele>14</ele>
      </trkpt>
      <trkpt lat="-38.38446213999619" lon="178.317366965478">
        <ele>14</ele>
      </trkpt>
      <trkpt lat="-38.38509250429144" lon="178.317689300019">
        <ele>16</ele>
      </trkpt>
      <trkpt lat="-38.38534999046347" lon="178.317757962998">
        <ele>19</ele>
      </trkpt>
      <trkpt lat="-38.38553976730879" lon="178.317776082396">
        <ele>20</ele>
      </trkpt>
      <trkpt lat="-38.38578962426092" lon="178.317746519168">
        <ele>20</ele>
      </trkpt>
      <trkpt lat="-38.38578962426092" lon="178.317746519168">
        <ele>20</ele>
      </trkpt>
      <trkpt lat="-38.3857657829487" lon="178.317925805836">
        <ele>24</ele>
      </trkpt>
      <trkpt lat="-38.38558935723822" lon="178.31827961091">
        <ele>31</ele>
      </trkpt>
      <trkpt lat="-38.38558935723822" lon="178.31827961091">
        <ele>31</ele>
      </trkpt>
      <trkpt lat="-38.38540720961281" lon="178.318644859813">
        <ele>38</ele>
      </trkpt>
      <trkpt lat="-38.38538527560557" lon="178.31871638375">
        <ele>40</ele>
      </trkpt>
      <trkpt lat="-38.38540625596033" lon="178.318768834637">
        <ele>41</ele>
      </trkpt>
      <trkpt lat="-38.38545966049971" lon="178.318842265878">
        <ele>43</ele>
      </trkpt>
      <trkpt lat="-38.3855130650391" lon="178.31891569712">
        <ele>45</ele>
      </trkpt>
      <trkpt lat="-38.38560461567805" lon="178.318949074957">
        <ele>45</ele>
      </trkpt>
      <trkpt lat="-38.38569235170704" lon="178.319037764639">
        <ele>46</ele>
      </trkpt>
      <trkpt lat="-38.3857133320618" lon="178.319106427618">
        <ele>47</ele>
      </trkpt>
      <trkpt lat="-38.38573335876406" lon="178.319175090597">
        <ele>48</ele>
      </trkpt>
      <trkpt lat="-38.38577627312608" lon="178.319427808507">
        <ele>49</ele>
      </trkpt>
      <trkpt lat="-38.38571810032424" lon="178.319479305741">
        <ele>50</ele>
      </trkpt>
      <trkpt lat="-38.38560080106809" lon="178.319519359146">
        <ele>52</ele>
      </trkpt>
      <trkpt lat="-38.38548254815945" lon="178.31955941255">
        <ele>53</ele>
      </trkpt>
      <trkpt lat="-38.38543772649247" lon="178.319620446309">
        <ele>54</ele>
      </trkpt>
      <trkpt lat="-38.38539195117299" lon="178.319681480069">
        <ele>55</ele>
      </trkpt>
      <trkpt lat="-38.38535857333588" lon="178.319703414076">
        <ele>56</ele>
      </trkpt>
      <trkpt lat="-38.38529658592409" lon="178.319659546061">
        <ele>56</ele>
      </trkpt>
      <trkpt lat="-38.38523364485982" lon="178.319616631699">
        <ele>57</ele>
      </trkpt>
      <trkpt lat="-38.38512588212856" lon="178.319568949075">
        <ele>57</ele>
      </trkpt>
      <trkpt lat="-38.38504005340454" lon="178.31955941255">
        <ele>58</ele>
      </trkpt>
      <trkpt lat="-38.38497711234027" lon="178.319598512302">
        <ele>60</ele>
      </trkpt>
      <trkpt lat="-38.38491417127599" lon="178.319638565707">
        <ele>61</ele>
      </trkpt>
      <trkpt lat="-38.38401678428381" lon="178.31954796872">
        <ele>75</ele>
      </trkpt>
      <trkpt lat="-38.38395479687202" lon="178.319900820141">
        <ele>81</ele>
      </trkpt>
      <trkpt lat="-38.3838346366584" lon="178.32">
        <ele>84</ele>
      </trkpt>
      <trkpt lat="-38.3838346366584" lon="178.32">
        <ele>84</ele>
      </trkpt>
      <trkpt lat="-38.38373354949456" lon="178.320083921419">
        <ele>87</ele>
      </trkpt>
      <trkpt lat="-38.38363150867823" lon="178.320167842838">
        <ele>89</ele>
      </trkpt>
      <trkpt lat="-38.38361148197597" lon="178.320231737555">
        <ele>90</ele>
      </trkpt>
      <trkpt lat="-38.38370970818234" lon="178.320669464047">
        <ele>91</ele>
      </trkpt>
      <trkpt lat="-38.38361815754339" lon="178.321018500858">
        <ele>95</ele>
      </trkpt>
      <trkpt lat="-38.38363436963571" lon="178.321270265115">
        <ele>95</ele>
      </trkpt>
      <trkpt lat="-38.38353995803929" lon="178.321595460614">
        <ele>98</ele>
      </trkpt>
      <trkpt lat="-38.38355330917414" lon="178.321669845508">
        <ele>98</ele>
      </trkpt>
      <trkpt lat="-38.3835657066565" lon="178.321745184055">
        <ele>98</ele>
      </trkpt>
      <trkpt lat="-38.38353518977684" lon="178.322078008774">
        <ele>99</ele>
      </trkpt>
      <trkpt lat="-38.38349895098226" lon="178.322147625405">
        <ele>100</ele>
      </trkpt>
      <trkpt lat="-38.38346175853519" lon="178.322217242037">
        <ele>100</ele>
      </trkpt>
      <trkpt lat="-38.38335208849895" lon="178.322822811368">
        <ele>104</ele>
      </trkpt>
      <trkpt lat="-38.38326721342743" lon="178.322935342361">
        <ele>106</ele>
      </trkpt>
      <trkpt lat="-38.38301449551783" lon="178.323026893">
        <ele>111</ele>
      </trkpt>
      <trkpt lat="-38.38303070761015" lon="178.323141331299">
        <ele>111</ele>
      </trkpt>
      <trkpt lat="-38.38304691970246" lon="178.323255769598">
        <ele>112</ele>
      </trkpt>
      <trkpt lat="-38.3829219912264" lon="178.323909975205">
        <ele>107</ele>
      </trkpt>
      <trkpt lat="-38.38296109097845" lon="178.323996757582">
        <ele>105</ele>
      </trkpt>
      <trkpt lat="-38.38284665267977" lon="178.324100705703">
        <ele>106</ele>
      </trkpt>
      <trkpt lat="-38.38277322143811" lon="178.32411119588">
        <ele>108</ele>
      </trkpt>
      <trkpt lat="-38.38269979019645" lon="178.324121686058">
        <ele>109</ele>
      </trkpt>
      <trkpt lat="-38.38262159069235" lon="178.324097844745">
        <ele>111</ele>
      </trkpt>
      <trkpt lat="-38.38254339118825" lon="178.324074003433">
        <ele>113</ele>
      </trkpt>
      <trkpt lat="-38.38246328437917" lon="178.324038718291">
        <ele>113</ele>
      </trkpt>
      <trkpt lat="-38.38240320427236" lon="178.324151249285">
        <ele>110</ele>
      </trkpt>
      <trkpt lat="-38.38240987983978" lon="178.324236124356">
        <ele>110</ele>
      </trkpt>
      <trkpt lat="-38.38241560175472" lon="178.32432195308">
        <ele>110</ele>
      </trkpt>
      <trkpt lat="-38.38245851611673" lon="178.324404920847">
        <ele>111</ele>
      </trkpt>
      <trkpt lat="-38.38245946976922" lon="178.324475491131">
        <ele>111</ele>
      </trkpt>
      <trkpt lat="-38.38242895288957" lon="178.32454796872">
        <ele>109</ele>
      </trkpt>
      <trkpt lat="-38.38239748235743" lon="178.324621399962">
        <ele>108</ele>
      </trkpt>
      <trkpt lat="-38.38227732214381" lon="178.324646194927">
        <ele>104</ele>
      </trkpt>
      <trkpt lat="-38.38218767880984" lon="178.324744421133">
        <ele>102</ele>
      </trkpt>
      <trkpt lat="-38.38219721533473" lon="178.324827388899">
        <ele>102</ele>
      </trkpt>
      <trkpt lat="-38.38224012969674" lon="178.324940873546">
        <ele>103</ele>
      </trkpt>
      <trkpt lat="-38.38228209040626" lon="178.325054358192">
        <ele>105</ele>
      </trkpt>
      <trkpt lat="-38.38229067327866" lon="178.325123974824">
        <ele>105</ele>
      </trkpt>
      <trkpt lat="-38.38229830249857" lon="178.325193591455">
        <ele>106</ele>
      </trkpt>
      <trkpt lat="-38.38230307076102" lon="178.325295632272">
        <ele>107</ele>
      </trkpt>
      <trkpt lat="-38.38187774175091" lon="178.325515925997">
        <ele>103</ele>
      </trkpt>
      <trkpt lat="-38.38185103948121" lon="178.325577913408">
        <ele>103</ele>
      </trkpt>
      <trkpt lat="-38.38182338355903" lon="178.325640854473">
        <ele>104</ele>
      </trkpt>
      <trkpt lat="-38.38183959565134" lon="178.325734312417">
        <ele>106</ele>
      </trkpt>
      <trkpt lat="-38.38172420370017" lon="178.325851611673">
        <ele>107</ele>
      </trkpt>
      <trkpt lat="-38.38169177951554" lon="178.326144382987">
        <ele>109</ele>
      </trkpt>
      <trkpt lat="-38.38163932862865" lon="178.326788098417">
        <ele>110</ele>
      </trkpt>
      <trkpt lat="-38.38164791150105" lon="178.327033187107">
        <ele>110</ele>
      </trkpt>
      <trkpt lat="-38.38171371352279" lon="178.327072286859">
        <ele>111</ele>
      </trkpt>
      <trkpt lat="-38.38177951554454" lon="178.327112340263">
        <ele>110</ele>
      </trkpt>
      <trkpt lat="-38.38184722487126" lon="178.327231546824">
        <ele>108</ele>
      </trkpt>
      <trkpt lat="-38.38191493419798" lon="178.327351707038">
        <ele>106</ele>
      </trkpt>
      <trkpt lat="-38.38194068281518" lon="178.327447072287">
        <ele>105</ele>
      </trkpt>
      <trkpt lat="-38.38191493419798" lon="178.327554835018">
        <ele>104</ele>
      </trkpt>
      <trkpt lat="-38.38188918558077" lon="178.327663551402">
        <ele>102</ele>
      </trkpt>
      <trkpt lat="-38.3819044440206" lon="178.327767499523">
        <ele>100</ele>
      </trkpt>
      <trkpt lat="-38.38191970246042" lon="178.327872401297">
        <ele>98</ele>
      </trkpt>
      <trkpt lat="-38.38199027274461" lon="178.327939156971">
        <ele>96</ele>
      </trkpt>
      <trkpt lat="-38.38206370398627" lon="178.327895288957">
        <ele>96</ele>
      </trkpt>
      <trkpt lat="-38.38214667175281" lon="178.327971581156">
        <ele>94</ele>
      </trkpt>
      <trkpt lat="-38.3821829105474" lon="178.327962044631">
        <ele>94</ele>
      </trkpt>
      <trkpt lat="-38.3822525271791" lon="178.327882891474">
        <ele>95</ele>
      </trkpt>
      <trkpt lat="-38.38232119015831" lon="178.327803738318">
        <ele>95</ele>
      </trkpt>
      <trkpt lat="-38.38239366774747" lon="178.327777036048">
        <ele>95</ele>
      </trkpt>
      <trkpt lat="-38.38246614533664" lon="178.327751287431">
        <ele>94</ele>
      </trkpt>
      <trkpt lat="-38.3825300400534" lon="178.327716955941">
        <ele>93</ele>
      </trkpt>
      <trkpt lat="-38.38259393477017" lon="178.327682624452">
        <ele>93</ele>
      </trkpt>
      <trkpt lat="-38.38260728590502" lon="178.327591073813">
        <ele>93</ele>
      </trkpt>
      <trkpt lat="-38.38261968338738" lon="178.327499523174">
        <ele>94</ele>
      </trkpt>
      <trkpt lat="-38.38262445164982" lon="178.327407972535">
        <ele>95</ele>
      </trkpt>
      <trkpt lat="-38.38262826625977" lon="178.327316421896">
        <ele>96</ele>
      </trkpt>
      <trkpt lat="-38.38264543200458" lon="178.32721438108">
        <ele>97</ele>
      </trkpt>
      <trkpt lat="-38.38266259774938" lon="178.327112340263">
        <ele>97</ele>
      </trkpt>
      <trkpt lat="-38.38269406828152" lon="178.327020789624">
        <ele>98</ele>
      </trkpt>
      <trkpt lat="-38.38272458516117" lon="178.326929238985">
        <ele>98</ele>
      </trkpt>
      <trkpt lat="-38.38276845317566" lon="178.326962616822">
        <ele>97</ele>
      </trkpt>
      <trkpt lat="-38.38282662597749" lon="178.327228685867">
        <ele>94</ele>
      </trkpt>
      <trkpt lat="-38.38283616250239" lon="178.327298302499">
        <ele>93</ele>
      </trkpt>
      <trkpt lat="-38.38284474537478" lon="178.327368872783">
        <ele>92</ele>
      </trkpt>
      <trkpt lat="-38.38288193782186" lon="178.327449933244">
        <ele>91</ele>
      </trkpt>
      <trkpt lat="-38.38291817661644" lon="178.327530993706">
        <ele>89</ele>
      </trkpt>
      <trkpt lat="-38.38321190158307" lon="178.327984932291">
        <ele>79</ele>
      </trkpt>
      <trkpt lat="-38.38324623307267" lon="178.328286286477">
        <ele>75</ele>
      </trkpt>
      <trkpt lat="-38.38326149151249" lon="178.328371161549">
        <ele>73</ele>
      </trkpt>
      <trkpt lat="-38.38327579629983" lon="178.328456990273">
        <ele>72</ele>
      </trkpt>
      <trkpt lat="-38.38323669654778" lon="178.328554262827">
        <ele>71</ele>
      </trkpt>
      <trkpt lat="-38.38323765020026" lon="178.328629601373">
        <ele>70</ele>
      </trkpt>
      <trkpt lat="-38.38323765020026" lon="178.32870493992">
        <ele>69</ele>
      </trkpt>
      <trkpt lat="-38.38325863055503" lon="178.328791722296">
        <ele>68</ele>
      </trkpt>
      <trkpt lat="-38.38327865725729" lon="178.328879458325">
        <ele>66</ele>
      </trkpt>
      <trkpt lat="-38.38335208849895" lon="178.328967194354">
        <ele>64</ele>
      </trkpt>
      <trkpt lat="-38.3833654396338" lon="178.329075910738">
        <ele>62</ele>
      </trkpt>
      <trkpt lat="-38.38337879076865" lon="178.329185580774">
        <ele>61</ele>
      </trkpt>
      <trkpt lat="-38.38337020789624" lon="178.329291436201">
        <ele>59</ele>
      </trkpt>
      <trkpt lat="-38.38338641998855" lon="178.329362006485">
        <ele>58</ele>
      </trkpt>
      <trkpt lat="-38.38340263208087" lon="178.329432576769">
        <ele>56</ele>
      </trkpt>
      <trkpt lat="-38.38340263208087" lon="178.32954796872">
        <ele>54</ele>
      </trkpt>
      <trkpt lat="-38.3833740225062" lon="178.329624260919">
        <ele>53</ele>
      </trkpt>
      <trkpt lat="-38.38334445927904" lon="178.329701506771">
        <ele>52</ele>
      </trkpt>
      <trkpt lat="-38.38329200839214" lon="178.32980831585">
        <ele>51</ele>
      </trkpt>
      <trkpt lat="-38.38323955750525" lon="178.329916078581">
        <ele>50</ele>
      </trkpt>
      <trkpt lat="-38.38289242799924" lon="178.330477779897">
        <ele>45</ele>
      </trkpt>
      <trkpt lat="-38.38281422849514" lon="178.330898340645">
        <ele>38</ele>
      </trkpt>
      <trkpt lat="-38.38276273126073" lon="178.330991798589">
        <ele>39</ele>
      </trkpt>
      <trkpt lat="-38.38271123402632" lon="178.331085256533">
        <ele>39</ele>
      </trkpt>
      <trkpt lat="-38.38267880984169" lon="178.331172992562">
        <ele>39</ele>
      </trkpt>
      <trkpt lat="-38.3825910738127" lon="178.331214953271">
        <ele>38</ele>
      </trkpt>
      <trkpt lat="-38.38250238413122" lon="178.331257867633">
        <ele>37</ele>
      </trkpt>
      <trkpt lat="-38.38200934579439" lon="178.331426664124">
        <ele>31</ele>
      </trkpt>
      <trkpt lat="-38.38167652107572" lon="178.331476254053">
        <ele>27</ele>
      </trkpt>
      <trkpt lat="-38.38140473011634" lon="178.331493419798">
        <ele>25</ele>
      </trkpt>
      <trkpt lat="-38.38129792103757" lon="178.331507724585">
        <ele>24</ele>
      </trkpt>
      <trkpt lat="-38.38119111195881" lon="178.331522029372">
        <ele>24</ele>
      </trkpt>
      <trkpt lat="-38.38091646004196" lon="178.331722296395">
        <ele>21</ele>
      </trkpt>
      <trkpt lat="-38.38082204844554" lon="178.331811939729">
        <ele>20</ele>
      </trkpt>
      <trkpt lat="-38.38072668319664" lon="178.331901583063">
        <ele>20</ele>
      </trkpt>
      <trkpt lat="-38.38067041769979" lon="178.332017928667">
        <ele>20</ele>
      </trkpt>
      <trkpt lat="-38.38061415220294" lon="178.332135227923">
        <ele>19</ele>
      </trkpt>
      <trkpt lat="-38.38" lon="178.33219912264">
        <ele>17</ele>
      </trkpt>
      <trkpt lat="-38.38" lon="178.33219912264">
        <ele>17</ele>
      </trkpt>
      <trkpt lat="-38.37993324432576" lon="178.332205798207">
        <ele>16</ele>
      </trkpt>
      <trkpt lat="-38.38" lon="178.332575815373">
        <ele>17</ele>
      </trkpt>
      <trkpt lat="-38.38" lon="178.332575815373">
        <ele>17</ele>
      </trkpt>
      <trkpt lat="-38.38001811939729" lon="178.332678809842">
        <ele>16</ele>
      </trkpt>
      <trkpt lat="-38.38007247758917" lon="178.333474156018">
        <ele>14</ele>
      </trkpt>
      <trkpt lat="-38.38013255769597" lon="178.33409593744">
        <ele>14</ele>
      </trkpt>
      <trkpt lat="-38.38014590883082" lon="178.334645241274">
        <ele>12</ele>
      </trkpt>
      <trkpt lat="-38.38003800665039" lon="178.335091763305">
        <ele>11</ele>
      </trkpt>
    </trkseg>
  </trk>
</gpx>