<?xml version="1.0" encoding="UTF-8" standalone="yes"?>
<gpx
 version="1.1"
 creator="Generated by MapOut iPhone App. See https://mapout.app"
 xmlns="http://www.topografix.com/GPX/1/1"
 xmlns:xsi="http://www.w3.org/2001/XMLSchema-instance"
 xmlns:gpxx="http://www.garmin.com/xmlschemas/GpxExtensions/v3"
 xmlns:mapout="https://mapout.app/xmlschemas/MapOutExtensions"
 xsi:schemaLocation="http://www.topografix.com/GPX/1/1 https://www.topografix.com/GPX/1/1/gpx.xsd http://www.garmin.com/xmlschemas/GpxExtensions/v3 https://www8.garmin.com/xmlschemas/GpxExtensionsv3.xsd https://mapout.app/xmlschemas/MapOutExtensions https://mapout.app/xmlschemas/MapOutExtensions.xsd">
  <metadata>
    <name>Blue Lakes</name>
    <author><name>iPhone</name></author>
    <time>2026-10-05T21:20:58Z</time>
    <bounds minlat="-43.69784093076483" minlon="170.16169750143" maxlat="-43.69194068281518" maxlon="170.16792483482"/>
  </metadata>
  <trk>
    <name>Blue Lakes</name>
    <trkseg>
      <trkpt lat="-43.69784093076483" lon="170.163122258249">
        <ele>721</ele>
      </trkpt>
      <trkpt lat="-43.69782853328247" lon="170.163086973107">
        <ele>721</ele>
      </trkpt>
      <trkpt lat="-43.69782185771505" lon="170.163041197788">
        <ele>721</ele>
      </trkpt>
      <trkpt lat="-43.69782185771505" lon="170.163041197788">
        <ele>721</ele>
      </trkpt>
      <trkpt lat="-43.69772744611863" lon="170.163036429525">
        <ele>722</ele>
      </trkpt>
      <trkpt lat="-43.69768262445164" lon="170.163024985695">
        <ele>722</ele>
      </trkpt>
      <trkpt lat="-43.69727160022887" lon="170.162818043105">
        <ele>725</ele>
      </trkpt>
      <trkpt lat="-43.69727160022887" lon="170.162818043105">
        <ele>725</ele>
      </trkpt>
      <trkpt lat="-43.6966955941255" lon="170.16259012016">
        <ele>728</ele>
      </trkpt>
      <trkpt lat="-43.69580679000572" lon="170.16214190349">
        <ele>732</ele>
      </trkpt>
      <trkpt lat="-43.69558649628075" lon="170.161981689872">
        <ele>732</ele>
      </trkpt>
      <trkpt lat="-43.69506294106427" lon="170.161877741751">
        <ele>730</ele>
      </trkpt>
      <trkpt lat="-43.69371638374976" lon="170.161806217814">
        <ele>735</ele>
      </trkpt>
      <trkpt lat="-43.69307076101468" lon="170.16169750143">
        <ele>739</ele>
      </trkpt>
      <trkpt lat="-43.69297253480831" lon="170.161748998665">
        <ele>741</ele>
      </trkpt>
      <trkpt lat="-43.69264447835209" lon="170.161971199695">
        <ele>747</ele>
      </trkpt>
      <trkpt lat="-43.69205988937631" lon="170.162792294488">
        <ele>757</ele>
      </trkpt>
      <trkpt lat="-43.69205988937631" lon="170.162792294488">
        <ele>757</ele>
      </trkpt>
      <trkpt lat="-43.69205702841884" lon="170.162971581156">
        <ele>758</ele>
      </trkpt>
      <trkpt lat="-43.69202841884417" lon="170.163138470341">
        <ele>759</ele>
      </trkpt>
      <trkpt lat="-43.69194068281518" lon="170.163212855236">
        <ele>760</ele>
      </trkpt>
      <trkpt lat="-43.69194068281518" lon="170.163384512684">
        <ele>761</ele>
      </trkpt>
      <trkpt lat="-43.69213808888041" lon="170.163641998856">
        <ele>763</ele>
      </trkpt>
      <trkpt lat="-43.69230879267595" lon="170.163807934389">
        <ele>764</ele>
      </trkpt>
      <trkpt lat="-43.6923307266832" lon="170.163949074957">
        <ele>764</ele>
      </trkpt>
      <trkpt lat="-43.69223917604425" lon="170.164108334923">
        <ele>766</ele>
      </trkpt>
      <trkpt lat="-43.69231546824337" lon="170.164404920847">
        <ele>770</ele>
      </trkpt>
      <trkpt lat="-43.69243276749952" lon="170.164478352089">
        <ele>770</ele>
      </trkpt>
      <trkpt lat="-43.69261014686248" lon="170.164517451841">
        <ele>769</ele>
      </trkpt>
      <trkpt lat="-43.69273602899104" lon="170.164473583826">
        <ele>767</ele>
      </trkpt>
      <trkpt lat="-43.6929038718291" lon="170.164560366203">
        <ele>767</ele>
      </trkpt>
      <trkpt lat="-43.69299637612054" lon="170.16455559794">
        <ele>767</ele>
      </trkpt>
      <trkpt lat="-43.69336257867633" lon="170.164238031661">
        <ele>763</ele>
      </trkpt>
      <trkpt lat="-43.69343219530803" lon="170.164249475491">
        <ele>763</ele>
      </trkpt>
      <trkpt lat="-43.69346461949265" lon="170.164328628648">
        <ele>764</ele>
      </trkpt>
      <trkpt lat="-43.69342742704558" lon="170.164685294679">
        <ele>765</ele>
      </trkpt>
      <trkpt lat="-43.69348464619492" lon="170.164944688156">
        <ele>766</ele>
      </trkpt>
      <trkpt lat="-43.69359526988365" lon="170.165018119397">
        <ele>766</ele>
      </trkpt>
      <trkpt lat="-43.69377646385657" lon="170.165008582872">
        <ele>765</ele>
      </trkpt>
      <trkpt lat="-43.69403585733359" lon="170.165050543582">
        <ele>764</ele>
      </trkpt>
      <trkpt lat="-43.69403585733359" lon="170.165050543582">
        <ele>764</ele>
      </trkpt>
      <trkpt lat="-43.69408163265306" lon="170.165058172802">
        <ele>763</ele>
      </trkpt>
      <trkpt lat="-43.69440587449933" lon="170.165">
        <ele>763</ele>
      </trkpt>
      <trkpt lat="-43.69450696166317" lon="170.165112530994">
        <ele>765</ele>
      </trkpt>
      <trkpt lat="-43.69460137325958" lon="170.165186915888">
        <ele>766</ele>
      </trkpt>
      <trkpt lat="-43.69466526797635" lon="170.165160213618">
        <ele>766</ele>
      </trkpt>
      <trkpt lat="-43.69472916269311" lon="170.165133511348">
        <ele>766</ele>
      </trkpt>
      <trkpt lat="-43.69480736219721" lon="170.165144001526">
        <ele>767</ele>
      </trkpt>
      <trkpt lat="-43.69488460804882" lon="170.165154491703">
        <ele>767</ele>
      </trkpt>
      <trkpt lat="-43.69493991989319" lon="170.165219340072">
        <ele>767</ele>
      </trkpt>
      <trkpt lat="-43.69499523173755" lon="170.165284188442">
        <ele>768</ele>
      </trkpt>
      <trkpt lat="-43.69514876978829" lon="170.165784855998">
        <ele>769</ele>
      </trkpt>
      <trkpt lat="-43.6952603471295" lon="170.165828724013">
        <ele>769</ele>
      </trkpt>
      <trkpt lat="-43.69537192447072" lon="170.165872592027">
        <ele>769</ele>
      </trkpt>
      <trkpt lat="-43.69548540911691" lon="170.165816326531">
        <ele>769</ele>
      </trkpt>
      <trkpt lat="-43.6955388136563" lon="170.165857333588">
        <ele>769</ele>
      </trkpt>
      <trkpt lat="-43.69572572954415" lon="170.166219721533">
        <ele>772</ele>
      </trkpt>
      <trkpt lat="-43.6958001144383" lon="170.166266450505">
        <ele>772</ele>
      </trkpt>
      <trkpt lat="-43.69587449933244" lon="170.166313179477">
        <ele>772</ele>
      </trkpt>
      <trkpt lat="-43.6962349799733" lon="170.166401869159">
        <ele>771</ele>
      </trkpt>
      <trkpt lat="-43.69632843791722" lon="170.166467671181">
        <ele>770</ele>
      </trkpt>
      <trkpt lat="-43.69636372305931" lon="170.166554453557">
        <ele>770</ele>
      </trkpt>
      <trkpt lat="-43.69639805454892" lon="170.166642189586">
        <ele>770</ele>
      </trkpt>
      <trkpt lat="-43.69637135227923" lon="170.16675090597">
        <ele>772</ele>
      </trkpt>
      <trkpt lat="-43.69638088880411" lon="170.166765210757">
        <ele>772</ele>
      </trkpt>
      <trkpt lat="-43.69641522029372" lon="170.166703223345">
        <ele>770</ele>
      </trkpt>
      <trkpt lat="-43.69644955178333" lon="170.166641235934">
        <ele>770</ele>
      </trkpt>
      <trkpt lat="-43.69649628075529" lon="170.166581155827">
        <ele>769</ele>
      </trkpt>
      <trkpt lat="-43.69652584398245" lon="170.166558268167">
        <ele>769</ele>
      </trkpt>
      <trkpt lat="-43.69658592408926" lon="170.166579248522">
        <ele>769</ele>
      </trkpt>
      <trkpt lat="-43.69663074575625" lon="170.166663169941">
        <ele>768</ele>
      </trkpt>
      <trkpt lat="-43.69665840167843" lon="170.166730879268">
        <ele>769</ele>
      </trkpt>
      <trkpt lat="-43.69668605760061" lon="170.166799542247">
        <ele>770</ele>
      </trkpt>
      <trkpt lat="-43.69673183292008" lon="170.166829105474">
        <ele>770</ele>
      </trkpt>
      <trkpt lat="-43.69677951554453" lon="170.166901583063">
        <ele>770</ele>
      </trkpt>
      <trkpt lat="-43.69682624451649" lon="170.166974060652">
        <ele>771</ele>
      </trkpt>
      <trkpt lat="-43.69684491602837" lon="170.166984329984">
        <ele>771</ele>
      </trkpt>
      <trkpt lat="-43.69684491600081" lon="170.166984329995">
        <ele>771</ele>
      </trkpt>
      <trkpt lat="-43.69681098607667" lon="170.166997901965">
        <ele>772</ele>
      </trkpt>
      <trkpt lat="-43.6967737936296" lon="170.167054167461">
        <ele>773</ele>
      </trkpt>
      <trkpt lat="-43.69671562082777" lon="170.167123784093">
        <ele>775</ele>
      </trkpt>
      <trkpt lat="-43.69662788479878" lon="170.167150486363">
        <ele>777</ele>
      </trkpt>
      <trkpt lat="-43.6965391951173" lon="170.167178142285">
        <ele>778</ele>
      </trkpt>
      <trkpt lat="-43.69649437345031" lon="170.167178142285">
        <ele>778</ele>
      </trkpt>
      <trkpt lat="-43.69649055884036" lon="170.16721819569">
        <ele>779</ele>
      </trkpt>
      <trkpt lat="-43.69646576387564" lon="170.167287812321">
        <ele>781</ele>
      </trkpt>
      <trkpt lat="-43.69643620064848" lon="170.167333587641">
        <ele>782</ele>
      </trkpt>
      <trkpt lat="-43.69639233263398" lon="170.167376502003">
        <ele>783</ele>
      </trkpt>
      <trkpt lat="-43.69636086210185" lon="170.167381270265">
        <ele>784</ele>
      </trkpt>
      <trkpt lat="-43.69633797444211" lon="170.167422277322">
        <ele>785</ele>
      </trkpt>
      <trkpt lat="-43.69630268930002" lon="170.167458516117">
        <ele>786</ele>
      </trkpt>
      <trkpt lat="-43.69631317947739" lon="170.167506198741">
        <ele>786</ele>
      </trkpt>
      <trkpt lat="-43.69635418653442" lon="170.16757486172">
        <ele>787</ele>
      </trkpt>
      <trkpt lat="-43.69634655731451" lon="170.167607285905">
        <ele>787</ele>
      </trkpt>
      <trkpt lat="-43.6962864772077" lon="170.167626358955">
        <ele>788</ele>
      </trkpt>
      <trkpt lat="-43.69622258249094" lon="170.167634941827">
        <ele>789</ele>
      </trkpt>
      <trkpt lat="-43.69620446309364" lon="170.167662597749">
        <ele>789</ele>
      </trkpt>
      <trkpt lat="-43.69614247568186" lon="170.167626358955">
        <ele>790</ele>
      </trkpt>
      <trkpt lat="-43.69607953461758" lon="170.167591073813">
        <ele>790</ele>
      </trkpt>
      <trkpt lat="-43.69600419607095" lon="170.167531947358">
        <ele>790</ele>
      </trkpt>
      <trkpt lat="-43.69599179858859" lon="170.167513827961">
        <ele>790</ele>
      </trkpt>
      <trkpt lat="-43.69595365248903" lon="170.167537669273">
        <ele>791</ele>
      </trkpt>
      <trkpt lat="-43.69591836734693" lon="170.167570093458">
        <ele>791</ele>
      </trkpt>
      <trkpt lat="-43.69591073812703" lon="170.167623497997">
        <ele>792</ele>
      </trkpt>
      <trkpt lat="-43.6959221819569" lon="170.167702651154">
        <ele>792</ele>
      </trkpt>
      <trkpt lat="-43.69596414266641" lon="170.167736982644">
        <ele>792</ele>
      </trkpt>
      <trkpt lat="-43.69599179858859" lon="170.167772267786">
        <ele>792</ele>
      </trkpt>
      <trkpt lat="-43.69599465954606" lon="170.167810413885">
        <ele>793</ele>
      </trkpt>
      <trkpt lat="-43.69594030135418" lon="170.167838069807">
        <ele>793</ele>
      </trkpt>
      <trkpt lat="-43.69590120160213" lon="170.167880984169">
        <ele>794</ele>
      </trkpt>
      <trkpt lat="-43.69589738699218" lon="170.167919130269">
        <ele>794</ele>
      </trkpt>
      <trkpt lat="-43.69589901686397" lon="170.16792483482">
        <ele>794</ele>
      </trkpt>
      <trkpt lat="-43.69589901686397" lon="170.16792483482">
        <ele>794</ele>
      </trkpt>
      <trkpt lat="-43.69589738699218" lon="170.167919130269">
        <ele>794</ele>
      </trkpt>
      <trkpt lat="-43.69590120160213" lon="170.167880984169">
        <ele>794</ele>
      </trkpt>
      <trkpt lat="-43.69594030135418" lon="170.167838069807">
        <ele>793</ele>
      </trkpt>
      <trkpt lat="-43.69599465954606" lon="170.167810413885">
        <ele>793</ele>
      </trkpt>
      <trkpt lat="-43.69599179858859" lon="170.167772267786">
        <ele>792</ele>
      </trkpt>
      <trkpt lat="-43.69596414266641" lon="170.167736982644">
        <ele>792</ele>
      </trkpt>
      <trkpt lat="-43.6959221819569" lon="170.167702651154">
        <ele>792</ele>
      </trkpt>
      <trkpt lat="-43.69591073812703" lon="170.167623497997">
        <ele>792</ele>
      </trkpt>
      <trkpt lat="-43.69591836734693" lon="170.167570093458">
        <ele>791</ele>
      </trkpt>
      <trkpt lat="-43.69595365248903" lon="170.167537669273">
        <ele>791</ele>
      </trkpt>
      <trkpt lat="-43.69599179858859" lon="170.167513827961">
        <ele>790</ele>
      </trkpt>
      <trkpt lat="-43.69600419607095" lon="170.167531947358">
        <ele>790</ele>
      </trkpt>
      <trkpt lat="-43.69607953461758" lon="170.167591073813">
        <ele>790</ele>
      </trkpt>
      <trkpt lat="-43.69614247568186" lon="170.167626358955">
        <ele>790</ele>
      </trkpt>
      <trkpt lat="-43.69620446309364" lon="170.167662597749">
        <ele>789</ele>
      </trkpt>
      <trkpt lat="-43.69622258249094" lon="170.167634941827">
        <ele>789</ele>
      </trkpt>
      <trkpt lat="-43.6962864772077" lon="170.167626358955">
        <ele>788</ele>
      </trkpt>
      <trkpt lat="-43.69634655731451" lon="170.167607285905">
        <ele>787</ele>
      </trkpt>
      <trkpt lat="-43.69635418653442" lon="170.16757486172">
        <ele>787</ele>
      </trkpt>
      <trkpt lat="-43.69631317947739" lon="170.167506198741">
        <ele>786</ele>
      </trkpt>
      <trkpt lat="-43.69630268930002" lon="170.167458516117">
        <ele>786</ele>
      </trkpt>
      <trkpt lat="-43.69633797444211" lon="170.167422277322">
        <ele>785</ele>
      </trkpt>
      <trkpt lat="-43.69636086210185" lon="170.167381270265">
        <ele>784</ele>
      </trkpt>
      <trkpt lat="-43.69639233263398" lon="170.167376502003">
        <ele>783</ele>
      </trkpt>
      <trkpt lat="-43.69643620064848" lon="170.167333587641">
        <ele>782</ele>
      </trkpt>
      <trkpt lat="-43.69646576387564" lon="170.167287812321">
        <ele>781</ele>
      </trkpt>
      <trkpt lat="-43.69649055884036" lon="170.16721819569">
        <ele>779</ele>
      </trkpt>
      <trkpt lat="-43.69649437345031" lon="170.167178142285">
        <ele>778</ele>
      </trkpt>
      <trkpt lat="-43.6965391951173" lon="170.167178142285">
        <ele>778</ele>
      </trkpt>
      <trkpt lat="-43.69662788479878" lon="170.167150486363">
        <ele>777</ele>
      </trkpt>
      <trkpt lat="-43.69671562082777" lon="170.167123784093">
        <ele>775</ele>
      </trkpt>
      <trkpt lat="-43.6967737936296" lon="170.167054167461">
        <ele>773</ele>
      </trkpt>
      <trkpt lat="-43.69681098607667" lon="170.166997901965">
        <ele>772</ele>
      </trkpt>
      <trkpt lat="-43.6968777417509" lon="170.166971199695">
        <ele>770</ele>
      </trkpt>
      <trkpt lat="-43.69694449742514" lon="170.166944497425">
        <ele>769</ele>
      </trkpt>
      <trkpt lat="-43.69701983597177" lon="170.16692351707">
        <ele>768</ele>
      </trkpt>
      <trkpt lat="-43.69708086973107" lon="170.166877741751">
        <ele>766</ele>
      </trkpt>
      <trkpt lat="-43.69708646917989" lon="170.166871442371">
        <ele>766</ele>
      </trkpt>
      <trkpt lat="-43.69708646917989" lon="170.166871442371">
        <ele>766</ele>
      </trkpt>
      <trkpt lat="-43.69714190349037" lon="170.166809078772">
        <ele>764</ele>
      </trkpt>
      <trkpt lat="-43.69719244707228" lon="170.16671275987">
        <ele>761</ele>
      </trkpt>
      <trkpt lat="-43.69724203700171" lon="170.166616440969">
        <ele>760</ele>
      </trkpt>
      <trkpt lat="-43.69724203700171" lon="170.166616440969">
        <ele>760</ele>
      </trkpt>
      <trkpt lat="-43.6973040244135" lon="170.166580202174">
        <ele>758</ele>
      </trkpt>
      <trkpt lat="-43.69736601182529" lon="170.16654396338">
        <ele>757</ele>
      </trkpt>
      <trkpt lat="-43.69741369444974" lon="170.166461949266">
        <ele>756</ele>
      </trkpt>
      <trkpt lat="-43.69749380125882" lon="170.166373259584">
        <ele>754</ele>
      </trkpt>
      <trkpt lat="-43.69755864962807" lon="170.166277894335">
        <ele>752</ele>
      </trkpt>
      <trkpt lat="-43.69762349799733" lon="170.166182529086">
        <ele>751</ele>
      </trkpt>
      <trkpt lat="-43.69766736601182" lon="170.166087163838">
        <ele>750</ele>
      </trkpt>
      <trkpt lat="-43.69771028037383" lon="170.165992752241">
        <ele>748</ele>
      </trkpt>
      <trkpt lat="-43.69771028037383" lon="170.165992752241">
        <ele>748</ele>
      </trkpt>
      <trkpt lat="-43.69779515544536" lon="170.165726683197">
        <ele>744</ele>
      </trkpt>
      <trkpt lat="-43.69778943353042" lon="170.165623688728">
        <ele>743</ele>
      </trkpt>
      <trkpt lat="-43.69779897005531" lon="170.165548350181">
        <ele>742</ele>
      </trkpt>
      <trkpt lat="-43.69779134083539" lon="170.165401487698">
        <ele>741</ele>
      </trkpt>
      <trkpt lat="-43.6977217242037" lon="170.164943734503">
        <ele>736</ele>
      </trkpt>
      <trkpt lat="-43.6977217242037" lon="170.164943734503">
        <ele>736</ele>
      </trkpt>
      <trkpt lat="-43.69765115391951" lon="170.164707228686">
        <ele>733</ele>
      </trkpt>
      <trkpt lat="-43.69760919320999" lon="170.164332443258">
        <ele>729</ele>
      </trkpt>
      <trkpt lat="-43.6976205702265" lon="170.164126781805">
        <ele>727</ele>
      </trkpt>
    </trkseg>
  </trk>
</gpx>