<?xml version="1.0" encoding="UTF-8" standalone="yes"?>
<gpx
 version="1.1"
 creator="Generated by MapOut iPhone App. See https://mapout.app"
 xmlns="http://www.topografix.com/GPX/1/1"
 xmlns:xsi="http://www.w3.org/2001/XMLSchema-instance"
 xmlns:gpxx="http://www.garmin.com/xmlschemas/GpxExtensions/v3"
 xmlns:mapout="https://mapout.app/xmlschemas/MapOutExtensions"
 xsi:schemaLocation="http://www.topografix.com/GPX/1/1 https://www.topografix.com/GPX/1/1/gpx.xsd http://www.garmin.com/xmlschemas/GpxExtensions/v3 https://www8.garmin.com/xmlschemas/GpxExtensionsv3.xsd https://mapout.app/xmlschemas/MapOutExtensions https://mapout.app/xmlschemas/MapOutExtensions.xsd">
  <metadata>
    <name>Broken Hills Tunnels Loop</name>
    <author><name>iPhone</name></author>
    <time>2026-03-31T11:35:45Z</time>
    <bounds minlat="-37.11289052069426" minlon="175.727370780088" maxlat="-37.10603528456039" maxlon="175.738463219688"/>
  </metadata>
  <trk>
    <name>Broken Hills Tunnels Loop</name>
    <trkseg>
      <trkpt lat="-37.10610434259437" lon="175.738463219688">
        <ele>39</ele>
      </trkpt>
      <trkpt lat="-37.10620255578867" lon="175.738326339882">
        <ele>38</ele>
      </trkpt>
      <trkpt lat="-37.10620255578867" lon="175.738326339882">
        <ele>38</ele>
      </trkpt>
      <trkpt lat="-37.10631890139233" lon="175.738328247187">
        <ele>38</ele>
      </trkpt>
      <trkpt lat="-37.10631890139233" lon="175.738328247187">
        <ele>38</ele>
      </trkpt>
      <trkpt lat="-37.10641140568377" lon="175.738320617967">
        <ele>38</ele>
      </trkpt>
      <trkpt lat="-37.1065649437345" lon="175.738242418463">
        <ele>40</ele>
      </trkpt>
      <trkpt lat="-37.10674327674995" lon="175.738132748426">
        <ele>42</ele>
      </trkpt>
      <trkpt lat="-37.10749094030135" lon="175.737568186153">
        <ele>38</ele>
      </trkpt>
      <trkpt lat="-37.10769120732405" lon="175.737391760443">
        <ele>39</ele>
      </trkpt>
      <trkpt lat="-37.10772077055121" lon="175.737374594698">
        <ele>39</ele>
      </trkpt>
      <trkpt lat="-37.10772077055121" lon="175.737374594698">
        <ele>39</ele>
      </trkpt>
      <trkpt lat="-37.10779324814037" lon="175.737332633988">
        <ele>39</ele>
      </trkpt>
      <trkpt lat="-37.10786572572955" lon="175.737291626931">
        <ele>39</ele>
      </trkpt>
      <trkpt lat="-37.10786572572955" lon="175.737291626931">
        <ele>39</ele>
      </trkpt>
      <trkpt lat="-37.10791436200648" lon="175.737263017356">
        <ele>39</ele>
      </trkpt>
      <trkpt lat="-37.10791436200648" lon="175.737263017356">
        <ele>39</ele>
      </trkpt>
      <trkpt lat="-37.107956322716" lon="175.737171466718">
        <ele>40</ele>
      </trkpt>
      <trkpt lat="-37.10799828342552" lon="175.737079916079">
        <ele>41</ele>
      </trkpt>
      <trkpt lat="-37.10797921037574" lon="175.737004577532">
        <ele>43</ele>
      </trkpt>
      <trkpt lat="-37.10796013732596" lon="175.736929238985">
        <ele>45</ele>
      </trkpt>
      <trkpt lat="-37.10801354186535" lon="175.736897768453">
        <ele>45</ele>
      </trkpt>
      <trkpt lat="-37.1080783902346" lon="175.7369349609">
        <ele>43</ele>
      </trkpt>
      <trkpt lat="-37.10814609956132" lon="175.736860576006">
        <ele>44</ele>
      </trkpt>
      <trkpt lat="-37.10821380888804" lon="175.736787144764">
        <ele>44</ele>
      </trkpt>
      <trkpt lat="-37.10821666984551" lon="175.736694640473">
        <ele>45</ele>
      </trkpt>
      <trkpt lat="-37.10821857715049" lon="175.736602136182">
        <ele>48</ele>
      </trkpt>
      <trkpt lat="-37.10825290864009" lon="175.736514400153">
        <ele>51</ele>
      </trkpt>
      <trkpt lat="-37.1082872401297" lon="175.736426664124">
        <ele>54</ele>
      </trkpt>
      <trkpt lat="-37.108391188251" lon="175.736326530612">
        <ele>57</ele>
      </trkpt>
      <trkpt lat="-37.10849418271982" lon="175.736226397101">
        <ele>60</ele>
      </trkpt>
      <trkpt lat="-37.10849418271982" lon="175.736226397101">
        <ele>60</ele>
      </trkpt>
      <trkpt lat="-37.1085828724013" lon="175.736168224299">
        <ele>62</ele>
      </trkpt>
      <trkpt lat="-37.10864962807553" lon="175.736145336639">
        <ele>63</ele>
      </trkpt>
      <trkpt lat="-37.10871543009727" lon="175.73612244898">
        <ele>64</ele>
      </trkpt>
      <trkpt lat="-37.10898149914171" lon="175.73607667366">
        <ele>65</ele>
      </trkpt>
      <trkpt lat="-37.10905302307839" lon="175.736043295823">
        <ele>66</ele>
      </trkpt>
      <trkpt lat="-37.10912359336258" lon="175.736010871638">
        <ele>68</ele>
      </trkpt>
      <trkpt lat="-37.10920560747663" lon="175.735958420752">
        <ele>70</ele>
      </trkpt>
      <trkpt lat="-37.10928762159069" lon="175.735906923517">
        <ele>72</ele>
      </trkpt>
      <trkpt lat="-37.10937154300973" lon="175.73590024795">
        <ele>72</ele>
      </trkpt>
      <trkpt lat="-37.10945546442876" lon="175.735894526035">
        <ele>72</ele>
      </trkpt>
      <trkpt lat="-37.10953271028038" lon="175.735949837879">
        <ele>69</ele>
      </trkpt>
      <trkpt lat="-37.10960900247949" lon="175.736006103376">
        <ele>67</ele>
      </trkpt>
      <trkpt lat="-37.10965954606142" lon="175.73607285905">
        <ele>64</ele>
      </trkpt>
      <trkpt lat="-37.10975777226778" lon="175.73611481976">
        <ele>62</ele>
      </trkpt>
      <trkpt lat="-37.10981880602709" lon="175.736089071142">
        <ele>63</ele>
      </trkpt>
      <trkpt lat="-37.10987983978638" lon="175.736064276178">
        <ele>64</ele>
      </trkpt>
      <trkpt lat="-37.11012683578104" lon="175.736097654015">
        <ele>64</ele>
      </trkpt>
      <trkpt lat="-37.11020598893763" lon="175.736055693305">
        <ele>66</ele>
      </trkpt>
      <trkpt lat="-37.11022696929239" lon="175.736131031852">
        <ele>63</ele>
      </trkpt>
      <trkpt lat="-37.11031565897387" lon="175.736121495327">
        <ele>64</ele>
      </trkpt>
      <trkpt lat="-37.1104081632653" lon="175.736152965859">
        <ele>64</ele>
      </trkpt>
      <trkpt lat="-37.11046538241465" lon="175.736234026321">
        <ele>61</ele>
      </trkpt>
      <trkpt lat="-37.11051115773412" lon="175.736257867633">
        <ele>60</ele>
      </trkpt>
      <trkpt lat="-37.11053786000382" lon="175.736235933626">
        <ele>62</ele>
      </trkpt>
      <trkpt lat="-37.11057409879839" lon="175.736230211711">
        <ele>62</ele>
      </trkpt>
      <trkpt lat="-37.11062845699027" lon="175.736189204654">
        <ele>64</ele>
      </trkpt>
      <trkpt lat="-37.11066755674232" lon="175.736134846462">
        <ele>66</ele>
      </trkpt>
      <trkpt lat="-37.11073717337402" lon="175.736077627313">
        <ele>69</ele>
      </trkpt>
      <trkpt lat="-37.11081537287812" lon="175.736000381461">
        <ele>73</ele>
      </trkpt>
      <trkpt lat="-37.11084684341026" lon="175.735955559794">
        <ele>75</ele>
      </trkpt>
      <trkpt lat="-37.1109650963189" lon="175.735700934579">
        <ele>86</ele>
      </trkpt>
      <trkpt lat="-37.11105855426283" lon="175.735706656494">
        <ele>87</ele>
      </trkpt>
      <trkpt lat="-37.11111672706465" lon="175.735747663551">
        <ele>87</ele>
      </trkpt>
      <trkpt lat="-37.11115487316422" lon="175.735830631318">
        <ele>85</ele>
      </trkpt>
      <trkpt lat="-37.11119206561129" lon="175.735913599085">
        <ele>83</ele>
      </trkpt>
      <trkpt lat="-37.11121304596605" lon="175.736020408163">
        <ele>81</ele>
      </trkpt>
      <trkpt lat="-37.11122353614343" lon="175.736111958802">
        <ele>79</ele>
      </trkpt>
      <trkpt lat="-37.11123402632081" lon="175.736204463094">
        <ele>77</ele>
      </trkpt>
      <trkpt lat="-37.11122639710089" lon="175.73629506008">
        <ele>74</ele>
      </trkpt>
      <trkpt lat="-37.1112178142285" lon="175.736385657067">
        <ele>71</ele>
      </trkpt>
      <trkpt lat="-37.11121304596605" lon="175.736488651535">
        <ele>68</ele>
      </trkpt>
      <trkpt lat="-37.11120732405112" lon="175.736591646004">
        <ele>66</ele>
      </trkpt>
      <trkpt lat="-37.11125309937059" lon="175.736680335686">
        <ele>65</ele>
      </trkpt>
      <trkpt lat="-37.11129887469006" lon="175.73676997902">
        <ele>65</ele>
      </trkpt>
      <trkpt lat="-37.11140091550639" lon="175.736892046538">
        <ele>66</ele>
      </trkpt>
      <trkpt lat="-37.11148388327293" lon="175.736932099943">
        <ele>68</ele>
      </trkpt>
      <trkpt lat="-37.11159736791913" lon="175.737042723632">
        <ele>68</ele>
      </trkpt>
      <trkpt lat="-37.11167461377074" lon="175.737074194164">
        <ele>69</ele>
      </trkpt>
      <trkpt lat="-37.11175090596986" lon="175.737106618348">
        <ele>67</ele>
      </trkpt>
      <trkpt lat="-37.11185962235361" lon="175.737098035476">
        <ele>65</ele>
      </trkpt>
      <trkpt lat="-37.11195403395003" lon="175.737135227923">
        <ele>63</ele>
      </trkpt>
      <trkpt lat="-37.11204749189395" lon="175.737173374023">
        <ele>60</ele>
      </trkpt>
      <trkpt lat="-37.11207991607858" lon="175.737254434484">
        <ele>58</ele>
      </trkpt>
      <trkpt lat="-37.11214667175281" lon="175.737288765974">
        <ele>56</ele>
      </trkpt>
      <trkpt lat="-37.11221247377456" lon="175.737323097463">
        <ele>55</ele>
      </trkpt>
      <trkpt lat="-37.11230783902346" lon="175.737386038528">
        <ele>52</ele>
      </trkpt>
      <trkpt lat="-37.11238031661262" lon="175.737345031471">
        <ele>53</ele>
      </trkpt>
      <trkpt lat="-37.1124518405493" lon="175.737304024414">
        <ele>53</ele>
      </trkpt>
      <trkpt lat="-37.11247758916651" lon="175.737223917604">
        <ele>54</ele>
      </trkpt>
      <trkpt lat="-37.11250333778371" lon="175.737144764448">
        <ele>55</ele>
      </trkpt>
      <trkpt lat="-37.11248712569139" lon="175.737036048064">
        <ele>57</ele>
      </trkpt>
      <trkpt lat="-37.11245374785428" lon="175.736959755865">
        <ele>59</ele>
      </trkpt>
      <trkpt lat="-37.11242037001716" lon="175.736884417318">
        <ele>61</ele>
      </trkpt>
      <trkpt lat="-37.11234407781804" lon="175.736795727637">
        <ele>64</ele>
      </trkpt>
      <trkpt lat="-37.11234407781804" lon="175.736795727637">
        <ele>64</ele>
      </trkpt>
      <trkpt lat="-37.11229925615106" lon="175.736691779516">
        <ele>68</ele>
      </trkpt>
      <trkpt lat="-37.11229925615106" lon="175.736691779516">
        <ele>68</ele>
      </trkpt>
      <trkpt lat="-37.11237268739271" lon="175.736543009727">
        <ele>69</ele>
      </trkpt>
      <trkpt lat="-37.11237268739271" lon="175.736543009727">
        <ele>69</ele>
      </trkpt>
      <trkpt lat="-37.11243562845699" lon="175.736470532138">
        <ele>70</ele>
      </trkpt>
      <trkpt lat="-37.11249856952126" lon="175.736399008201">
        <ele>70</ele>
      </trkpt>
      <trkpt lat="-37.11249856952126" lon="175.736399008201">
        <ele>70</ele>
      </trkpt>
      <trkpt lat="-37.11249666221629" lon="175.736465763876">
        <ele>69</ele>
      </trkpt>
      <trkpt lat="-37.11241178714477" lon="175.736397100896">
        <ele>72</ele>
      </trkpt>
      <trkpt lat="-37.11232691207324" lon="175.73632939157">
        <ele>75</ele>
      </trkpt>
      <trkpt lat="-37.11228781232119" lon="175.736339881747">
        <ele>76</ele>
      </trkpt>
      <trkpt lat="-37.11221819568949" lon="175.736316994087">
        <ele>78</ele>
      </trkpt>
      <trkpt lat="-37.11214953271028" lon="175.736245470151">
        <ele>80</ele>
      </trkpt>
      <trkpt lat="-37.11209422086591" lon="175.736228304406">
        <ele>82</ele>
      </trkpt>
      <trkpt lat="-37.11207419416365" lon="175.736148197597">
        <ele>83</ele>
      </trkpt>
      <trkpt lat="-37.11200362387946" lon="175.736079534618">
        <ele>86</ele>
      </trkpt>
      <trkpt lat="-37.11193496090025" lon="175.735996566851">
        <ele>88</ele>
      </trkpt>
      <trkpt lat="-37.11192351707038" lon="175.735913599085">
        <ele>90</ele>
      </trkpt>
      <trkpt lat="-37.11191111958802" lon="175.73583158497">
        <ele>91</ele>
      </trkpt>
      <trkpt lat="-37.11191684150295" lon="175.735729544154">
        <ele>93</ele>
      </trkpt>
      <trkpt lat="-37.11188441731833" lon="175.73562845699">
        <ele>95</ele>
      </trkpt>
      <trkpt lat="-37.1118519931337" lon="175.735381460996">
        <ele>100</ele>
      </trkpt>
      <trkpt lat="-37.1119483120351" lon="175.735335685676">
        <ele>100</ele>
      </trkpt>
      <trkpt lat="-37.1120694259012" lon="175.735066755674">
        <ele>106</ele>
      </trkpt>
      <trkpt lat="-37.11213713522793" lon="175.735008582872">
        <ele>108</ele>
      </trkpt>
      <trkpt lat="-37.11217432767499" lon="175.734910356666">
        <ele>111</ele>
      </trkpt>
      <trkpt lat="-37.11221152012207" lon="175.73481213046">
        <ele>113</ele>
      </trkpt>
      <trkpt lat="-37.11222677856189" lon="175.734748235743">
        <ele>115</ele>
      </trkpt>
      <trkpt lat="-37.11224108334923" lon="175.734684341026">
        <ele>116</ele>
      </trkpt>
      <trkpt lat="-37.11224680526416" lon="175.734604234217">
        <ele>118</ele>
      </trkpt>
      <trkpt lat="-37.11225252717909" lon="175.734524127408">
        <ele>119</ele>
      </trkpt>
      <trkpt lat="-37.11231260728591" lon="175.734483120351">
        <ele>121</ele>
      </trkpt>
      <trkpt lat="-37.11237078008774" lon="175.734517451841">
        <ele>120</ele>
      </trkpt>
      <trkpt lat="-37.1124432576769" lon="175.734507915316">
        <ele>121</ele>
      </trkpt>
      <trkpt lat="-37.11245470150677" lon="175.734414457372">
        <ele>122</ele>
      </trkpt>
      <trkpt lat="-37.11246519168415" lon="175.73432195308">
        <ele>124</ele>
      </trkpt>
      <trkpt lat="-37.11252050352851" lon="175.734226587831">
        <ele>126</ele>
      </trkpt>
      <trkpt lat="-37.11252336448598" lon="175.734135990845">
        <ele>128</ele>
      </trkpt>
      <trkpt lat="-37.11252622544345" lon="175.734046347511">
        <ele>131</ele>
      </trkpt>
      <trkpt lat="-37.1125386229258" lon="175.733965287049">
        <ele>133</ele>
      </trkpt>
      <trkpt lat="-37.11255102040816" lon="175.73388518024">
        <ele>136</ele>
      </trkpt>
      <trkpt lat="-37.11257772267786" lon="175.733773602899">
        <ele>139</ele>
      </trkpt>
      <trkpt lat="-37.11260347129506" lon="175.733662025558">
        <ele>142</ele>
      </trkpt>
      <trkpt lat="-37.1126263589548" lon="175.733587640664">
        <ele>144</ele>
      </trkpt>
      <trkpt lat="-37.11264924661453" lon="175.73351325577">
        <ele>147</ele>
      </trkpt>
      <trkpt lat="-37.11264066374213" lon="175.7334484074">
        <ele>149</ele>
      </trkpt>
      <trkpt lat="-37.11263112721724" lon="175.733383559031">
        <ele>151</ele>
      </trkpt>
      <trkpt lat="-37.11260061033759" lon="175.733305359527">
        <ele>155</ele>
      </trkpt>
      <trkpt lat="-37.11253385466336" lon="175.733254815945">
        <ele>159</ele>
      </trkpt>
      <trkpt lat="-37.11242132366966" lon="175.733261491513">
        <ele>158</ele>
      </trkpt>
      <trkpt lat="-37.11230783902346" lon="175.73326816708">
        <ele>156</ele>
      </trkpt>
      <trkpt lat="-37.11223059317184" lon="175.733318710662">
        <ele>153</ele>
      </trkpt>
      <trkpt lat="-37.11215334732024" lon="175.733321571619">
        <ele>152</ele>
      </trkpt>
      <trkpt lat="-37.11208563799352" lon="175.733349227542">
        <ele>150</ele>
      </trkpt>
      <trkpt lat="-37.11201697501431" lon="175.733377837116">
        <ele>149</ele>
      </trkpt>
      <trkpt lat="-37.11189776845318" lon="175.733333969102">
        <ele>149</ele>
      </trkpt>
      <trkpt lat="-37.11182433721152" lon="175.733258630555">
        <ele>152</ele>
      </trkpt>
      <trkpt lat="-37.11179572763685" lon="175.733185199313">
        <ele>156</ele>
      </trkpt>
      <trkpt lat="-37.11176711806218" lon="175.733111768072">
        <ele>159</ele>
      </trkpt>
      <trkpt lat="-37.11177474728209" lon="175.732994468816">
        <ele>165</ele>
      </trkpt>
      <trkpt lat="-37.111782376502" lon="175.732878123212">
        <ele>171</ele>
      </trkpt>
      <trkpt lat="-37.11175758153729" lon="175.732773221438">
        <ele>176</ele>
      </trkpt>
      <trkpt lat="-37.11173183292009" lon="175.732669273317">
        <ele>180</ele>
      </trkpt>
      <trkpt lat="-37.11165077245852" lon="175.732554835018">
        <ele>185</ele>
      </trkpt>
      <trkpt lat="-37.11159927522411" lon="175.732541483883">
        <ele>187</ele>
      </trkpt>
      <trkpt lat="-37.11159259965668" lon="175.732617776082">
        <ele>183</ele>
      </trkpt>
      <trkpt lat="-37.11157924852183" lon="175.732683578104">
        <ele>180</ele>
      </trkpt>
      <trkpt lat="-37.11155826816708" lon="175.732749380126">
        <ele>177</ele>
      </trkpt>
      <trkpt lat="-37.11150104901774" lon="175.732832347892">
        <ele>174</ele>
      </trkpt>
      <trkpt lat="-37.11147530040054" lon="175.732939156971">
        <ele>169</ele>
      </trkpt>
      <trkpt lat="-37.11142189586115" lon="175.733003051688">
        <ele>167</ele>
      </trkpt>
      <trkpt lat="-37.11136849132176" lon="175.733066946405">
        <ele>165</ele>
      </trkpt>
      <trkpt lat="-37.11127694068281" lon="175.733147053214">
        <ele>162</ele>
      </trkpt>
      <trkpt lat="-37.11117966812893" lon="175.733145145909">
        <ele>164</ele>
      </trkpt>
      <trkpt lat="-37.11110623688728" lon="175.733114629029">
        <ele>166</ele>
      </trkpt>
      <trkpt lat="-37.11105569330536" lon="175.733113675377">
        <ele>167</ele>
      </trkpt>
      <trkpt lat="-37.11107667366011" lon="175.733235742895">
        <ele>161</ele>
      </trkpt>
      <trkpt lat="-37.11105092504291" lon="175.733306313179">
        <ele>158</ele>
      </trkpt>
      <trkpt lat="-37.11101850085829" lon="175.733372115201">
        <ele>155</ele>
      </trkpt>
      <trkpt lat="-37.11098512302117" lon="175.733437917223">
        <ele>153</ele>
      </trkpt>
      <trkpt lat="-37.11098512302117" lon="175.733437917223">
        <ele>153</ele>
      </trkpt>
      <trkpt lat="-37.1109822620637" lon="175.733355903109">
        <ele>156</ele>
      </trkpt>
      <trkpt lat="-37.11097844745375" lon="175.733273888995">
        <ele>160</ele>
      </trkpt>
      <trkpt lat="-37.11095937440397" lon="175.733189967576">
        <ele>165</ele>
      </trkpt>
      <trkpt lat="-37.11091169177951" lon="175.73308792676">
        <ele>171</ele>
      </trkpt>
      <trkpt lat="-37.11086305550258" lon="175.732986839596">
        <ele>177</ele>
      </trkpt>
      <trkpt lat="-37.11092408926187" lon="175.732935342361">
        <ele>178</ele>
      </trkpt>
      <trkpt lat="-37.11098607667366" lon="175.732912454702">
        <ele>178</ele>
      </trkpt>
      <trkpt lat="-37.11104997139042" lon="175.732924852184">
        <ele>177</ele>
      </trkpt>
      <trkpt lat="-37.11111386610719" lon="175.732938203319">
        <ele>175</ele>
      </trkpt>
      <trkpt lat="-37.11117108525653" lon="175.732956322716">
        <ele>173</ele>
      </trkpt>
      <trkpt lat="-37.1112435628457" lon="175.732953461759">
        <ele>172</ele>
      </trkpt>
      <trkpt lat="-37.11128361625024" lon="175.732904825482">
        <ele>174</ele>
      </trkpt>
      <trkpt lat="-37.11131699408735" lon="175.73283520885">
        <ele>177</ele>
      </trkpt>
      <trkpt lat="-37.11132366965478" lon="175.732717909594">
        <ele>183</ele>
      </trkpt>
      <trkpt lat="-37.11132939156971" lon="175.73260156399">
        <ele>188</ele>
      </trkpt>
      <trkpt lat="-37.11132939156971" lon="175.732495708564">
        <ele>193</ele>
      </trkpt>
      <trkpt lat="-37.11133988174709" lon="175.732404157925">
        <ele>198</ele>
      </trkpt>
      <trkpt lat="-37.11141426664123" lon="175.732368872783">
        <ele>199</ele>
      </trkpt>
      <trkpt lat="-37.11147434674805" lon="175.732310699981">
        <ele>201</ele>
      </trkpt>
      <trkpt lat="-37.11152298302498" lon="175.732253480832">
        <ele>204</ele>
      </trkpt>
      <trkpt lat="-37.11157448025939" lon="175.732212473775">
        <ele>205</ele>
      </trkpt>
      <trkpt lat="-37.11169464047301" lon="175.732208659165">
        <ele>205</ele>
      </trkpt>
      <trkpt lat="-37.11177570093458" lon="175.732262063704">
        <ele>203</ele>
      </trkpt>
      <trkpt lat="-37.11186152965859" lon="175.732275414839">
        <ele>204</ele>
      </trkpt>
      <trkpt lat="-37.11191398054549" lon="175.732223917604">
        <ele>208</ele>
      </trkpt>
      <trkpt lat="-37.11198836543964" lon="175.73219912264">
        <ele>211</ele>
      </trkpt>
      <trkpt lat="-37.11197119969483" lon="175.732146671753">
        <ele>213</ele>
      </trkpt>
      <trkpt lat="-37.11197119969483" lon="175.732146671753">
        <ele>213</ele>
      </trkpt>
      <trkpt lat="-37.11202174327675" lon="175.730615105855">
        <ele>284</ele>
      </trkpt>
      <trkpt lat="-37.11239652870494" lon="175.728826053786">
        <ele>257</ele>
      </trkpt>
      <trkpt lat="-37.11287621590692" lon="175.727489986649">
        <ele>204</ele>
      </trkpt>
      <trkpt lat="-37.11287621590692" lon="175.727489986649">
        <ele>204</ele>
      </trkpt>
      <trkpt lat="-37.11289052069426" lon="175.72740225062">
        <ele>202</ele>
      </trkpt>
      <trkpt lat="-37.11281327484264" lon="175.727400343315">
        <ele>203</ele>
      </trkpt>
      <trkpt lat="-37.11274365821095" lon="175.727370780088">
        <ele>204</ele>
      </trkpt>
      <trkpt lat="-37.1124604234217" lon="175.727506198741">
        <ele>214</ele>
      </trkpt>
      <trkpt lat="-37.1123650581728" lon="175.727544344841">
        <ele>218</ele>
      </trkpt>
      <trkpt lat="-37.11226873927141" lon="175.727583444593">
        <ele>223</ele>
      </trkpt>
      <trkpt lat="-37.11221819568949" lon="175.727558649628">
        <ele>224</ele>
      </trkpt>
      <trkpt lat="-37.1121657448026" lon="175.727575815373">
        <ele>226</ele>
      </trkpt>
      <trkpt lat="-37.11215525462521" lon="175.727693114629">
        <ele>229</ele>
      </trkpt>
      <trkpt lat="-37.11211234026321" lon="175.727736028991">
        <ele>232</ele>
      </trkpt>
      <trkpt lat="-37.11204176997902" lon="175.727715048636">
        <ele>234</ele>
      </trkpt>
      <trkpt lat="-37.1119654777799" lon="175.727820904063">
        <ele>239</ele>
      </trkpt>
      <trkpt lat="-37.11192256341789" lon="175.727764638566">
        <ele>239</ele>
      </trkpt>
      <trkpt lat="-37.11182719816899" lon="175.727755102041">
        <ele>242</ele>
      </trkpt>
      <trkpt lat="-37.11173374022506" lon="175.727692160977">
        <ele>244</ele>
      </trkpt>
      <trkpt lat="-37.11167079916078" lon="175.727687392714">
        <ele>246</ele>
      </trkpt>
      <trkpt lat="-37.11160785809651" lon="175.727683578104">
        <ele>247</ele>
      </trkpt>
      <trkpt lat="-37.11153728781232" lon="175.727714094984">
        <ele>249</ele>
      </trkpt>
      <trkpt lat="-37.1114695784856" lon="175.727705512111">
        <ele>250</ele>
      </trkpt>
      <trkpt lat="-37.11144192256342" lon="175.727657829487">
        <ele>249</ele>
      </trkpt>
      <trkpt lat="-37.11136753766927" lon="175.727627312607">
        <ele>250</ele>
      </trkpt>
      <trkpt lat="-37.11126835781042" lon="175.72760919321">
        <ele>252</ele>
      </trkpt>
      <trkpt lat="-37.11116917795155" lon="175.727592027465">
        <ele>254</ele>
      </trkpt>
      <trkpt lat="-37.11110242227732" lon="175.727536715621">
        <ele>254</ele>
      </trkpt>
      <trkpt lat="-37.11101373259584" lon="175.727530040053">
        <ele>256</ele>
      </trkpt>
      <trkpt lat="-37.1110261300782" lon="175.7276435247">
        <ele>257</ele>
      </trkpt>
      <trkpt lat="-37.1110261300782" lon="175.7276435247">
        <ele>257</ele>
      </trkpt>
      <trkpt lat="-37.1110347129506" lon="175.727725538814">
        <ele>258</ele>
      </trkpt>
      <trkpt lat="-37.111043295823" lon="175.72780850658">
        <ele>258</ele>
      </trkpt>
      <trkpt lat="-37.11102994468816" lon="175.727886706084">
        <ele>259</ele>
      </trkpt>
      <trkpt lat="-37.11101659355331" lon="175.727964905588">
        <ele>260</ele>
      </trkpt>
      <trkpt lat="-37.1110261300782" lon="175.72805359527">
        <ele>261</ele>
      </trkpt>
      <trkpt lat="-37.1110347129506" lon="175.728142284951">
        <ele>262</ele>
      </trkpt>
      <trkpt lat="-37.11107953461759" lon="175.728187106618">
        <ele>262</ele>
      </trkpt>
      <trkpt lat="-37.11107953461759" lon="175.728274842647">
        <ele>263</ele>
      </trkpt>
      <trkpt lat="-37.11107953461759" lon="175.728363532329">
        <ele>264</ele>
      </trkpt>
      <trkpt lat="-37.11111672706465" lon="175.728447453748">
        <ele>266</ele>
      </trkpt>
      <trkpt lat="-37.11115391951173" lon="175.728532328819">
        <ele>268</ele>
      </trkpt>
      <trkpt lat="-37.11115487316422" lon="175.728645813466">
        <ele>271</ele>
      </trkpt>
      <trkpt lat="-37.11113389280946" lon="175.728741178715">
        <ele>274</ele>
      </trkpt>
      <trkpt lat="-37.11113389280946" lon="175.728741178715">
        <ele>274</ele>
      </trkpt>
      <trkpt lat="-37.11110242227732" lon="175.728860385276">
        <ele>277</ele>
      </trkpt>
      <trkpt lat="-37.1112178142285" lon="175.728864199886">
        <ele>278</ele>
      </trkpt>
      <trkpt lat="-37.11121113866107" lon="175.728959565134">
        <ele>280</ele>
      </trkpt>
      <trkpt lat="-37.11126168224299" lon="175.729073049781">
        <ele>284</ele>
      </trkpt>
      <trkpt lat="-37.11131222582491" lon="175.729187488079">
        <ele>288</ele>
      </trkpt>
      <trkpt lat="-37.11129982834255" lon="175.729237078009">
        <ele>288</ele>
      </trkpt>
      <trkpt lat="-37.11132557695976" lon="175.729301926378">
        <ele>290</ele>
      </trkpt>
      <trkpt lat="-37.11135037192447" lon="175.729366774747">
        <ele>291</ele>
      </trkpt>
      <trkpt lat="-37.11135800114438" lon="175.729486934961">
        <ele>293</ele>
      </trkpt>
      <trkpt lat="-37.11135227922945" lon="175.729591836735">
        <ele>294</ele>
      </trkpt>
      <trkpt lat="-37.11133797444212" lon="175.729693877551">
        <ele>296</ele>
      </trkpt>
      <trkpt lat="-37.11131699408735" lon="175.729730116346">
        <ele>296</ele>
      </trkpt>
      <trkpt lat="-37.11124451649819" lon="175.729786381842">
        <ele>295</ele>
      </trkpt>
      <trkpt lat="-37.11117500131284" lon="175.729829233669">
        <ele>295</ele>
      </trkpt>
      <trkpt lat="-37.11117500131284" lon="175.729829233669">
        <ele>295</ele>
      </trkpt>
      <trkpt lat="-37.11124451649819" lon="175.729786381842">
        <ele>295</ele>
      </trkpt>
      <trkpt lat="-37.11131699408735" lon="175.729730116346">
        <ele>296</ele>
      </trkpt>
      <trkpt lat="-37.11133797444212" lon="175.729693877551">
        <ele>296</ele>
      </trkpt>
      <trkpt lat="-37.11135227922945" lon="175.729591836735">
        <ele>294</ele>
      </trkpt>
      <trkpt lat="-37.11135800114438" lon="175.729486934961">
        <ele>293</ele>
      </trkpt>
      <trkpt lat="-37.11135037192447" lon="175.729366774747">
        <ele>291</ele>
      </trkpt>
      <trkpt lat="-37.11132557695976" lon="175.729301926378">
        <ele>290</ele>
      </trkpt>
      <trkpt lat="-37.11129982834255" lon="175.729237078009">
        <ele>288</ele>
      </trkpt>
      <trkpt lat="-37.11131222582491" lon="175.729187488079">
        <ele>288</ele>
      </trkpt>
      <trkpt lat="-37.11126168224299" lon="175.729073049781">
        <ele>284</ele>
      </trkpt>
      <trkpt lat="-37.11121113866107" lon="175.728959565134">
        <ele>280</ele>
      </trkpt>
      <trkpt lat="-37.1112178142285" lon="175.728864199886">
        <ele>278</ele>
      </trkpt>
      <trkpt lat="-37.11110242227732" lon="175.728860385276">
        <ele>277</ele>
      </trkpt>
      <trkpt lat="-37.11113389280946" lon="175.728741178715">
        <ele>274</ele>
      </trkpt>
      <trkpt lat="-37.11113389280946" lon="175.728741178715">
        <ele>274</ele>
      </trkpt>
      <trkpt lat="-37.11103948121305" lon="175.728818424566">
        <ele>276</ele>
      </trkpt>
      <trkpt lat="-37.11094411596414" lon="175.728895670418">
        <ele>277</ele>
      </trkpt>
      <trkpt lat="-37.11089071142476" lon="175.729015830631">
        <ele>279</ele>
      </trkpt>
      <trkpt lat="-37.11087545298493" lon="175.729105473965">
        <ele>281</ele>
      </trkpt>
      <trkpt lat="-37.11083253862292" lon="175.729193209994">
        <ele>282</ele>
      </trkpt>
      <trkpt lat="-37.11081155826817" lon="175.729258058364">
        <ele>282</ele>
      </trkpt>
      <trkpt lat="-37.11079057791341" lon="175.729322906733">
        <ele>282</ele>
      </trkpt>
      <trkpt lat="-37.11075529277132" lon="175.729398245279">
        <ele>281</ele>
      </trkpt>
      <trkpt lat="-37.11064180812512" lon="175.729514590883">
        <ele>277</ele>
      </trkpt>
      <trkpt lat="-37.1105912645432" lon="175.729621399962">
        <ele>276</ele>
      </trkpt>
      <trkpt lat="-37.11057791340836" lon="175.729733930956">
        <ele>277</ele>
      </trkpt>
      <trkpt lat="-37.11053976730879" lon="175.729779706275">
        <ele>276</ele>
      </trkpt>
      <trkpt lat="-37.11046919702461" lon="175.729778752623">
        <ele>273</ele>
      </trkpt>
      <trkpt lat="-37.11036048064086" lon="175.729866488652">
        <ele>270</ele>
      </trkpt>
      <trkpt lat="-37.11025748617204" lon="175.729883654396">
        <ele>266</ele>
      </trkpt>
      <trkpt lat="-37.11015449170322" lon="175.729900820141">
        <ele>262</ele>
      </trkpt>
      <trkpt lat="-37.10975109670036" lon="175.730097272554">
        <ele>246</ele>
      </trkpt>
      <trkpt lat="-37.10963665840168" lon="175.730211710853">
        <ele>241</ele>
      </trkpt>
      <trkpt lat="-37.10956990272744" lon="175.730226969292">
        <ele>239</ele>
      </trkpt>
      <trkpt lat="-37.10950314705321" lon="175.730243181385">
        <ele>236</ele>
      </trkpt>
      <trkpt lat="-37.10940682815182" lon="175.730220293725">
        <ele>232</ele>
      </trkpt>
      <trkpt lat="-37.10934484074004" lon="175.730230783902">
        <ele>230</ele>
      </trkpt>
      <trkpt lat="-37.10928285332825" lon="175.73024127408">
        <ele>228</ele>
      </trkpt>
      <trkpt lat="-37.10918558077437" lon="175.730274651917">
        <ele>224</ele>
      </trkpt>
      <trkpt lat="-37.10908830822049" lon="175.730308983406">
        <ele>220</ele>
      </trkpt>
      <trkpt lat="-37.10902250619874" lon="175.730291817662">
        <ele>218</ele>
      </trkpt>
      <trkpt lat="-37.1089042532901" lon="175.730368109861">
        <ele>214</ele>
      </trkpt>
      <trkpt lat="-37.108826053786" lon="175.730400534045">
        <ele>211</ele>
      </trkpt>
      <trkpt lat="-37.10872401296967" lon="175.73039862674">
        <ele>208</ele>
      </trkpt>
      <trkpt lat="-37.10862101850086" lon="175.730397673088">
        <ele>205</ele>
      </trkpt>
      <trkpt lat="-37.108564753004" lon="175.730449170322">
        <ele>203</ele>
      </trkpt>
      <trkpt lat="-37.10850085828724" lon="175.730561701316">
        <ele>201</ele>
      </trkpt>
      <trkpt lat="-37.10843600991799" lon="175.73067423231">
        <ele>199</ele>
      </trkpt>
      <trkpt lat="-37.10834827388899" lon="175.730733358764">
        <ele>196</ele>
      </trkpt>
      <trkpt lat="-37.10827770360481" lon="175.730812511921">
        <ele>194</ele>
      </trkpt>
      <trkpt lat="-37.10820713332062" lon="175.73089261873">
        <ele>191</ele>
      </trkpt>
      <trkpt lat="-37.1081737554835" lon="175.730989891284">
        <ele>188</ele>
      </trkpt>
      <trkpt lat="-37.1081394239939" lon="175.73108811749">
        <ele>186</ele>
      </trkpt>
      <trkpt lat="-37.10807648292962" lon="175.731205416746">
        <ele>182</ele>
      </trkpt>
      <trkpt lat="-37.10808315849705" lon="175.731278847988">
        <ele>181</ele>
      </trkpt>
      <trkpt lat="-37.10808888041198" lon="175.731353232882">
        <ele>181</ele>
      </trkpt>
      <trkpt lat="-37.10809174136944" lon="175.731454320046">
        <ele>179</ele>
      </trkpt>
      <trkpt lat="-37.10809364867442" lon="175.73155540721">
        <ele>178</ele>
      </trkpt>
      <trkpt lat="-37.10806408544726" lon="175.731665077246">
        <ele>175</ele>
      </trkpt>
      <trkpt lat="-37.1080345222201" lon="175.731774747282">
        <ele>173</ele>
      </trkpt>
      <trkpt lat="-37.10798970055312" lon="175.731839595651">
        <ele>170</ele>
      </trkpt>
      <trkpt lat="-37.10794487888613" lon="175.731904444021">
        <ele>168</ele>
      </trkpt>
      <trkpt lat="-37.10788193782186" lon="175.732024604234">
        <ele>164</ele>
      </trkpt>
      <trkpt lat="-37.10779610909785" lon="175.732116154873">
        <ele>159</ele>
      </trkpt>
      <trkpt lat="-37.10771981689872" lon="175.732225824909">
        <ele>155</ele>
      </trkpt>
      <trkpt lat="-37.10763017356475" lon="175.732263017357">
        <ele>151</ele>
      </trkpt>
      <trkpt lat="-37.1075996566851" lon="175.732358382605">
        <ele>148</ele>
      </trkpt>
      <trkpt lat="-37.10756913980546" lon="175.732454701507">
        <ele>145</ele>
      </trkpt>
      <trkpt lat="-37.10752717909594" lon="175.732714094984">
        <ele>142</ele>
      </trkpt>
      <trkpt lat="-37.10758821285523" lon="175.73281995041">
        <ele>142</ele>
      </trkpt>
      <trkpt lat="-37.10761300781995" lon="175.733108907114">
        <ele>141</ele>
      </trkpt>
      <trkpt lat="-37.10769120732405" lon="175.733154682434">
        <ele>142</ele>
      </trkpt>
      <trkpt lat="-37.10769788289147" lon="175.73326816708">
        <ele>141</ele>
      </trkpt>
      <trkpt lat="-37.10773126072859" lon="175.733340644669">
        <ele>140</ele>
      </trkpt>
      <trkpt lat="-37.10770837306885" lon="175.733403585733">
        <ele>138</ele>
      </trkpt>
      <trkpt lat="-37.1077217242037" lon="175.73347129506">
        <ele>137</ele>
      </trkpt>
      <trkpt lat="-37.10773507533855" lon="175.733539958039">
        <ele>136</ele>
      </trkpt>
      <trkpt lat="-37.10781327484265" lon="175.733538050734">
        <ele>137</ele>
      </trkpt>
      <trkpt lat="-37.10784665267976" lon="175.733476063323">
        <ele>139</ele>
      </trkpt>
      <trkpt lat="-37.1079038718291" lon="175.733401678428">
        <ele>141</ele>
      </trkpt>
      <trkpt lat="-37.10794297158115" lon="175.733402632081">
        <ele>142</ele>
      </trkpt>
      <trkpt lat="-37.10794297158115" lon="175.73348273889">
        <ele>140</ele>
      </trkpt>
      <trkpt lat="-37.10796776654587" lon="175.733598130841">
        <ele>137</ele>
      </trkpt>
      <trkpt lat="-37.10799256151059" lon="175.733714476445">
        <ele>134</ele>
      </trkpt>
      <trkpt lat="-37.10810795346176" lon="175.733796490559">
        <ele>133</ele>
      </trkpt>
      <trkpt lat="-37.10822334541293" lon="175.733878504673">
        <ele>132</ele>
      </trkpt>
      <trkpt lat="-37.10826149151249" lon="175.73394239939">
        <ele>131</ele>
      </trkpt>
      <trkpt lat="-37.10829963761206" lon="175.734007247759">
        <ele>129</ele>
      </trkpt>
      <trkpt lat="-37.10831108144192" lon="175.734100705703">
        <ele>127</ele>
      </trkpt>
      <trkpt lat="-37.1083215716193" lon="175.734195117299">
        <ele>124</ele>
      </trkpt>
      <trkpt lat="-37.10837306885371" lon="175.734472630174">
        <ele>116</ele>
      </trkpt>
      <trkpt lat="-37.10851516307458" lon="175.734852183864">
        <ele>105</ele>
      </trkpt>
      <trkpt lat="-37.10857810413885" lon="175.734929429716">
        <ele>103</ele>
      </trkpt>
      <trkpt lat="-37.10864104520313" lon="175.735006675567">
        <ele>101</ele>
      </trkpt>
      <trkpt lat="-37.10874976158688" lon="175.735118252909">
        <ele>97</ele>
      </trkpt>
      <trkpt lat="-37.10882700743849" lon="175.735374785428">
        <ele>89</ele>
      </trkpt>
      <trkpt lat="-37.10880984169368" lon="175.735464428762">
        <ele>87</ele>
      </trkpt>
      <trkpt lat="-37.10879267594888" lon="175.735555025749">
        <ele>84</ele>
      </trkpt>
      <trkpt lat="-37.10851611672707" lon="175.736131031852">
        <ele>64</ele>
      </trkpt>
      <trkpt lat="-37.10849418271982" lon="175.736226397101">
        <ele>60</ele>
      </trkpt>
      <trkpt lat="-37.108391188251" lon="175.736326530612">
        <ele>57</ele>
      </trkpt>
      <trkpt lat="-37.1082872401297" lon="175.736426664124">
        <ele>54</ele>
      </trkpt>
      <trkpt lat="-37.10825290864009" lon="175.736514400153">
        <ele>51</ele>
      </trkpt>
      <trkpt lat="-37.10821857715049" lon="175.736602136182">
        <ele>48</ele>
      </trkpt>
      <trkpt lat="-37.10821666984551" lon="175.736694640473">
        <ele>45</ele>
      </trkpt>
      <trkpt lat="-37.10821380888804" lon="175.736787144764">
        <ele>44</ele>
      </trkpt>
      <trkpt lat="-37.10814609956132" lon="175.736860576006">
        <ele>44</ele>
      </trkpt>
      <trkpt lat="-37.1080783902346" lon="175.7369349609">
        <ele>43</ele>
      </trkpt>
      <trkpt lat="-37.10801354186535" lon="175.736897768453">
        <ele>45</ele>
      </trkpt>
      <trkpt lat="-37.10796013732596" lon="175.736929238985">
        <ele>45</ele>
      </trkpt>
      <trkpt lat="-37.10797921037574" lon="175.737004577532">
        <ele>43</ele>
      </trkpt>
      <trkpt lat="-37.10799828342552" lon="175.737079916079">
        <ele>41</ele>
      </trkpt>
      <trkpt lat="-37.107956322716" lon="175.737171466718">
        <ele>40</ele>
      </trkpt>
      <trkpt lat="-37.10791436200648" lon="175.737263017356">
        <ele>39</ele>
      </trkpt>
      <trkpt lat="-37.10791436200648" lon="175.737263017356">
        <ele>39</ele>
      </trkpt>
      <trkpt lat="-37.10786572572955" lon="175.737291626931">
        <ele>39</ele>
      </trkpt>
      <trkpt lat="-37.10786572572955" lon="175.737291626931">
        <ele>39</ele>
      </trkpt>
      <trkpt lat="-37.10779324814037" lon="175.737332633988">
        <ele>39</ele>
      </trkpt>
      <trkpt lat="-37.10772077055121" lon="175.737374594698">
        <ele>39</ele>
      </trkpt>
      <trkpt lat="-37.10772077055121" lon="175.737374594698">
        <ele>39</ele>
      </trkpt>
      <trkpt lat="-37.10769120732405" lon="175.737391760443">
        <ele>39</ele>
      </trkpt>
      <trkpt lat="-37.10749094030135" lon="175.737568186153">
        <ele>38</ele>
      </trkpt>
      <trkpt lat="-37.10674327674995" lon="175.738132748426">
        <ele>42</ele>
      </trkpt>
      <trkpt lat="-37.1065649437345" lon="175.738242418463">
        <ele>40</ele>
      </trkpt>
      <trkpt lat="-37.10641140568377" lon="175.738320617967">
        <ele>38</ele>
      </trkpt>
      <trkpt lat="-37.10631890139233" lon="175.738328247187">
        <ele>38</ele>
      </trkpt>
      <trkpt lat="-37.10631890139233" lon="175.738328247187">
        <ele>38</ele>
      </trkpt>
      <trkpt lat="-37.10620255578867" lon="175.738326339882">
        <ele>38</ele>
      </trkpt>
      <trkpt lat="-37.10603528456039" lon="175.738312104033">
        <ele>38</ele>
      </trkpt>
    </trkseg>
  </trk>
</gpx>