<?xml version="1.0" encoding="UTF-8" standalone="yes"?>
<gpx
 version="1.1"
 creator="Generated by MapOut iPhone App. See https://mapout.app"
 xmlns="http://www.topografix.com/GPX/1/1"
 xmlns:xsi="http://www.w3.org/2001/XMLSchema-instance"
 xmlns:gpxx="http://www.garmin.com/xmlschemas/GpxExtensions/v3"
 xmlns:mapout="https://mapout.app/xmlschemas/MapOutExtensions"
 xsi:schemaLocation="http://www.topografix.com/GPX/1/1 https://www.topografix.com/GPX/1/1/gpx.xsd http://www.garmin.com/xmlschemas/GpxExtensions/v3 https://www8.garmin.com/xmlschemas/GpxExtensionsv3.xsd https://mapout.app/xmlschemas/MapOutExtensions https://mapout.app/xmlschemas/MapOutExtensions.xsd">
  <metadata>
    <name>Cape Reinga</name>
    <author><name>iPhone</name></author>
    <time>2026-03-17T20:59:29Z</time>
    <bounds minlat="-34.44999444173215" minlon="172.676369444974" maxlat="-34.42679382033187" maxlon="172.682060843029"/>
  </metadata>
  <trk>
    <name>Cape Reinga</name>
    <trkseg>
      <trkpt lat="-34.42889185580774" lon="172.682060843029">
        <ele>188</ele>
      </trkpt>
      <trkpt lat="-34.4288699218005" lon="172.682051306504">
        <ele>188</ele>
      </trkpt>
      <trkpt lat="-34.4288699218005" lon="172.682016975014">
        <ele>188</ele>
      </trkpt>
      <trkpt lat="-34.4288699218005" lon="172.682016975014">
        <ele>188</ele>
      </trkpt>
      <trkpt lat="-34.4288956704177" lon="172.681962616822">
        <ele>188</ele>
      </trkpt>
      <trkpt lat="-34.42896910165936" lon="172.681848178524">
        <ele>191</ele>
      </trkpt>
      <trkpt lat="-34.42904157924852" lon="172.681733740225">
        <ele>194</ele>
      </trkpt>
      <trkpt lat="-34.42907495708564" lon="172.68169750143">
        <ele>195</ele>
      </trkpt>
      <trkpt lat="-34.42914075910738" lon="172.681646957849">
        <ele>198</ele>
      </trkpt>
      <trkpt lat="-34.42920751478162" lon="172.681560175472">
        <ele>198</ele>
      </trkpt>
      <trkpt lat="-34.42922754148388" lon="172.68151726111">
        <ele>197</ele>
      </trkpt>
      <trkpt lat="-34.42923421705131" lon="172.681468624833">
        <ele>197</ele>
      </trkpt>
      <trkpt lat="-34.42922181956895" lon="172.681405683769">
        <ele>196</ele>
      </trkpt>
      <trkpt lat="-34.42906160595079" lon="172.681090024795">
        <ele>190</ele>
      </trkpt>
      <trkpt lat="-34.42904157924852" lon="172.681039481213">
        <ele>189</ele>
      </trkpt>
      <trkpt lat="-34.42902536715621" lon="172.680986076674">
        <ele>189</ele>
      </trkpt>
      <trkpt lat="-34.42900724775892" lon="172.680875452985">
        <ele>187</ele>
      </trkpt>
      <trkpt lat="-34.4289824527942" lon="172.680779134084">
        <ele>186</ele>
      </trkpt>
      <trkpt lat="-34.428956704177" lon="172.680682815182">
        <ele>185</ele>
      </trkpt>
      <trkpt lat="-34.42894526034713" lon="172.68061319855">
        <ele>184</ele>
      </trkpt>
      <trkpt lat="-34.42893286286477" lon="172.680544535571">
        <ele>184</ele>
      </trkpt>
      <trkpt lat="-34.42891188251001" lon="172.680465382415">
        <ele>183</ele>
      </trkpt>
      <trkpt lat="-34.42888994850276" lon="172.680386229258">
        <ele>182</ele>
      </trkpt>
      <trkpt lat="-34.42885275605569" lon="172.680282281137">
        <ele>181</ele>
      </trkpt>
      <trkpt lat="-34.42881460995613" lon="172.680178333015">
        <ele>180</ele>
      </trkpt>
      <trkpt lat="-34.42881460995613" lon="172.680178333015">
        <ele>180</ele>
      </trkpt>
      <trkpt lat="-34.42878027846653" lon="172.68">
        <ele>179</ele>
      </trkpt>
      <trkpt lat="-34.42878027846653" lon="172.68">
        <ele>179</ele>
      </trkpt>
      <trkpt lat="-34.42876692733168" lon="172.679917985886">
        <ele>180</ele>
      </trkpt>
      <trkpt lat="-34.42875262254434" lon="172.679835971772">
        <ele>180</ele>
      </trkpt>
      <trkpt lat="-34.42873354949457" lon="172.679493610528">
        <ele>183</ele>
      </trkpt>
      <trkpt lat="-34.42872496662216" lon="172.679453557124">
        <ele>184</ele>
      </trkpt>
      <trkpt lat="-34.42869826435247" lon="172.679401106237">
        <ele>184</ele>
      </trkpt>
      <trkpt lat="-34.42865153538051" lon="172.679368682052">
        <ele>184</ele>
      </trkpt>
      <trkpt lat="-34.42858096509632" lon="172.679345794393">
        <ele>183</ele>
      </trkpt>
      <trkpt lat="-34.42850944115964" lon="172.679323860385">
        <ele>183</ele>
      </trkpt>
      <trkpt lat="-34.42847415601755" lon="172.679304787336">
        <ele>183</ele>
      </trkpt>
      <trkpt lat="-34.42839309555598" lon="172.679224680526">
        <ele>183</ele>
      </trkpt>
      <trkpt lat="-34.42833683005912" lon="172.679181766164">
        <ele>183</ele>
      </trkpt>
      <trkpt lat="-34.42828342551974" lon="172.67916078581">
        <ele>180</ele>
      </trkpt>
      <trkpt lat="-34.42822716002289" lon="172.679147434675">
        <ele>178</ele>
      </trkpt>
      <trkpt lat="-34.42815754339119" lon="172.6791188251">
        <ele>174</ele>
      </trkpt>
      <trkpt lat="-34.42812798016403" lon="172.679091169178">
        <ele>173</ele>
      </trkpt>
      <trkpt lat="-34.42810699980927" lon="172.679058744993">
        <ele>172</ele>
      </trkpt>
      <trkpt lat="-34.42809364867442" lon="172.678960518787">
        <ele>172</ele>
      </trkpt>
      <trkpt lat="-34.42807934388708" lon="172.678862292581">
        <ele>172</ele>
      </trkpt>
      <trkpt lat="-34.42805836353233" lon="172.678783139424">
        <ele>171</ele>
      </trkpt>
      <trkpt lat="-34.42803738317757" lon="172.67870493992">
        <ele>170</ele>
      </trkpt>
      <trkpt lat="-34.42803547587259" lon="172.678664886515">
        <ele>170</ele>
      </trkpt>
      <trkpt lat="-34.42805073431241" lon="172.678618157543">
        <ele>171</ele>
      </trkpt>
      <trkpt lat="-34.42810318519931" lon="172.678507533855">
        <ele>174</ele>
      </trkpt>
      <trkpt lat="-34.42815563608621" lon="172.678396910166">
        <ele>176</ele>
      </trkpt>
      <trkpt lat="-34.42816040434865" lon="172.678361625024">
        <ele>176</ele>
      </trkpt>
      <trkpt lat="-34.42815563608621" lon="172.678308220484">
        <ele>175</ele>
      </trkpt>
      <trkpt lat="-34.42812702651154" lon="172.678246233073">
        <ele>172</ele>
      </trkpt>
      <trkpt lat="-34.42810223154682" lon="172.678221438108">
        <ele>171</ele>
      </trkpt>
      <trkpt lat="-34.42802784665268" lon="172.678167079916">
        <ele>167</ele>
      </trkpt>
      <trkpt lat="-34.42795346175853" lon="172.678112721724">
        <ele>164</ele>
      </trkpt>
      <trkpt lat="-34.42789910356666" lon="172.67805740988">
        <ele>161</ele>
      </trkpt>
      <trkpt lat="-34.42777798970055" lon="172.677964905588">
        <ele>157</ele>
      </trkpt>
      <trkpt lat="-34.42765687583444" lon="172.677872401297">
        <ele>154</ele>
      </trkpt>
      <trkpt lat="-34.42758344459279" lon="172.677828533282">
        <ele>153</ele>
      </trkpt>
      <trkpt lat="-34.4274871256914" lon="172.677726492466">
        <ele>152</ele>
      </trkpt>
      <trkpt lat="-34.42744707228686" lon="172.677697882891">
        <ele>151</ele>
      </trkpt>
      <trkpt lat="-34.4273393095556" lon="172.677665458707">
        <ele>150</ele>
      </trkpt>
      <trkpt lat="-34.42679382033187" lon="172.677549113103">
        <ele>147</ele>
      </trkpt>
      <trkpt lat="-34.42679382033187" lon="172.677549113103">
        <ele>147</ele>
      </trkpt>
      <trkpt lat="-34.4273393095556" lon="172.677665458707">
        <ele>150</ele>
      </trkpt>
      <trkpt lat="-34.42744707228686" lon="172.677697882891">
        <ele>151</ele>
      </trkpt>
      <trkpt lat="-34.4274871256914" lon="172.677726492466">
        <ele>152</ele>
      </trkpt>
      <trkpt lat="-34.42758344459279" lon="172.677828533282">
        <ele>153</ele>
      </trkpt>
      <trkpt lat="-34.42765687583444" lon="172.677872401297">
        <ele>154</ele>
      </trkpt>
      <trkpt lat="-34.42777798970055" lon="172.677964905588">
        <ele>157</ele>
      </trkpt>
      <trkpt lat="-34.42789910356666" lon="172.67805740988">
        <ele>161</ele>
      </trkpt>
      <trkpt lat="-34.42795346175853" lon="172.678112721724">
        <ele>164</ele>
      </trkpt>
      <trkpt lat="-34.42802784665268" lon="172.678167079916">
        <ele>167</ele>
      </trkpt>
      <trkpt lat="-34.42810223154682" lon="172.678221438108">
        <ele>171</ele>
      </trkpt>
      <trkpt lat="-34.42812702651154" lon="172.678246233073">
        <ele>172</ele>
      </trkpt>
      <trkpt lat="-34.42815563608621" lon="172.678308220484">
        <ele>175</ele>
      </trkpt>
      <trkpt lat="-34.42816040434865" lon="172.678361625024">
        <ele>176</ele>
      </trkpt>
      <trkpt lat="-34.42815563608621" lon="172.678396910166">
        <ele>176</ele>
      </trkpt>
      <trkpt lat="-34.42810318519931" lon="172.678507533855">
        <ele>174</ele>
      </trkpt>
      <trkpt lat="-34.42805073431241" lon="172.678618157543">
        <ele>171</ele>
      </trkpt>
      <trkpt lat="-34.42803547587259" lon="172.678664886515">
        <ele>170</ele>
      </trkpt>
      <trkpt lat="-34.42803738317757" lon="172.67870493992">
        <ele>170</ele>
      </trkpt>
      <trkpt lat="-34.42805836353233" lon="172.678783139424">
        <ele>171</ele>
      </trkpt>
      <trkpt lat="-34.42807934388708" lon="172.678862292581">
        <ele>172</ele>
      </trkpt>
      <trkpt lat="-34.42809364867442" lon="172.678960518787">
        <ele>172</ele>
      </trkpt>
      <trkpt lat="-34.42810699980927" lon="172.679058744993">
        <ele>172</ele>
      </trkpt>
      <trkpt lat="-34.42812798016403" lon="172.679091169178">
        <ele>173</ele>
      </trkpt>
      <trkpt lat="-34.42815754339119" lon="172.6791188251">
        <ele>174</ele>
      </trkpt>
      <trkpt lat="-34.42822716002289" lon="172.679147434675">
        <ele>178</ele>
      </trkpt>
      <trkpt lat="-34.42828342551974" lon="172.67916078581">
        <ele>180</ele>
      </trkpt>
      <trkpt lat="-34.42833683005912" lon="172.679181766164">
        <ele>183</ele>
      </trkpt>
      <trkpt lat="-34.42839309555598" lon="172.679224680526">
        <ele>183</ele>
      </trkpt>
      <trkpt lat="-34.42847415601755" lon="172.679304787336">
        <ele>183</ele>
      </trkpt>
      <trkpt lat="-34.42850944115964" lon="172.679323860385">
        <ele>183</ele>
      </trkpt>
      <trkpt lat="-34.42858096509632" lon="172.679345794393">
        <ele>183</ele>
      </trkpt>
      <trkpt lat="-34.42865153538051" lon="172.679368682052">
        <ele>184</ele>
      </trkpt>
      <trkpt lat="-34.42869826435247" lon="172.679401106237">
        <ele>184</ele>
      </trkpt>
      <trkpt lat="-34.42872496662216" lon="172.679453557124">
        <ele>184</ele>
      </trkpt>
      <trkpt lat="-34.42873354949457" lon="172.679493610528">
        <ele>183</ele>
      </trkpt>
      <trkpt lat="-34.42875262254434" lon="172.679835971772">
        <ele>180</ele>
      </trkpt>
      <trkpt lat="-34.42876692733168" lon="172.679917985886">
        <ele>180</ele>
      </trkpt>
      <trkpt lat="-34.42878027846653" lon="172.68">
        <ele>179</ele>
      </trkpt>
      <trkpt lat="-34.42878027846653" lon="172.68">
        <ele>179</ele>
      </trkpt>
      <trkpt lat="-34.42881460995613" lon="172.680178333015">
        <ele>180</ele>
      </trkpt>
      <trkpt lat="-34.42881460995613" lon="172.680178333015">
        <ele>180</ele>
      </trkpt>
      <trkpt lat="-34.42884131222583" lon="172.680130650391">
        <ele>180</ele>
      </trkpt>
      <trkpt lat="-34.42889090215525" lon="172.680091550639">
        <ele>181</ele>
      </trkpt>
      <trkpt lat="-34.42894812130459" lon="172.68">
        <ele>181</ele>
      </trkpt>
      <trkpt lat="-34.42894812130459" lon="172.68">
        <ele>181</ele>
      </trkpt>
      <trkpt lat="-34.42896433339691" lon="172.679962807553">
        <ele>181</ele>
      </trkpt>
      <trkpt lat="-34.4289824527942" lon="172.679874117871">
        <ele>182</ele>
      </trkpt>
      <trkpt lat="-34.42901583063131" lon="172.679782567233">
        <ele>183</ele>
      </trkpt>
      <trkpt lat="-34.42905969864582" lon="172.679703414076">
        <ele>184</ele>
      </trkpt>
      <trkpt lat="-34.42912073240511" lon="172.679607095175">
        <ele>186</ele>
      </trkpt>
      <trkpt lat="-34.42921037573908" lon="172.679493610528">
        <ele>186</ele>
      </trkpt>
      <trkpt lat="-34.42930001907305" lon="172.679380125882">
        <ele>184</ele>
      </trkpt>
      <trkpt lat="-34.42936868205226" lon="172.679264733931">
        <ele>182</ele>
      </trkpt>
      <trkpt lat="-34.42941064276178" lon="172.679218004959">
        <ele>180</ele>
      </trkpt>
      <trkpt lat="-34.4294526034713" lon="172.67914171276">
        <ele>179</ele>
      </trkpt>
      <trkpt lat="-34.4294783520885" lon="172.679043486554">
        <ele>177</ele>
      </trkpt>
      <trkpt lat="-34.42947358382605" lon="172.678973869922">
        <ele>176</ele>
      </trkpt>
      <trkpt lat="-34.42946786191112" lon="172.678905206943">
        <ele>176</ele>
      </trkpt>
      <trkpt lat="-34.42948884226588" lon="172.678809841694">
        <ele>174</ele>
      </trkpt>
      <trkpt lat="-34.42954987602518" lon="172.678765973679">
        <ele>172</ele>
      </trkpt>
      <trkpt lat="-34.42960900247949" lon="172.678696357047">
        <ele>169</ele>
      </trkpt>
      <trkpt lat="-34.42966717528132" lon="172.678626740416">
        <ele>167</ele>
      </trkpt>
      <trkpt lat="-34.42977207705512" lon="172.678533282472">
        <ele>163</ele>
      </trkpt>
      <trkpt lat="-34.42987125691398" lon="172.678481785237">
        <ele>160</ele>
      </trkpt>
      <trkpt lat="-34.4299742513828" lon="172.678466526798">
        <ele>157</ele>
      </trkpt>
      <trkpt lat="-34.43008582872401" lon="172.678430288003">
        <ele>154</ele>
      </trkpt>
      <trkpt lat="-34.43019740606523" lon="172.678404539386">
        <ele>151</ele>
      </trkpt>
      <trkpt lat="-34.43019740606523" lon="172.678404539386">
        <ele>151</ele>
      </trkpt>
      <trkpt lat="-34.43025176425711" lon="172.678381651726">
        <ele>150</ele>
      </trkpt>
      <trkpt lat="-34.43030993705894" lon="172.678372115201">
        <ele>149</ele>
      </trkpt>
      <trkpt lat="-34.43036429525081" lon="172.678366393286">
        <ele>148</ele>
      </trkpt>
      <trkpt lat="-34.43041102422277" lon="172.678375929811">
        <ele>147</ele>
      </trkpt>
      <trkpt lat="-34.43051783330154" lon="172.678378790769">
        <ele>144</ele>
      </trkpt>
      <trkpt lat="-34.43063131794774" lon="172.678399771123">
        <ele>142</ele>
      </trkpt>
      <trkpt lat="-34.43073812702651" lon="172.678402632081">
        <ele>139</ele>
      </trkpt>
      <trkpt lat="-34.43084588975777" lon="172.678430288003">
        <ele>136</ele>
      </trkpt>
      <trkpt lat="-34.43111672706465" lon="172.678464619493">
        <ele>130</ele>
      </trkpt>
      <trkpt lat="-34.43117013160404" lon="172.678457943925">
        <ele>129</ele>
      </trkpt>
      <trkpt lat="-34.43127503337784" lon="172.678409307648">
        <ele>128</ele>
      </trkpt>
      <trkpt lat="-34.43138184245661" lon="172.678378790769">
        <ele>126</ele>
      </trkpt>
      <trkpt lat="-34.43149246614534" lon="172.678368300591">
        <ele>123</ele>
      </trkpt>
      <trkpt lat="-34.43160404348655" lon="172.678370207896">
        <ele>121</ele>
      </trkpt>
      <trkpt lat="-34.43171562082777" lon="172.678372115201">
        <ele>119</ele>
      </trkpt>
      <trkpt lat="-34.43182242990654" lon="172.678344459279">
        <ele>118</ele>
      </trkpt>
      <trkpt lat="-34.43193305359527" lon="172.678303452222">
        <ele>115</ele>
      </trkpt>
      <trkpt lat="-34.43198645813465" lon="172.678290101087">
        <ele>114</ele>
      </trkpt>
      <trkpt lat="-34.43205988937631" lon="172.678238603853">
        <ele>112</ele>
      </trkpt>
      <trkpt lat="-34.43213332061796" lon="172.678187106618">
        <ele>110</ele>
      </trkpt>
      <trkpt lat="-34.43219435437727" lon="172.678109860767">
        <ele>107</ele>
      </trkpt>
      <trkpt lat="-34.43225443448407" lon="172.678033568568">
        <ele>105</ele>
      </trkpt>
      <trkpt lat="-34.43230497806599" lon="172.677991607858">
        <ele>104</ele>
      </trkpt>
      <trkpt lat="-34.43240701888232" lon="172.677930574099">
        <ele>104</ele>
      </trkpt>
      <trkpt lat="-34.43251668891856" lon="172.677892427999">
        <ele>104</ele>
      </trkpt>
      <trkpt lat="-34.43262445164982" lon="172.677877169559">
        <ele>103</ele>
      </trkpt>
      <trkpt lat="-34.43273126072859" lon="172.67786191112">
        <ele>102</ele>
      </trkpt>
      <trkpt lat="-34.43283330154492" lon="172.67779706275">
        <ele>101</ele>
      </trkpt>
      <trkpt lat="-34.43287526225443" lon="172.677752241083">
        <ele>101</ele>
      </trkpt>
      <trkpt lat="-34.43292389853138" lon="172.677717909594">
        <ele>101</ele>
      </trkpt>
      <trkpt lat="-34.43299732977303" lon="172.6776053786">
        <ele>101</ele>
      </trkpt>
      <trkpt lat="-34.43308506580202" lon="172.677519549876">
        <ele>101</ele>
      </trkpt>
      <trkpt lat="-34.43315563608621" lon="172.677466145337">
        <ele>100</ele>
      </trkpt>
      <trkpt lat="-34.43322525271791" lon="172.67741369445">
        <ele>97</ele>
      </trkpt>
      <trkpt lat="-34.43327674995232" lon="172.677386038528">
        <ele>96</ele>
      </trkpt>
      <trkpt lat="-34.43333301544917" lon="172.677345031471">
        <ele>95</ele>
      </trkpt>
      <trkpt lat="-34.43344077818043" lon="172.677295441541">
        <ele>92</ele>
      </trkpt>
      <trkpt lat="-34.43354758725921" lon="172.677245851612">
        <ele>91</ele>
      </trkpt>
      <trkpt lat="-34.43360385275606" lon="172.677228685867">
        <ele>90</ele>
      </trkpt>
      <trkpt lat="-34.43370589357238" lon="172.677170513065">
        <ele>89</ele>
      </trkpt>
      <trkpt lat="-34.43380411977875" lon="172.677098989128">
        <ele>88</ele>
      </trkpt>
      <trkpt lat="-34.43391474346748" lon="172.677043677284">
        <ele>88</ele>
      </trkpt>
      <trkpt lat="-34.43397673087927" lon="172.677016021362">
        <ele>88</ele>
      </trkpt>
      <trkpt lat="-34.43408926187297" lon="172.676982643525">
        <ele>90</ele>
      </trkpt>
      <trkpt lat="-34.43418844173183" lon="172.676913980545">
        <ele>91</ele>
      </trkpt>
      <trkpt lat="-34.43428762159069" lon="172.676845317566">
        <ele>91</ele>
      </trkpt>
      <trkpt lat="-34.43439347701698" lon="172.676791913027">
        <ele>92</ele>
      </trkpt>
      <trkpt lat="-34.43449933244326" lon="172.67673946214">
        <ele>93</ele>
      </trkpt>
      <trkpt lat="-34.43454701506771" lon="172.676707991608">
        <ele>93</ele>
      </trkpt>
      <trkpt lat="-34.43465477779897" lon="172.676665077246">
        <ele>94</ele>
      </trkpt>
      <trkpt lat="-34.43476254053023" lon="172.676623116536">
        <ele>94</ele>
      </trkpt>
      <trkpt lat="-34.43482452794202" lon="172.676619301926">
        <ele>94</ele>
      </trkpt>
      <trkpt lat="-34.4348865153538" lon="172.676632653061">
        <ele>95</ele>
      </trkpt>
      <trkpt lat="-34.43494373450314" lon="172.676661262636">
        <ele>97</ele>
      </trkpt>
      <trkpt lat="-34.43494373450314" lon="172.676661262636">
        <ele>97</ele>
      </trkpt>
      <trkpt lat="-34.43497043677284" lon="172.676681289338">
        <ele>98</ele>
      </trkpt>
      <trkpt lat="-34.4352870493992" lon="172.677023650582">
        <ele>92</ele>
      </trkpt>
      <trkpt lat="-34.43537764638565" lon="172.677099942781">
        <ele>91</ele>
      </trkpt>
      <trkpt lat="-34.43541960709518" lon="172.677143810795">
        <ele>90</ele>
      </trkpt>
      <trkpt lat="-34.43549303833683" lon="172.67719149342">
        <ele>89</ele>
      </trkpt>
      <trkpt lat="-34.43556646957848" lon="172.677240129697">
        <ele>87</ele>
      </trkpt>
      <trkpt lat="-34.43561224489796" lon="172.677281136754">
        <ele>86</ele>
      </trkpt>
      <trkpt lat="-34.43569425901202" lon="172.677328819378">
        <ele>85</ele>
      </trkpt>
      <trkpt lat="-34.43581537287812" lon="172.677380316613">
        <ele>84</ele>
      </trkpt>
      <trkpt lat="-34.4359221819569" lon="172.677410833492">
        <ele>80</ele>
      </trkpt>
      <trkpt lat="-34.43603852756056" lon="172.67742132367">
        <ele>75</ele>
      </trkpt>
      <trkpt lat="-34.43612912454702" lon="172.677423230975">
        <ele>71</ele>
      </trkpt>
      <trkpt lat="-34.43621876788098" lon="172.67742513828">
        <ele>68</ele>
      </trkpt>
      <trkpt lat="-34.43632939156971" lon="172.677404157925">
        <ele>64</ele>
      </trkpt>
      <trkpt lat="-34.43639900820141" lon="172.677338355903">
        <ele>62</ele>
      </trkpt>
      <trkpt lat="-34.43641426664124" lon="172.677272553881">
        <ele>63</ele>
      </trkpt>
      <trkpt lat="-34.43642666412359" lon="172.677193400725">
        <ele>64</ele>
      </trkpt>
      <trkpt lat="-34.43643810795346" lon="172.677115201221">
        <ele>65</ele>
      </trkpt>
      <trkpt lat="-34.43644001525844" lon="172.676996948312">
        <ele>67</ele>
      </trkpt>
      <trkpt lat="-34.43644192256342" lon="172.676879649056">
        <ele>69</ele>
      </trkpt>
      <trkpt lat="-34.43643047873355" lon="172.676808125119">
        <ele>70</ele>
      </trkpt>
      <trkpt lat="-34.43641903490368" lon="172.676736601183">
        <ele>72</ele>
      </trkpt>
      <trkpt lat="-34.43640186915888" lon="172.676659355331">
        <ele>74</ele>
      </trkpt>
      <trkpt lat="-34.43638470341408" lon="172.676582109479">
        <ele>73</ele>
      </trkpt>
      <trkpt lat="-34.43639710089644" lon="172.67652107572">
        <ele>71</ele>
      </trkpt>
      <trkpt lat="-34.43644478352088" lon="172.676480068663">
        <ele>68</ele>
      </trkpt>
      <trkpt lat="-34.43649818806027" lon="172.676459088308">
        <ele>66</ele>
      </trkpt>
      <trkpt lat="-34.436608811749" lon="172.676435246996">
        <ele>61</ele>
      </trkpt>
      <trkpt lat="-34.43669464047301" lon="172.676399961854">
        <ele>57</ele>
      </trkpt>
      <trkpt lat="-34.43676234979974" lon="172.676379935152">
        <ele>53</ele>
      </trkpt>
      <trkpt lat="-34.43706465763876" lon="172.676408544726">
        <ele>40</ele>
      </trkpt>
      <trkpt lat="-34.43711520122068" lon="172.676400915506">
        <ele>37</ele>
      </trkpt>
      <trkpt lat="-34.43720770551211" lon="172.676369444974">
        <ele>33</ele>
      </trkpt>
      <trkpt lat="-34.43722201029944" lon="172.676385657067">
        <ele>32</ele>
      </trkpt>
      <trkpt lat="-34.43722105664695" lon="172.676399961854">
        <ele>33</ele>
      </trkpt>
      <trkpt lat="-34.43719435437726" lon="172.676444783521">
        <ele>35</ele>
      </trkpt>
      <trkpt lat="-34.43707610146863" lon="172.676552546252">
        <ele>42</ele>
      </trkpt>
      <trkpt lat="-34.43697978256724" lon="172.676592599657">
        <ele>47</ele>
      </trkpt>
      <trkpt lat="-34.43692828533283" lon="172.676631699409">
        <ele>51</ele>
      </trkpt>
      <trkpt lat="-34.43689586114819" lon="172.676676521076">
        <ele>53</ele>
      </trkpt>
      <trkpt lat="-34.43682052260156" lon="172.67674327675">
        <ele>55</ele>
      </trkpt>
      <trkpt lat="-34.43681003242418" lon="172.676776654587">
        <ele>55</ele>
      </trkpt>
      <trkpt lat="-34.43682052260156" lon="172.676881556361">
        <ele>53</ele>
      </trkpt>
      <trkpt lat="-34.43681193972916" lon="172.676975967957">
        <ele>52</ele>
      </trkpt>
      <trkpt lat="-34.43681575433912" lon="172.677046538241">
        <ele>50</ele>
      </trkpt>
      <trkpt lat="-34.4368348273889" lon="172.677090406256">
        <ele>49</ele>
      </trkpt>
      <trkpt lat="-34.43684913217623" lon="172.677099942781">
        <ele>48</ele>
      </trkpt>
      <trkpt lat="-34.43686439061606" lon="172.677098035476">
        <ele>47</ele>
      </trkpt>
      <trkpt lat="-34.43689967575816" lon="172.676995041007">
        <ele>47</ele>
      </trkpt>
      <trkpt lat="-34.43691493419798" lon="172.676974060652">
        <ele>47</ele>
      </trkpt>
      <trkpt lat="-34.43698550448217" lon="172.676932099943">
        <ele>45</ele>
      </trkpt>
      <trkpt lat="-34.43708277703605" lon="172.676837688346">
        <ele>42</ele>
      </trkpt>
      <trkpt lat="-34.43718100324242" lon="172.67677760824">
        <ele>38</ele>
      </trkpt>
      <trkpt lat="-34.43723345412931" lon="172.676775700935">
        <ele>36</ele>
      </trkpt>
      <trkpt lat="-34.4372782757963" lon="172.67676616441">
        <ele>34</ele>
      </trkpt>
      <trkpt lat="-34.43739557505245" lon="172.67670131604">
        <ele>29</ele>
      </trkpt>
      <trkpt lat="-34.43741655540721" lon="172.676698455083">
        <ele>28</ele>
      </trkpt>
      <trkpt lat="-34.4374260919321" lon="172.676702269693">
        <ele>28</ele>
      </trkpt>
      <trkpt lat="-34.43743562845699" lon="172.676729925615">
        <ele>27</ele>
      </trkpt>
      <trkpt lat="-34.43742704558459" lon="172.676752813275">
        <ele>27</ele>
      </trkpt>
      <trkpt lat="-34.4374089261873" lon="172.676786191112">
        <ele>27</ele>
      </trkpt>
      <trkpt lat="-34.43736124356285" lon="172.676851039481">
        <ele>29</ele>
      </trkpt>
      <trkpt lat="-34.4373126072859" lon="172.676916841503">
        <ele>30</ele>
      </trkpt>
      <trkpt lat="-34.43731356093839" lon="172.676951172993">
        <ele>30</ele>
      </trkpt>
      <trkpt lat="-34.43734979973298" lon="172.677058935724">
        <ele>27</ele>
      </trkpt>
      <trkpt lat="-34.43735456799542" lon="172.677099942781">
        <ele>26</ele>
      </trkpt>
      <trkpt lat="-34.43735266069044" lon="172.677136181575">
        <ele>25</ele>
      </trkpt>
      <trkpt lat="-34.43734312416555" lon="172.677179095937">
        <ele>25</ele>
      </trkpt>
      <trkpt lat="-34.43731069998093" lon="172.677270646576">
        <ele>26</ele>
      </trkpt>
      <trkpt lat="-34.4372782757963" lon="172.677363150868">
        <ele>26</ele>
      </trkpt>
      <trkpt lat="-34.43726778561892" lon="172.677407972535">
        <ele>26</ele>
      </trkpt>
      <trkpt lat="-34.43726683196643" lon="172.677442304024">
        <ele>25</ele>
      </trkpt>
      <trkpt lat="-34.43730974632844" lon="172.677526225443">
        <ele>22</ele>
      </trkpt>
      <trkpt lat="-34.4373126072859" lon="172.677598703033">
        <ele>22</ele>
      </trkpt>
      <trkpt lat="-34.43731451459088" lon="172.677672134274">
        <ele>21</ele>
      </trkpt>
      <trkpt lat="-34.43731451459088" lon="172.677672134274">
        <ele>21</ele>
      </trkpt>
      <trkpt lat="-34.43737268739272" lon="172.677707419416">
        <ele>19</ele>
      </trkpt>
      <trkpt lat="-34.43745374785428" lon="172.677720770551">
        <ele>16</ele>
      </trkpt>
      <trkpt lat="-34.43753385466336" lon="172.677734121686">
        <ele>14</ele>
      </trkpt>
      <trkpt lat="-34.437652107572" lon="172.677762731261">
        <ele>14</ele>
      </trkpt>
      <trkpt lat="-34.4377045584589" lon="172.677710280374">
        <ele>14</ele>
      </trkpt>
      <trkpt lat="-34.4377045584589" lon="172.677710280374">
        <ele>14</ele>
      </trkpt>
      <trkpt lat="-34.43772458516117" lon="172.67782376502">
        <ele>14</ele>
      </trkpt>
      <trkpt lat="-34.43772649246615" lon="172.677878123212">
        <ele>14</ele>
      </trkpt>
      <trkpt lat="-34.43771886324623" lon="172.677930574099">
        <ele>14</ele>
      </trkpt>
      <trkpt lat="-34.43767213427427" lon="172.678021171085">
        <ele>14</ele>
      </trkpt>
      <trkpt lat="-34.43767308792676" lon="172.678055502575">
        <ele>14</ele>
      </trkpt>
      <trkpt lat="-34.43772363150867" lon="172.678125119207">
        <ele>14</ele>
      </trkpt>
      <trkpt lat="-34.43777608239557" lon="172.678172801831">
        <ele>15</ele>
      </trkpt>
      <trkpt lat="-34.43786000381461" lon="172.678170894526">
        <ele>16</ele>
      </trkpt>
      <trkpt lat="-34.43792485218386" lon="172.678158497044">
        <ele>16</ele>
      </trkpt>
      <trkpt lat="-34.43822334541293" lon="172.678055502575">
        <ele>18</ele>
      </trkpt>
      <trkpt lat="-34.43829010108716" lon="172.678027846653">
        <ele>18</ele>
      </trkpt>
      <trkpt lat="-34.43835590310891" lon="172.678001144383">
        <ele>18</ele>
      </trkpt>
      <trkpt lat="-34.43842742704558" lon="172.677962998283">
        <ele>17</ele>
      </trkpt>
      <trkpt lat="-34.43849799732978" lon="172.677924852184">
        <ele>16</ele>
      </trkpt>
      <trkpt lat="-34.43857715048636" lon="172.677875262254">
        <ele>14</ele>
      </trkpt>
      <trkpt lat="-34.43865630364295" lon="172.677826625978">
        <ele>13</ele>
      </trkpt>
      <trkpt lat="-34.43872401296967" lon="172.677811367538">
        <ele>13</ele>
      </trkpt>
      <trkpt lat="-34.4387907686439" lon="172.677796109098">
        <ele>12</ele>
      </trkpt>
      <trkpt lat="-34.43888899485027" lon="172.67781995041">
        <ele>12</ele>
      </trkpt>
      <trkpt lat="-34.43914934197979" lon="172.678004958993">
        <ele>11</ele>
      </trkpt>
      <trkpt lat="-34.43957562464238" lon="172.678215716193">
        <ele>13</ele>
      </trkpt>
      <trkpt lat="-34.43965763875644" lon="172.678243372115">
        <ele>13</ele>
      </trkpt>
      <trkpt lat="-34.43973965287049" lon="172.678271028037">
        <ele>13</ele>
      </trkpt>
      <trkpt lat="-34.44" lon="172.678293915697">
        <ele>13</ele>
      </trkpt>
      <trkpt lat="-34.44" lon="172.678293915697">
        <ele>13</ele>
      </trkpt>
      <trkpt lat="-34.44018310127789" lon="172.678309174137">
        <ele>12</ele>
      </trkpt>
      <trkpt lat="-34.44064848369254" lon="172.678272935342">
        <ele>9</ele>
      </trkpt>
      <trkpt lat="-34.44241655540721" lon="172.678083158497">
        <ele>8</ele>
      </trkpt>
      <trkpt lat="-34.44349799732977" lon="172.678022124738">
        <ele>9</ele>
      </trkpt>
      <trkpt lat="-34.44407209612817" lon="172.677961090978">
        <ele>8</ele>
      </trkpt>
      <trkpt lat="-34.44461186343696" lon="172.677913408354">
        <ele>7</ele>
      </trkpt>
      <trkpt lat="-34.44559794011062" lon="172.677699790196">
        <ele>9</ele>
      </trkpt>
      <trkpt lat="-34.44668033568567" lon="172.677440396719">
        <ele>7</ele>
      </trkpt>
      <trkpt lat="-34.44796299828342" lon="172.67715334732">
        <ele>5</ele>
      </trkpt>
      <trkpt lat="-34.44832495413212" lon="172.677063083567">
        <ele>5</ele>
      </trkpt>
      <trkpt lat="-34.44832495333787" lon="172.677063083765">
        <ele>5</ele>
      </trkpt>
      <trkpt lat="-34.44898454962876" lon="172.676898595093">
        <ele>5</ele>
      </trkpt>
      <trkpt lat="-34.44898455019104" lon="172.676898594953">
        <ele>5</ele>
      </trkpt>
      <trkpt lat="-34.44987888613389" lon="172.676675567423">
        <ele>6</ele>
      </trkpt>
      <trkpt lat="-34.44999444173215" lon="172.676639938995">
        <ele>6</ele>
      </trkpt>
    </trkseg>
  </trk>
</gpx>