<?xml version="1.0" encoding="UTF-8" standalone="yes"?>
<gpx
 version="1.1"
 creator="Generated by MapOut iPhone App. See https://mapout.app"
 xmlns="http://www.topografix.com/GPX/1/1"
 xmlns:xsi="http://www.w3.org/2001/XMLSchema-instance"
 xmlns:gpxx="http://www.garmin.com/xmlschemas/GpxExtensions/v3"
 xmlns:mapout="https://mapout.app/xmlschemas/MapOutExtensions"
 xsi:schemaLocation="http://www.topografix.com/GPX/1/1 https://www.topografix.com/GPX/1/1/gpx.xsd http://www.garmin.com/xmlschemas/GpxExtensions/v3 https://www8.garmin.com/xmlschemas/GpxExtensionsv3.xsd https://mapout.app/xmlschemas/MapOutExtensions https://mapout.app/xmlschemas/MapOutExtensions.xsd">
  <metadata>
    <name>Te Mata</name>
    <author><name>iPhone</name></author>
    <time>2026-06-19T23:22:11Z</time>
    <bounds minlat="-39.7033997711234" minlon="176.897272553881" maxlat="-39.69628266259775" maxlon="176.909383940492"/>
  </metadata>
  <trk>
    <name>Te Mata</name>
    <trkseg>
      <trkpt lat="-39.69629310669754" lon="176.90881888839">
        <ele>313</ele>
      </trkpt>
      <trkpt lat="-39.69630745756246" lon="176.908813656304">
        <ele>313</ele>
      </trkpt>
      <trkpt lat="-39.69631985504482" lon="176.908784093077">
        <ele>313</ele>
      </trkpt>
      <trkpt lat="-39.69632748426474" lon="176.90873164219">
        <ele>313</ele>
      </trkpt>
      <trkpt lat="-39.69641903490368" lon="176.908614342933">
        <ele>313</ele>
      </trkpt>
      <trkpt lat="-39.69641988663143" lon="176.908613251632">
        <ele>313</ele>
      </trkpt>
      <trkpt lat="-39.69645336639329" lon="176.908634369636">
        <ele>313</ele>
      </trkpt>
      <trkpt lat="-39.69648769788289" lon="176.908643906161">
        <ele>312</ele>
      </trkpt>
      <trkpt lat="-39.69652870493992" lon="176.908646767118">
        <ele>311</ele>
      </trkpt>
      <trkpt lat="-39.69656589738699" lon="176.908643906161">
        <ele>310</ele>
      </trkpt>
      <trkpt lat="-39.69662311653633" lon="176.908626740416">
        <ele>310</ele>
      </trkpt>
      <trkpt lat="-39.6966955941255" lon="176.908586687011">
        <ele>310</ele>
      </trkpt>
      <trkpt lat="-39.6967737936296" lon="176.908528514209">
        <ele>312</ele>
      </trkpt>
      <trkpt lat="-39.69685103948121" lon="176.90847129506">
        <ele>314</ele>
      </trkpt>
      <trkpt lat="-39.69695880221247" lon="176.908404539386">
        <ele>318</ele>
      </trkpt>
      <trkpt lat="-39.69705798207133" lon="176.908364485981">
        <ele>320</ele>
      </trkpt>
      <trkpt lat="-39.6971476254053" lon="176.908348273889">
        <ele>322</ele>
      </trkpt>
      <trkpt lat="-39.69723726873927" lon="176.908332061797">
        <ele>324</ele>
      </trkpt>
      <trkpt lat="-39.69731832920084" lon="176.908321571619">
        <ele>325</ele>
      </trkpt>
      <trkpt lat="-39.69739938966241" lon="176.908312035094">
        <ele>326</ele>
      </trkpt>
      <trkpt lat="-39.6974432576769" lon="176.908296776655">
        <ele>326</ele>
      </trkpt>
      <trkpt lat="-39.69754243753576" lon="176.908239557505">
        <ele>325</ele>
      </trkpt>
      <trkpt lat="-39.69764066374213" lon="176.908163265306">
        <ele>323</ele>
      </trkpt>
      <trkpt lat="-39.6977388899485" lon="176.90808792676">
        <ele>322</ele>
      </trkpt>
      <trkpt lat="-39.69780278466526" lon="176.908048827007">
        <ele>322</ele>
      </trkpt>
      <trkpt lat="-39.69787049399199" lon="176.908014495518">
        <ele>321</ele>
      </trkpt>
      <trkpt lat="-39.69793724966622" lon="176.907980164028">
        <ele>321</ele>
      </trkpt>
      <trkpt lat="-39.69800495899294" lon="176.907922944879">
        <ele>321</ele>
      </trkpt>
      <trkpt lat="-39.69807171466717" lon="176.90786572573">
        <ele>320</ele>
      </trkpt>
      <trkpt lat="-39.69816612626359" lon="176.907803738318">
        <ele>320</ele>
      </trkpt>
      <trkpt lat="-39.69820904062559" lon="176.90778561892">
        <ele>320</ele>
      </trkpt>
      <trkpt lat="-39.69829010108716" lon="176.907768453176">
        <ele>321</ele>
      </trkpt>
      <trkpt lat="-39.6983387373641" lon="176.907765592218">
        <ele>322</ele>
      </trkpt>
      <trkpt lat="-39.69842742704558" lon="176.907770360481">
        <ele>323</ele>
      </trkpt>
      <trkpt lat="-39.6984527624597" lon="176.9077717226">
        <ele>324</ele>
      </trkpt>
      <trkpt lat="-39.6984527624597" lon="176.9077717226">
        <ele>324</ele>
      </trkpt>
      <trkpt lat="-39.6988956704177" lon="176.908216669846">
        <ele>335</ele>
      </trkpt>
      <trkpt lat="-39.6989652870494" lon="176.908253862293">
        <ele>336</ele>
      </trkpt>
      <trkpt lat="-39.6989652870494" lon="176.908253862293">
        <ele>336</ele>
      </trkpt>
      <trkpt lat="-39.69904634751096" lon="176.908251954988">
        <ele>336</ele>
      </trkpt>
      <trkpt lat="-39.69914934197978" lon="176.908210947931">
        <ele>337</ele>
      </trkpt>
      <trkpt lat="-39.6992427999237" lon="176.908167079916">
        <ele>338</ele>
      </trkpt>
      <trkpt lat="-39.69933625786763" lon="176.908123211902">
        <ele>339</ele>
      </trkpt>
      <trkpt lat="-39.69938203318711" lon="176.908136563036">
        <ele>340</ele>
      </trkpt>
      <trkpt lat="-39.69941445737173" lon="176.908206179668">
        <ele>341</ele>
      </trkpt>
      <trkpt lat="-39.69948025939348" lon="176.908316803357">
        <ele>343</ele>
      </trkpt>
      <trkpt lat="-39.69954510776273" lon="176.908427427046">
        <ele>341</ele>
      </trkpt>
      <trkpt lat="-39.69959374403967" lon="176.908458897578">
        <ele>341</ele>
      </trkpt>
      <trkpt lat="-39.69964905588403" lon="176.908458897578">
        <ele>342</ele>
      </trkpt>
      <trkpt lat="-39.69975777226778" lon="176.908393095556">
        <ele>347</ele>
      </trkpt>
      <trkpt lat="-39.69986648865153" lon="176.908328247187">
        <ele>351</ele>
      </trkpt>
      <trkpt lat="-39.69986648865153" lon="176.908328247187">
        <ele>351</ele>
      </trkpt>
      <trkpt lat="-39.69993324432576" lon="176.908331108144">
        <ele>352</ele>
      </trkpt>
      <trkpt lat="-39.7" lon="176.908333969102">
        <ele>354</ele>
      </trkpt>
      <trkpt lat="-39.7" lon="176.908333969102">
        <ele>354</ele>
      </trkpt>
      <trkpt lat="-39.70002574861721" lon="176.908338737364">
        <ele>354</ele>
      </trkpt>
      <trkpt lat="-39.70003814609957" lon="176.908354949456">
        <ele>353</ele>
      </trkpt>
      <trkpt lat="-39.70005817280183" lon="176.90845985123">
        <ele>350</ele>
      </trkpt>
      <trkpt lat="-39.70005435819188" lon="176.908484646195">
        <ele>349</ele>
      </trkpt>
      <trkpt lat="-39.70004196070952" lon="176.908506580202">
        <ele>348</ele>
      </trkpt>
      <trkpt lat="-39.70004863627694" lon="176.90852088499">
        <ele>348</ele>
      </trkpt>
      <trkpt lat="-39.70006389471676" lon="176.90851325577">
        <ele>348</ele>
      </trkpt>
      <trkpt lat="-39.70014686248332" lon="176.908411214953">
        <ele>352</ele>
      </trkpt>
      <trkpt lat="-39.70026225443448" lon="176.908334922754">
        <ele>354</ele>
      </trkpt>
      <trkpt lat="-39.70032042723631" lon="176.908330154492">
        <ele>355</ele>
      </trkpt>
      <trkpt lat="-39.70034236124356" lon="176.908314896052">
        <ele>354</ele>
      </trkpt>
      <trkpt lat="-39.700391951173" lon="176.908250047683">
        <ele>353</ele>
      </trkpt>
      <trkpt lat="-39.700434865535" lon="176.908177570093">
        <ele>352</ele>
      </trkpt>
      <trkpt lat="-39.70047682624452" lon="176.908105092504">
        <ele>350</ele>
      </trkpt>
      <trkpt lat="-39.70050925042914" lon="176.90807266832">
        <ele>350</ele>
      </trkpt>
      <trkpt lat="-39.70061033759298" lon="176.908024985695">
        <ele>349</ele>
      </trkpt>
      <trkpt lat="-39.7006341789052" lon="176.908020217433">
        <ele>349</ele>
      </trkpt>
      <trkpt lat="-39.70065706656494" lon="176.908027846653">
        <ele>349</ele>
      </trkpt>
      <trkpt lat="-39.70069044440206" lon="176.908058363532">
        <ele>350</ele>
      </trkpt>
      <trkpt lat="-39.7007047491894" lon="176.908106046157">
        <ele>351</ele>
      </trkpt>
      <trkpt lat="-39.70069902727446" lon="176.908139423994">
        <ele>352</ele>
      </trkpt>
      <trkpt lat="-39.70067804691971" lon="176.908176616441">
        <ele>352</ele>
      </trkpt>
      <trkpt lat="-39.70067232500477" lon="176.908207133321">
        <ele>353</ele>
      </trkpt>
      <trkpt lat="-39.70069044440206" lon="176.908321571619">
        <ele>356</ele>
      </trkpt>
      <trkpt lat="-39.70068567613961" lon="176.908384512684">
        <ele>355</ele>
      </trkpt>
      <trkpt lat="-39.70067995422468" lon="176.908447453748">
        <ele>354</ele>
      </trkpt>
      <trkpt lat="-39.70068090787717" lon="176.90851325577">
        <ele>353</ele>
      </trkpt>
      <trkpt lat="-39.70068186152966" lon="176.908580011444">
        <ele>352</ele>
      </trkpt>
      <trkpt lat="-39.70068186152966" lon="176.908580011444">
        <ele>352</ele>
      </trkpt>
      <trkpt lat="-39.70067804691971" lon="176.908592408926">
        <ele>352</ele>
      </trkpt>
      <trkpt lat="-39.70067804691971" lon="176.908592408926">
        <ele>352</ele>
      </trkpt>
      <trkpt lat="-39.70069330535953" lon="176.908601945451">
        <ele>352</ele>
      </trkpt>
      <trkpt lat="-39.70078962426092" lon="176.908620064848">
        <ele>353</ele>
      </trkpt>
      <trkpt lat="-39.70083158497044" lon="176.908654396338">
        <ele>353</ele>
      </trkpt>
      <trkpt lat="-39.70083550880457" lon="176.908657606795">
        <ele>353</ele>
      </trkpt>
      <trkpt lat="-39.70084207514782" lon="176.90867442304">
        <ele>353</ele>
      </trkpt>
      <trkpt lat="-39.70087736028991" lon="176.908707800877">
        <ele>353</ele>
      </trkpt>
      <trkpt lat="-39.70091836734694" lon="176.908759298112">
        <ele>353</ele>
      </trkpt>
      <trkpt lat="-39.7009650963189" lon="176.908795536906">
        <ele>354</ele>
      </trkpt>
      <trkpt lat="-39.70106046156781" lon="176.908832729353">
        <ele>356</ele>
      </trkpt>
      <trkpt lat="-39.7010871638375" lon="176.908837497616">
        <ele>357</ele>
      </trkpt>
      <trkpt lat="-39.70114533663933" lon="176.908824146481">
        <ele>358</ele>
      </trkpt>
      <trkpt lat="-39.70115868777417" lon="176.908830822048">
        <ele>359</ele>
      </trkpt>
      <trkpt lat="-39.70115868777417" lon="176.908856570666">
        <ele>359</ele>
      </trkpt>
      <trkpt lat="-39.70114819759679" lon="176.908902345985">
        <ele>359</ele>
      </trkpt>
      <trkpt lat="-39.70115391951173" lon="176.908926187297">
        <ele>359</ele>
      </trkpt>
      <trkpt lat="-39.70116250238413" lon="176.908931909212">
        <ele>359</ele>
      </trkpt>
      <trkpt lat="-39.7011825290864" lon="176.90892332634">
        <ele>360</ele>
      </trkpt>
      <trkpt lat="-39.70125023841312" lon="176.908853709708">
        <ele>361</ele>
      </trkpt>
      <trkpt lat="-39.70127980164028" lon="176.908833683006">
        <ele>362</ele>
      </trkpt>
      <trkpt lat="-39.70134846461949" lon="176.908818424566">
        <ele>363</ele>
      </trkpt>
      <trkpt lat="-39.70138374976159" lon="176.908821285524">
        <ele>364</ele>
      </trkpt>
      <trkpt lat="-39.70138374976159" lon="176.908821285524">
        <ele>364</ele>
      </trkpt>
      <trkpt lat="-39.70138947167652" lon="176.908858477971">
        <ele>365</ele>
      </trkpt>
      <trkpt lat="-39.70138851802403" lon="176.908931909212">
        <ele>365</ele>
      </trkpt>
      <trkpt lat="-39.70138756437154" lon="176.909005340454">
        <ele>366</ele>
      </trkpt>
      <trkpt lat="-39.70137135227923" lon="176.909066374213">
        <ele>366</ele>
      </trkpt>
      <trkpt lat="-39.70135514018692" lon="176.909127407973">
        <ele>366</ele>
      </trkpt>
      <trkpt lat="-39.70136276940683" lon="176.90913789815">
        <ele>367</ele>
      </trkpt>
      <trkpt lat="-39.70137993515163" lon="176.909144573717">
        <ele>368</ele>
      </trkpt>
      <trkpt lat="-39.70147243944307" lon="176.909117871448">
        <ele>371</ele>
      </trkpt>
      <trkpt lat="-39.70149628075529" lon="176.90912263971">
        <ele>372</ele>
      </trkpt>
      <trkpt lat="-39.70150390997521" lon="176.909133129887">
        <ele>372</ele>
      </trkpt>
      <trkpt lat="-39.70150390997521" lon="176.909150295632">
        <ele>372</ele>
      </trkpt>
      <trkpt lat="-39.70147911501049" lon="176.909258058364">
        <ele>369</ele>
      </trkpt>
      <trkpt lat="-39.70148483692542" lon="176.909271409498">
        <ele>369</ele>
      </trkpt>
      <trkpt lat="-39.70150867823765" lon="176.909283806981">
        <ele>370</ele>
      </trkpt>
      <trkpt lat="-39.70153538050734" lon="176.909283806981">
        <ele>371</ele>
      </trkpt>
      <trkpt lat="-39.70153659709237" lon="176.909283806682">
        <ele>371</ele>
      </trkpt>
      <trkpt lat="-39.70157066564944" lon="176.909354377265">
        <ele>371</ele>
      </trkpt>
      <trkpt lat="-39.70157066564944" lon="176.909354377265">
        <ele>371</ele>
      </trkpt>
      <trkpt lat="-39.70174041579249" lon="176.909378218577">
        <ele>375</ele>
      </trkpt>
      <trkpt lat="-39.70174041579249" lon="176.909378218577">
        <ele>375</ele>
      </trkpt>
      <trkpt lat="-39.70178714476445" lon="176.909383940492">
        <ele>375</ele>
      </trkpt>
      <trkpt lat="-39.7018348273889" lon="176.90937535762">
        <ele>374</ele>
      </trkpt>
      <trkpt lat="-39.70186725157352" lon="176.909354377265">
        <ele>375</ele>
      </trkpt>
      <trkpt lat="-39.70188346366584" lon="176.909331489605">
        <ele>375</ele>
      </trkpt>
      <trkpt lat="-39.70188346366584" lon="176.909331489605">
        <ele>375</ele>
      </trkpt>
      <trkpt lat="-39.70194640473012" lon="176.909345794393">
        <ele>374</ele>
      </trkpt>
      <trkpt lat="-39.70200934579439" lon="176.90936009918">
        <ele>374</ele>
      </trkpt>
      <trkpt lat="-39.70200934579439" lon="176.90936009918">
        <ele>374</ele>
      </trkpt>
      <trkpt lat="-39.70194640473012" lon="176.909345794393">
        <ele>374</ele>
      </trkpt>
      <trkpt lat="-39.70188346366584" lon="176.909331489605">
        <ele>375</ele>
      </trkpt>
      <trkpt lat="-39.70188346366584" lon="176.909331489605">
        <ele>375</ele>
      </trkpt>
      <trkpt lat="-39.70186725157352" lon="176.909354377265">
        <ele>375</ele>
      </trkpt>
      <trkpt lat="-39.7018348273889" lon="176.90937535762">
        <ele>374</ele>
      </trkpt>
      <trkpt lat="-39.70178714476445" lon="176.909383940492">
        <ele>375</ele>
      </trkpt>
      <trkpt lat="-39.70174041579249" lon="176.909378218577">
        <ele>375</ele>
      </trkpt>
      <trkpt lat="-39.70174041579249" lon="176.909378218577">
        <ele>375</ele>
      </trkpt>
      <trkpt lat="-39.70178714476445" lon="176.909383940492">
        <ele>375</ele>
      </trkpt>
      <trkpt lat="-39.7018348273889" lon="176.90937535762">
        <ele>374</ele>
      </trkpt>
      <trkpt lat="-39.70186725157352" lon="176.909354377265">
        <ele>375</ele>
      </trkpt>
      <trkpt lat="-39.70188346366584" lon="176.909331489605">
        <ele>375</ele>
      </trkpt>
      <trkpt lat="-39.70188346366584" lon="176.909331489605">
        <ele>375</ele>
      </trkpt>
      <trkpt lat="-39.70194640473012" lon="176.909345794393">
        <ele>374</ele>
      </trkpt>
      <trkpt lat="-39.70200934579439" lon="176.90936009918">
        <ele>374</ele>
      </trkpt>
      <trkpt lat="-39.70202746519168" lon="176.90936391379">
        <ele>373</ele>
      </trkpt>
      <trkpt lat="-39.70208945260347" lon="176.909358191875">
        <ele>373</ele>
      </trkpt>
      <trkpt lat="-39.70218672515735" lon="176.90938298684">
        <ele>372</ele>
      </trkpt>
      <trkpt lat="-39.7022868586687" lon="176.909381079535">
        <ele>372</ele>
      </trkpt>
      <trkpt lat="-39.70236791913027" lon="176.909365821095">
        <ele>372</ele>
      </trkpt>
      <trkpt lat="-39.70246805264162" lon="176.90933339691">
        <ele>371</ele>
      </trkpt>
      <trkpt lat="-39.70251192065611" lon="176.909308601945">
        <ele>371</ele>
      </trkpt>
      <trkpt lat="-39.70254720579821" lon="176.909266641236">
        <ele>371</ele>
      </trkpt>
      <trkpt lat="-39.70256818615297" lon="176.909259012016">
        <ele>370</ele>
      </trkpt>
      <trkpt lat="-39.70259107381271" lon="176.909228495136">
        <ele>370</ele>
      </trkpt>
      <trkpt lat="-39.7026263589548" lon="176.909230402441">
        <ele>370</ele>
      </trkpt>
      <trkpt lat="-39.70270074384894" lon="176.909217051307">
        <ele>368</ele>
      </trkpt>
      <trkpt lat="-39.70275891665077" lon="176.909223726874">
        <ele>367</ele>
      </trkpt>
      <trkpt lat="-39.7028352088499" lon="176.909267594888">
        <ele>365</ele>
      </trkpt>
      <trkpt lat="-39.70286667938203" lon="176.909273316803">
        <ele>364</ele>
      </trkpt>
      <trkpt lat="-39.70290101087164" lon="176.909268548541">
        <ele>363</ele>
      </trkpt>
      <trkpt lat="-39.70295250810604" lon="176.909233263399">
        <ele>363</ele>
      </trkpt>
      <trkpt lat="-39.7029830249857" lon="176.909232309746">
        <ele>363</ele>
      </trkpt>
      <trkpt lat="-39.70303166126264" lon="176.90916841503">
        <ele>364</ele>
      </trkpt>
      <trkpt lat="-39.70306408544727" lon="176.909156017547">
        <ele>363</ele>
      </trkpt>
      <trkpt lat="-39.703086973107" lon="176.90916460042">
        <ele>363</ele>
      </trkpt>
      <trkpt lat="-39.70311176807171" lon="176.909163646767">
        <ele>362</ele>
      </trkpt>
      <trkpt lat="-39.70315277512874" lon="176.909142666412">
        <ele>361</ele>
      </trkpt>
      <trkpt lat="-39.70318710661835" lon="176.909097844745">
        <ele>360</ele>
      </trkpt>
      <trkpt lat="-39.70324051115774" lon="176.908993896624">
        <ele>358</ele>
      </trkpt>
      <trkpt lat="-39.70324814037765" lon="176.908949074957">
        <ele>357</ele>
      </trkpt>
      <trkpt lat="-39.70326530612245" lon="176.908916650772">
        <ele>357</ele>
      </trkpt>
      <trkpt lat="-39.70329963761206" lon="176.908895670418">
        <ele>356</ele>
      </trkpt>
      <trkpt lat="-39.70332347892428" lon="176.908855617013">
        <ele>355</ele>
      </trkpt>
      <trkpt lat="-39.70333778371162" lon="176.908745946977">
        <ele>354</ele>
      </trkpt>
      <trkpt lat="-39.70335113484646" lon="176.908637230593">
        <ele>352</ele>
      </trkpt>
      <trkpt lat="-39.7033654396338" lon="176.908596223536">
        <ele>351</ele>
      </trkpt>
      <trkpt lat="-39.70337879076865" lon="176.908502765592">
        <ele>349</ele>
      </trkpt>
      <trkpt lat="-39.70339214190349" lon="176.908410261301">
        <ele>347</ele>
      </trkpt>
      <trkpt lat="-39.70339595651345" lon="176.908333969102">
        <ele>346</ele>
      </trkpt>
      <trkpt lat="-39.7033997711234" lon="176.908257676903">
        <ele>344</ele>
      </trkpt>
      <trkpt lat="-39.703391188251" lon="176.908169940874">
        <ele>341</ele>
      </trkpt>
      <trkpt lat="-39.70338165172611" lon="176.908083158497">
        <ele>338</ele>
      </trkpt>
      <trkpt lat="-39.70334922754149" lon="176.908070761015">
        <ele>339</ele>
      </trkpt>
      <trkpt lat="-39.70331584970437" lon="176.908110814419">
        <ele>342</ele>
      </trkpt>
      <trkpt lat="-39.7032529086401" lon="176.908167079916">
        <ele>344</ele>
      </trkpt>
      <trkpt lat="-39.70318996757582" lon="176.908223345413">
        <ele>347</ele>
      </trkpt>
      <trkpt lat="-39.70311176807171" lon="176.908333015449">
        <ele>351</ele>
      </trkpt>
      <trkpt lat="-39.70303356856761" lon="176.908443639138">
        <ele>353</ele>
      </trkpt>
      <trkpt lat="-39.70294678619111" lon="176.908507533855">
        <ele>354</ele>
      </trkpt>
      <trkpt lat="-39.70287144764448" lon="176.908516116727">
        <ele>355</ele>
      </trkpt>
      <trkpt lat="-39.70279515544536" lon="176.908525653252">
        <ele>356</ele>
      </trkpt>
      <trkpt lat="-39.70284474537478" lon="176.908460804883">
        <ele>354</ele>
      </trkpt>
      <trkpt lat="-39.70290673278657" lon="176.908363532329">
        <ele>352</ele>
      </trkpt>
      <trkpt lat="-39.70292771314134" lon="176.908284379172">
        <ele>350</ele>
      </trkpt>
      <trkpt lat="-39.70290673278657" lon="176.908219530803">
        <ele>349</ele>
      </trkpt>
      <trkpt lat="-39.70283711615487" lon="176.908176616441">
        <ele>349</ele>
      </trkpt>
      <trkpt lat="-39.70282376502003" lon="176.908153728781">
        <ele>349</ele>
      </trkpt>
      <trkpt lat="-39.70282376502003" lon="176.908079343887">
        <ele>347</ele>
      </trkpt>
      <trkpt lat="-39.70284379172229" lon="176.908006866298">
        <ele>345</ele>
      </trkpt>
      <trkpt lat="-39.70286381842457" lon="176.907934388709">
        <ele>344</ele>
      </trkpt>
      <trkpt lat="-39.70285523555216" lon="176.907821857715">
        <ele>342</ele>
      </trkpt>
      <trkpt lat="-39.70284665267977" lon="176.907710280374">
        <ele>339</ele>
      </trkpt>
      <trkpt lat="-39.70279706275034" lon="176.90759012016">
        <ele>338</ele>
      </trkpt>
      <trkpt lat="-39.70276082395575" lon="176.907525271791">
        <ele>338</ele>
      </trkpt>
      <trkpt lat="-39.70272553881366" lon="176.90742513828">
        <ele>337</ele>
      </trkpt>
      <trkpt lat="-39.7027217242037" lon="176.907343124166">
        <ele>335</ele>
      </trkpt>
      <trkpt lat="-39.70274842647339" lon="176.907086591646">
        <ele>328</ele>
      </trkpt>
      <trkpt lat="-39.70276845317566" lon="176.907014114057">
        <ele>325</ele>
      </trkpt>
      <trkpt lat="-39.70278752622544" lon="176.906941636468">
        <ele>322</ele>
      </trkpt>
      <trkpt lat="-39.70279706275034" lon="176.906839595651">
        <ele>319</ele>
      </trkpt>
      <trkpt lat="-39.70277036048064" lon="176.90675853519">
        <ele>318</ele>
      </trkpt>
      <trkpt lat="-39.70275128743086" lon="176.906642189586">
        <ele>316</ele>
      </trkpt>
      <trkpt lat="-39.70270741941636" lon="176.90653251955">
        <ele>315</ele>
      </trkpt>
      <trkpt lat="-39.70266164409689" lon="176.906458134656">
        <ele>316</ele>
      </trkpt>
      <trkpt lat="-39.70265592218196" lon="176.906345603662">
        <ele>314</ele>
      </trkpt>
      <trkpt lat="-39.70264066374213" lon="176.906256913981">
        <ele>312</ele>
      </trkpt>
      <trkpt lat="-39.70262445164982" lon="176.906169177952">
        <ele>311</ele>
      </trkpt>
      <trkpt lat="-39.70258439824528" lon="176.906066183483">
        <ele>311</ele>
      </trkpt>
      <trkpt lat="-39.70257295441541" lon="176.906013732596">
        <ele>310</ele>
      </trkpt>
      <trkpt lat="-39.70258535189777" lon="176.905912645432">
        <ele>307</ele>
      </trkpt>
      <trkpt lat="-39.70259584207515" lon="176.90588880412">
        <ele>306</ele>
      </trkpt>
      <trkpt lat="-39.70261968338738" lon="176.905621781423">
        <ele>300</ele>
      </trkpt>
      <trkpt lat="-39.70264733930956" lon="176.905546442876">
        <ele>298</ele>
      </trkpt>
      <trkpt lat="-39.70267404157925" lon="176.905472057982">
        <ele>296</ele>
      </trkpt>
      <trkpt lat="-39.70266164409689" lon="176.905380507343">
        <ele>295</ele>
      </trkpt>
      <trkpt lat="-39.70264257104711" lon="176.905286095747">
        <ele>295</ele>
      </trkpt>
      <trkpt lat="-39.70262349799733" lon="176.905192637803">
        <ele>295</ele>
      </trkpt>
      <trkpt lat="-39.7026435246996" lon="176.905080106809">
        <ele>292</ele>
      </trkpt>
      <trkpt lat="-39.70267594888423" lon="176.904978065993">
        <ele>290</ele>
      </trkpt>
      <trkpt lat="-39.70269406828152" lon="176.904876978829">
        <ele>288</ele>
      </trkpt>
      <trkpt lat="-39.70267499523174" lon="176.904818806027">
        <ele>288</ele>
      </trkpt>
      <trkpt lat="-39.70263684913218" lon="176.904526034713">
        <ele>287</ele>
      </trkpt>
      <trkpt lat="-39.70258535189777" lon="176.904439252336">
        <ele>287</ele>
      </trkpt>
      <trkpt lat="-39.70256246423804" lon="176.904324814038">
        <ele>286</ele>
      </trkpt>
      <trkpt lat="-39.70254529849323" lon="176.904260919321">
        <ele>286</ele>
      </trkpt>
      <trkpt lat="-39.70252717909594" lon="176.904197978257">
        <ele>285</ele>
      </trkpt>
      <trkpt lat="-39.70253480831585" lon="176.904135990845">
        <ele>284</ele>
      </trkpt>
      <trkpt lat="-39.70256246423804" lon="176.904069235171">
        <ele>282</ele>
      </trkpt>
      <trkpt lat="-39.70256055693306" lon="176.903995803929">
        <ele>280</ele>
      </trkpt>
      <trkpt lat="-39.70255864962807" lon="176.903922372687">
        <ele>279</ele>
      </trkpt>
      <trkpt lat="-39.70259488842266" lon="176.903818424566">
        <ele>276</ele>
      </trkpt>
      <trkpt lat="-39.70263398817471" lon="176.903729734885">
        <ele>273</ele>
      </trkpt>
      <trkpt lat="-39.70266450505436" lon="176.90347892428">
        <ele>266</ele>
      </trkpt>
      <trkpt lat="-39.70265496852947" lon="176.903465573145">
        <ele>266</ele>
      </trkpt>
      <trkpt lat="-39.70266259774938" lon="176.903420751478">
        <ele>265</ele>
      </trkpt>
      <trkpt lat="-39.70266259774938" lon="176.903322525272">
        <ele>262</ele>
      </trkpt>
      <trkpt lat="-39.70267213427427" lon="176.903276749952">
        <ele>261</ele>
      </trkpt>
      <trkpt lat="-39.70265687583445" lon="176.903210947931">
        <ele>258</ele>
      </trkpt>
      <trkpt lat="-39.70263112721724" lon="176.903138470341">
        <ele>256</ele>
      </trkpt>
      <trkpt lat="-39.70263684913218" lon="176.90308029754">
        <ele>254</ele>
      </trkpt>
      <trkpt lat="-39.70263398817471" lon="176.90301544917">
        <ele>251</ele>
      </trkpt>
      <trkpt lat="-39.70263017356476" lon="176.902951554454">
        <ele>249</ele>
      </trkpt>
      <trkpt lat="-39.70259870303261" lon="176.902963951936">
        <ele>250</ele>
      </trkpt>
      <trkpt lat="-39.70253385466336" lon="176.902958230021">
        <ele>251</ele>
      </trkpt>
      <trkpt lat="-39.70244993324432" lon="176.902847606332">
        <ele>246</ele>
      </trkpt>
      <trkpt lat="-39.70242895288957" lon="176.902776082396">
        <ele>242</ele>
      </trkpt>
      <trkpt lat="-39.70240797253481" lon="176.902704558459">
        <ele>239</ele>
      </trkpt>
      <trkpt lat="-39.70234503147054" lon="176.902653061225">
        <ele>235</ele>
      </trkpt>
      <trkpt lat="-39.7023297730307" lon="176.90265496853">
        <ele>235</ele>
      </trkpt>
      <trkpt lat="-39.70228399771123" lon="176.90262826626">
        <ele>233</ele>
      </trkpt>
      <trkpt lat="-39.70228018310128" lon="176.902570093458">
        <ele>231</ele>
      </trkpt>
      <trkpt lat="-39.70225348083159" lon="176.902480450124">
        <ele>228</ele>
      </trkpt>
      <trkpt lat="-39.70222582490941" lon="176.90239080679">
        <ele>226</ele>
      </trkpt>
      <trkpt lat="-39.7021914934198" lon="176.902300209804">
        <ele>224</ele>
      </trkpt>
      <trkpt lat="-39.7021571619302" lon="176.90221056647">
        <ele>222</ele>
      </trkpt>
      <trkpt lat="-39.70216288384513" lon="176.90214190349">
        <ele>221</ele>
      </trkpt>
      <trkpt lat="-39.70216860576006" lon="176.902074194164">
        <ele>221</ele>
      </trkpt>
      <trkpt lat="-39.7021304596605" lon="176.90178523746">
        <ele>217</ele>
      </trkpt>
      <trkpt lat="-39.70213618157543" lon="176.901742323097">
        <ele>217</ele>
      </trkpt>
      <trkpt lat="-39.70212855235552" lon="176.901674613771">
        <ele>216</ele>
      </trkpt>
      <trkpt lat="-39.70212092313561" lon="176.901606904444">
        <ele>215</ele>
      </trkpt>
      <trkpt lat="-39.70210089643334" lon="176.90155540721">
        <ele>214</ele>
      </trkpt>
      <trkpt lat="-39.70206751859622" lon="176.901507724585">
        <ele>213</ele>
      </trkpt>
      <trkpt lat="-39.70206179668129" lon="176.901419988556">
        <ele>213</ele>
      </trkpt>
      <trkpt lat="-39.70206370398627" lon="176.90131031852">
        <ele>212</ele>
      </trkpt>
      <trkpt lat="-39.70206465763876" lon="176.901200648484">
        <ele>211</ele>
      </trkpt>
      <trkpt lat="-39.70209040625596" lon="176.900950791532">
        <ele>209</ele>
      </trkpt>
      <trkpt lat="-39.70204653824147" lon="176.900864962808">
        <ele>208</ele>
      </trkpt>
      <trkpt lat="-39.70200171657448" lon="176.900779134084">
        <ele>206</ele>
      </trkpt>
      <trkpt lat="-39.70188155636086" lon="176.900484455464">
        <ele>202</ele>
      </trkpt>
      <trkpt lat="-39.70185390043868" lon="176.900375739081">
        <ele>200</ele>
      </trkpt>
      <trkpt lat="-39.70182529086401" lon="176.900267022697">
        <ele>199</ele>
      </trkpt>
      <trkpt lat="-39.7018176616441" lon="176.9">
        <ele>196</ele>
      </trkpt>
      <trkpt lat="-39.7018176616441" lon="176.9">
        <ele>196</ele>
      </trkpt>
      <trkpt lat="-39.70181003242418" lon="176.89973965287">
        <ele>195</ele>
      </trkpt>
      <trkpt lat="-39.70181956894908" lon="176.899625214572">
        <ele>195</ele>
      </trkpt>
      <trkpt lat="-39.70182910547397" lon="176.899511729926">
        <ele>195</ele>
      </trkpt>
      <trkpt lat="-39.70186820522601" lon="176.899433530422">
        <ele>195</ele>
      </trkpt>
      <trkpt lat="-39.70190730497806" lon="176.89935628457">
        <ele>195</ele>
      </trkpt>
      <trkpt lat="-39.70191207324051" lon="176.899244707229">
        <ele>194</ele>
      </trkpt>
      <trkpt lat="-39.70191684150296" lon="176.89913408354">
        <ele>194</ele>
      </trkpt>
      <trkpt lat="-39.70192923898531" lon="176.899049208468">
        <ele>193</ele>
      </trkpt>
      <trkpt lat="-39.70194163646767" lon="176.898964333397">
        <ele>192</ele>
      </trkpt>
      <trkpt lat="-39.70196929238985" lon="176.898975777227">
        <ele>191</ele>
      </trkpt>
      <trkpt lat="-39.70199599465955" lon="176.899054930383">
        <ele>192</ele>
      </trkpt>
      <trkpt lat="-39.70204749189396" lon="176.89910738127">
        <ele>192</ele>
      </trkpt>
      <trkpt lat="-39.70209135990845" lon="176.89910738127">
        <ele>192</ele>
      </trkpt>
      <trkpt lat="-39.70205416746138" lon="176.899046347511">
        <ele>192</ele>
      </trkpt>
      <trkpt lat="-39.70204749189396" lon="176.898940492085">
        <ele>190</ele>
      </trkpt>
      <trkpt lat="-39.70216574480259" lon="176.898679191303">
        <ele>186</ele>
      </trkpt>
      <trkpt lat="-39.70216097654015" lon="176.898617203891">
        <ele>185</ele>
      </trkpt>
      <trkpt lat="-39.70215525462522" lon="176.898555216479">
        <ele>184</ele>
      </trkpt>
      <trkpt lat="-39.7020951745184" lon="176.898461758535">
        <ele>184</ele>
      </trkpt>
      <trkpt lat="-39.70202746519168" lon="176.898435056265">
        <ele>184</ele>
      </trkpt>
      <trkpt lat="-39.70193114629029" lon="176.898443639138">
        <ele>186</ele>
      </trkpt>
      <trkpt lat="-39.7018262445165" lon="176.898516116727">
        <ele>188</ele>
      </trkpt>
      <trkpt lat="-39.70176616440969" lon="176.89845603662">
        <ele>188</ele>
      </trkpt>
      <trkpt lat="-39.70174327674995" lon="176.898417890521">
        <ele>188</ele>
      </trkpt>
      <trkpt lat="-39.70178714476445" lon="176.898310127789">
        <ele>186</ele>
      </trkpt>
      <trkpt lat="-39.70179477398436" lon="176.898269120732">
        <ele>186</ele>
      </trkpt>
      <trkpt lat="-39.7017995422468" lon="176.898155636086">
        <ele>184</ele>
      </trkpt>
      <trkpt lat="-39.70176234979974" lon="176.898050734312">
        <ele>182</ele>
      </trkpt>
      <trkpt lat="-39.70173946214" lon="176.897930574099">
        <ele>181</ele>
      </trkpt>
      <trkpt lat="-39.70171657448026" lon="176.897810413885">
        <ele>179</ele>
      </trkpt>
      <trkpt lat="-39.70170036238795" lon="176.897704558459">
        <ele>177</ele>
      </trkpt>
      <trkpt lat="-39.70171371352279" lon="176.897604424948">
        <ele>175</ele>
      </trkpt>
      <trkpt lat="-39.70168415029563" lon="176.897515735266">
        <ele>174</ele>
      </trkpt>
      <trkpt lat="-39.70164981880603" lon="176.897490940301">
        <ele>174</ele>
      </trkpt>
      <trkpt lat="-39.7016173946214" lon="176.897492847606">
        <ele>174</ele>
      </trkpt>
      <trkpt lat="-39.70158592408927" lon="176.897510967004">
        <ele>175</ele>
      </trkpt>
      <trkpt lat="-39.70151630745757" lon="176.897600610338">
        <ele>176</ele>
      </trkpt>
      <trkpt lat="-39.70141331298875" lon="176.897718863246">
        <ele>178</ele>
      </trkpt>
      <trkpt lat="-39.70130936486744" lon="176.897838069807">
        <ele>180</ele>
      </trkpt>
      <trkpt lat="-39.70120160213618" lon="176.897932481404">
        <ele>181</ele>
      </trkpt>
      <trkpt lat="-39.70109288575243" lon="176.898026893">
        <ele>181</ele>
      </trkpt>
      <trkpt lat="-39.70106332252527" lon="176.898107953462">
        <ele>181</ele>
      </trkpt>
      <trkpt lat="-39.70103280564562" lon="176.898189013923">
        <ele>181</ele>
      </trkpt>
      <trkpt lat="-39.70101850085829" lon="176.898255769598">
        <ele>181</ele>
      </trkpt>
      <trkpt lat="-39.70100419607095" lon="176.898323478924">
        <ele>181</ele>
      </trkpt>
      <trkpt lat="-39.70100419607095" lon="176.898323478924">
        <ele>181</ele>
      </trkpt>
      <trkpt lat="-39.70093171848178" lon="176.898329200839">
        <ele>181</ele>
      </trkpt>
      <trkpt lat="-39.70081251192066" lon="176.898415983216">
        <ele>180</ele>
      </trkpt>
      <trkpt lat="-39.70081251192066" lon="176.898415983216">
        <ele>180</ele>
      </trkpt>
      <trkpt lat="-39.70077150486363" lon="176.898351134846">
        <ele>181</ele>
      </trkpt>
      <trkpt lat="-39.70065802021743" lon="176.898312035094">
        <ele>184</ele>
      </trkpt>
      <trkpt lat="-39.70057219149342" lon="176.898307266832">
        <ele>186</ele>
      </trkpt>
      <trkpt lat="-39.70045107762731" lon="176.898344459279">
        <ele>189</ele>
      </trkpt>
      <trkpt lat="-39.70035571237841" lon="176.898341598322">
        <ele>191</ele>
      </trkpt>
      <trkpt lat="-39.70031565897387" lon="176.898231928285">
        <ele>192</ele>
      </trkpt>
      <trkpt lat="-39.70030516879649" lon="176.897779897006">
        <ele>192</ele>
      </trkpt>
      <trkpt lat="-39.70031756627885" lon="176.897285905016">
        <ele>187</ele>
      </trkpt>
      <trkpt lat="-39.70020694259012" lon="176.897272553881">
        <ele>189</ele>
      </trkpt>
      <trkpt lat="-39.70020694259012" lon="176.897272553881">
        <ele>189</ele>
      </trkpt>
      <trkpt lat="-39.70014304787335" lon="176.897790387183">
        <ele>196</ele>
      </trkpt>
      <trkpt lat="-39.70008773602899" lon="176.898144192256">
        <ele>198</ele>
      </trkpt>
      <trkpt lat="-39.7" lon="176.898238603853">
        <ele>200</ele>
      </trkpt>
      <trkpt lat="-39.7" lon="176.898238603853">
        <ele>200</ele>
      </trkpt>
      <trkpt lat="-39.69991131031852" lon="176.898331108144">
        <ele>201</ele>
      </trkpt>
      <trkpt lat="-39.69982262063704" lon="176.898423612436">
        <ele>203</ele>
      </trkpt>
      <trkpt lat="-39.69979782567232" lon="176.898523745947">
        <ele>204</ele>
      </trkpt>
      <trkpt lat="-39.69977207705512" lon="176.898624833111">
        <ele>205</ele>
      </trkpt>
      <trkpt lat="-39.69971676521075" lon="176.8986973107">
        <ele>207</ele>
      </trkpt>
      <trkpt lat="-39.69966145336639" lon="176.898770741942">
        <ele>208</ele>
      </trkpt>
      <trkpt lat="-39.69963856570666" lon="176.898827007438">
        <ele>209</ele>
      </trkpt>
      <trkpt lat="-39.69963189013923" lon="176.898921419035">
        <ele>210</ele>
      </trkpt>
      <trkpt lat="-39.69959565134464" lon="176.898973869922">
        <ele>211</ele>
      </trkpt>
      <trkpt lat="-39.69954701506771" lon="176.898974823574">
        <ele>212</ele>
      </trkpt>
      <trkpt lat="-39.69945737173374" lon="176.898937631127">
        <ele>214</ele>
      </trkpt>
      <trkpt lat="-39.6994087354568" lon="176.89893858478">
        <ele>215</ele>
      </trkpt>
      <trkpt lat="-39.69936296013732" lon="176.898952889567">
        <ele>216</ele>
      </trkpt>
      <trkpt lat="-39.69936296013732" lon="176.898952889567">
        <ele>216</ele>
      </trkpt>
      <trkpt lat="-39.6993133702079" lon="176.899017737936">
        <ele>217</ele>
      </trkpt>
      <trkpt lat="-39.69928857524318" lon="176.899082586306">
        <ele>219</ele>
      </trkpt>
      <trkpt lat="-39.69929429715811" lon="176.899199885562">
        <ele>219</ele>
      </trkpt>
      <trkpt lat="-39.69929429715811" lon="176.899199885562">
        <ele>219</ele>
      </trkpt>
      <trkpt lat="-39.69932576769025" lon="176.899294297158">
        <ele>219</ele>
      </trkpt>
      <trkpt lat="-39.6993209994278" lon="176.899388708755">
        <ele>219</ele>
      </trkpt>
      <trkpt lat="-39.699303833683" lon="176.899507915316">
        <ele>220</ele>
      </trkpt>
      <trkpt lat="-39.6992866679382" lon="176.899627121877">
        <ele>220</ele>
      </trkpt>
      <trkpt lat="-39.69924852183864" lon="176.899728209041">
        <ele>221</ele>
      </trkpt>
      <trkpt lat="-39.69920942208659" lon="176.899830249857">
        <ele>222</ele>
      </trkpt>
      <trkpt lat="-39.6991474346748" lon="176.899943734503">
        <ele>222</ele>
      </trkpt>
      <trkpt lat="-39.69908926187297" lon="176.9">
        <ele>222</ele>
      </trkpt>
      <trkpt lat="-39.69908926187297" lon="176.9">
        <ele>222</ele>
      </trkpt>
      <trkpt lat="-39.69904157924852" lon="176.900021934007">
        <ele>222</ele>
      </trkpt>
      <trkpt lat="-39.6989738699218" lon="176.90003051688">
        <ele>223</ele>
      </trkpt>
      <trkpt lat="-39.69891378981499" lon="176.900051497234">
        <ele>223</ele>
      </trkpt>
      <trkpt lat="-39.69886229258058" lon="176.900086782377">
        <ele>222</ele>
      </trkpt>
      <trkpt lat="-39.69882986839595" lon="176.900133511348">
        <ele>222</ele>
      </trkpt>
      <trkpt lat="-39.69882986839595" lon="176.900133511348">
        <ele>222</ele>
      </trkpt>
      <trkpt lat="-39.6987821857715" lon="176.900432004578">
        <ele>218</ele>
      </trkpt>
      <trkpt lat="-39.69878190714963" lon="176.900433748623">
        <ele>218</ele>
      </trkpt>
      <trkpt lat="-39.69882986839595" lon="176.900432004578">
        <ele>218</ele>
      </trkpt>
      <trkpt lat="-39.69884798779324" lon="176.9004596605">
        <ele>218</ele>
      </trkpt>
      <trkpt lat="-39.69891760442494" lon="176.900519740607">
        <ele>218</ele>
      </trkpt>
      <trkpt lat="-39.69898626740416" lon="176.900579820713">
        <ele>218</ele>
      </trkpt>
      <trkpt lat="-39.69902059889376" lon="176.900602708373">
        <ele>218</ele>
      </trkpt>
      <trkpt lat="-39.69905493038337" lon="176.900642761778">
        <ele>219</ele>
      </trkpt>
      <trkpt lat="-39.69912836162502" lon="176.900758153729">
        <ele>219</ele>
      </trkpt>
      <trkpt lat="-39.69917509059698" lon="176.90083921419">
        <ele>219</ele>
      </trkpt>
      <trkpt lat="-39.69922181956895" lon="176.900920274652">
        <ele>219</ele>
      </trkpt>
      <trkpt lat="-39.69932672134274" lon="176.901031851993">
        <ele>219</ele>
      </trkpt>
      <trkpt lat="-39.69940682815182" lon="176.901135800114">
        <ele>219</ele>
      </trkpt>
      <trkpt lat="-39.69948693496089" lon="176.901240701888">
        <ele>219</ele>
      </trkpt>
      <trkpt lat="-39.69954033950028" lon="176.901323669655">
        <ele>220</ele>
      </trkpt>
      <trkpt lat="-39.69959279038718" lon="176.901406637421">
        <ele>220</ele>
      </trkpt>
      <trkpt lat="-39.699608048827" lon="176.901451459088">
        <ele>220</ele>
      </trkpt>
      <trkpt lat="-39.69961241684818" lon="176.901558912409">
        <ele>220</ele>
      </trkpt>
      <trkpt lat="-39.69961241684818" lon="176.901558912409">
        <ele>220</ele>
      </trkpt>
      <trkpt lat="-39.69961281708945" lon="176.901568758344">
        <ele>220</ele>
      </trkpt>
      <trkpt lat="-39.69959851230212" lon="176.901841502956">
        <ele>224</ele>
      </trkpt>
      <trkpt lat="-39.69959946595461" lon="176.90192351707">
        <ele>225</ele>
      </trkpt>
      <trkpt lat="-39.69964428762159" lon="176.902275414839">
        <ele>233</ele>
      </trkpt>
      <trkpt lat="-39.69963665840167" lon="176.902392714095">
        <ele>235</ele>
      </trkpt>
      <trkpt lat="-39.69964524127408" lon="176.902510013351">
        <ele>237</ele>
      </trkpt>
      <trkpt lat="-39.69961377074194" lon="176.902607285905">
        <ele>238</ele>
      </trkpt>
      <trkpt lat="-39.69954892237268" lon="176.902692160977">
        <ele>239</ele>
      </trkpt>
      <trkpt lat="-39.69952508106046" lon="176.902742704558">
        <ele>240</ele>
      </trkpt>
      <trkpt lat="-39.69951554453557" lon="176.902807552928">
        <ele>241</ele>
      </trkpt>
      <trkpt lat="-39.6995212664505" lon="176.902907686439">
        <ele>242</ele>
      </trkpt>
      <trkpt lat="-39.69952698836543" lon="176.90300781995">
        <ele>244</ele>
      </trkpt>
      <trkpt lat="-39.69951840549304" lon="176.903052641617">
        <ele>245</ele>
      </trkpt>
      <trkpt lat="-39.69948788861339" lon="176.903127026512">
        <ele>246</ele>
      </trkpt>
      <trkpt lat="-39.6994602326912" lon="176.903221438108">
        <ele>247</ele>
      </trkpt>
      <trkpt lat="-39.6994430669464" lon="176.903262445165">
        <ele>247</ele>
      </trkpt>
      <trkpt lat="-39.69939729162693" lon="176.903332061797">
        <ele>248</ele>
      </trkpt>
      <trkpt lat="-39.69935056265496" lon="176.903402632081">
        <ele>248</ele>
      </trkpt>
      <trkpt lat="-39.6992695021934" lon="176.903502765592">
        <ele>249</ele>
      </trkpt>
      <trkpt lat="-39.69924470722869" lon="176.903582872401">
        <ele>250</ele>
      </trkpt>
      <trkpt lat="-39.69924089261873" lon="176.903630555026">
        <ele>251</ele>
      </trkpt>
      <trkpt lat="-39.69925233644859" lon="176.903709708182">
        <ele>253</ele>
      </trkpt>
      <trkpt lat="-39.69929429715811" lon="176.903828914743">
        <ele>256</ele>
      </trkpt>
      <trkpt lat="-39.69933625786763" lon="176.903949074957">
        <ele>259</ele>
      </trkpt>
      <trkpt lat="-39.69934007247759" lon="176.903991989319">
        <ele>260</ele>
      </trkpt>
      <trkpt lat="-39.69935819187488" lon="176.904070188823">
        <ele>262</ele>
      </trkpt>
      <trkpt lat="-39.69936009917986" lon="176.904109288575">
        <ele>263</ele>
      </trkpt>
      <trkpt lat="-39.6993477016975" lon="176.904159832157">
        <ele>264</ele>
      </trkpt>
      <trkpt lat="-39.69929906542056" lon="176.904238985314">
        <ele>264</ele>
      </trkpt>
      <trkpt lat="-39.69925042914362" lon="176.90431813847">
        <ele>264</ele>
      </trkpt>
      <trkpt lat="-39.69919034903681" lon="176.904432576769">
        <ele>264</ele>
      </trkpt>
      <trkpt lat="-39.69912931527751" lon="176.904547015068">
        <ele>264</ele>
      </trkpt>
      <trkpt lat="-39.69909879839786" lon="176.904621399962">
        <ele>264</ele>
      </trkpt>
      <trkpt lat="-39.69906828151822" lon="176.904695784856">
        <ele>265</ele>
      </trkpt>
      <trkpt lat="-39.69904920846843" lon="176.904772077055">
        <ele>265</ele>
      </trkpt>
      <trkpt lat="-39.69902918176616" lon="176.904848369254">
        <ele>266</ele>
      </trkpt>
      <trkpt lat="-39.69902822811368" lon="176.904951363723">
        <ele>267</ele>
      </trkpt>
      <trkpt lat="-39.69904062559603" lon="176.905021934007">
        <ele>268</ele>
      </trkpt>
      <trkpt lat="-39.69905302307838" lon="176.905092504291">
        <ele>270</ele>
      </trkpt>
      <trkpt lat="-39.69905016212092" lon="176.905185008583">
        <ele>271</ele>
      </trkpt>
      <trkpt lat="-39.69905779134083" lon="176.905282281137">
        <ele>273</ele>
      </trkpt>
      <trkpt lat="-39.69916364676712" lon="176.90565897387">
        <ele>283</ele>
      </trkpt>
      <trkpt lat="-39.69918844173183" lon="176.905725729544">
        <ele>285</ele>
      </trkpt>
      <trkpt lat="-39.69920274651917" lon="176.905798207133">
        <ele>287</ele>
      </trkpt>
      <trkpt lat="-39.69920274651917" lon="176.905912645432">
        <ele>290</ele>
      </trkpt>
      <trkpt lat="-39.69919320999428" lon="176.905912645432">
        <ele>289</ele>
      </trkpt>
      <trkpt lat="-39.69871924470723" lon="176.906262635896">
        <ele>285</ele>
      </trkpt>
      <trkpt lat="-39.69865248903299" lon="176.906346557315">
        <ele>285</ele>
      </trkpt>
      <trkpt lat="-39.69865248903299" lon="176.906346557315">
        <ele>285</ele>
      </trkpt>
      <trkpt lat="-39.69855998474156" lon="176.906417127599">
        <ele>284</ele>
      </trkpt>
      <trkpt lat="-39.69847320236506" lon="176.906523936678">
        <ele>284</ele>
      </trkpt>
      <trkpt lat="-39.69843219530803" lon="176.906597367919">
        <ele>285</ele>
      </trkpt>
      <trkpt lat="-39.69834541293152" lon="176.906842456609">
        <ele>291</ele>
      </trkpt>
      <trkpt lat="-39.69831489605188" lon="176.906911119588">
        <ele>293</ele>
      </trkpt>
      <trkpt lat="-39.69828342551974" lon="176.90698073622">
        <ele>295</ele>
      </trkpt>
      <trkpt lat="-39.69822239176044" lon="176.907080869731">
        <ele>298</ele>
      </trkpt>
      <trkpt lat="-39.69816040434866" lon="176.907181956895">
        <ele>301</ele>
      </trkpt>
      <trkpt lat="-39.69807743658211" lon="176.907291626931">
        <ele>304</ele>
      </trkpt>
      <trkpt lat="-39.69796204463093" lon="176.907370780088">
        <ele>304</ele>
      </trkpt>
      <trkpt lat="-39.69784760633225" lon="176.90741750906">
        <ele>304</ele>
      </trkpt>
      <trkpt lat="-39.69777608239557" lon="176.907439443067">
        <ele>303</ele>
      </trkpt>
      <trkpt lat="-39.6977045584589" lon="176.907461377074">
        <ele>302</ele>
      </trkpt>
      <trkpt lat="-39.6976425710471" lon="176.907489032996">
        <ele>301</ele>
      </trkpt>
      <trkpt lat="-39.69758058363532" lon="176.907516688919">
        <ele>301</ele>
      </trkpt>
      <trkpt lat="-39.69750905969865" lon="176.907553881366">
        <ele>301</ele>
      </trkpt>
      <trkpt lat="-39.69743372115201" lon="176.907607285905">
        <ele>303</ele>
      </trkpt>
      <trkpt lat="-39.69735838260538" lon="176.907660690444">
        <ele>305</ele>
      </trkpt>
      <trkpt lat="-39.69729353423612" lon="176.907691207324">
        <ele>306</ele>
      </trkpt>
      <trkpt lat="-39.69722773221438" lon="176.907722677856">
        <ele>308</ele>
      </trkpt>
      <trkpt lat="-39.69717528132748" lon="176.907755102041">
        <ele>309</ele>
      </trkpt>
      <trkpt lat="-39.69708086973107" lon="176.907780850658">
        <ele>309</ele>
      </trkpt>
      <trkpt lat="-39.6969654777799" lon="176.907838069807">
        <ele>311</ele>
      </trkpt>
      <trkpt lat="-39.69689872210567" lon="176.907860003815">
        <ele>311</ele>
      </trkpt>
      <trkpt lat="-39.69678771159222" lon="176.907860003815">
        <ele>311</ele>
      </trkpt>
      <trkpt lat="-39.69678771159222" lon="176.907860003815">
        <ele>311</ele>
      </trkpt>
      <trkpt lat="-39.69678619111195" lon="176.907860003815">
        <ele>311</ele>
      </trkpt>
      <trkpt lat="-39.69667270646576" lon="176.907860957467">
        <ele>311</ele>
      </trkpt>
      <trkpt lat="-39.69660118252909" lon="176.907901010872">
        <ele>312</ele>
      </trkpt>
      <trkpt lat="-39.6965735266069" lon="176.907919130269">
        <ele>312</ele>
      </trkpt>
      <trkpt lat="-39.69648865153538" lon="176.907999237078">
        <ele>313</ele>
      </trkpt>
      <trkpt lat="-39.69640377646385" lon="176.908079343887">
        <ele>314</ele>
      </trkpt>
      <trkpt lat="-39.69634369635705" lon="176.908147053214">
        <ele>316</ele>
      </trkpt>
      <trkpt lat="-39.69628266259775" lon="176.908215716193">
        <ele>317</ele>
      </trkpt>
    </trkseg>
  </trk>
</gpx>