<?xml version="1.0" encoding="UTF-8" standalone="yes"?>
<gpx
 version="1.1"
 creator="Generated by MapOut iPhone App. See https://mapout.app"
 xmlns="http://www.topografix.com/GPX/1/1"
 xmlns:xsi="http://www.w3.org/2001/XMLSchema-instance"
 xmlns:gpxx="http://www.garmin.com/xmlschemas/GpxExtensions/v3"
 xmlns:mapout="https://mapout.app/xmlschemas/MapOutExtensions"
 xsi:schemaLocation="http://www.topografix.com/GPX/1/1 https://www.topografix.com/GPX/1/1/gpx.xsd http://www.garmin.com/xmlschemas/GpxExtensions/v3 https://www8.garmin.com/xmlschemas/GpxExtensionsv3.xsd https://mapout.app/xmlschemas/MapOutExtensions https://mapout.app/xmlschemas/MapOutExtensions.xsd">
  <metadata>
    <name>Sealy Tarns</name>
    <author><name>iPhone</name></author>
    <time>2026-10-04T00:17:51Z</time>
    <bounds minlat="-43.71870880529123" minlon="170.071778012966" maxlat="-43.71259965668511" maxlon="170.092490761091"/>
  </metadata>
  <trk>
    <name>Sealy Tarns</name>
    <trkseg>
      <trkpt lat="-43.71870880529123" lon="170.092490761091">
        <ele>771</ele>
      </trkpt>
      <trkpt lat="-43.71863341598322" lon="170.092208659165">
        <ele>772</ele>
      </trkpt>
      <trkpt lat="-43.71838165172611" lon="170.091725157353">
        <ele>774</ele>
      </trkpt>
      <trkpt lat="-43.71832538622926" lon="170.091685103948">
        <ele>774</ele>
      </trkpt>
      <trkpt lat="-43.71830059126454" lon="170.091360862102">
        <ele>775</ele>
      </trkpt>
      <trkpt lat="-43.71831775700934" lon="170.0912645432">
        <ele>775</ele>
      </trkpt>
      <trkpt lat="-43.71824814037765" lon="170.091121495327">
        <ele>776</ele>
      </trkpt>
      <trkpt lat="-43.71820427236315" lon="170.09041769979">
        <ele>779</ele>
      </trkpt>
      <trkpt lat="-43.71803642952509" lon="170.089986648865">
        <ele>780</ele>
      </trkpt>
      <trkpt lat="-43.7179124547015" lon="170.089767308793">
        <ele>782</ele>
      </trkpt>
      <trkpt lat="-43.7176702269693" lon="170.088797444211">
        <ele>788</ele>
      </trkpt>
      <trkpt lat="-43.7174957085638" lon="170.088488460805">
        <ele>789</ele>
      </trkpt>
      <trkpt lat="-43.71740320427237" lon="170.088143238604">
        <ele>791</ele>
      </trkpt>
      <trkpt lat="-43.71730688537097" lon="170.087939156971">
        <ele>792</ele>
      </trkpt>
      <trkpt lat="-43.71732405111577" lon="170.087849513637">
        <ele>792</ele>
      </trkpt>
      <trkpt lat="-43.71732691207324" lon="170.087730307076">
        <ele>793</ele>
      </trkpt>
      <trkpt lat="-43.71729067327866" lon="170.087528132748">
        <ele>794</ele>
      </trkpt>
      <trkpt lat="-43.71715144001526" lon="170.087105664696">
        <ele>796</ele>
      </trkpt>
      <trkpt lat="-43.71715144001526" lon="170.087105664696">
        <ele>796</ele>
      </trkpt>
      <trkpt lat="-43.71717832559851" lon="170.0870870516">
        <ele>796</ele>
      </trkpt>
      <trkpt lat="-43.71717900059547" lon="170.08708891792">
        <ele>796</ele>
      </trkpt>
      <trkpt lat="-43.71691874880793" lon="170.087273507534">
        <ele>795</ele>
      </trkpt>
      <trkpt lat="-43.71687774175091" lon="170.087327865726">
        <ele>795</ele>
      </trkpt>
      <trkpt lat="-43.71677093267213" lon="170.087369826435">
        <ele>794</ele>
      </trkpt>
      <trkpt lat="-43.71669845508297" lon="170.087373641045">
        <ele>794</ele>
      </trkpt>
      <trkpt lat="-43.71667270646576" lon="170.087386038528">
        <ele>794</ele>
      </trkpt>
      <trkpt lat="-43.71659736791913" lon="170.087368872783">
        <ele>795</ele>
      </trkpt>
      <trkpt lat="-43.7165220293725" lon="170.087351707038">
        <ele>795</ele>
      </trkpt>
      <trkpt lat="-43.71641808125119" lon="170.087319282853">
        <ele>796</ele>
      </trkpt>
      <trkpt lat="-43.7163131794774" lon="170.087287812321">
        <ele>796</ele>
      </trkpt>
      <trkpt lat="-43.71620255578867" lon="170.087268739271">
        <ele>797</ele>
      </trkpt>
      <trkpt lat="-43.71609097844745" lon="170.087249666222">
        <ele>798</ele>
      </trkpt>
      <trkpt lat="-43.71572477589167" lon="170.086877741751">
        <ele>801</ele>
      </trkpt>
      <trkpt lat="-43.71568281518215" lon="170.086765210757">
        <ele>801</ele>
      </trkpt>
      <trkpt lat="-43.71564085447263" lon="170.086652679764">
        <ele>801</ele>
      </trkpt>
      <trkpt lat="-43.71560747663551" lon="170.086537287812">
        <ele>802</ele>
      </trkpt>
      <trkpt lat="-43.7155740987984" lon="170.086421895861">
        <ele>802</ele>
      </trkpt>
      <trkpt lat="-43.71553976730879" lon="170.086359908449">
        <ele>802</ele>
      </trkpt>
      <trkpt lat="-43.71550543581919" lon="170.086297921038">
        <ele>803</ele>
      </trkpt>
      <trkpt lat="-43.71532901010872" lon="170.085929811177">
        <ele>804</ele>
      </trkpt>
      <trkpt lat="-43.71530326149151" lon="170.085816326531">
        <ele>804</ele>
      </trkpt>
      <trkpt lat="-43.715304215144" lon="170.085700934579">
        <ele>805</ele>
      </trkpt>
      <trkpt lat="-43.71535952698837" lon="170.085408163265">
        <ele>806</ele>
      </trkpt>
      <trkpt lat="-43.71539004386801" lon="170.085348083159">
        <ele>806</ele>
      </trkpt>
      <trkpt lat="-43.71545584588976" lon="170.085346175854">
        <ele>806</ele>
      </trkpt>
      <trkpt lat="-43.7155216479115" lon="170.085344268549">
        <ele>806</ele>
      </trkpt>
      <trkpt lat="-43.71557505245089" lon="170.085315658974">
        <ele>806</ele>
      </trkpt>
      <trkpt lat="-43.71556646957848" lon="170.085249856952">
        <ele>806</ele>
      </trkpt>
      <trkpt lat="-43.71552450886897" lon="170.085186915888">
        <ele>807</ele>
      </trkpt>
      <trkpt lat="-43.71548254815945" lon="170.085124928476">
        <ele>807</ele>
      </trkpt>
      <trkpt lat="-43.71547301163456" lon="170.085051497234">
        <ele>808</ele>
      </trkpt>
      <trkpt lat="-43.71546252145718" lon="170.084978065993">
        <ele>809</ele>
      </trkpt>
      <trkpt lat="-43.71543009727255" lon="170.084874117871">
        <ele>810</ele>
      </trkpt>
      <trkpt lat="-43.71535857333588" lon="170.084755864963">
        <ele>811</ele>
      </trkpt>
      <trkpt lat="-43.71527083730689" lon="170.084702460423">
        <ele>812</ele>
      </trkpt>
      <trkpt lat="-43.71518310127789" lon="170.084650009537">
        <ele>813</ele>
      </trkpt>
      <trkpt lat="-43.71511729925615" lon="170.084590883082">
        <ele>813</ele>
      </trkpt>
      <trkpt lat="-43.71509059698646" lon="170.084500286096">
        <ele>815</ele>
      </trkpt>
      <trkpt lat="-43.71506294106428" lon="170.084410642762">
        <ele>816</ele>
      </trkpt>
      <trkpt lat="-43.71502956322716" lon="170.084343887088">
        <ele>816</ele>
      </trkpt>
      <trkpt lat="-43.71496471485791" lon="170.084309555598">
        <ele>817</ele>
      </trkpt>
      <trkpt lat="-43.71489414457372" lon="170.084291436201">
        <ele>818</ele>
      </trkpt>
      <trkpt lat="-43.71482357428953" lon="170.084273316803">
        <ele>819</ele>
      </trkpt>
      <trkpt lat="-43.71480259393477" lon="170.084203700172">
        <ele>820</ele>
      </trkpt>
      <trkpt lat="-43.71478065992752" lon="170.084135037192">
        <ele>821</ele>
      </trkpt>
      <trkpt lat="-43.71480450123975" lon="170.084015830631">
        <ele>822</ele>
      </trkpt>
      <trkpt lat="-43.71482738889949" lon="170.083897577723">
        <ele>824</ele>
      </trkpt>
      <trkpt lat="-43.71482262063704" lon="170.083832729353">
        <ele>824</ele>
      </trkpt>
      <trkpt lat="-43.71481689872211" lon="170.083767880984">
        <ele>825</ele>
      </trkpt>
      <trkpt lat="-43.71477016975015" lon="170.08372782758">
        <ele>826</ele>
      </trkpt>
      <trkpt lat="-43.71471867251574" lon="170.083622925806">
        <ele>828</ele>
      </trkpt>
      <trkpt lat="-43.71466240701888" lon="170.083609574671">
        <ele>829</ele>
      </trkpt>
      <trkpt lat="-43.71454510776273" lon="170.083502765592">
        <ele>832</ele>
      </trkpt>
      <trkpt lat="-43.71445355712378" lon="170.08347892428">
        <ele>833</ele>
      </trkpt>
      <trkpt lat="-43.71438489414457" lon="170.083504672897">
        <ele>834</ele>
      </trkpt>
      <trkpt lat="-43.71435342361244" lon="170.083430288003">
        <ele>835</ele>
      </trkpt>
      <trkpt lat="-43.71432099942781" lon="170.083356856761">
        <ele>837</ele>
      </trkpt>
      <trkpt lat="-43.71423707800877" lon="170.083235742895">
        <ele>842</ele>
      </trkpt>
      <trkpt lat="-43.71420942208659" lon="170.083171848179">
        <ele>844</ele>
      </trkpt>
      <trkpt lat="-43.7141913026893" lon="170.083096509632">
        <ele>847</ele>
      </trkpt>
      <trkpt lat="-43.71417318329201" lon="170.083022124738">
        <ele>850</ele>
      </trkpt>
      <trkpt lat="-43.71413026893001" lon="170.082977303071">
        <ele>852</ele>
      </trkpt>
      <trkpt lat="-43.7140692351707" lon="170.082953461759">
        <ele>854</ele>
      </trkpt>
      <trkpt lat="-43.71400724775891" lon="170.082929620446">
        <ele>855</ele>
      </trkpt>
      <trkpt lat="-43.71397959183673" lon="170.08285809651">
        <ele>858</ele>
      </trkpt>
      <trkpt lat="-43.71394144573718" lon="170.082822811368">
        <ele>860</ele>
      </trkpt>
      <trkpt lat="-43.7138785046729" lon="170.08284283807">
        <ele>860</ele>
      </trkpt>
      <trkpt lat="-43.71381460995613" lon="170.082862864772">
        <ele>860</ele>
      </trkpt>
      <trkpt lat="-43.71377169559413" lon="170.082894335304">
        <ele>859</ele>
      </trkpt>
      <trkpt lat="-43.7137135227923" lon="170.082884798779">
        <ele>860</ele>
      </trkpt>
      <trkpt lat="-43.71361529658593" lon="170.082767499523">
        <ele>865</ele>
      </trkpt>
      <trkpt lat="-43.71351039481213" lon="170.082782757963">
        <ele>865</ele>
      </trkpt>
      <trkpt lat="-43.71344554644288" lon="170.082737936296">
        <ele>867</ele>
      </trkpt>
      <trkpt lat="-43.7134264733931" lon="170.082688346367">
        <ele>869</ele>
      </trkpt>
      <trkpt lat="-43.71344745374785" lon="170.082603471295">
        <ele>870</ele>
      </trkpt>
      <trkpt lat="-43.71332920083921" lon="170.082572954415">
        <ele>872</ele>
      </trkpt>
      <trkpt lat="-43.71333969101659" lon="170.082548159451">
        <ele>873</ele>
      </trkpt>
      <trkpt lat="-43.71338641998856" lon="170.082495708564">
        <ele>874</ele>
      </trkpt>
      <trkpt lat="-43.71335208849895" lon="170.08242513828">
        <ele>877</ele>
      </trkpt>
      <trkpt lat="-43.71326053786" lon="170.08240606523">
        <ele>878</ele>
      </trkpt>
      <trkpt lat="-43.71316612626359" lon="170.082353614343">
        <ele>881</ele>
      </trkpt>
      <trkpt lat="-43.71320141140568" lon="170.082256341789">
        <ele>885</ele>
      </trkpt>
      <trkpt lat="-43.71316231165363" lon="170.08216097654">
        <ele>888</ele>
      </trkpt>
      <trkpt lat="-43.71312321190158" lon="170.082066564944">
        <ele>892</ele>
      </trkpt>
      <trkpt lat="-43.71311748998665" lon="170.082005531184">
        <ele>894</ele>
      </trkpt>
      <trkpt lat="-43.71309364867442" lon="170.081936868205">
        <ele>896</ele>
      </trkpt>
      <trkpt lat="-43.71313847034141" lon="170.081827198169">
        <ele>900</ele>
      </trkpt>
      <trkpt lat="-43.71312225824909" lon="170.081751859622">
        <ele>903</ele>
      </trkpt>
      <trkpt lat="-43.71312035094412" lon="170.081644096891">
        <ele>907</ele>
      </trkpt>
      <trkpt lat="-43.71313656303643" lon="170.081596414267">
        <ele>909</ele>
      </trkpt>
      <trkpt lat="-43.71316612626359" lon="170.081587831394">
        <ele>910</ele>
      </trkpt>
      <trkpt lat="-43.71316707991608" lon="170.081548731642">
        <ele>912</ele>
      </trkpt>
      <trkpt lat="-43.71314037764639" lon="170.081475300401">
        <ele>915</ele>
      </trkpt>
      <trkpt lat="-43.71316994087355" lon="170.081445737173">
        <ele>917</ele>
      </trkpt>
      <trkpt lat="-43.71312988746901" lon="170.081366584017">
        <ele>920</ele>
      </trkpt>
      <trkpt lat="-43.71313370207896" lon="170.081292199123">
        <ele>924</ele>
      </trkpt>
      <trkpt lat="-43.71319378218577" lon="170.081267404158">
        <ele>926</ele>
      </trkpt>
      <trkpt lat="-43.71320427236315" lon="170.081197787526">
        <ele>930</ele>
      </trkpt>
      <trkpt lat="-43.71323002098035" lon="170.081183482739">
        <ele>931</ele>
      </trkpt>
      <trkpt lat="-43.71319855044822" lon="170.081124356285">
        <ele>933</ele>
      </trkpt>
      <trkpt lat="-43.71323288193782" lon="170.081090978447">
        <ele>935</ele>
      </trkpt>
      <trkpt lat="-43.71323383559031" lon="170.081030898341">
        <ele>938</ele>
      </trkpt>
      <trkpt lat="-43.71326053786" lon="170.080998474156">
        <ele>940</ele>
      </trkpt>
      <trkpt lat="-43.71324051115774" lon="170.080980354759">
        <ele>941</ele>
      </trkpt>
      <trkpt lat="-43.71325386229258" lon="170.080936486744">
        <ele>943</ele>
      </trkpt>
      <trkpt lat="-43.71329963761205" lon="170.080980354759">
        <ele>942</ele>
      </trkpt>
      <trkpt lat="-43.713348273889" lon="170.080994659546">
        <ele>942</ele>
      </trkpt>
      <trkpt lat="-43.7134083539958" lon="170.081058554263">
        <ele>940</ele>
      </trkpt>
      <trkpt lat="-43.7134350562655" lon="170.08105760061">
        <ele>941</ele>
      </trkpt>
      <trkpt lat="-43.71340358573336" lon="170.080982262064">
        <ele>944</ele>
      </trkpt>
      <trkpt lat="-43.71337211520122" lon="170.08090787717">
        <ele>947</ele>
      </trkpt>
      <trkpt lat="-43.71333778371162" lon="170.080867823765">
        <ele>948</ele>
      </trkpt>
      <trkpt lat="-43.71331394239939" lon="170.080801068091">
        <ele>952</ele>
      </trkpt>
      <trkpt lat="-43.71327484264734" lon="170.080751478161">
        <ele>954</ele>
      </trkpt>
      <trkpt lat="-43.71329105473966" lon="170.080730497807">
        <ele>956</ele>
      </trkpt>
      <trkpt lat="-43.71331871066184" lon="170.080747663551">
        <ele>955</ele>
      </trkpt>
      <trkpt lat="-43.71335113484646" lon="170.080732405112">
        <ele>957</ele>
      </trkpt>
      <trkpt lat="-43.71345603662026" lon="170.080744802594">
        <ele>959</ele>
      </trkpt>
      <trkpt lat="-43.7135304215144" lon="170.080793438871">
        <ele>958</ele>
      </trkpt>
      <trkpt lat="-43.71354091169178" lon="170.080766736601">
        <ele>960</ele>
      </trkpt>
      <trkpt lat="-43.71351897768453" lon="170.080739080679">
        <ele>961</ele>
      </trkpt>
      <trkpt lat="-43.71350753385467" lon="170.080668510395">
        <ele>966</ele>
      </trkpt>
      <trkpt lat="-43.71346748045013" lon="170.080606522983">
        <ele>970</ele>
      </trkpt>
      <trkpt lat="-43.71346366584017" lon="170.080499713904">
        <ele>977</ele>
      </trkpt>
      <trkpt lat="-43.71343124165554" lon="170.0804596605">
        <ele>979</ele>
      </trkpt>
      <trkpt lat="-43.71340644669083" lon="170.080368109861">
        <ele>985</ele>
      </trkpt>
      <trkpt lat="-43.71343124165554" lon="170.080313751669">
        <ele>990</ele>
      </trkpt>
      <trkpt lat="-43.71341121495328" lon="170.080288956704">
        <ele>991</ele>
      </trkpt>
      <trkpt lat="-43.71342075147816" lon="170.080236505817">
        <ele>995</ele>
      </trkpt>
      <trkpt lat="-43.71339977112341" lon="170.080177379363">
        <ele>999</ele>
      </trkpt>
      <trkpt lat="-43.71340358573336" lon="170.080144001526">
        <ele>1001</ele>
      </trkpt>
      <trkpt lat="-43.71338641998856" lon="170.080100133511">
        <ele>1004</ele>
      </trkpt>
      <trkpt lat="-43.713348273889" lon="170.080066755674">
        <ele>1005</ele>
      </trkpt>
      <trkpt lat="-43.71334636658402" lon="170.080048636277">
        <ele>1007</ele>
      </trkpt>
      <trkpt lat="-43.71336067137135" lon="170.08003051688">
        <ele>1008</ele>
      </trkpt>
      <trkpt lat="-43.71335971771887" lon="170.080008582872">
        <ele>1010</ele>
      </trkpt>
      <trkpt lat="-43.71333206179668" lon="170.08001907305">
        <ele>1008</ele>
      </trkpt>
      <trkpt lat="-43.71331584970437" lon="170.08">
        <ele>1009</ele>
      </trkpt>
      <trkpt lat="-43.71331584970405" lon="170.08">
        <ele>1009</ele>
      </trkpt>
      <trkpt lat="-43.71331012778943" lon="170.079994278085">
        <ele>1009</ele>
      </trkpt>
      <trkpt lat="-43.71334350562655" lon="170.079967575815">
        <ele>1012</ele>
      </trkpt>
      <trkpt lat="-43.71328819378218" lon="170.079886515354">
        <ele>1014</ele>
      </trkpt>
      <trkpt lat="-43.71330059126454" lon="170.079846461949">
        <ele>1017</ele>
      </trkpt>
      <trkpt lat="-43.71335971771887" lon="170.079790196452">
        <ele>1022</ele>
      </trkpt>
      <trkpt lat="-43.71337592981118" lon="170.079802593935">
        <ele>1022</ele>
      </trkpt>
      <trkpt lat="-43.71340453938585" lon="170.079773030708">
        <ele>1024</ele>
      </trkpt>
      <trkpt lat="-43.71340740034331" lon="170.079750143048">
        <ele>1025</ele>
      </trkpt>
      <trkpt lat="-43.71332920083921" lon="170.079698645813">
        <ele>1026</ele>
      </trkpt>
      <trkpt lat="-43.71331584970437" lon="170.079684341026">
        <ele>1026</ele>
      </trkpt>
      <trkpt lat="-43.71334064466908" lon="170.079627121877">
        <ele>1030</ele>
      </trkpt>
      <trkpt lat="-43.71332920083921" lon="170.079592790387">
        <ele>1032</ele>
      </trkpt>
      <trkpt lat="-43.71339786381843" lon="170.079535571238">
        <ele>1037</ele>
      </trkpt>
      <trkpt lat="-43.71338928094602" lon="170.079490749571">
        <ele>1039</ele>
      </trkpt>
      <trkpt lat="-43.7134608048827" lon="170.079418271982">
        <ele>1045</ele>
      </trkpt>
      <trkpt lat="-43.71351897768453" lon="170.079510776273">
        <ele>1042</ele>
      </trkpt>
      <trkpt lat="-43.71356856761396" lon="170.079506008011">
        <ele>1044</ele>
      </trkpt>
      <trkpt lat="-43.71360099179859" lon="170.079526988365">
        <ele>1044</ele>
      </trkpt>
      <trkpt lat="-43.71362197215335" lon="170.079512683578">
        <ele>1045</ele>
      </trkpt>
      <trkpt lat="-43.71362292580584" lon="170.079476444784">
        <ele>1047</ele>
      </trkpt>
      <trkpt lat="-43.71359622353614" lon="170.079427808507">
        <ele>1049</ele>
      </trkpt>
      <trkpt lat="-43.7136000381461" lon="170.079377264925">
        <ele>1052</ele>
      </trkpt>
      <trkpt lat="-43.7135733358764" lon="170.079320999428">
        <ele>1054</ele>
      </trkpt>
      <trkpt lat="-43.71357142857143" lon="170.079273316803">
        <ele>1057</ele>
      </trkpt>
      <trkpt lat="-43.71363341598322" lon="170.079284760633">
        <ele>1058</ele>
      </trkpt>
      <trkpt lat="-43.713652489033" lon="170.079266641236">
        <ele>1060</ele>
      </trkpt>
      <trkpt lat="-43.71363436963571" lon="170.079228495136">
        <ele>1061</ele>
      </trkpt>
      <trkpt lat="-43.71362292580584" lon="170.079174136944">
        <ele>1064</ele>
      </trkpt>
      <trkpt lat="-43.71358001144383" lon="170.07914171276">
        <ele>1065</ele>
      </trkpt>
      <trkpt lat="-43.71358191874881" lon="170.079119778753">
        <ele>1066</ele>
      </trkpt>
      <trkpt lat="-43.71360099179859" lon="170.079112149533">
        <ele>1067</ele>
      </trkpt>
      <trkpt lat="-43.7136868205226" lon="170.079120732405">
        <ele>1069</ele>
      </trkpt>
      <trkpt lat="-43.7137135227923" lon="170.07910356666">
        <ele>1071</ele>
      </trkpt>
      <trkpt lat="-43.71372973488461" lon="170.079144573717">
        <ele>1069</ele>
      </trkpt>
      <trkpt lat="-43.71374499332443" lon="170.079150295632">
        <ele>1069</ele>
      </trkpt>
      <trkpt lat="-43.71373641045203" lon="170.079045393858">
        <ele>1076</ele>
      </trkpt>
      <trkpt lat="-43.7136963570475" lon="170.079009155064">
        <ele>1077</ele>
      </trkpt>
      <trkpt lat="-43.71367346938776" lon="170.07894239939">
        <ele>1080</ele>
      </trkpt>
      <trkpt lat="-43.71364867442304" lon="170.078917604425">
        <ele>1081</ele>
      </trkpt>
      <trkpt lat="-43.71366774747282" lon="170.078893763113">
        <ele>1083</ele>
      </trkpt>
      <trkpt lat="-43.71365725729544" lon="170.078855617013">
        <ele>1085</ele>
      </trkpt>
      <trkpt lat="-43.71371161548732" lon="170.078859431623">
        <ele>1087</ele>
      </trkpt>
      <trkpt lat="-43.71376883463666" lon="170.078891855808">
        <ele>1086</ele>
      </trkpt>
      <trkpt lat="-43.71384894144574" lon="170.078879458325">
        <ele>1090</ele>
      </trkpt>
      <trkpt lat="-43.71395575052451" lon="170.078955750524">
        <ele>1088</ele>
      </trkpt>
      <trkpt lat="-43.71397196261682" lon="170.078976730879">
        <ele>1087</ele>
      </trkpt>
      <trkpt lat="-43.71400534045394" lon="170.078975777227">
        <ele>1088</ele>
      </trkpt>
      <trkpt lat="-43.71402822811368" lon="170.079053976731">
        <ele>1084</ele>
      </trkpt>
      <trkpt lat="-43.7140692351707" lon="170.079075910738">
        <ele>1084</ele>
      </trkpt>
      <trkpt lat="-43.71409212283044" lon="170.079065420561">
        <ele>1085</ele>
      </trkpt>
      <trkpt lat="-43.7141045203128" lon="170.079027274461">
        <ele>1088</ele>
      </trkpt>
      <trkpt lat="-43.71412836162502" lon="170.079047301163">
        <ele>1088</ele>
      </trkpt>
      <trkpt lat="-43.71412359336258" lon="170.079163646767">
        <ele>1080</ele>
      </trkpt>
      <trkpt lat="-43.71413408353996" lon="170.079210375739">
        <ele>1078</ele>
      </trkpt>
      <trkpt lat="-43.71417795155445" lon="170.079225634179">
        <ele>1078</ele>
      </trkpt>
      <trkpt lat="-43.71417509059699" lon="170.079194163647">
        <ele>1080</ele>
      </trkpt>
      <trkpt lat="-43.71420560747664" lon="170.07913408354">
        <ele>1083</ele>
      </trkpt>
      <trkpt lat="-43.71420465382415" lon="170.079055884036">
        <ele>1088</ele>
      </trkpt>
      <trkpt lat="-43.71426473393095" lon="170.078959565134">
        <ele>1092</ele>
      </trkpt>
      <trkpt lat="-43.71424756818615" lon="170.07892714095">
        <ele>1095</ele>
      </trkpt>
      <trkpt lat="-43.71426473393095" lon="170.07888136563">
        <ele>1097</ele>
      </trkpt>
      <trkpt lat="-43.71430097272554" lon="170.078887087545">
        <ele>1096</ele>
      </trkpt>
      <trkpt lat="-43.71431909212283" lon="170.078816517261">
        <ele>1100</ele>
      </trkpt>
      <trkpt lat="-43.71433721152012" lon="170.078745946977">
        <ele>1104</ele>
      </trkpt>
      <trkpt lat="-43.71428094602327" lon="170.078660118253">
        <ele>1110</ele>
      </trkpt>
      <trkpt lat="-43.71428285332825" lon="170.078602899104">
        <ele>1114</ele>
      </trkpt>
      <trkpt lat="-43.714303833683" lon="170.078594316231">
        <ele>1114</ele>
      </trkpt>
      <trkpt lat="-43.71433148960519" lon="170.078604806409">
        <ele>1113</ele>
      </trkpt>
      <trkpt lat="-43.7143133702079" lon="170.078532328819">
        <ele>1117</ele>
      </trkpt>
      <trkpt lat="-43.71436486744231" lon="170.078472248713">
        <ele>1120</ele>
      </trkpt>
      <trkpt lat="-43.71435437726493" lon="170.078374022506">
        <ele>1126</ele>
      </trkpt>
      <trkpt lat="-43.71431527751287" lon="170.078339691017">
        <ele>1129</ele>
      </trkpt>
      <trkpt lat="-43.71431813847034" lon="170.078306313179">
        <ele>1131</ele>
      </trkpt>
      <trkpt lat="-43.71428857524318" lon="170.078290101087">
        <ele>1132</ele>
      </trkpt>
      <trkpt lat="-43.7143133702079" lon="170.078193782186">
        <ele>1136</ele>
      </trkpt>
      <trkpt lat="-43.71427427045585" lon="170.078165172611">
        <ele>1138</ele>
      </trkpt>
      <trkpt lat="-43.71429334350563" lon="170.078115582682">
        <ele>1140</ele>
      </trkpt>
      <trkpt lat="-43.71424852183864" lon="170.078077436582">
        <ele>1143</ele>
      </trkpt>
      <trkpt lat="-43.71421037573908" lon="170.07806122449">
        <ele>1144</ele>
      </trkpt>
      <trkpt lat="-43.71417604424948" lon="170.0780650391">
        <ele>1144</ele>
      </trkpt>
      <trkpt lat="-43.71414934197978" lon="170.07800019073">
        <ele>1147</ele>
      </trkpt>
      <trkpt lat="-43.71416650772458" lon="170.077976349418">
        <ele>1148</ele>
      </trkpt>
      <trkpt lat="-43.7142084684341" lon="170.077981117681">
        <ele>1148</ele>
      </trkpt>
      <trkpt lat="-43.71423230974633" lon="170.077956322716">
        <ele>1149</ele>
      </trkpt>
      <trkpt lat="-43.71428285332825" lon="170.077961090978">
        <ele>1148</ele>
      </trkpt>
      <trkpt lat="-43.71432576769026" lon="170.077906732787">
        <ele>1150</ele>
      </trkpt>
      <trkpt lat="-43.71432386038528" lon="170.077876215907">
        <ele>1151</ele>
      </trkpt>
      <trkpt lat="-43.71434960900248" lon="170.077813274843">
        <ele>1154</ele>
      </trkpt>
      <trkpt lat="-43.7143734503147" lon="170.077782757963">
        <ele>1156</ele>
      </trkpt>
      <trkpt lat="-43.71438203318711" lon="170.077726492466">
        <ele>1158</ele>
      </trkpt>
      <trkpt lat="-43.71434388708754" lon="170.077696929239">
        <ele>1160</ele>
      </trkpt>
      <trkpt lat="-43.71431909212283" lon="170.07765115392">
        <ele>1162</ele>
      </trkpt>
      <trkpt lat="-43.71432767499523" lon="170.077592981118">
        <ele>1165</ele>
      </trkpt>
      <trkpt lat="-43.71435151630746" lon="170.077577722678">
        <ele>1166</ele>
      </trkpt>
      <trkpt lat="-43.71437631127218" lon="170.07760919321">
        <ele>1164</ele>
      </trkpt>
      <trkpt lat="-43.71440968910929" lon="170.077598703033">
        <ele>1165</ele>
      </trkpt>
      <trkpt lat="-43.71441827198169" lon="170.077627312607">
        <ele>1163</ele>
      </trkpt>
      <trkpt lat="-43.71443066946405" lon="170.077627312607">
        <ele>1163</ele>
      </trkpt>
      <trkpt lat="-43.71443257676903" lon="170.077572954415">
        <ele>1166</ele>
      </trkpt>
      <trkpt lat="-43.71438394049208" lon="170.077471867252">
        <ele>1171</ele>
      </trkpt>
      <trkpt lat="-43.71439729162693" lon="170.077450886897">
        <ele>1172</ele>
      </trkpt>
      <trkpt lat="-43.71439252336449" lon="170.077400343315">
        <ele>1174</ele>
      </trkpt>
      <trkpt lat="-43.71442017928667" lon="170.077365058173">
        <ele>1176</ele>
      </trkpt>
      <trkpt lat="-43.71442685485409" lon="170.077253480832">
        <ele>1182</ele>
      </trkpt>
      <trkpt lat="-43.71448884226588" lon="170.077215334732">
        <ele>1184</ele>
      </trkpt>
      <trkpt lat="-43.71458706847225" lon="170.077231546824">
        <ele>1183</ele>
      </trkpt>
      <trkpt lat="-43.71462807552928" lon="170.077129506008">
        <ele>1189</ele>
      </trkpt>
      <trkpt lat="-43.71462998283425" lon="170.077049399199">
        <ele>1193</ele>
      </trkpt>
      <trkpt lat="-43.71463189013923" lon="170.076970246042">
        <ele>1197</ele>
      </trkpt>
      <trkpt lat="-43.71460995613199" lon="170.076893000191">
        <ele>1201</ele>
      </trkpt>
      <trkpt lat="-43.71458802212474" lon="170.076815754339">
        <ele>1204</ele>
      </trkpt>
      <trkpt lat="-43.71455464428762" lon="170.07675090597">
        <ele>1207</ele>
      </trkpt>
      <trkpt lat="-43.71452031279802" lon="170.076687011253">
        <ele>1210</ele>
      </trkpt>
      <trkpt lat="-43.71446786191112" lon="170.076653633416">
        <ele>1211</ele>
      </trkpt>
      <trkpt lat="-43.71441636467672" lon="170.076578294869">
        <ele>1215</ele>
      </trkpt>
      <trkpt lat="-43.71436486744231" lon="170.076503909975">
        <ele>1218</ele>
      </trkpt>
      <trkpt lat="-43.71433625786764" lon="170.076414266641">
        <ele>1222</ele>
      </trkpt>
      <trkpt lat="-43.71432862864772" lon="170.076341789052">
        <ele>1226</ele>
      </trkpt>
      <trkpt lat="-43.71433816517261" lon="170.076288384513">
        <ele>1229</ele>
      </trkpt>
      <trkpt lat="-43.71428952889567" lon="170.076213045966">
        <ele>1232</ele>
      </trkpt>
      <trkpt lat="-43.71428762159069" lon="170.076149151249">
        <ele>1235</ele>
      </trkpt>
      <trkpt lat="-43.71428571428572" lon="170.076085256533">
        <ele>1238</ele>
      </trkpt>
      <trkpt lat="-43.71431432386039" lon="170.076005149723">
        <ele>1243</ele>
      </trkpt>
      <trkpt lat="-43.71432767499523" lon="170.075927903872">
        <ele>1248</ele>
      </trkpt>
      <trkpt lat="-43.7143305359527" lon="170.07584684341">
        <ele>1252</ele>
      </trkpt>
      <trkpt lat="-43.71434197978257" lon="170.075807743658">
        <ele>1255</ele>
      </trkpt>
      <trkpt lat="-43.71433816517261" lon="170.075741941636">
        <ele>1259</ele>
      </trkpt>
      <trkpt lat="-43.71434865534999" lon="170.07562464238">
        <ele>1266</ele>
      </trkpt>
      <trkpt lat="-43.71438107953462" lon="170.0756322716">
        <ele>1266</ele>
      </trkpt>
      <trkpt lat="-43.71438775510205" lon="170.075582681671">
        <ele>1269</ele>
      </trkpt>
      <trkpt lat="-43.71434865534999" lon="170.075501621209">
        <ele>1273</ele>
      </trkpt>
      <trkpt lat="-43.71428094602327" lon="170.075500667557">
        <ele>1271</ele>
      </trkpt>
      <trkpt lat="-43.7140263208087" lon="170.07539099752">
        <ele>1273</ele>
      </trkpt>
      <trkpt lat="-43.71396719435437" lon="170.075327102804">
        <ele>1276</ele>
      </trkpt>
      <trkpt lat="-43.71390902155255" lon="170.075288956704">
        <ele>1278</ele>
      </trkpt>
      <trkpt lat="-43.7138432195308" lon="170.075272744612">
        <ele>1277</ele>
      </trkpt>
      <trkpt lat="-43.71372592027465" lon="170.07518786954">
        <ele>1280</ele>
      </trkpt>
      <trkpt lat="-43.71364867442304" lon="170.075189776845">
        <ele>1279</ele>
      </trkpt>
      <trkpt lat="-43.71360957467099" lon="170.075151630746">
        <ele>1281</ele>
      </trkpt>
      <trkpt lat="-43.71348846080488" lon="170.075089643334">
        <ele>1282</ele>
      </trkpt>
      <trkpt lat="-43.71343410261301" lon="170.075012397482">
        <ele>1286</ele>
      </trkpt>
      <trkpt lat="-43.71341598321572" lon="170.074897959184">
        <ele>1290</ele>
      </trkpt>
      <trkpt lat="-43.71345889757772" lon="170.074886515354">
        <ele>1291</ele>
      </trkpt>
      <trkpt lat="-43.71346366584017" lon="170.074830249857">
        <ele>1294</ele>
      </trkpt>
      <trkpt lat="-43.71350276559222" lon="170.074827388899">
        <ele>1294</ele>
      </trkpt>
      <trkpt lat="-43.71348464619493" lon="170.074787335495">
        <ele>1296</ele>
      </trkpt>
      <trkpt lat="-43.71349036810986" lon="170.074755864963">
        <ele>1297</ele>
      </trkpt>
      <trkpt lat="-43.71349036810986" lon="170.074755864963">
        <ele>1297</ele>
      </trkpt>
      <trkpt lat="-43.71353423612436" lon="170.074760633225">
        <ele>1297</ele>
      </trkpt>
      <trkpt lat="-43.71355998474156" lon="170.074748235743">
        <ele>1298</ele>
      </trkpt>
      <trkpt lat="-43.71362197215335" lon="170.074749189395">
        <ele>1299</ele>
      </trkpt>
      <trkpt lat="-43.713695403395" lon="170.074735838261">
        <ele>1301</ele>
      </trkpt>
      <trkpt lat="-43.71376883463666" lon="170.074723440778">
        <ele>1302</ele>
      </trkpt>
      <trkpt lat="-43.71377074194164" lon="170.074696738508">
        <ele>1303</ele>
      </trkpt>
      <trkpt lat="-43.71369921800496" lon="170.074663360671">
        <ele>1303</ele>
      </trkpt>
      <trkpt lat="-43.71362769406828" lon="170.074630936487">
        <ele>1304</ele>
      </trkpt>
      <trkpt lat="-43.71361529658593" lon="170.07458611482">
        <ele>1305</ele>
      </trkpt>
      <trkpt lat="-43.71367728399771" lon="170.074598512302">
        <ele>1306</ele>
      </trkpt>
      <trkpt lat="-43.7137478542819" lon="170.074585161167">
        <ele>1307</ele>
      </trkpt>
      <trkpt lat="-43.71381842456609" lon="170.074572763685">
        <ele>1308</ele>
      </trkpt>
      <trkpt lat="-43.71388136563036" lon="170.074545107763">
        <ele>1310</ele>
      </trkpt>
      <trkpt lat="-43.71390997520503" lon="170.074446881556">
        <ele>1314</ele>
      </trkpt>
      <trkpt lat="-43.71387182910547" lon="170.074442113294">
        <ele>1313</ele>
      </trkpt>
      <trkpt lat="-43.71379458325386" lon="170.074411596414">
        <ele>1313</ele>
      </trkpt>
      <trkpt lat="-43.71372782757963" lon="170.074402059889">
        <ele>1313</ele>
      </trkpt>
      <trkpt lat="-43.7136610719054" lon="170.074393477017">
        <ele>1313</ele>
      </trkpt>
      <trkpt lat="-43.71358001144383" lon="170.074368682052">
        <ele>1313</ele>
      </trkpt>
      <trkpt lat="-43.71349895098226" lon="170.07434484074">
        <ele>1313</ele>
      </trkpt>
      <trkpt lat="-43.71338165172611" lon="170.0743295823">
        <ele>1313</ele>
      </trkpt>
      <trkpt lat="-43.71335018119397" lon="170.074370589357">
        <ele>1311</ele>
      </trkpt>
      <trkpt lat="-43.71328437917223" lon="170.074358191875">
        <ele>1310</ele>
      </trkpt>
      <trkpt lat="-43.71321857715049" lon="170.074346748045">
        <ele>1310</ele>
      </trkpt>
      <trkpt lat="-43.71313656303643" lon="170.07437154301">
        <ele>1308</ele>
      </trkpt>
      <trkpt lat="-43.71304119778753" lon="170.074382033187">
        <ele>1306</ele>
      </trkpt>
      <trkpt lat="-43.71295346175854" lon="170.074410642762">
        <ele>1303</ele>
      </trkpt>
      <trkpt lat="-43.71287716955941" lon="170.074408735457">
        <ele>1302</ele>
      </trkpt>
      <trkpt lat="-43.71276082395575" lon="170.074389662407">
        <ele>1301</ele>
      </trkpt>
      <trkpt lat="-43.71268548540912" lon="170.074416364677">
        <ele>1299</ele>
      </trkpt>
      <trkpt lat="-43.71259965668511" lon="170.074426854854">
        <ele>1298</ele>
      </trkpt>
      <trkpt lat="-43.71259965668511" lon="170.074426854854">
        <ele>1298</ele>
      </trkpt>
      <trkpt lat="-43.71268548540912" lon="170.074416364677">
        <ele>1299</ele>
      </trkpt>
      <trkpt lat="-43.71276082395575" lon="170.074389662407">
        <ele>1301</ele>
      </trkpt>
      <trkpt lat="-43.71287716955941" lon="170.074408735457">
        <ele>1302</ele>
      </trkpt>
      <trkpt lat="-43.71295346175854" lon="170.074410642762">
        <ele>1303</ele>
      </trkpt>
      <trkpt lat="-43.71304119778753" lon="170.074382033187">
        <ele>1306</ele>
      </trkpt>
      <trkpt lat="-43.71313656303643" lon="170.07437154301">
        <ele>1308</ele>
      </trkpt>
      <trkpt lat="-43.71321857715049" lon="170.074346748045">
        <ele>1310</ele>
      </trkpt>
      <trkpt lat="-43.71328437917223" lon="170.074358191875">
        <ele>1310</ele>
      </trkpt>
      <trkpt lat="-43.71335018119397" lon="170.074370589357">
        <ele>1311</ele>
      </trkpt>
      <trkpt lat="-43.71338165172611" lon="170.0743295823">
        <ele>1313</ele>
      </trkpt>
      <trkpt lat="-43.71349895098226" lon="170.07434484074">
        <ele>1313</ele>
      </trkpt>
      <trkpt lat="-43.71358001144383" lon="170.074368682052">
        <ele>1313</ele>
      </trkpt>
      <trkpt lat="-43.7136610719054" lon="170.074393477017">
        <ele>1313</ele>
      </trkpt>
      <trkpt lat="-43.71372782757963" lon="170.074402059889">
        <ele>1313</ele>
      </trkpt>
      <trkpt lat="-43.71379458325386" lon="170.074411596414">
        <ele>1313</ele>
      </trkpt>
      <trkpt lat="-43.71387182910547" lon="170.074442113294">
        <ele>1313</ele>
      </trkpt>
      <trkpt lat="-43.71390997520503" lon="170.074446881556">
        <ele>1314</ele>
      </trkpt>
      <trkpt lat="-43.71390997520503" lon="170.074446881556">
        <ele>1314</ele>
      </trkpt>
      <trkpt lat="-43.71399294297158" lon="170.074415411024">
        <ele>1315</ele>
      </trkpt>
      <trkpt lat="-43.71403108907114" lon="170.074372496662">
        <ele>1317</ele>
      </trkpt>
      <trkpt lat="-43.71409116917796" lon="170.07435246996">
        <ele>1318</ele>
      </trkpt>
      <trkpt lat="-43.71409116917796" lon="170.07435246996">
        <ele>1318</ele>
      </trkpt>
      <trkpt lat="-43.71414457371734" lon="170.074342933435">
        <ele>1319</ele>
      </trkpt>
      <trkpt lat="-43.71414457371734" lon="170.074342933435">
        <ele>1319</ele>
      </trkpt>
      <trkpt lat="-43.71425042914362" lon="170.074279038718">
        <ele>1322</ele>
      </trkpt>
      <trkpt lat="-43.71431718481785" lon="170.074272363151">
        <ele>1323</ele>
      </trkpt>
      <trkpt lat="-43.7143829868396" lon="170.074265687583">
        <ele>1324</ele>
      </trkpt>
      <trkpt lat="-43.71439919893191" lon="170.074218958611">
        <ele>1326</ele>
      </trkpt>
      <trkpt lat="-43.71443829868396" lon="170.074205607477">
        <ele>1327</ele>
      </trkpt>
      <trkpt lat="-43.71445927903872" lon="170.074157924852">
        <ele>1329</ele>
      </trkpt>
      <trkpt lat="-43.71452984932291" lon="170.074142666412">
        <ele>1330</ele>
      </trkpt>
      <trkpt lat="-43.71453461758535" lon="170.074074003433">
        <ele>1334</ele>
      </trkpt>
      <trkpt lat="-43.7145393858478" lon="170.074006294106">
        <ele>1337</ele>
      </trkpt>
      <trkpt lat="-43.71458897577723" lon="170.074015830631">
        <ele>1337</ele>
      </trkpt>
      <trkpt lat="-43.71462807552928" lon="170.073974823574">
        <ele>1340</ele>
      </trkpt>
      <trkpt lat="-43.71460041960709" lon="170.0739080679">
        <ele>1342</ele>
      </trkpt>
      <trkpt lat="-43.71467671180622" lon="170.073854663361">
        <ele>1346</ele>
      </trkpt>
      <trkpt lat="-43.71464905588404" lon="170.073771695594">
        <ele>1350</ele>
      </trkpt>
      <trkpt lat="-43.71471104329582" lon="170.073730688537">
        <ele>1353</ele>
      </trkpt>
      <trkpt lat="-43.7147911501049" lon="170.073718291055">
        <ele>1355</ele>
      </trkpt>
      <trkpt lat="-43.71479782567233" lon="170.073639137898">
        <ele>1359</ele>
      </trkpt>
      <trkpt lat="-43.71484550829678" lon="170.073556170132">
        <ele>1364</ele>
      </trkpt>
      <trkpt lat="-43.71478638184246" lon="170.073489414457">
        <ele>1366</ele>
      </trkpt>
      <trkpt lat="-43.71476349418272" lon="170.073373068854">
        <ele>1371</ele>
      </trkpt>
      <trkpt lat="-43.71470818233836" lon="170.073255769598">
        <ele>1375</ele>
      </trkpt>
      <trkpt lat="-43.71464905588404" lon="170.073160404349">
        <ele>1379</ele>
      </trkpt>
      <trkpt lat="-43.71468338737364" lon="170.073150867824">
        <ele>1380</ele>
      </trkpt>
      <trkpt lat="-43.71476063322525" lon="170.073148006866">
        <ele>1382</ele>
      </trkpt>
      <trkpt lat="-43.71476349418272" lon="170.073090787717">
        <ele>1385</ele>
      </trkpt>
      <trkpt lat="-43.71471771886325" lon="170.073008773603">
        <ele>1387</ele>
      </trkpt>
      <trkpt lat="-43.71477493801259" lon="170.073021171085">
        <ele>1388</ele>
      </trkpt>
      <trkpt lat="-43.71481403776464" lon="170.072989700553">
        <ele>1391</ele>
      </trkpt>
      <trkpt lat="-43.71488460804883" lon="170.073052641617">
        <ele>1389</ele>
      </trkpt>
      <trkpt lat="-43.71493705893572" lon="170.072985885943">
        <ele>1394</ele>
      </trkpt>
      <trkpt lat="-43.71490082014114" lon="170.072913408354">
        <ele>1396</ele>
      </trkpt>
      <trkpt lat="-43.71488746900629" lon="170.072840930765">
        <ele>1399</ele>
      </trkpt>
      <trkpt lat="-43.71490749570857" lon="170.072764638566">
        <ele>1403</ele>
      </trkpt>
      <trkpt lat="-43.71496185390044" lon="170.072773221438">
        <ele>1404</ele>
      </trkpt>
      <trkpt lat="-43.71499237078009" lon="170.072704558459">
        <ele>1408</ele>
      </trkpt>
      <trkpt lat="-43.71496757581537" lon="170.072640663742">
        <ele>1411</ele>
      </trkpt>
      <trkpt lat="-43.71498092695022" lon="170.072536715621">
        <ele>1416</ele>
      </trkpt>
      <trkpt lat="-43.71493705893572" lon="170.072457562464">
        <ele>1419</ele>
      </trkpt>
      <trkpt lat="-43.71491703223346" lon="170.072393667747">
        <ele>1421</ele>
      </trkpt>
      <trkpt lat="-43.7148960518787" lon="170.072330726683">
        <ele>1423</ele>
      </trkpt>
      <trkpt lat="-43.71493705893572" lon="170.072283044059">
        <ele>1426</ele>
      </trkpt>
      <trkpt lat="-43.71500381460996" lon="170.072327865726">
        <ele>1426</ele>
      </trkpt>
      <trkpt lat="-43.71499904634751" lon="170.072235361434">
        <ele>1429</ele>
      </trkpt>
      <trkpt lat="-43.71505912645432" lon="170.072203890902">
        <ele>1431</ele>
      </trkpt>
      <trkpt lat="-43.71505626549686" lon="170.072124737746">
        <ele>1434</ele>
      </trkpt>
      <trkpt lat="-43.71512492847607" lon="170.072102803738">
        <ele>1435</ele>
      </trkpt>
      <trkpt lat="-43.71517547205799" lon="170.072000762922">
        <ele>1440</ele>
      </trkpt>
      <trkpt lat="-43.71514590883082" lon="170.071951172993">
        <ele>1442</ele>
      </trkpt>
      <trkpt lat="-43.71516593553309" lon="170.071889185581">
        <ele>1445</ele>
      </trkpt>
      <trkpt lat="-43.71518596223536" lon="170.071827198169">
        <ele>1447</ele>
      </trkpt>
      <trkpt lat="-43.71519444244271" lon="170.071778012966">
        <ele>1449</ele>
      </trkpt>
    </trkseg>
  </trk>
</gpx>