<?xml version="1.0" encoding="UTF-8" standalone="yes"?>
<gpx
 version="1.1"
 creator="Generated by MapOut iPhone App. See https://mapout.app"
 xmlns="http://www.topografix.com/GPX/1/1"
 xmlns:xsi="http://www.w3.org/2001/XMLSchema-instance"
 xmlns:gpxx="http://www.garmin.com/xmlschemas/GpxExtensions/v3"
 xmlns:mapout="https://mapout.app/xmlschemas/MapOutExtensions"
 xsi:schemaLocation="http://www.topografix.com/GPX/1/1 https://www.topografix.com/GPX/1/1/gpx.xsd http://www.garmin.com/xmlschemas/GpxExtensions/v3 https://www8.garmin.com/xmlschemas/GpxExtensionsv3.xsd https://mapout.app/xmlschemas/MapOutExtensions https://mapout.app/xmlschemas/MapOutExtensions.xsd">
  <metadata>
    <name>Waiheke Island Walk</name>
    <author><name>iPhone</name></author>
    <time>2026-02-19T18:48:54Z</time>
    <bounds minlat="-36.82207324051116" minlon="175.037910067452" maxlat="-36.78795727636849" maxlon="175.087834255197"/>
  </metadata>
  <wpt lat="-36.81495086354522" lon="175.082942517174">
    <ele>145</ele>
    <name>Batch Winery</name>
    <sym>Waypoint</sym>
    <extensions>
      <mapout:extension>
        <mapout:color>FF2E1B</mapout:color>
      </mapout:extension>
    </extensions>
  </wpt>
  <trk>
    <name>Hiking Route TAH</name>
    <desc>Waiheke</desc>
    <trkseg>
      <trkpt lat="-36.80256746921027" lon="175.06009514727">
        <ele>11</ele>
      </trkpt>
      <trkpt lat="-36.80264638565707" lon="175.060375739081">
        <ele>10</ele>
      </trkpt>
      <trkpt lat="-36.80264638565707" lon="175.060375739081">
        <ele>10</ele>
      </trkpt>
      <trkpt lat="-36.80270837306885" lon="175.060369063513">
        <ele>9</ele>
      </trkpt>
      <trkpt lat="-36.80277512874309" lon="175.060385275606">
        <ele>9</ele>
      </trkpt>
      <trkpt lat="-36.80377455655159" lon="175.060893572382">
        <ele>3</ele>
      </trkpt>
      <trkpt lat="-36.80417699790197" lon="175.06107285905">
        <ele>4</ele>
      </trkpt>
      <trkpt lat="-36.80433625786763" lon="175.061137707419">
        <ele>5</ele>
      </trkpt>
      <trkpt lat="-36.80433625786763" lon="175.061137707419">
        <ele>5</ele>
      </trkpt>
      <trkpt lat="-36.80444878886134" lon="175.061178714476">
        <ele>6</ele>
      </trkpt>
      <trkpt lat="-36.80444878886134" lon="175.061178714476">
        <ele>6</ele>
      </trkpt>
      <trkpt lat="-36.80453461758535" lon="175.061206370399">
        <ele>7</ele>
      </trkpt>
      <trkpt lat="-36.80462044630936" lon="175.061234026321">
        <ele>7</ele>
      </trkpt>
      <trkpt lat="-36.80472916269311" lon="175.061248331108">
        <ele>8</ele>
      </trkpt>
      <trkpt lat="-36.80482166698455" lon="175.061234979973">
        <ele>9</ele>
      </trkpt>
      <trkpt lat="-36.80491417127599" lon="175.061221628838">
        <ele>9</ele>
      </trkpt>
      <trkpt lat="-36.80491417127599" lon="175.061221628838">
        <ele>9</ele>
      </trkpt>
      <trkpt lat="-36.80500476826245" lon="175.061198741179">
        <ele>10</ele>
      </trkpt>
      <trkpt lat="-36.80500476826245" lon="175.061198741179">
        <ele>10</ele>
      </trkpt>
      <trkpt lat="-36.80507343124166" lon="175.061277894335">
        <ele>11</ele>
      </trkpt>
      <trkpt lat="-36.80515544535572" lon="175.06133702079">
        <ele>12</ele>
      </trkpt>
      <trkpt lat="-36.80525367156208" lon="175.061296967385">
        <ele>13</ele>
      </trkpt>
      <trkpt lat="-36.80525367156208" lon="175.061296967385">
        <ele>13</ele>
      </trkpt>
      <trkpt lat="-36.80534617585352" lon="175.061254053023">
        <ele>13</ele>
      </trkpt>
      <trkpt lat="-36.80541960709517" lon="175.061157734122">
        <ele>13</ele>
      </trkpt>
      <trkpt lat="-36.80551592599657" lon="175.061066183483">
        <ele>13</ele>
      </trkpt>
      <trkpt lat="-36.80558840358574" lon="175.060986076674">
        <ele>12</ele>
      </trkpt>
      <trkpt lat="-36.80565325195499" lon="175.060938394049">
        <ele>12</ele>
      </trkpt>
      <trkpt lat="-36.80571810032424" lon="175.060891665077">
        <ele>12</ele>
      </trkpt>
      <trkpt lat="-36.80579916078581" lon="175.060805836353">
        <ele>12</ele>
      </trkpt>
      <trkpt lat="-36.80591932099943" lon="175.060776273126">
        <ele>12</ele>
      </trkpt>
      <trkpt lat="-36.80599465954607" lon="175.060783902346">
        <ele>12</ele>
      </trkpt>
      <trkpt lat="-36.8060699980927" lon="175.060792485218">
        <ele>13</ele>
      </trkpt>
      <trkpt lat="-36.80616059507916" lon="175.0608430288">
        <ele>13</ele>
      </trkpt>
      <trkpt lat="-36.80625023841313" lon="175.060894526035">
        <ele>14</ele>
      </trkpt>
      <trkpt lat="-36.80632653061225" lon="175.060950791532">
        <ele>15</ele>
      </trkpt>
      <trkpt lat="-36.80640282281137" lon="175.061007057028">
        <ele>15</ele>
      </trkpt>
      <trkpt lat="-36.80648006866298" lon="175.06109574671">
        <ele>16</ele>
      </trkpt>
      <trkpt lat="-36.80655731451459" lon="175.061184436391">
        <ele>17</ele>
      </trkpt>
      <trkpt lat="-36.80655731451459" lon="175.061184436391">
        <ele>17</ele>
      </trkpt>
      <trkpt lat="-36.80701029944689" lon="175.06173946214">
        <ele>18</ele>
      </trkpt>
      <trkpt lat="-36.80708468434103" lon="175.061793820332">
        <ele>19</ele>
      </trkpt>
      <trkpt lat="-36.80715906923518" lon="175.061849132176">
        <ele>19</ele>
      </trkpt>
      <trkpt lat="-36.80725920274652" lon="175.061914934198">
        <ele>20</ele>
      </trkpt>
      <trkpt lat="-36.80735838260538" lon="175.06198073622">
        <ele>20</ele>
      </trkpt>
      <trkpt lat="-36.80735838260538" lon="175.06198073622">
        <ele>20</ele>
      </trkpt>
      <trkpt lat="-36.80752241083349" lon="175.061990272745">
        <ele>19</ele>
      </trkpt>
      <trkpt lat="-36.80770646576388" lon="175.062050352851">
        <ele>19</ele>
      </trkpt>
      <trkpt lat="-36.80795727636849" lon="175.062113293916">
        <ele>19</ele>
      </trkpt>
      <trkpt lat="-36.80819568949075" lon="175.062139996185">
        <ele>18</ele>
      </trkpt>
      <trkpt lat="-36.80830345222201" lon="175.062089452603">
        <ele>17</ele>
      </trkpt>
      <trkpt lat="-36.80830345222201" lon="175.062089452603">
        <ele>17</ele>
      </trkpt>
      <trkpt lat="-36.80842170513066" lon="175.062107572001">
        <ele>17</ele>
      </trkpt>
      <trkpt lat="-36.80853995803929" lon="175.062126645051">
        <ele>17</ele>
      </trkpt>
      <trkpt lat="-36.80864009155064" lon="175.06213045966">
        <ele>17</ele>
      </trkpt>
      <trkpt lat="-36.80875357619684" lon="175.062111386611">
        <ele>17</ele>
      </trkpt>
      <trkpt lat="-36.80883559031089" lon="175.062079916079">
        <ele>17</ele>
      </trkpt>
      <trkpt lat="-36.80894239938966" lon="175.062002670227">
        <ele>17</ele>
      </trkpt>
      <trkpt lat="-36.8090263208087" lon="175.061910165936">
        <ele>17</ele>
      </trkpt>
      <trkpt lat="-36.80907781804311" lon="175.061812893382">
        <ele>17</ele>
      </trkpt>
      <trkpt lat="-36.80907781804311" lon="175.061812893382">
        <ele>17</ele>
      </trkpt>
      <trkpt lat="-36.80910833492275" lon="175.061723250048">
        <ele>18</ele>
      </trkpt>
      <trkpt lat="-36.80912073240511" lon="175.061613580011">
        <ele>19</ele>
      </trkpt>
      <trkpt lat="-36.80911977875262" lon="175.061548731642">
        <ele>20</ele>
      </trkpt>
      <trkpt lat="-36.80911787144765" lon="175.061484836925">
        <ele>20</ele>
      </trkpt>
      <trkpt lat="-36.80909403013542" lon="175.061367537669">
        <ele>22</ele>
      </trkpt>
      <trkpt lat="-36.80904730116346" lon="175.061261682243">
        <ele>23</ele>
      </trkpt>
      <trkpt lat="-36.80899485027656" lon="175.061178714476">
        <ele>23</ele>
      </trkpt>
      <trkpt lat="-36.80893381651726" lon="175.061108144192">
        <ele>23</ele>
      </trkpt>
      <trkpt lat="-36.80866393286286" lon="175.060816326531">
        <ele>22</ele>
      </trkpt>
      <trkpt lat="-36.80859908449361" lon="175.060753385466">
        <ele>22</ele>
      </trkpt>
      <trkpt lat="-36.80853328247187" lon="175.060690444402">
        <ele>22</ele>
      </trkpt>
      <trkpt lat="-36.80844745374786" lon="175.060618920465">
        <ele>22</ele>
      </trkpt>
      <trkpt lat="-36.80836067137135" lon="175.060547396529">
        <ele>22</ele>
      </trkpt>
      <trkpt lat="-36.80825100133512" lon="175.06044821667">
        <ele>23</ele>
      </trkpt>
      <trkpt lat="-36.80818329200839" lon="175.060361434293">
        <ele>23</ele>
      </trkpt>
      <trkpt lat="-36.80813560938395" lon="175.060288956704">
        <ele>24</ele>
      </trkpt>
      <trkpt lat="-36.80798111768072" lon="175.06">
        <ele>26</ele>
      </trkpt>
      <trkpt lat="-36.80798111768072" lon="175.06">
        <ele>26</ele>
      </trkpt>
      <trkpt lat="-36.8075739080679" lon="175.059264733931">
        <ele>37</ele>
      </trkpt>
      <trkpt lat="-36.80754243753577" lon="175.059200839214">
        <ele>38</ele>
      </trkpt>
      <trkpt lat="-36.80751096700362" lon="175.059136944497">
        <ele>39</ele>
      </trkpt>
      <trkpt lat="-36.80747282090407" lon="175.059039671944">
        <ele>38</ele>
      </trkpt>
      <trkpt lat="-36.80743372115202" lon="175.058943353042">
        <ele>37</ele>
      </trkpt>
      <trkpt lat="-36.80740701888232" lon="175.058836543963">
        <ele>37</ele>
      </trkpt>
      <trkpt lat="-36.80738031661263" lon="175.058729734885">
        <ele>37</ele>
      </trkpt>
      <trkpt lat="-36.80736410452032" lon="175.058620064848">
        <ele>36</ele>
      </trkpt>
      <trkpt lat="-36.80736601182529" lon="175.058526606904">
        <ele>37</ele>
      </trkpt>
      <trkpt lat="-36.80736696547778" lon="175.058433148961">
        <ele>37</ele>
      </trkpt>
      <trkpt lat="-36.80737840930765" lon="175.058347320237">
        <ele>38</ele>
      </trkpt>
      <trkpt lat="-36.80740415792486" lon="175.058228113675">
        <ele>39</ele>
      </trkpt>
      <trkpt lat="-36.80747472820904" lon="175.057981117681">
        <ele>41</ele>
      </trkpt>
      <trkpt lat="-36.80762445164982" lon="175.05758249094">
        <ele>45</ele>
      </trkpt>
      <trkpt lat="-36.80766450505436" lon="175.057500476826">
        <ele>46</ele>
      </trkpt>
      <trkpt lat="-36.8077045584589" lon="175.057419416365">
        <ele>46</ele>
      </trkpt>
      <trkpt lat="-36.80775891665078" lon="175.057325958421">
        <ele>47</ele>
      </trkpt>
      <trkpt lat="-36.80781136753767" lon="175.057240129697">
        <ele>48</ele>
      </trkpt>
      <trkpt lat="-36.80787144764448" lon="175.057158115583">
        <ele>49</ele>
      </trkpt>
      <trkpt lat="-36.80813751668892" lon="175.056858668701">
        <ele>53</ele>
      </trkpt>
      <trkpt lat="-36.80862864772077" lon="175.056379935152">
        <ele>56</ele>
      </trkpt>
      <trkpt lat="-36.8087049399199" lon="175.056309364867">
        <ele>56</ele>
      </trkpt>
      <trkpt lat="-36.80878027846653" lon="175.056238794583">
        <ele>56</ele>
      </trkpt>
      <trkpt lat="-36.80886706084303" lon="175.056193972916">
        <ele>57</ele>
      </trkpt>
      <trkpt lat="-36.80890806790006" lon="175.056182529086">
        <ele>57</ele>
      </trkpt>
      <trkpt lat="-36.80899008201412" lon="175.056190158306">
        <ele>58</ele>
      </trkpt>
      <trkpt lat="-36.80899008201412" lon="175.056190158306">
        <ele>58</ele>
      </trkpt>
      <trkpt lat="-36.80901106236887" lon="175.056119588022">
        <ele>58</ele>
      </trkpt>
      <trkpt lat="-36.80903108907115" lon="175.05604997139">
        <ele>58</ele>
      </trkpt>
      <trkpt lat="-36.80904062559603" lon="175.055995613199">
        <ele>58</ele>
      </trkpt>
      <trkpt lat="-36.80904253290101" lon="175.055902155255">
        <ele>57</ele>
      </trkpt>
      <trkpt lat="-36.80904444020599" lon="175.055808697311">
        <ele>57</ele>
      </trkpt>
      <trkpt lat="-36.80904444020599" lon="175.055808697311">
        <ele>57</ele>
      </trkpt>
      <trkpt lat="-36.80886515353805" lon="175.053990082014">
        <ele>52</ele>
      </trkpt>
      <trkpt lat="-36.80885370970818" lon="175.05390425329">
        <ele>52</ele>
      </trkpt>
      <trkpt lat="-36.80884131222583" lon="175.053818424566">
        <ele>53</ele>
      </trkpt>
      <trkpt lat="-36.808826053786" lon="175.05373927141">
        <ele>53</ele>
      </trkpt>
      <trkpt lat="-36.80880984169369" lon="175.053661071905">
        <ele>53</ele>
      </trkpt>
      <trkpt lat="-36.80880984169369" lon="175.053661071905">
        <ele>53</ele>
      </trkpt>
      <trkpt lat="-36.80877837116155" lon="175.053565706657">
        <ele>53</ele>
      </trkpt>
      <trkpt lat="-36.80873259584208" lon="175.05346748045">
        <ele>53</ele>
      </trkpt>
      <trkpt lat="-36.80867919130269" lon="175.053379744421">
        <ele>53</ele>
      </trkpt>
      <trkpt lat="-36.80862483311082" lon="175.053292962045">
        <ele>54</ele>
      </trkpt>
      <trkpt lat="-36.80839404920847" lon="175.052945832539">
        <ele>55</ele>
      </trkpt>
      <trkpt lat="-36.80756913980546" lon="175.051784283807">
        <ele>49</ele>
      </trkpt>
      <trkpt lat="-36.80753194735838" lon="175.051719435438">
        <ele>50</ele>
      </trkpt>
      <trkpt lat="-36.80749475491131" lon="175.051654587068">
        <ele>51</ele>
      </trkpt>
      <trkpt lat="-36.80747186725158" lon="175.051580202174">
        <ele>50</ele>
      </trkpt>
      <trkpt lat="-36.80744897959184" lon="175.05150581728">
        <ele>50</ele>
      </trkpt>
      <trkpt lat="-36.80744897959184" lon="175.05150581728">
        <ele>50</ele>
      </trkpt>
      <trkpt lat="-36.80743658210948" lon="175.051424756819">
        <ele>49</ele>
      </trkpt>
      <trkpt lat="-36.8074260919321" lon="175.051177760824">
        <ele>49</ele>
      </trkpt>
      <trkpt lat="-36.80742895288957" lon="175.051097654015">
        <ele>49</ele>
      </trkpt>
      <trkpt lat="-36.80743086019455" lon="175.051017547206">
        <ele>49</ele>
      </trkpt>
      <trkpt lat="-36.80744039671944" lon="175.050915506389">
        <ele>49</ele>
      </trkpt>
      <trkpt lat="-36.80744039671944" lon="175.050915506389">
        <ele>49</ele>
      </trkpt>
      <trkpt lat="-36.80746233072669" lon="175.050802975396">
        <ele>49</ele>
      </trkpt>
      <trkpt lat="-36.80751096700362" lon="175.05068567614">
        <ele>49</ele>
      </trkpt>
      <trkpt lat="-36.80756055693305" lon="175.05060938394">
        <ele>49</ele>
      </trkpt>
      <trkpt lat="-36.80766736601183" lon="175.050500667557">
        <ele>48</ele>
      </trkpt>
      <trkpt lat="-36.80777322143811" lon="175.050392904825">
        <ele>47</ele>
      </trkpt>
      <trkpt lat="-36.80787812321191" lon="175.050293724967">
        <ele>45</ele>
      </trkpt>
      <trkpt lat="-36.80798207133321" lon="175.05019549876">
        <ele>44</ele>
      </trkpt>
      <trkpt lat="-36.80807743658211" lon="175.050089643334">
        <ele>42</ele>
      </trkpt>
      <trkpt lat="-36.80817280183101" lon="175.04998474156">
        <ele>41</ele>
      </trkpt>
      <trkpt lat="-36.80846843410261" lon="175.04959755865">
        <ele>36</ele>
      </trkpt>
      <trkpt lat="-36.80852565325196" lon="175.049515544536">
        <ele>35</ele>
      </trkpt>
      <trkpt lat="-36.80857524318139" lon="175.049417318329">
        <ele>34</ele>
      </trkpt>
      <trkpt lat="-36.80860289910357" lon="175.049308601945">
        <ele>34</ele>
      </trkpt>
      <trkpt lat="-36.80860576006103" lon="175.049197024604">
        <ele>34</ele>
      </trkpt>
      <trkpt lat="-36.80843887087546" lon="175.048458897578">
        <ele>36</ele>
      </trkpt>
      <trkpt lat="-36.80842173735877" lon="175.048374968177">
        <ele>36</ele>
      </trkpt>
      <trkpt lat="-36.80842173738644" lon="175.048374968313">
        <ele>36</ele>
      </trkpt>
      <trkpt lat="-36.80849227541484" lon="175.048357810414">
        <ele>35</ele>
      </trkpt>
      <trkpt lat="-36.80872401296968" lon="175.048322525272">
        <ele>31</ele>
      </trkpt>
      <trkpt lat="-36.80885275605569" lon="175.048277703605">
        <ele>28</ele>
      </trkpt>
      <trkpt lat="-36.80889185580774" lon="175.048219530803">
        <ele>28</ele>
      </trkpt>
      <trkpt lat="-36.80912073240511" lon="175.047813274843">
        <ele>23</ele>
      </trkpt>
      <trkpt lat="-36.80925424375358" lon="175.047423230975">
        <ele>20</ele>
      </trkpt>
      <trkpt lat="-36.8092962044631" lon="175.047028418844">
        <ele>17</ele>
      </trkpt>
      <trkpt lat="-36.80927522410834" lon="175.046607858097">
        <ele>15</ele>
      </trkpt>
      <trkpt lat="-36.80928189967576" lon="175.046255960328">
        <ele>12</ele>
      </trkpt>
      <trkpt lat="-36.80947549113103" lon="175.045488270074">
        <ele>9</ele>
      </trkpt>
      <trkpt lat="-36.80954224680526" lon="175.045344268549">
        <ele>9</ele>
      </trkpt>
      <trkpt lat="-36.80967957276368" lon="175.045274651917">
        <ele>10</ele>
      </trkpt>
      <trkpt lat="-36.80983024985695" lon="175.045224108335">
        <ele>11</ele>
      </trkpt>
      <trkpt lat="-36.81001049017738" lon="175.045089643334">
        <ele>12</ele>
      </trkpt>
      <trkpt lat="-36.81017833301545" lon="175.045100133511">
        <ele>17</ele>
      </trkpt>
      <trkpt lat="-36.81029849322907" lon="175.044799732977">
        <ele>21</ele>
      </trkpt>
      <trkpt lat="-36.81031947358383" lon="175.044472630174">
        <ele>24</ele>
      </trkpt>
      <trkpt lat="-36.81040148769789" lon="175.044124547015">
        <ele>28</ele>
      </trkpt>
      <trkpt lat="-36.81056456227351" lon="175.04409212283">
        <ele>33</ele>
      </trkpt>
      <trkpt lat="-36.81083063131795" lon="175.044225634179">
        <ele>40</ele>
      </trkpt>
      <trkpt lat="-36.81123211901583" lon="175.044229448789">
        <ele>40</ele>
      </trkpt>
      <trkpt lat="-36.81123211901583" lon="175.044229448789">
        <ele>40</ele>
      </trkpt>
      <trkpt lat="-36.81128933816517" lon="175.044424947549">
        <ele>40</ele>
      </trkpt>
      <trkpt lat="-36.81132843791723" lon="175.044640473012">
        <ele>41</ele>
      </trkpt>
      <trkpt lat="-36.811347510967" lon="175.044858859432">
        <ele>42</ele>
      </trkpt>
      <trkpt lat="-36.81136086210185" lon="175.045167842838">
        <ele>44</ele>
      </trkpt>
      <trkpt lat="-36.81140377646386" lon="175.045419607095">
        <ele>47</ele>
      </trkpt>
      <trkpt lat="-36.81147530040054" lon="175.045641808125">
        <ele>51</ele>
      </trkpt>
      <trkpt lat="-36.81156303642953" lon="175.045820141141">
        <ele>55</ele>
      </trkpt>
      <trkpt lat="-36.81183387373641" lon="175.046255006676">
        <ele>63</ele>
      </trkpt>
      <trkpt lat="-36.81227922944879" lon="175.046638374976">
        <ele>80</ele>
      </trkpt>
      <trkpt lat="-36.81268930001907" lon="175.047002670227">
        <ele>90</ele>
      </trkpt>
      <trkpt lat="-36.81296299828342" lon="175.047232500477">
        <ele>95</ele>
      </trkpt>
      <trkpt lat="-36.81324623307267" lon="175.047343124166">
        <ele>101</ele>
      </trkpt>
      <trkpt lat="-36.81365058172802" lon="175.047477589167">
        <ele>101</ele>
      </trkpt>
      <trkpt lat="-36.81399008201412" lon="175.047683578104">
        <ele>98</ele>
      </trkpt>
      <trkpt lat="-36.81399008201412" lon="175.047683578104">
        <ele>98</ele>
      </trkpt>
      <trkpt lat="-36.81422277322144" lon="175.047849513637">
        <ele>97</ele>
      </trkpt>
      <trkpt lat="-36.81484932290674" lon="175.04824527942">
        <ele>99</ele>
      </trkpt>
      <trkpt lat="-36.8150781995041" lon="175.048442685485">
        <ele>99</ele>
      </trkpt>
      <trkpt lat="-36.81526416173946" lon="175.048636276941">
        <ele>96</ele>
      </trkpt>
      <trkpt lat="-36.81555311844364" lon="175.048966240702">
        <ele>95</ele>
      </trkpt>
      <trkpt lat="-36.81563131794774" lon="175.04908830822">
        <ele>95</ele>
      </trkpt>
      <trkpt lat="-36.81574575624643" lon="175.049282853328">
        <ele>96</ele>
      </trkpt>
      <trkpt lat="-36.81583063131795" lon="175.049458325386">
        <ele>95</ele>
      </trkpt>
      <trkpt lat="-36.8160175472058" lon="175.049967575815">
        <ele>89</ele>
      </trkpt>
      <trkpt lat="-36.81605378600038" lon="175.050029563227">
        <ele>88</ele>
      </trkpt>
      <trkpt lat="-36.81609288575243" lon="175.050061033759">
        <ele>88</ele>
      </trkpt>
      <trkpt lat="-36.81609288575243" lon="175.050061033759">
        <ele>88</ele>
      </trkpt>
      <trkpt lat="-36.81616154873164" lon="175.049926568758">
        <ele>89</ele>
      </trkpt>
      <trkpt lat="-36.81625596032806" lon="175.049763494183">
        <ele>91</ele>
      </trkpt>
      <trkpt lat="-36.81645527369827" lon="175.049524127408">
        <ele>94</ele>
      </trkpt>
      <trkpt lat="-36.8166870112531" lon="175.049261872973">
        <ele>97</ele>
      </trkpt>
      <trkpt lat="-36.81676139614725" lon="175.049158878505">
        <ele>97</ele>
      </trkpt>
      <trkpt lat="-36.81687106618349" lon="175.048987221057">
        <ele>95</ele>
      </trkpt>
      <trkpt lat="-36.81693782185772" lon="175.048860385276">
        <ele>94</ele>
      </trkpt>
      <trkpt lat="-36.81702365058173" lon="175.04866679382">
        <ele>93</ele>
      </trkpt>
      <trkpt lat="-36.81706370398627" lon="175.048532328819">
        <ele>92</ele>
      </trkpt>
      <trkpt lat="-36.8171047110433" lon="175.048348273889">
        <ele>91</ele>
      </trkpt>
      <trkpt lat="-36.81727922944879" lon="175.047431813847">
        <ele>81</ele>
      </trkpt>
      <trkpt lat="-36.81732786572573" lon="175.047073240511">
        <ele>76</ele>
      </trkpt>
      <trkpt lat="-36.81733454129316" lon="175.046893000191">
        <ele>74</ele>
      </trkpt>
      <trkpt lat="-36.81731165363342" lon="175.045964142666">
        <ele>70</ele>
      </trkpt>
      <trkpt lat="-36.81728876597368" lon="175.045687583445">
        <ele>71</ele>
      </trkpt>
      <trkpt lat="-36.8171829105474" lon="175.044918939538">
        <ele>75</ele>
      </trkpt>
      <trkpt lat="-36.81711806217815" lon="175.044251382796">
        <ele>78</ele>
      </trkpt>
      <trkpt lat="-36.81707896242609" lon="175.043997711234">
        <ele>76</ele>
      </trkpt>
      <trkpt lat="-36.81701602136182" lon="175.043745946977">
        <ele>74</ele>
      </trkpt>
      <trkpt lat="-36.81672992561511" lon="175.042868586687">
        <ele>68</ele>
      </trkpt>
      <trkpt lat="-36.81658020217433" lon="175.042455655159">
        <ele>63</ele>
      </trkpt>
      <trkpt lat="-36.81641045203128" lon="175.041901583063">
        <ele>64</ele>
      </trkpt>
      <trkpt lat="-36.81637516688919" lon="175.041645050544">
        <ele>65</ele>
      </trkpt>
      <trkpt lat="-36.8163570474919" lon="175.041323669655">
        <ele>69</ele>
      </trkpt>
      <trkpt lat="-36.81635895479688" lon="175.041003242418">
        <ele>73</ele>
      </trkpt>
      <trkpt lat="-36.8163913789815" lon="175.040606522983">
        <ele>74</ele>
      </trkpt>
      <trkpt lat="-36.81641998855617" lon="175.040442494755">
        <ele>74</ele>
      </trkpt>
      <trkpt lat="-36.81646576387565" lon="175.04026034713">
        <ele>75</ele>
      </trkpt>
      <trkpt lat="-36.81656399008202" lon="175.04">
        <ele>77</ele>
      </trkpt>
      <trkpt lat="-36.81656399008202" lon="175.04">
        <ele>77</ele>
      </trkpt>
      <trkpt lat="-36.81704176997902" lon="175.038854663361">
        <ele>65</ele>
      </trkpt>
      <trkpt lat="-36.81714381079535" lon="175.038574289529">
        <ele>64</ele>
      </trkpt>
      <trkpt lat="-36.81714381079535" lon="175.038574289529">
        <ele>64</ele>
      </trkpt>
      <trkpt lat="-36.81722201029945" lon="175.038255769598">
        <ele>64</ele>
      </trkpt>
      <trkpt lat="-36.81729624661102" lon="175.037910067452">
        <ele>64</ele>
      </trkpt>
      <trkpt lat="-36.81729734884608" lon="175.037910547397">
        <ele>64</ele>
      </trkpt>
      <trkpt lat="-36.8173564753004" lon="175.037936296014">
        <ele>65</ele>
      </trkpt>
      <trkpt lat="-36.81742895288957" lon="175.03805359527">
        <ele>66</ele>
      </trkpt>
      <trkpt lat="-36.81755006675568" lon="175.03849036811">
        <ele>66</ele>
      </trkpt>
      <trkpt lat="-36.81770646576388" lon="175.038644859813">
        <ele>60</ele>
      </trkpt>
      <trkpt lat="-36.81795346175853" lon="175.0387354568">
        <ele>51</ele>
      </trkpt>
      <trkpt lat="-36.81808220484456" lon="175.038746900629">
        <ele>47</ele>
      </trkpt>
      <trkpt lat="-36.818217623498" lon="175.038816517261">
        <ele>42</ele>
      </trkpt>
      <trkpt lat="-36.81830345222201" lon="175.038819378219">
        <ele>39</ele>
      </trkpt>
      <trkpt lat="-36.81866297921038" lon="175.038956704177">
        <ele>26</ele>
      </trkpt>
      <trkpt lat="-36.8189128361625" lon="175.039009155064">
        <ele>17</ele>
      </trkpt>
      <trkpt lat="-36.81915315658974" lon="175.03912263971">
        <ele>8</ele>
      </trkpt>
      <trkpt lat="-36.81904539385848" lon="175.03934102613">
        <ele>13</ele>
      </trkpt>
      <trkpt lat="-36.81876597367919" lon="175.039696738509">
        <ele>22</ele>
      </trkpt>
      <trkpt lat="-36.81876120541675" lon="175.039836925424">
        <ele>22</ele>
      </trkpt>
      <trkpt lat="-36.81871638374977" lon="175.039851230212">
        <ele>23</ele>
      </trkpt>
      <trkpt lat="-36.81870303261492" lon="175.039880793439">
        <ele>24</ele>
      </trkpt>
      <trkpt lat="-36.81866774747282" lon="175.04">
        <ele>25</ele>
      </trkpt>
      <trkpt lat="-36.81866774747282" lon="175.04">
        <ele>25</ele>
      </trkpt>
      <trkpt lat="-36.8186439061606" lon="175.040082014114">
        <ele>25</ele>
      </trkpt>
      <trkpt lat="-36.81865153538051" lon="175.040104901774">
        <ele>24</ele>
      </trkpt>
      <trkpt lat="-36.81862292580584" lon="175.040160213618">
        <ele>25</ele>
      </trkpt>
      <trkpt lat="-36.81860194545108" lon="175.04024508869">
        <ele>25</ele>
      </trkpt>
      <trkpt lat="-36.81858096509632" lon="175.040329963761">
        <ele>25</ele>
      </trkpt>
      <trkpt lat="-36.81862101850086" lon="175.040667556742">
        <ele>22</ele>
      </trkpt>
      <trkpt lat="-36.81860576006103" lon="175.040734312417">
        <ele>22</ele>
      </trkpt>
      <trkpt lat="-36.81859050162121" lon="175.040802021743">
        <ele>22</ele>
      </trkpt>
      <trkpt lat="-36.818564753004" lon="175.040840167843">
        <ele>23</ele>
      </trkpt>
      <trkpt lat="-36.81861148197597" lon="175.040885943162">
        <ele>21</ele>
      </trkpt>
      <trkpt lat="-36.8185828724013" lon="175.040970818234">
        <ele>21</ele>
      </trkpt>
      <trkpt lat="-36.81855330917414" lon="175.041055693305">
        <ele>21</ele>
      </trkpt>
      <trkpt lat="-36.81855998474156" lon="175.041154873164">
        <ele>20</ele>
      </trkpt>
      <trkpt lat="-36.81853518977685" lon="175.041246423803">
        <ele>20</ele>
      </trkpt>
      <trkpt lat="-36.81850944115964" lon="175.041337974442">
        <ele>20</ele>
      </trkpt>
      <trkpt lat="-36.81846175853519" lon="175.041416173946">
        <ele>20</ele>
      </trkpt>
      <trkpt lat="-36.81841312225825" lon="175.041495327103">
        <ele>21</ele>
      </trkpt>
      <trkpt lat="-36.81840835399581" lon="175.04154777799">
        <ele>20</ele>
      </trkpt>
      <trkpt lat="-36.81835018119398" lon="175.041600228877">
        <ele>21</ele>
      </trkpt>
      <trkpt lat="-36.81837497615869" lon="175.041668891856">
        <ele>20</ele>
      </trkpt>
      <trkpt lat="-36.8183997711234" lon="175.041737554835">
        <ele>19</ele>
      </trkpt>
      <trkpt lat="-36.818348273889" lon="175.041795727637">
        <ele>20</ele>
      </trkpt>
      <trkpt lat="-36.81843887087545" lon="175.041859622354">
        <ele>19</ele>
      </trkpt>
      <trkpt lat="-36.81849036810986" lon="175.04197692161">
        <ele>17</ele>
      </trkpt>
      <trkpt lat="-36.81850085828724" lon="175.042049399199">
        <ele>17</ele>
      </trkpt>
      <trkpt lat="-36.81851134846463" lon="175.042121876788">
        <ele>17</ele>
      </trkpt>
      <trkpt lat="-36.81854377264925" lon="175.042198168987">
        <ele>16</ele>
      </trkpt>
      <trkpt lat="-36.81856284569903" lon="175.042260156399">
        <ele>16</ele>
      </trkpt>
      <trkpt lat="-36.81858096509632" lon="175.042323097463">
        <ele>16</ele>
      </trkpt>
      <trkpt lat="-36.81860671371353" lon="175.042300209804">
        <ele>15</ele>
      </trkpt>
      <trkpt lat="-36.81863436963571" lon="175.042380316613">
        <ele>15</ele>
      </trkpt>
      <trkpt lat="-36.8186610719054" lon="175.042460423422">
        <ele>14</ele>
      </trkpt>
      <trkpt lat="-36.8186610719054" lon="175.042512874309">
        <ele>14</ele>
      </trkpt>
      <trkpt lat="-36.81864009155064" lon="175.042535761968">
        <ele>15</ele>
      </trkpt>
      <trkpt lat="-36.81854377264925" lon="175.042515735266">
        <ele>17</ele>
      </trkpt>
      <trkpt lat="-36.8185046728972" lon="175.042539576578">
        <ele>18</ele>
      </trkpt>
      <trkpt lat="-36.81852756055694" lon="175.042587259203">
        <ele>18</ele>
      </trkpt>
      <trkpt lat="-36.81852565325196" lon="175.04262063704">
        <ele>19</ele>
      </trkpt>
      <trkpt lat="-36.81863723059318" lon="175.042690253672">
        <ele>18</ele>
      </trkpt>
      <trkpt lat="-36.81859526988366" lon="175.042719816899">
        <ele>20</ele>
      </trkpt>
      <trkpt lat="-36.81864676711807" lon="175.042731260729">
        <ele>19</ele>
      </trkpt>
      <trkpt lat="-36.81866774747282" lon="175.042811367538">
        <ele>20</ele>
      </trkpt>
      <trkpt lat="-36.81868872782758" lon="175.042891474347">
        <ele>21</ele>
      </trkpt>
      <trkpt lat="-36.81878123211902" lon="175.042957276368">
        <ele>20</ele>
      </trkpt>
      <trkpt lat="-36.81887278275796" lon="175.04302307839">
        <ele>19</ele>
      </trkpt>
      <trkpt lat="-36.81891474346748" lon="175.043137516689">
        <ele>19</ele>
      </trkpt>
      <trkpt lat="-36.818956704177" lon="175.04325290864">
        <ele>20</ele>
      </trkpt>
      <trkpt lat="-36.81890139233263" lon="175.043288193782">
        <ele>22</ele>
      </trkpt>
      <trkpt lat="-36.81894049208469" lon="175.043343505627">
        <ele>22</ele>
      </trkpt>
      <trkpt lat="-36.81902918176617" lon="175.043401678428">
        <ele>20</ele>
      </trkpt>
      <trkpt lat="-36.81902822811368" lon="175.043498950982">
        <ele>22</ele>
      </trkpt>
      <trkpt lat="-36.81902727446119" lon="175.043597177189">
        <ele>25</ele>
      </trkpt>
      <trkpt lat="-36.81906446690826" lon="175.043661071905">
        <ele>25</ele>
      </trkpt>
      <trkpt lat="-36.81903871829105" lon="175.043754529849">
        <ele>28</ele>
      </trkpt>
      <trkpt lat="-36.81901296967386" lon="175.043847987793">
        <ele>30</ele>
      </trkpt>
      <trkpt lat="-36.8190434865535" lon="175.043945260347">
        <ele>31</ele>
      </trkpt>
      <trkpt lat="-36.81907400343315" lon="175.044043486554">
        <ele>33</ele>
      </trkpt>
      <trkpt lat="-36.81907114247569" lon="175.044080679001">
        <ele>34</ele>
      </trkpt>
      <trkpt lat="-36.81918367346939" lon="175.044192256342">
        <ele>32</ele>
      </trkpt>
      <trkpt lat="-36.81924279992371" lon="175.044229448789">
        <ele>30</ele>
      </trkpt>
      <trkpt lat="-36.81932481403776" lon="175.04432576769">
        <ele>27</ele>
      </trkpt>
      <trkpt lat="-36.81940682815183" lon="175.044423040244">
        <ele>24</ele>
      </trkpt>
      <trkpt lat="-36.81944783520886" lon="175.044484074003">
        <ele>23</ele>
      </trkpt>
      <trkpt lat="-36.81948788861339" lon="175.044546061415">
        <ele>22</ele>
      </trkpt>
      <trkpt lat="-36.8194869349609" lon="175.04456322716">
        <ele>22</ele>
      </trkpt>
      <trkpt lat="-36.81953557123784" lon="175.044596604997">
        <ele>20</ele>
      </trkpt>
      <trkpt lat="-36.81961281708946" lon="175.04460900248">
        <ele>18</ele>
      </trkpt>
      <trkpt lat="-36.81967480450124" lon="175.044708182338">
        <ele>16</ele>
      </trkpt>
      <trkpt lat="-36.81973679191303" lon="175.044807362197">
        <ele>14</ele>
      </trkpt>
      <trkpt lat="-36.81979877932481" lon="175.044821666985">
        <ele>12</ele>
      </trkpt>
      <trkpt lat="-36.8198607667366" lon="175.044836925424">
        <ele>10</ele>
      </trkpt>
      <trkpt lat="-36.8198960518787" lon="175.044852183864">
        <ele>9</ele>
      </trkpt>
      <trkpt lat="-36.82" lon="175.044931337021">
        <ele>5</ele>
      </trkpt>
      <trkpt lat="-36.82" lon="175.044931337021">
        <ele>5</ele>
      </trkpt>
      <trkpt lat="-36.82005149723441" lon="175.044972344078">
        <ele>5</ele>
      </trkpt>
      <trkpt lat="-36.82006198741178" lon="175.045017165745">
        <ele>5</ele>
      </trkpt>
      <trkpt lat="-36.82005817280183" lon="175.045024794965">
        <ele>5</ele>
      </trkpt>
      <trkpt lat="-36.8200696166317" lon="175.045057219149">
        <ele>5</ele>
      </trkpt>
      <trkpt lat="-36.82007533854663" lon="175.045118252909">
        <ele>4</ele>
      </trkpt>
      <trkpt lat="-36.82008392141903" lon="175.045129696739">
        <ele>4</ele>
      </trkpt>
      <trkpt lat="-36.82016116727065" lon="175.045143047873">
        <ele>4</ele>
      </trkpt>
      <trkpt lat="-36.82016307457562" lon="175.045151630746">
        <ele>4</ele>
      </trkpt>
      <trkpt lat="-36.82015925996566" lon="175.045160213618">
        <ele>4</ele>
      </trkpt>
      <trkpt lat="-36.82008582872401" lon="175.045182147625">
        <ele>4</ele>
      </trkpt>
      <trkpt lat="-36.82" lon="175.045172611101">
        <ele>4</ele>
      </trkpt>
      <trkpt lat="-36.82" lon="175.045172611101">
        <ele>4</ele>
      </trkpt>
      <trkpt lat="-36.81996852946786" lon="175.045194545108">
        <ele>5</ele>
      </trkpt>
      <trkpt lat="-36.81994468815564" lon="175.045197406065">
        <ele>6</ele>
      </trkpt>
      <trkpt lat="-36.81991893953843" lon="175.045185962235">
        <ele>7</ele>
      </trkpt>
      <trkpt lat="-36.81983311081442" lon="175.04518786954">
        <ele>9</ele>
      </trkpt>
      <trkpt lat="-36.81975395765783" lon="175.045159259966">
        <ele>11</ele>
      </trkpt>
      <trkpt lat="-36.81966812893382" lon="175.045167842838">
        <ele>14</ele>
      </trkpt>
      <trkpt lat="-36.8195823002098" lon="175.045181193973">
        <ele>16</ele>
      </trkpt>
      <trkpt lat="-36.81955273698264" lon="175.045192637803">
        <ele>17</ele>
      </trkpt>
      <trkpt lat="-36.81951745184055" lon="175.045227922945">
        <ele>17</ele>
      </trkpt>
      <trkpt lat="-36.8195050543582" lon="175.045249856952">
        <ele>17</ele>
      </trkpt>
      <trkpt lat="-36.81950696166317" lon="175.045302307839">
        <ele>17</ele>
      </trkpt>
      <trkpt lat="-36.81952984932291" lon="175.045317566279">
        <ele>16</ele>
      </trkpt>
      <trkpt lat="-36.81952412740797" lon="175.045435819188">
        <ele>15</ele>
      </trkpt>
      <trkpt lat="-36.81947167652108" lon="175.045539767309">
        <ele>15</ele>
      </trkpt>
      <trkpt lat="-36.81941922563418" lon="175.045644669083">
        <ele>16</ele>
      </trkpt>
      <trkpt lat="-36.81937917222965" lon="175.045641808125">
        <ele>17</ele>
      </trkpt>
      <trkpt lat="-36.81931623116537" lon="175.04590024795">
        <ele>16</ele>
      </trkpt>
      <trkpt lat="-36.81932958230021" lon="175.045953652489">
        <ele>16</ele>
      </trkpt>
      <trkpt lat="-36.81929906542057" lon="175.046007057028">
        <ele>17</ele>
      </trkpt>
      <trkpt lat="-36.81929715811558" lon="175.046041388518">
        <ele>17</ele>
      </trkpt>
      <trkpt lat="-36.81926473393096" lon="175.046085256533">
        <ele>18</ele>
      </trkpt>
      <trkpt lat="-36.81924279992371" lon="175.046168224299">
        <ele>19</ele>
      </trkpt>
      <trkpt lat="-36.81922086591646" lon="175.046251192066">
        <ele>20</ele>
      </trkpt>
      <trkpt lat="-36.81921895861149" lon="175.04631413313">
        <ele>20</ele>
      </trkpt>
      <trkpt lat="-36.81917795155446" lon="175.046351325577">
        <ele>22</ele>
      </trkpt>
      <trkpt lat="-36.81914171275987" lon="175.046421895861">
        <ele>23</ele>
      </trkpt>
      <trkpt lat="-36.81915220293725" lon="175.046493419798">
        <ele>23</ele>
      </trkpt>
      <trkpt lat="-36.81916173946214" lon="175.046565897387">
        <ele>23</ele>
      </trkpt>
      <trkpt lat="-36.81909879839787" lon="175.046606904444">
        <ele>25</ele>
      </trkpt>
      <trkpt lat="-36.81912645432005" lon="175.046670799161">
        <ele>25</ele>
      </trkpt>
      <trkpt lat="-36.81915411024223" lon="175.046734693878">
        <ele>25</ele>
      </trkpt>
      <trkpt lat="-36.81916460041961" lon="175.046801449552">
        <ele>25</ele>
      </trkpt>
      <trkpt lat="-36.81917509059699" lon="175.046869158879">
        <ele>25</ele>
      </trkpt>
      <trkpt lat="-36.81932290673279" lon="175.047140949838">
        <ele>23</ele>
      </trkpt>
      <trkpt lat="-36.8193219530803" lon="175.047232500477">
        <ele>24</ele>
      </trkpt>
      <trkpt lat="-36.81940492084684" lon="175.047310699981">
        <ele>22</ele>
      </trkpt>
      <trkpt lat="-36.81943734503147" lon="175.047329773031">
        <ele>22</ele>
      </trkpt>
      <trkpt lat="-36.81945451077627" lon="175.047407018882">
        <ele>22</ele>
      </trkpt>
      <trkpt lat="-36.81945832538623" lon="175.047508106046">
        <ele>22</ele>
      </trkpt>
      <trkpt lat="-36.81946213999619" lon="175.04760919321">
        <ele>23</ele>
      </trkpt>
      <trkpt lat="-36.81944688155636" lon="175.048012588213">
        <ele>27</ele>
      </trkpt>
      <trkpt lat="-36.81948884226588" lon="175.048070761015">
        <ele>27</ele>
      </trkpt>
      <trkpt lat="-36.81950982262064" lon="175.048158497044">
        <ele>27</ele>
      </trkpt>
      <trkpt lat="-36.8195308029754" lon="175.048246233073">
        <ele>27</ele>
      </trkpt>
      <trkpt lat="-36.81957562464238" lon="175.048365439634">
        <ele>26</ele>
      </trkpt>
      <trkpt lat="-36.81966812893382" lon="175.048327293534">
        <ele>23</ele>
      </trkpt>
      <trkpt lat="-36.81973774556552" lon="175.048281518215">
        <ele>20</ele>
      </trkpt>
      <trkpt lat="-36.81979401106237" lon="175.04825290864">
        <ele>18</ele>
      </trkpt>
      <trkpt lat="-36.81991226397101" lon="175.048161358001">
        <ele>13</ele>
      </trkpt>
      <trkpt lat="-36.82" lon="175.048124165554">
        <ele>10</ele>
      </trkpt>
      <trkpt lat="-36.82" lon="175.048124165554">
        <ele>10</ele>
      </trkpt>
      <trkpt lat="-36.82005149723441" lon="175.048102231547">
        <ele>10</ele>
      </trkpt>
      <trkpt lat="-36.82006198741178" lon="175.048146099561">
        <ele>10</ele>
      </trkpt>
      <trkpt lat="-36.82001811939729" lon="175.048246233073">
        <ele>11</ele>
      </trkpt>
      <trkpt lat="-36.82" lon="175.048328247187">
        <ele>11</ele>
      </trkpt>
      <trkpt lat="-36.82" lon="175.048328247187">
        <ele>11</ele>
      </trkpt>
      <trkpt lat="-36.81995136372306" lon="175.048583826054">
        <ele>14</ele>
      </trkpt>
      <trkpt lat="-36.81996376120542" lon="175.048675376693">
        <ele>14</ele>
      </trkpt>
      <trkpt lat="-36.81989700553119" lon="175.048774556552">
        <ele>17</ele>
      </trkpt>
      <trkpt lat="-36.81982929620447" lon="175.04887373641">
        <ele>21</ele>
      </trkpt>
      <trkpt lat="-36.81969292389854" lon="175.0491188251">
        <ele>27</ele>
      </trkpt>
      <trkpt lat="-36.81965096318902" lon="175.049229448789">
        <ele>29</ele>
      </trkpt>
      <trkpt lat="-36.8196090024795" lon="175.04934102613">
        <ele>29</ele>
      </trkpt>
      <trkpt lat="-36.81961567804692" lon="175.049612817089">
        <ele>24</ele>
      </trkpt>
      <trkpt lat="-36.81958706847225" lon="175.049703414076">
        <ele>24</ele>
      </trkpt>
      <trkpt lat="-36.81955845889758" lon="175.049794964715">
        <ele>23</ele>
      </trkpt>
      <trkpt lat="-36.81949074957086" lon="175.049900820141">
        <ele>23</ele>
      </trkpt>
      <trkpt lat="-36.81942304024414" lon="175.050006675567">
        <ele>23</ele>
      </trkpt>
      <trkpt lat="-36.8193744039672" lon="175.050094411596">
        <ele>23</ele>
      </trkpt>
      <trkpt lat="-36.81932481403776" lon="175.050183101278">
        <ele>24</ele>
      </trkpt>
      <trkpt lat="-36.81925138279611" lon="175.050272744612">
        <ele>24</ele>
      </trkpt>
      <trkpt lat="-36.81917699790197" lon="175.050362387946">
        <ele>25</ele>
      </trkpt>
      <trkpt lat="-36.81912359336258" lon="175.05047491894">
        <ele>24</ele>
      </trkpt>
      <trkpt lat="-36.81906923517071" lon="175.050588403586">
        <ele>24</ele>
      </trkpt>
      <trkpt lat="-36.81908353995804" lon="175.0506704177">
        <ele>22</ele>
      </trkpt>
      <trkpt lat="-36.81914552736983" lon="175.050687583445">
        <ele>21</ele>
      </trkpt>
      <trkpt lat="-36.8191998855617" lon="175.050682815182">
        <ele>20</ele>
      </trkpt>
      <trkpt lat="-36.81921037573908" lon="175.050694259012">
        <ele>19</ele>
      </trkpt>
      <trkpt lat="-36.81921132939157" lon="175.050721914934">
        <ele>19</ele>
      </trkpt>
      <trkpt lat="-36.81920274651917" lon="175.050744802594">
        <ele>19</ele>
      </trkpt>
      <trkpt lat="-36.81922372687393" lon="175.050817280183">
        <ele>17</ele>
      </trkpt>
      <trkpt lat="-36.81921037573908" lon="175.050833492275">
        <ele>17</ele>
      </trkpt>
      <trkpt lat="-36.81921419034904" lon="175.05086591646">
        <ele>17</ele>
      </trkpt>
      <trkpt lat="-36.81919511729926" lon="175.050866870113">
        <ele>17</ele>
      </trkpt>
      <trkpt lat="-36.8191131031852" lon="175.050908830822">
        <ele>19</ele>
      </trkpt>
      <trkpt lat="-36.8190701888232" lon="175.050942208659">
        <ele>19</ele>
      </trkpt>
      <trkpt lat="-36.81911977875262" lon="175.051195880221">
        <ele>17</ele>
      </trkpt>
      <trkpt lat="-36.819087354568" lon="175.051300781995">
        <ele>17</ele>
      </trkpt>
      <trkpt lat="-36.81906255960328" lon="175.051412359336">
        <ele>17</ele>
      </trkpt>
      <trkpt lat="-36.81908163265307" lon="175.05153251955">
        <ele>15</ele>
      </trkpt>
      <trkpt lat="-36.81909975205036" lon="175.051652679763">
        <ele>14</ele>
      </trkpt>
      <trkpt lat="-36.81908544726302" lon="175.051726111005">
        <ele>14</ele>
      </trkpt>
      <trkpt lat="-36.81907114247569" lon="175.051800495899">
        <ele>13</ele>
      </trkpt>
      <trkpt lat="-36.81901678428381" lon="175.051895861148">
        <ele>13</ele>
      </trkpt>
      <trkpt lat="-36.8189300019073" lon="175.051986458135">
        <ele>15</ele>
      </trkpt>
      <trkpt lat="-36.81886896814801" lon="175.052023650582">
        <ele>16</ele>
      </trkpt>
      <trkpt lat="-36.81880698073622" lon="175.052060843029">
        <ele>17</ele>
      </trkpt>
      <trkpt lat="-36.81855807743658" lon="175.052092313561">
        <ele>23</ele>
      </trkpt>
      <trkpt lat="-36.81847797062751" lon="175.052175281327">
        <ele>24</ele>
      </trkpt>
      <trkpt lat="-36.81839691016594" lon="175.052258249094">
        <ele>25</ele>
      </trkpt>
      <trkpt lat="-36.81831489605188" lon="175.052314514591">
        <ele>27</ele>
      </trkpt>
      <trkpt lat="-36.81823288193782" lon="175.052370780088">
        <ele>29</ele>
      </trkpt>
      <trkpt lat="-36.81813274842648" lon="175.052362197215">
        <ele>32</ele>
      </trkpt>
      <trkpt lat="-36.81803261491513" lon="175.052353614343">
        <ele>34</ele>
      </trkpt>
      <trkpt lat="-36.81794964714858" lon="175.052401296967">
        <ele>36</ele>
      </trkpt>
      <trkpt lat="-36.81786667938204" lon="175.052449933244">
        <ele>38</ele>
      </trkpt>
      <trkpt lat="-36.81782376502003" lon="175.052548159451">
        <ele>38</ele>
      </trkpt>
      <trkpt lat="-36.81778085065802" lon="175.052646385657">
        <ele>36</ele>
      </trkpt>
      <trkpt lat="-36.81779610909785" lon="175.052708373069">
        <ele>34</ele>
      </trkpt>
      <trkpt lat="-36.81781136753767" lon="175.052771314133">
        <ele>32</ele>
      </trkpt>
      <trkpt lat="-36.81777989700554" lon="175.052814228495">
        <ele>32</ele>
      </trkpt>
      <trkpt lat="-36.81777036048064" lon="175.052896242609">
        <ele>29</ele>
      </trkpt>
      <trkpt lat="-36.81773126072859" lon="175.052967766546">
        <ele>28</ele>
      </trkpt>
      <trkpt lat="-36.8176435246996" lon="175.053070761015">
        <ele>27</ele>
      </trkpt>
      <trkpt lat="-36.81764447835209" lon="175.053154682434">
        <ele>25</ele>
      </trkpt>
      <trkpt lat="-36.81768643906161" lon="175.053197596796">
        <ele>23</ele>
      </trkpt>
      <trkpt lat="-36.81771123402633" lon="175.0532757963">
        <ele>20</ele>
      </trkpt>
      <trkpt lat="-36.81780087736029" lon="175.053330154492">
        <ele>16</ele>
      </trkpt>
      <trkpt lat="-36.81784951363723" lon="175.053589547969">
        <ele>12</ele>
      </trkpt>
      <trkpt lat="-36.81786858668701" lon="175.053884226588">
        <ele>9</ele>
      </trkpt>
      <trkpt lat="-36.8178170894526" lon="175.053975777227">
        <ele>8</ele>
      </trkpt>
      <trkpt lat="-36.8177655922182" lon="175.054068281518">
        <ele>7</ele>
      </trkpt>
      <trkpt lat="-36.8177655922182" lon="175.054068281518">
        <ele>7</ele>
      </trkpt>
      <trkpt lat="-36.81780564562273" lon="175.05413408354">
        <ele>6</ele>
      </trkpt>
      <trkpt lat="-36.81784665267977" lon="175.054255197406">
        <ele>6</ele>
      </trkpt>
      <trkpt lat="-36.81791913026893" lon="175.054543200458">
        <ele>7</ele>
      </trkpt>
      <trkpt lat="-36.81801926378028" lon="175.055028609575">
        <ele>9</ele>
      </trkpt>
      <trkpt lat="-36.81811748998665" lon="175.0552107572">
        <ele>9</ele>
      </trkpt>
      <trkpt lat="-36.81811748998665" lon="175.0552107572">
        <ele>9</ele>
      </trkpt>
      <trkpt lat="-36.81818424566088" lon="175.055244135037">
        <ele>9</ele>
      </trkpt>
      <trkpt lat="-36.81825004768262" lon="175.055277512874">
        <ele>9</ele>
      </trkpt>
      <trkpt lat="-36.81830726683197" lon="175.055340453939">
        <ele>9</ele>
      </trkpt>
      <trkpt lat="-36.81836448598131" lon="175.055404348655">
        <ele>9</ele>
      </trkpt>
      <trkpt lat="-36.81842265878314" lon="175.05547873355">
        <ele>9</ele>
      </trkpt>
      <trkpt lat="-36.81847987793248" lon="175.055553118444">
        <ele>10</ele>
      </trkpt>
      <trkpt lat="-36.81876215906924" lon="175.055882128552">
        <ele>10</ele>
      </trkpt>
      <trkpt lat="-36.81880984169369" lon="175.055948884227">
        <ele>10</ele>
      </trkpt>
      <trkpt lat="-36.81885657066565" lon="175.056015639901">
        <ele>11</ele>
      </trkpt>
      <trkpt lat="-36.81888804119779" lon="175.05610719054">
        <ele>11</ele>
      </trkpt>
      <trkpt lat="-36.81888994850276" lon="175.056177760824">
        <ele>12</ele>
      </trkpt>
      <trkpt lat="-36.81889090215526" lon="175.056248331108">
        <ele>12</ele>
      </trkpt>
      <trkpt lat="-36.81888804119779" lon="175.056313179477">
        <ele>13</ele>
      </trkpt>
      <trkpt lat="-36.81888518024032" lon="175.056378027847">
        <ele>13</ele>
      </trkpt>
      <trkpt lat="-36.81888613389281" lon="175.056465763876">
        <ele>14</ele>
      </trkpt>
      <trkpt lat="-36.8188870875453" lon="175.056553499905">
        <ele>14</ele>
      </trkpt>
      <trkpt lat="-36.81890139233263" lon="175.057046538241">
        <ele>19</ele>
      </trkpt>
      <trkpt lat="-36.8189128361625" lon="175.057119969483">
        <ele>19</ele>
      </trkpt>
      <trkpt lat="-36.81892427999237" lon="175.057193400725">
        <ele>20</ele>
      </trkpt>
      <trkpt lat="-36.81895288956704" lon="175.057282090406">
        <ele>20</ele>
      </trkpt>
      <trkpt lat="-36.81898149914171" lon="175.05737173374">
        <ele>21</ele>
      </trkpt>
      <trkpt lat="-36.81909498378791" lon="175.057668319664">
        <ele>19</ele>
      </trkpt>
      <trkpt lat="-36.8191131031852" lon="175.057739843601">
        <ele>19</ele>
      </trkpt>
      <trkpt lat="-36.81913122258249" lon="175.05781232119">
        <ele>18</ele>
      </trkpt>
      <trkpt lat="-36.8191398054549" lon="175.057877169559">
        <ele>17</ele>
      </trkpt>
      <trkpt lat="-36.8191474346748" lon="175.057942017929">
        <ele>16</ele>
      </trkpt>
      <trkpt lat="-36.81914552736983" lon="175.058025939348">
        <ele>15</ele>
      </trkpt>
      <trkpt lat="-36.81913789814992" lon="175.058058363532">
        <ele>15</ele>
      </trkpt>
      <trkpt lat="-36.81912359336258" lon="175.058075529277">
        <ele>15</ele>
      </trkpt>
      <trkpt lat="-36.81912173668984" lon="175.05807775799">
        <ele>16</ele>
      </trkpt>
      <trkpt lat="-36.81919034903682" lon="175.058284379172">
        <ele>12</ele>
      </trkpt>
      <trkpt lat="-36.81919034903682" lon="175.058284379172">
        <ele>12</ele>
      </trkpt>
      <trkpt lat="-36.81919607095175" lon="175.058349227541">
        <ele>12</ele>
      </trkpt>
      <trkpt lat="-36.81919416364677" lon="175.058416936868">
        <ele>12</ele>
      </trkpt>
      <trkpt lat="-36.81918176616441" lon="175.058472248713">
        <ele>12</ele>
      </trkpt>
      <trkpt lat="-36.81915220293725" lon="175.058549494564">
        <ele>13</ele>
      </trkpt>
      <trkpt lat="-36.81915220293725" lon="175.058549494564">
        <ele>13</ele>
      </trkpt>
      <trkpt lat="-36.81880698073622" lon="175.059161739462">
        <ele>23</ele>
      </trkpt>
      <trkpt lat="-36.81880698073622" lon="175.059161739462">
        <ele>23</ele>
      </trkpt>
      <trkpt lat="-36.81884035857334" lon="175.05935246996">
        <ele>23</ele>
      </trkpt>
      <trkpt lat="-36.81893477016975" lon="175.059725348083">
        <ele>22</ele>
      </trkpt>
      <trkpt lat="-36.81899389662407" lon="175.05981213046">
        <ele>21</ele>
      </trkpt>
      <trkpt lat="-36.81913312988747" lon="175.059967575815">
        <ele>19</ele>
      </trkpt>
      <trkpt lat="-36.81914648102232" lon="175.06">
        <ele>18</ele>
      </trkpt>
      <trkpt lat="-36.81914648102232" lon="175.06">
        <ele>18</ele>
      </trkpt>
      <trkpt lat="-36.81917604424948" lon="175.060080106809">
        <ele>19</ele>
      </trkpt>
      <trkpt lat="-36.81917699790197" lon="175.060136372306">
        <ele>19</ele>
      </trkpt>
      <trkpt lat="-36.81913503719245" lon="175.06043677284">
        <ele>23</ele>
      </trkpt>
      <trkpt lat="-36.81912454701507" lon="175.061530612245">
        <ele>36</ele>
      </trkpt>
      <trkpt lat="-36.81912740797254" lon="175.061629792104">
        <ele>37</ele>
      </trkpt>
      <trkpt lat="-36.81913026893" lon="175.061728971963">
        <ele>38</ele>
      </trkpt>
      <trkpt lat="-36.81913599084494" lon="175.061794773984">
        <ele>39</ele>
      </trkpt>
      <trkpt lat="-36.81914171275987" lon="175.061860576006">
        <ele>39</ele>
      </trkpt>
      <trkpt lat="-36.81916173946214" lon="175.061952126645">
        <ele>39</ele>
      </trkpt>
      <trkpt lat="-36.81918081251192" lon="175.062043677284">
        <ele>40</ele>
      </trkpt>
      <trkpt lat="-36.81920560747664" lon="175.062105664696">
        <ele>40</ele>
      </trkpt>
      <trkpt lat="-36.81922944878886" lon="175.062167652108">
        <ele>40</ele>
      </trkpt>
      <trkpt lat="-36.81929334350563" lon="175.062250619874">
        <ele>39</ele>
      </trkpt>
      <trkpt lat="-36.81935723822239" lon="175.062333587641">
        <ele>39</ele>
      </trkpt>
      <trkpt lat="-36.81935723822239" lon="175.062333587641">
        <ele>39</ele>
      </trkpt>
      <trkpt lat="-36.81944878886134" lon="175.062427999237">
        <ele>38</ele>
      </trkpt>
      <trkpt lat="-36.8195393858478" lon="175.062523364486">
        <ele>38</ele>
      </trkpt>
      <trkpt lat="-36.81963665840168" lon="175.06261682243">
        <ele>37</ele>
      </trkpt>
      <trkpt lat="-36.81973297730308" lon="175.062711234026">
        <ele>36</ele>
      </trkpt>
      <trkpt lat="-36.81978352088499" lon="175.062781804311">
        <ele>36</ele>
      </trkpt>
      <trkpt lat="-36.81981403776464" lon="175.062874308602">
        <ele>37</ele>
      </trkpt>
      <trkpt lat="-36.81983024985696" lon="175.062977303071">
        <ele>37</ele>
      </trkpt>
      <trkpt lat="-36.81983120350944" lon="175.063044058745">
        <ele>38</ele>
      </trkpt>
      <trkpt lat="-36.81983215716193" lon="175.063111768072">
        <ele>39</ele>
      </trkpt>
      <trkpt lat="-36.81981308411215" lon="175.063186152966">
        <ele>40</ele>
      </trkpt>
      <trkpt lat="-36.81979401106237" lon="175.06326053786">
        <ele>42</ele>
      </trkpt>
      <trkpt lat="-36.81973393095556" lon="175.063369254244">
        <ele>43</ele>
      </trkpt>
      <trkpt lat="-36.81968529467862" lon="175.063422658783">
        <ele>43</ele>
      </trkpt>
      <trkpt lat="-36.81963379744421" lon="175.0634484074">
        <ele>43</ele>
      </trkpt>
      <trkpt lat="-36.81963379744421" lon="175.0634484074">
        <ele>43</ele>
      </trkpt>
      <trkpt lat="-36.81963856570666" lon="175.063498950982">
        <ele>42</ele>
      </trkpt>
      <trkpt lat="-36.81955464428762" lon="175.063629601373">
        <ele>40</ele>
      </trkpt>
      <trkpt lat="-36.81954510776274" lon="175.063809841694">
        <ele>36</ele>
      </trkpt>
      <trkpt lat="-36.81954510776274" lon="175.063809841694">
        <ele>36</ele>
      </trkpt>
      <trkpt lat="-36.81945737173374" lon="175.06417222964">
        <ele>29</ele>
      </trkpt>
      <trkpt lat="-36.81942208659165" lon="175.064417318329">
        <ele>24</ele>
      </trkpt>
      <trkpt lat="-36.81934960900248" lon="175.064497425138">
        <ele>24</ele>
      </trkpt>
      <trkpt lat="-36.81933625786763" lon="175.064598512302">
        <ele>21</ele>
      </trkpt>
      <trkpt lat="-36.81929429715812" lon="175.064648102232">
        <ele>20</ele>
      </trkpt>
      <trkpt lat="-36.81929429715812" lon="175.064648102232">
        <ele>20</ele>
      </trkpt>
      <trkpt lat="-36.81904634751097" lon="175.064714857906">
        <ele>22</ele>
      </trkpt>
      <trkpt lat="-36.81894239938966" lon="175.064802593935">
        <ele>20</ele>
      </trkpt>
      <trkpt lat="-36.81883272935342" lon="175.064689109289">
        <ele>25</ele>
      </trkpt>
      <trkpt lat="-36.8186877741751" lon="175.064596604997">
        <ele>29</ele>
      </trkpt>
      <trkpt lat="-36.81856666030899" lon="175.064529849323">
        <ele>32</ele>
      </trkpt>
      <trkpt lat="-36.81848178523746" lon="175.064677665459">
        <ele>29</ele>
      </trkpt>
      <trkpt lat="-36.81835113484647" lon="175.064843600992">
        <ele>26</ele>
      </trkpt>
      <trkpt lat="-36.81825290864009" lon="175.064934197978">
        <ele>25</ele>
      </trkpt>
      <trkpt lat="-36.81808792675949" lon="175.065224108335">
        <ele>22</ele>
      </trkpt>
      <trkpt lat="-36.81808792675949" lon="175.065224108335">
        <ele>22</ele>
      </trkpt>
      <trkpt lat="-36.81798207133321" lon="175.065514972344">
        <ele>18</ele>
      </trkpt>
      <trkpt lat="-36.81757867633035" lon="175.066156780469">
        <ele>13</ele>
      </trkpt>
      <trkpt lat="-36.8176177760824" lon="175.066721342743">
        <ele>5</ele>
      </trkpt>
      <trkpt lat="-36.81767213427428" lon="175.067135227923">
        <ele>3</ele>
      </trkpt>
      <trkpt lat="-36.81800209803548" lon="175.068027846653">
        <ele>1</ele>
      </trkpt>
      <trkpt lat="-36.81860671371353" lon="175.068886133893">
        <ele>2</ele>
      </trkpt>
      <trkpt lat="-36.81932099942781" lon="175.069641426664">
        <ele>2</ele>
      </trkpt>
      <trkpt lat="-36.81972630173565" lon="175.070028609575">
        <ele>2</ele>
      </trkpt>
      <trkpt lat="-36.81962426091933" lon="175.070275605569">
        <ele>4</ele>
      </trkpt>
      <trkpt lat="-36.81960709517452" lon="175.070412931528">
        <ele>5</ele>
      </trkpt>
      <trkpt lat="-36.81948884226588" lon="175.070598893763">
        <ele>7</ele>
      </trkpt>
      <trkpt lat="-36.81936868205226" lon="175.070687583445">
        <ele>9</ele>
      </trkpt>
      <trkpt lat="-36.81963284379172" lon="175.070800114438">
        <ele>8</ele>
      </trkpt>
      <trkpt lat="-36.81986267404158" lon="175.070939347702">
        <ele>8</ele>
      </trkpt>
      <trkpt lat="-36.82" lon="175.07106141522">
        <ele>7</ele>
      </trkpt>
      <trkpt lat="-36.82" lon="175.07106141522">
        <ele>7</ele>
      </trkpt>
      <trkpt lat="-36.82020408163265" lon="175.071242609193">
        <ele>7</ele>
      </trkpt>
      <trkpt lat="-36.82033473202365" lon="175.071451459088">
        <ele>7</ele>
      </trkpt>
      <trkpt lat="-36.82036048064085" lon="175.071614533664">
        <ele>8</ele>
      </trkpt>
      <trkpt lat="-36.82036048064085" lon="175.071614533664">
        <ele>8</ele>
      </trkpt>
      <trkpt lat="-36.82096986458134" lon="175.072027465192">
        <ele>7</ele>
      </trkpt>
      <trkpt lat="-36.8212874308602" lon="175.072228685867">
        <ele>8</ele>
      </trkpt>
      <trkpt lat="-36.82131699408735" lon="175.072284951364">
        <ele>8</ele>
      </trkpt>
      <trkpt lat="-36.82128933816517" lon="175.072386038528">
        <ele>8</ele>
      </trkpt>
      <trkpt lat="-36.82124571840431" lon="175.072437244334">
        <ele>9</ele>
      </trkpt>
      <trkpt lat="-36.82124571824151" lon="175.072437244316">
        <ele>9</ele>
      </trkpt>
      <trkpt lat="-36.82134941827198" lon="175.072458516117">
        <ele>9</ele>
      </trkpt>
      <trkpt lat="-36.82142952508106" lon="175.072485218386">
        <ele>9</ele>
      </trkpt>
      <trkpt lat="-36.82152584398245" lon="175.072530993706">
        <ele>9</ele>
      </trkpt>
      <trkpt lat="-36.82152584398245" lon="175.072530993706">
        <ele>9</ele>
      </trkpt>
      <trkpt lat="-36.82159546061415" lon="175.072584398245">
        <ele>9</ele>
      </trkpt>
      <trkpt lat="-36.82166412359336" lon="175.072637802785">
        <ele>9</ele>
      </trkpt>
      <trkpt lat="-36.82173183292008" lon="175.072720770551">
        <ele>10</ele>
      </trkpt>
      <trkpt lat="-36.82175618946381" lon="175.072750958943">
        <ele>11</ele>
      </trkpt>
      <trkpt lat="-36.82175618946658" lon="175.072750958947">
        <ele>11</ele>
      </trkpt>
      <trkpt lat="-36.82164600419607" lon="175.073026893">
        <ele>12</ele>
      </trkpt>
      <trkpt lat="-36.82162979210376" lon="175.073154682434">
        <ele>13</ele>
      </trkpt>
      <trkpt lat="-36.82165935533092" lon="175.073293915697">
        <ele>14</ele>
      </trkpt>
      <trkpt lat="-36.82186439061606" lon="175.073841312226">
        <ele>18</ele>
      </trkpt>
      <trkpt lat="-36.82195784855998" lon="175.074598512302">
        <ele>23</ele>
      </trkpt>
      <trkpt lat="-36.82207324051116" lon="175.075137325958">
        <ele>30</ele>
      </trkpt>
      <trkpt lat="-36.82199408735457" lon="175.07569330536">
        <ele>29</ele>
      </trkpt>
      <trkpt lat="-36.821913026893" lon="175.076212092314">
        <ele>28</ele>
      </trkpt>
      <trkpt lat="-36.82168987221056" lon="175.076986458135">
        <ele>26</ele>
      </trkpt>
      <trkpt lat="-36.82151344650009" lon="175.077523364486">
        <ele>27</ele>
      </trkpt>
      <trkpt lat="-36.82150677093267" lon="175.077996376121">
        <ele>31</ele>
      </trkpt>
      <trkpt lat="-36.8212082777036" lon="175.079109288575">
        <ele>31</ele>
      </trkpt>
      <trkpt lat="-36.82095079153157" lon="175.0793677284">
        <ele>28</ele>
      </trkpt>
      <trkpt lat="-36.82077245851612" lon="175.08">
        <ele>34</ele>
      </trkpt>
      <trkpt lat="-36.82077245851612" lon="175.08">
        <ele>34</ele>
      </trkpt>
      <trkpt lat="-36.8205473965287" lon="175.080800114438">
        <ele>40</ele>
      </trkpt>
      <trkpt lat="-36.82047015067709" lon="175.081351325577">
        <ele>45</ele>
      </trkpt>
      <trkpt lat="-36.82022887659737" lon="175.080637993515">
        <ele>36</ele>
      </trkpt>
      <trkpt lat="-36.82" lon="175.080708563799">
        <ele>33</ele>
      </trkpt>
      <trkpt lat="-36.82" lon="175.080708563799">
        <ele>33</ele>
      </trkpt>
      <trkpt lat="-36.81982166698455" lon="175.080762921991">
        <ele>37</ele>
      </trkpt>
      <trkpt lat="-36.81966717528133" lon="175.080908830822">
        <ele>41</ele>
      </trkpt>
      <trkpt lat="-36.81931527751288" lon="175.081401869159">
        <ele>52</ele>
      </trkpt>
      <trkpt lat="-36.81929429715812" lon="175.081793820332">
        <ele>57</ele>
      </trkpt>
      <trkpt lat="-36.819260919321" lon="175.08195021934">
        <ele>60</ele>
      </trkpt>
      <trkpt lat="-36.81918176616441" lon="175.082081823384">
        <ele>64</ele>
      </trkpt>
      <trkpt lat="-36.81895861148198" lon="175.082078008774">
        <ele>68</ele>
      </trkpt>
      <trkpt lat="-36.81873259584208" lon="175.081997901965">
        <ele>71</ele>
      </trkpt>
      <trkpt lat="-36.81854377264925" lon="175.082156208278">
        <ele>76</ele>
      </trkpt>
      <trkpt lat="-36.81854377264925" lon="175.082156208278">
        <ele>76</ele>
      </trkpt>
      <trkpt lat="-36.81877169559413" lon="175.082518596224">
        <ele>78</ele>
      </trkpt>
      <trkpt lat="-36.81905683768835" lon="175.082660690444">
        <ele>75</ele>
      </trkpt>
      <trkpt lat="-36.81922468052642" lon="175.082885752432">
        <ele>75</ele>
      </trkpt>
      <trkpt lat="-36.81910261300782" lon="175.083424566088">
        <ele>84</ele>
      </trkpt>
      <trkpt lat="-36.81917890520695" lon="175.083851802403">
        <ele>87</ele>
      </trkpt>
      <trkpt lat="-36.81938394049209" lon="175.084299065421">
        <ele>89</ele>
      </trkpt>
      <trkpt lat="-36.81939252336448" lon="175.084482166698">
        <ele>90</ele>
      </trkpt>
      <trkpt lat="-36.81939252336448" lon="175.084482166698">
        <ele>90</ele>
      </trkpt>
      <trkpt lat="-36.81926378027847" lon="175.084505054358">
        <ele>91</ele>
      </trkpt>
      <trkpt lat="-36.81926378027847" lon="175.084505054358">
        <ele>91</ele>
      </trkpt>
      <trkpt lat="-36.81898912836163" lon="175.084415411024">
        <ele>94</ele>
      </trkpt>
      <trkpt lat="-36.81857142857143" lon="175.084046347511">
        <ele>100</ele>
      </trkpt>
      <trkpt lat="-36.81832443257677" lon="175.08389280946">
        <ele>104</ele>
      </trkpt>
      <trkpt lat="-36.81809746328438" lon="175.083742132367">
        <ele>106</ele>
      </trkpt>
      <trkpt lat="-36.81797158115583" lon="175.083410261301">
        <ele>106</ele>
      </trkpt>
      <trkpt lat="-36.81772935342362" lon="175.083152775129">
        <ele>107</ele>
      </trkpt>
      <trkpt lat="-36.81741846271219" lon="175.082954415411">
        <ele>111</ele>
      </trkpt>
      <trkpt lat="-36.81711806217815" lon="175.082916269311">
        <ele>116</ele>
      </trkpt>
      <trkpt lat="-36.81667938203319" lon="175.082904825482">
        <ele>124</ele>
      </trkpt>
      <trkpt lat="-36.81611100514973" lon="175.08283139424">
        <ele>136</ele>
      </trkpt>
      <trkpt lat="-36.8155912645432" lon="175.082667366012">
        <ele>142</ele>
      </trkpt>
      <trkpt lat="-36.81540530230784" lon="175.082653061225">
        <ele>142</ele>
      </trkpt>
      <trkpt lat="-36.81540530230784" lon="175.082653061225">
        <ele>142</ele>
      </trkpt>
      <trkpt lat="-36.81545107762732" lon="175.0832376502">
        <ele>145</ele>
      </trkpt>
      <trkpt lat="-36.81554167461378" lon="175.084020598894">
        <ele>146</ele>
      </trkpt>
      <trkpt lat="-36.81570188823193" lon="175.085193591455">
        <ele>143</ele>
      </trkpt>
      <trkpt lat="-36.81575433911883" lon="175.085305168797">
        <ele>142</ele>
      </trkpt>
      <trkpt lat="-36.8159479305741" lon="175.085539767309">
        <ele>138</ele>
      </trkpt>
      <trkpt lat="-36.81603566660309" lon="175.085773412169">
        <ele>134</ele>
      </trkpt>
      <trkpt lat="-36.81600705702842" lon="175.085970818234">
        <ele>131</ele>
      </trkpt>
      <trkpt lat="-36.81590596986458" lon="175.086108144192">
        <ele>129</ele>
      </trkpt>
      <trkpt lat="-36.81575433911883" lon="175.086146290292">
        <ele>128</ele>
      </trkpt>
      <trkpt lat="-36.81549876025176" lon="175.085998474156">
        <ele>131</ele>
      </trkpt>
      <trkpt lat="-36.81532805645623" lon="175.085966049971">
        <ele>131</ele>
      </trkpt>
      <trkpt lat="-36.81532901010872" lon="175.085994659546">
        <ele>131</ele>
      </trkpt>
      <trkpt lat="-36.81532901010872" lon="175.085994659546">
        <ele>131</ele>
      </trkpt>
      <trkpt lat="-36.81525748617204" lon="175.085962235361">
        <ele>131</ele>
      </trkpt>
      <trkpt lat="-36.81518596223536" lon="175.085929811177">
        <ele>131</ele>
      </trkpt>
      <trkpt lat="-36.81507247758917" lon="175.085916460042">
        <ele>131</ele>
      </trkpt>
      <trkpt lat="-36.81495899294298" lon="175.08590406256">
        <ele>130</ele>
      </trkpt>
      <trkpt lat="-36.8148788861339" lon="175.08590406256">
        <ele>130</ele>
      </trkpt>
      <trkpt lat="-36.81479782567233" lon="175.08590406256">
        <ele>129</ele>
      </trkpt>
      <trkpt lat="-36.8147043677284" lon="175.085884035857">
        <ele>128</ele>
      </trkpt>
      <trkpt lat="-36.81461090978448" lon="175.085864962808">
        <ele>127</ele>
      </trkpt>
      <trkpt lat="-36.81452698836544" lon="175.08583158497">
        <ele>126</ele>
      </trkpt>
      <trkpt lat="-36.81444306694641" lon="175.085799160786">
        <ele>125</ele>
      </trkpt>
      <trkpt lat="-36.81439443066947" lon="175.085755292771">
        <ele>125</ele>
      </trkpt>
      <trkpt lat="-36.81431909212283" lon="175.085700934579">
        <ele>124</ele>
      </trkpt>
      <trkpt lat="-36.8142437535762" lon="175.08564753004">
        <ele>124</ele>
      </trkpt>
      <trkpt lat="-36.81412645432005" lon="175.085572191493">
        <ele>123</ele>
      </trkpt>
      <trkpt lat="-36.81402822811368" lon="175.085555025749">
        <ele>123</ele>
      </trkpt>
      <trkpt lat="-36.81355235552165" lon="175.085656112912">
        <ele>123</ele>
      </trkpt>
      <trkpt lat="-36.81326149151249" lon="175.085699980927">
        <ele>124</ele>
      </trkpt>
      <trkpt lat="-36.81317852374595" lon="175.085734312417">
        <ele>124</ele>
      </trkpt>
      <trkpt lat="-36.8130955559794" lon="175.085769597559">
        <ele>124</ele>
      </trkpt>
      <trkpt lat="-36.81303166126264" lon="175.085811558268">
        <ele>124</ele>
      </trkpt>
      <trkpt lat="-36.81293248140378" lon="175.085891665077">
        <ele>124</ele>
      </trkpt>
      <trkpt lat="-36.81283330154492" lon="175.085971771886">
        <ele>125</ele>
      </trkpt>
      <trkpt lat="-36.81274651916841" lon="175.08607285905">
        <ele>126</ele>
      </trkpt>
      <trkpt lat="-36.81265878313943" lon="175.086173946214">
        <ele>127</ele>
      </trkpt>
      <trkpt lat="-36.8125910738127" lon="175.086175853519">
        <ele>127</ele>
      </trkpt>
      <trkpt lat="-36.81252241083349" lon="175.086177760824">
        <ele>127</ele>
      </trkpt>
      <trkpt lat="-36.81245565515926" lon="175.086140568377">
        <ele>126</ele>
      </trkpt>
      <trkpt lat="-36.81238889948503" lon="175.086104329582">
        <ele>126</ele>
      </trkpt>
      <trkpt lat="-36.81227064657639" lon="175.086211138661">
        <ele>126</ele>
      </trkpt>
      <trkpt lat="-36.8122000762922" lon="175.086244516498">
        <ele>126</ele>
      </trkpt>
      <trkpt lat="-36.81212855235552" lon="175.086278847988">
        <ele>127</ele>
      </trkpt>
      <trkpt lat="-36.81201029944688" lon="175.086372305932">
        <ele>127</ele>
      </trkpt>
      <trkpt lat="-36.81192923898531" lon="175.086414266641">
        <ele>126</ele>
      </trkpt>
      <trkpt lat="-36.8118529467862" lon="175.086419988556">
        <ele>126</ele>
      </trkpt>
      <trkpt lat="-36.81179095937441" lon="175.086429525081">
        <ele>126</ele>
      </trkpt>
      <trkpt lat="-36.81172801831013" lon="175.086440015258">
        <ele>126</ele>
      </trkpt>
      <trkpt lat="-36.81163742132367" lon="175.086497234408">
        <ele>126</ele>
      </trkpt>
      <trkpt lat="-36.81157543391188" lon="175.086564943735">
        <ele>126</ele>
      </trkpt>
      <trkpt lat="-36.81148197596796" lon="175.086586877742">
        <ele>126</ele>
      </trkpt>
      <trkpt lat="-36.8113656303643" lon="175.086588785047">
        <ele>126</ele>
      </trkpt>
      <trkpt lat="-36.81127312607286" lon="175.086618348274">
        <ele>126</ele>
      </trkpt>
      <trkpt lat="-36.81121304596605" lon="175.086604043487">
        <ele>126</ele>
      </trkpt>
      <trkpt lat="-36.81112149532711" lon="175.086699408735">
        <ele>126</ele>
      </trkpt>
      <trkpt lat="-36.81101659355331" lon="175.086769025367">
        <ele>126</ele>
      </trkpt>
      <trkpt lat="-36.81095555979401" lon="175.086794773984">
        <ele>126</ele>
      </trkpt>
      <trkpt lat="-36.81089357238223" lon="175.086820522602">
        <ele>127</ele>
      </trkpt>
      <trkpt lat="-36.81082586305551" lon="175.086863436964">
        <ele>127</ele>
      </trkpt>
      <trkpt lat="-36.8107572000763" lon="175.086906351326">
        <ele>126</ele>
      </trkpt>
      <trkpt lat="-36.81068376883464" lon="175.08693877551">
        <ele>126</ele>
      </trkpt>
      <trkpt lat="-36.81060938394049" lon="175.086971199695">
        <ele>126</ele>
      </trkpt>
      <trkpt lat="-36.81050829677665" lon="175.08696547778">
        <ele>127</ele>
      </trkpt>
      <trkpt lat="-36.81042342170513" lon="175.086993133702">
        <ele>127</ele>
      </trkpt>
      <trkpt lat="-36.81034903681099" lon="175.086935914553">
        <ele>127</ele>
      </trkpt>
      <trkpt lat="-36.81027465191684" lon="175.086878695403">
        <ele>127</ele>
      </trkpt>
      <trkpt lat="-36.8102002670227" lon="175.086809078772">
        <ele>127</ele>
      </trkpt>
      <trkpt lat="-36.81012588212855" lon="175.086780469197">
        <ele>127</ele>
      </trkpt>
      <trkpt lat="-36.81005149723441" lon="175.086751859622">
        <ele>127</ele>
      </trkpt>
      <trkpt lat="-36.80998760251764" lon="175.086745184055">
        <ele>127</ele>
      </trkpt>
      <trkpt lat="-36.80992275414839" lon="175.086738508488">
        <ele>127</ele>
      </trkpt>
      <trkpt lat="-36.80985885943163" lon="175.086740415793">
        <ele>127</ele>
      </trkpt>
      <trkpt lat="-36.80979401106237" lon="175.086742323097">
        <ele>127</ele>
      </trkpt>
      <trkpt lat="-36.80968815563609" lon="175.086726111005">
        <ele>127</ele>
      </trkpt>
      <trkpt lat="-36.80961377074195" lon="175.086730879268">
        <ele>127</ele>
      </trkpt>
      <trkpt lat="-36.8095393858478" lon="175.08673564753">
        <ele>127</ele>
      </trkpt>
      <trkpt lat="-36.80943162311654" lon="175.086759488842">
        <ele>127</ele>
      </trkpt>
      <trkpt lat="-36.80934197978257" lon="175.086801449552">
        <ele>127</ele>
      </trkpt>
      <trkpt lat="-36.80850085828724" lon="175.08695784856">
        <ele>130</ele>
      </trkpt>
      <trkpt lat="-36.80842075147817" lon="175.086925424375">
        <ele>131</ele>
      </trkpt>
      <trkpt lat="-36.8083568567614" lon="175.086937821858">
        <ele>131</ele>
      </trkpt>
      <trkpt lat="-36.80829200839214" lon="175.08695021934">
        <ele>131</ele>
      </trkpt>
      <trkpt lat="-36.80823097463285" lon="175.087013160404">
        <ele>131</ele>
      </trkpt>
      <trkpt lat="-36.80816994087355" lon="175.087077055121">
        <ele>131</ele>
      </trkpt>
      <trkpt lat="-36.80812607285905" lon="175.087147625405">
        <ele>131</ele>
      </trkpt>
      <trkpt lat="-36.80808125119207" lon="175.087219149342">
        <ele>131</ele>
      </trkpt>
      <trkpt lat="-36.808044058745" lon="175.087286858669">
        <ele>131</ele>
      </trkpt>
      <trkpt lat="-36.80800686629792" lon="175.087354567995">
        <ele>131</ele>
      </trkpt>
      <trkpt lat="-36.80796490558841" lon="175.087466145337">
        <ele>131</ele>
      </trkpt>
      <trkpt lat="-36.8079219912264" lon="175.087577722678">
        <ele>130</ele>
      </trkpt>
      <trkpt lat="-36.80784188441732" lon="175.087693114629">
        <ele>130</ele>
      </trkpt>
      <trkpt lat="-36.80772077055121" lon="175.087775128743">
        <ele>130</ele>
      </trkpt>
      <trkpt lat="-36.80719816898722" lon="175.087770360481">
        <ele>130</ele>
      </trkpt>
      <trkpt lat="-36.80694545107763" lon="175.087725538814">
        <ele>130</ele>
      </trkpt>
      <trkpt lat="-36.80650390997521" lon="175.087555788671">
        <ele>131</ele>
      </trkpt>
      <trkpt lat="-36.80643715430097" lon="175.087558649628">
        <ele>131</ele>
      </trkpt>
      <trkpt lat="-36.80636944497425" lon="175.087561510586">
        <ele>131</ele>
      </trkpt>
      <trkpt lat="-36.80636852263677" lon="175.087561549817">
        <ele>131</ele>
      </trkpt>
      <trkpt lat="-36.8055740987984" lon="175.087142857143">
        <ele>135</ele>
      </trkpt>
      <trkpt lat="-36.80546633606714" lon="175.087051306504">
        <ele>136</ele>
      </trkpt>
      <trkpt lat="-36.80546633606714" lon="175.087051306504">
        <ele>136</ele>
      </trkpt>
      <trkpt lat="-36.80532233454129" lon="175.087001716575">
        <ele>136</ele>
      </trkpt>
      <trkpt lat="-36.80490177379363" lon="175.086808125119">
        <ele>138</ele>
      </trkpt>
      <trkpt lat="-36.80447739843601" lon="175.086567804692">
        <ele>139</ele>
      </trkpt>
      <trkpt lat="-36.80427617776083" lon="175.086439061606">
        <ele>138</ele>
      </trkpt>
      <trkpt lat="-36.80410356666031" lon="175.086364676712">
        <ele>137</ele>
      </trkpt>
      <trkpt lat="-36.80410356666031" lon="175.086364676712">
        <ele>137</ele>
      </trkpt>
      <trkpt lat="-36.80399866488652" lon="175.08633702079">
        <ele>137</ele>
      </trkpt>
      <trkpt lat="-36.80285332824719" lon="175.086192065611">
        <ele>141</ele>
      </trkpt>
      <trkpt lat="-36.80166793820332" lon="175.086062368873">
        <ele>146</ele>
      </trkpt>
      <trkpt lat="-36.80158687774176" lon="175.086077627313">
        <ele>146</ele>
      </trkpt>
      <trkpt lat="-36.80148865153538" lon="175.086168224299">
        <ele>145</ele>
      </trkpt>
      <trkpt lat="-36.80135037192447" lon="175.086316994087">
        <ele>145</ele>
      </trkpt>
      <trkpt lat="-36.80126740415793" lon="175.086393286287">
        <ele>145</ele>
      </trkpt>
      <trkpt lat="-36.80107762731261" lon="175.086529658592">
        <ele>146</ele>
      </trkpt>
      <trkpt lat="-36.80015830631318" lon="175.087117108526">
        <ele>149</ele>
      </trkpt>
      <trkpt lat="-36.8" lon="175.087198168987">
        <ele>152</ele>
      </trkpt>
      <trkpt lat="-36.8" lon="175.087198168987">
        <ele>152</ele>
      </trkpt>
      <trkpt lat="-36.79993610528324" lon="175.087226778562">
        <ele>151</ele>
      </trkpt>
      <trkpt lat="-36.79963189013923" lon="175.087273507534">
        <ele>151</ele>
      </trkpt>
      <trkpt lat="-36.79927713141331" lon="175.087295441541">
        <ele>150</ele>
      </trkpt>
      <trkpt lat="-36.79918367346939" lon="175.087305931719">
        <ele>150</ele>
      </trkpt>
      <trkpt lat="-36.79908926187297" lon="175.087317375548">
        <ele>149</ele>
      </trkpt>
      <trkpt lat="-36.79900534045394" lon="175.087347892428">
        <ele>149</ele>
      </trkpt>
      <trkpt lat="-36.79900534045394" lon="175.087347892428">
        <ele>149</ele>
      </trkpt>
      <trkpt lat="-36.79891951172993" lon="175.087384131223">
        <ele>149</ele>
      </trkpt>
      <trkpt lat="-36.79885084875072" lon="175.087422277322">
        <ele>149</ele>
      </trkpt>
      <trkpt lat="-36.7987821857715" lon="175.087461377074">
        <ele>148</ele>
      </trkpt>
      <trkpt lat="-36.79870684722487" lon="175.087515735266">
        <ele>148</ele>
      </trkpt>
      <trkpt lat="-36.79863055502575" lon="175.087570093458">
        <ele>147</ele>
      </trkpt>
      <trkpt lat="-36.79852374594697" lon="175.087677856189">
        <ele>145</ele>
      </trkpt>
      <trkpt lat="-36.79841693686821" lon="175.08778561892">
        <ele>144</ele>
      </trkpt>
      <trkpt lat="-36.79838175779259" lon="175.087805585423">
        <ele>143</ele>
      </trkpt>
      <trkpt lat="-36.79838175779259" lon="175.087805585423">
        <ele>143</ele>
      </trkpt>
      <trkpt lat="-36.79834636658401" lon="175.087825672325">
        <ele>143</ele>
      </trkpt>
      <trkpt lat="-36.79830631317947" lon="175.087832347892">
        <ele>142</ele>
      </trkpt>
      <trkpt lat="-36.79826149151249" lon="175.087834255197">
        <ele>142</ele>
      </trkpt>
      <trkpt lat="-36.79821666984551" lon="175.08781995041">
        <ele>142</ele>
      </trkpt>
      <trkpt lat="-36.79814419225634" lon="175.08778561892">
        <ele>141</ele>
      </trkpt>
      <trkpt lat="-36.79807076101469" lon="175.087752241083">
        <ele>141</ele>
      </trkpt>
      <trkpt lat="-36.79796204463094" lon="175.087717909594">
        <ele>140</ele>
      </trkpt>
      <trkpt lat="-36.79796204463094" lon="175.087717909594">
        <ele>140</ele>
      </trkpt>
      <trkpt lat="-36.79788575243181" lon="175.087715048636">
        <ele>139</ele>
      </trkpt>
      <trkpt lat="-36.79781804310509" lon="175.087718863246">
        <ele>138</ele>
      </trkpt>
      <trkpt lat="-36.79737936296014" lon="175.0878161358">
        <ele>131</ele>
      </trkpt>
      <trkpt lat="-36.79730116345603" lon="175.087818043105">
        <ele>129</ele>
      </trkpt>
      <trkpt lat="-36.79730116345603" lon="175.087818043105">
        <ele>129</ele>
      </trkpt>
      <trkpt lat="-36.79722391760443" lon="175.08780469197">
        <ele>127</ele>
      </trkpt>
      <trkpt lat="-36.79713618157543" lon="175.087768453176">
        <ele>126</ele>
      </trkpt>
      <trkpt lat="-36.79702651153919" lon="175.087702651154">
        <ele>125</ele>
      </trkpt>
      <trkpt lat="-36.79691588785047" lon="175.087637802785">
        <ele>123</ele>
      </trkpt>
      <trkpt lat="-36.79687201983597" lon="175.087606332253">
        <ele>123</ele>
      </trkpt>
      <trkpt lat="-36.79687201983597" lon="175.087606332253">
        <ele>123</ele>
      </trkpt>
      <trkpt lat="-36.79684150295632" lon="175.087534808316">
        <ele>124</ele>
      </trkpt>
      <trkpt lat="-36.79684150295632" lon="175.087455655159">
        <ele>123</ele>
      </trkpt>
      <trkpt lat="-36.79686248331108" lon="175.087378409308">
        <ele>122</ele>
      </trkpt>
      <trkpt lat="-36.79689490749571" lon="175.087303070761">
        <ele>122</ele>
      </trkpt>
      <trkpt lat="-36.79695117299256" lon="175.087209612817">
        <ele>121</ele>
      </trkpt>
      <trkpt lat="-36.79698073621972" lon="175.087174327675">
        <ele>121</ele>
      </trkpt>
      <trkpt lat="-36.79704558458897" lon="175.087142857143">
        <ele>121</ele>
      </trkpt>
      <trkpt lat="-36.79704558458897" lon="175.087142857143">
        <ele>121</ele>
      </trkpt>
      <trkpt lat="-36.79657257295442" lon="175.086862483311">
        <ele>109</ele>
      </trkpt>
      <trkpt lat="-36.79615391951173" lon="175.086646957849">
        <ele>99</ele>
      </trkpt>
      <trkpt lat="-36.79591646004196" lon="175.08653633416">
        <ele>95</ele>
      </trkpt>
      <trkpt lat="-36.79591646004196" lon="175.08653633416">
        <ele>95</ele>
      </trkpt>
      <trkpt lat="-36.79590692351707" lon="175.086609765402">
        <ele>95</ele>
      </trkpt>
      <trkpt lat="-36.79586019454511" lon="175.086706084303">
        <ele>95</ele>
      </trkpt>
      <trkpt lat="-36.79578962426092" lon="175.086810032424">
        <ele>95</ele>
      </trkpt>
      <trkpt lat="-36.79573717337402" lon="175.086858668701">
        <ele>94</ele>
      </trkpt>
      <trkpt lat="-36.79565515925997" lon="175.086895861148">
        <ele>93</ele>
      </trkpt>
      <trkpt lat="-36.79557314514591" lon="175.086933053595">
        <ele>92</ele>
      </trkpt>
      <trkpt lat="-36.79522792294487" lon="175.086989319092">
        <ele>86</ele>
      </trkpt>
      <trkpt lat="-36.79522792294487" lon="175.086989319092">
        <ele>86</ele>
      </trkpt>
      <trkpt lat="-36.79503242418463" lon="175.08698455083">
        <ele>83</ele>
      </trkpt>
      <trkpt lat="-36.79476063322525" lon="175.086955941255">
        <ele>79</ele>
      </trkpt>
      <trkpt lat="-36.7944783520885" lon="175.086885370971">
        <ele>74</ele>
      </trkpt>
      <trkpt lat="-36.79434484074003" lon="175.086845317566">
        <ele>71</ele>
      </trkpt>
      <trkpt lat="-36.79425710471104" lon="175.086845317566">
        <ele>70</ele>
      </trkpt>
      <trkpt lat="-36.79404253290101" lon="175.086897768453">
        <ele>69</ele>
      </trkpt>
      <trkpt lat="-36.79371447644478" lon="175.086704176998">
        <ele>66</ele>
      </trkpt>
      <trkpt lat="-36.79351134846462" lon="175.086545870685">
        <ele>63</ele>
      </trkpt>
      <trkpt lat="-36.7933997711234" lon="175.086476254053">
        <ele>61</ele>
      </trkpt>
      <trkpt lat="-36.79319664314324" lon="175.086305550258">
        <ele>57</ele>
      </trkpt>
      <trkpt lat="-36.79303166126264" lon="175.086136753767">
        <ele>53</ele>
      </trkpt>
      <trkpt lat="-36.79292866679382" lon="175.086018500858">
        <ele>50</ele>
      </trkpt>
      <trkpt lat="-36.79285046728972" lon="175.085979401106">
        <ele>49</ele>
      </trkpt>
      <trkpt lat="-36.79260537860004" lon="175.085939347702">
        <ele>48</ele>
      </trkpt>
      <trkpt lat="-36.7925128743086" lon="175.085905016212">
        <ele>47</ele>
      </trkpt>
      <trkpt lat="-36.79246519168415" lon="175.085848750715">
        <ele>46</ele>
      </trkpt>
      <trkpt lat="-36.79246519168415" lon="175.085848750715">
        <ele>46</ele>
      </trkpt>
      <trkpt lat="-36.79248998664887" lon="175.085733358764">
        <ele>45</ele>
      </trkpt>
      <trkpt lat="-36.7925481594507" lon="175.085629410643">
        <ele>44</ele>
      </trkpt>
      <trkpt lat="-36.79257962998283" lon="175.085547396529">
        <ele>43</ele>
      </trkpt>
      <trkpt lat="-36.79261110051497" lon="175.085466336067">
        <ele>42</ele>
      </trkpt>
      <trkpt lat="-36.79261586877742" lon="175.085390997521">
        <ele>41</ele>
      </trkpt>
      <trkpt lat="-36.79260442494755" lon="175.085272744612">
        <ele>40</ele>
      </trkpt>
      <trkpt lat="-36.79258344459279" lon="175.085156399008">
        <ele>38</ele>
      </trkpt>
      <trkpt lat="-36.7925567423231" lon="175.085047682624">
        <ele>37</ele>
      </trkpt>
      <trkpt lat="-36.79252908640091" lon="175.084938966241">
        <ele>35</ele>
      </trkpt>
      <trkpt lat="-36.79249952317375" lon="175.084862674042">
        <ele>35</ele>
      </trkpt>
      <trkpt lat="-36.79245660881175" lon="175.084788289147">
        <ele>34</ele>
      </trkpt>
      <trkpt lat="-36.79239271409498" lon="175.084726301736">
        <ele>33</ele>
      </trkpt>
      <trkpt lat="-36.79232691207324" lon="175.084643333969">
        <ele>32</ele>
      </trkpt>
      <trkpt lat="-36.7922611100515" lon="175.084561319855">
        <ele>31</ele>
      </trkpt>
      <trkpt lat="-36.79222010299447" lon="175.084461186344">
        <ele>30</ele>
      </trkpt>
      <trkpt lat="-36.79220389090215" lon="175.084370589357">
        <ele>29</ele>
      </trkpt>
      <trkpt lat="-36.79217242037002" lon="175.084034903681">
        <ele>28</ele>
      </trkpt>
      <trkpt lat="-36.79215430097273" lon="175.083946214">
        <ele>27</ele>
      </trkpt>
      <trkpt lat="-36.79212855235552" lon="175.083878504673">
        <ele>27</ele>
      </trkpt>
      <trkpt lat="-36.79207419416365" lon="175.083789814991">
        <ele>26</ele>
      </trkpt>
      <trkpt lat="-36.79200648483693" lon="175.08370875453">
        <ele>26</ele>
      </trkpt>
      <trkpt lat="-36.79193686820523" lon="175.083648674423">
        <ele>25</ele>
      </trkpt>
      <trkpt lat="-36.79186725157353" lon="175.083589547969">
        <ele>24</ele>
      </trkpt>
      <trkpt lat="-36.79175185962235" lon="175.08347129506">
        <ele>23</ele>
      </trkpt>
      <trkpt lat="-36.79175185962235" lon="175.08347129506">
        <ele>23</ele>
      </trkpt>
      <trkpt lat="-36.79171180621781" lon="175.083407400343">
        <ele>22</ele>
      </trkpt>
      <trkpt lat="-36.79167556742323" lon="175.083299637612">
        <ele>22</ele>
      </trkpt>
      <trkpt lat="-36.79164695784856" lon="175.083189013923">
        <ele>23</ele>
      </trkpt>
      <trkpt lat="-36.7916431432386" lon="175.083104138852">
        <ele>23</ele>
      </trkpt>
      <trkpt lat="-36.79164886515354" lon="175.083026893">
        <ele>24</ele>
      </trkpt>
      <trkpt lat="-36.79165363341598" lon="175.082950600801">
        <ele>24</ele>
      </trkpt>
      <trkpt lat="-36.79165077245852" lon="175.08285809651">
        <ele>25</ele>
      </trkpt>
      <trkpt lat="-36.79151535380507" lon="175.082498569521">
        <ele>25</ele>
      </trkpt>
      <trkpt lat="-36.79148292962044" lon="175.082431813847">
        <ele>25</ele>
      </trkpt>
      <trkpt lat="-36.79144955178333" lon="175.082366011825">
        <ele>25</ele>
      </trkpt>
      <trkpt lat="-36.79137707419417" lon="175.082302117109">
        <ele>25</ele>
      </trkpt>
      <trkpt lat="-36.79133320617967" lon="175.082286858669">
        <ele>24</ele>
      </trkpt>
      <trkpt lat="-36.79127598703032" lon="175.082292580584">
        <ele>24</ele>
      </trkpt>
      <trkpt lat="-36.79120255578867" lon="175.082318329201">
        <ele>23</ele>
      </trkpt>
      <trkpt lat="-36.79109765401488" lon="175.082372687393">
        <ele>21</ele>
      </trkpt>
      <trkpt lat="-36.79099656685104" lon="175.082415601755">
        <ele>20</ele>
      </trkpt>
      <trkpt lat="-36.7908954796872" lon="175.082459469769">
        <ele>18</ele>
      </trkpt>
      <trkpt lat="-36.7908954796872" lon="175.082459469769">
        <ele>18</ele>
      </trkpt>
      <trkpt lat="-36.79084875071524" lon="175.082372687393">
        <ele>18</ele>
      </trkpt>
      <trkpt lat="-36.79080202174327" lon="175.082286858669">
        <ele>18</ele>
      </trkpt>
      <trkpt lat="-36.7907562464238" lon="175.082220102995">
        <ele>19</ele>
      </trkpt>
      <trkpt lat="-36.79071047110433" lon="175.082154300973">
        <ele>19</ele>
      </trkpt>
      <trkpt lat="-36.79062368872783" lon="175.082037955369">
        <ele>19</ele>
      </trkpt>
      <trkpt lat="-36.79053595269884" lon="175.081922563418">
        <ele>20</ele>
      </trkpt>
      <trkpt lat="-36.79031470532138" lon="175.081664123593">
        <ele>21</ele>
      </trkpt>
      <trkpt lat="-36.79027369826435" lon="175.081596414267">
        <ele>21</ele>
      </trkpt>
      <trkpt lat="-36.79025462521457" lon="175.081538241465">
        <ele>22</ele>
      </trkpt>
      <trkpt lat="-36.79024890329963" lon="175.081472439443">
        <ele>23</ele>
      </trkpt>
      <trkpt lat="-36.79024222773221" lon="175.081406637421">
        <ele>24</ele>
      </trkpt>
      <trkpt lat="-36.79024222773221" lon="175.081406637421">
        <ele>24</ele>
      </trkpt>
      <trkpt lat="-36.78983787907686" lon="175.081407591074">
        <ele>21</ele>
      </trkpt>
      <trkpt lat="-36.78951935914553" lon="175.081378027847">
        <ele>19</ele>
      </trkpt>
      <trkpt lat="-36.78945355712379" lon="175.081360862102">
        <ele>19</ele>
      </trkpt>
      <trkpt lat="-36.78898340644669" lon="175.081203509441">
        <ele>20</ele>
      </trkpt>
      <trkpt lat="-36.78898340644669" lon="175.081203509441">
        <ele>20</ele>
      </trkpt>
      <trkpt lat="-36.78890902155255" lon="175.081191111959">
        <ele>20</ele>
      </trkpt>
      <trkpt lat="-36.78876597367919" lon="175.081184436391">
        <ele>20</ele>
      </trkpt>
      <trkpt lat="-36.78843600991799" lon="175.081235933626">
        <ele>17</ele>
      </trkpt>
      <trkpt lat="-36.78795727636849" lon="175.081250238413">
        <ele>12</ele>
      </trkpt>
    </trkseg>
  </trk>
</gpx>