<?xml version="1.0" encoding="UTF-8" standalone="yes"?>
<gpx
 version="1.1"
 creator="Generated by MapOut iPhone App. See https://mapout.app"
 xmlns="http://www.topografix.com/GPX/1/1"
 xmlns:xsi="http://www.w3.org/2001/XMLSchema-instance"
 xmlns:gpxx="http://www.garmin.com/xmlschemas/GpxExtensions/v3"
 xmlns:mapout="https://mapout.app/xmlschemas/MapOutExtensions"
 xsi:schemaLocation="http://www.topografix.com/GPX/1/1 https://www.topografix.com/GPX/1/1/gpx.xsd http://www.garmin.com/xmlschemas/GpxExtensions/v3 https://www8.garmin.com/xmlschemas/GpxExtensionsv3.xsd https://mapout.app/xmlschemas/MapOutExtensions https://mapout.app/xmlschemas/MapOutExtensions.xsd">
  <metadata>
    <name>Castle Hill</name>
    <time>2026-09-20T23:55:12Z</time>
    <bounds minlat="-43.23315371021977" minlon="171.714341979783" maxlat="-43.22860576006103" maxlon="171.721738517126"/>
  </metadata>
  <trk>
    <name>Castle Hill</name>
    <trkseg>
      <trkpt lat="-43.23315287688477" lon="171.721738076265">
        <ele>756</ele>
      </trkpt>
      <trkpt lat="-43.23305454892237" lon="171.721686057601">
        <ele>756</ele>
      </trkpt>
      <trkpt lat="-43.23285618920465" lon="171.72153633416">
        <ele>756</ele>
      </trkpt>
      <trkpt lat="-43.23277894335304" lon="171.721459088308">
        <ele>756</ele>
      </trkpt>
      <trkpt lat="-43.23238413122258" lon="171.72066660309">
        <ele>758</ele>
      </trkpt>
      <trkpt lat="-43.23203795536906" lon="171.72">
        <ele>752</ele>
      </trkpt>
      <trkpt lat="-43.23203795536906" lon="171.72">
        <ele>752</ele>
      </trkpt>
      <trkpt lat="-43.231651726111" lon="171.719235170704">
        <ele>750</ele>
      </trkpt>
      <trkpt lat="-43.23143524699599" lon="171.718762159069">
        <ele>749</ele>
      </trkpt>
      <trkpt lat="-43.23119683387373" lon="171.718282471867">
        <ele>749</ele>
      </trkpt>
      <trkpt lat="-43.23101087163838" lon="171.717933435056">
        <ele>751</ele>
      </trkpt>
      <trkpt lat="-43.23088022124738" lon="171.717627312607">
        <ele>752</ele>
      </trkpt>
      <trkpt lat="-43.23063990082014" lon="171.717200076292">
        <ele>757</ele>
      </trkpt>
      <trkpt lat="-43.2302603471295" lon="171.716428571429">
        <ele>768</ele>
      </trkpt>
      <trkpt lat="-43.23010108716383" lon="171.716255006676">
        <ele>772</ele>
      </trkpt>
      <trkpt lat="-43.23010108716383" lon="171.716255006676">
        <ele>772</ele>
      </trkpt>
      <trkpt lat="-43.23003528514209" lon="171.716202555789">
        <ele>773</ele>
      </trkpt>
      <trkpt lat="-43.22993229067328" lon="171.716204463094">
        <ele>774</ele>
      </trkpt>
      <trkpt lat="-43.22982929620446" lon="171.716207324051">
        <ele>775</ele>
      </trkpt>
      <trkpt lat="-43.22976635514019" lon="171.716224489796">
        <ele>775</ele>
      </trkpt>
      <trkpt lat="-43.22970722868586" lon="171.716288384513">
        <ele>774</ele>
      </trkpt>
      <trkpt lat="-43.22960518786954" lon="171.716349418272">
        <ele>774</ele>
      </trkpt>
      <trkpt lat="-43.22953652489033" lon="171.716373259584">
        <ele>774</ele>
      </trkpt>
      <trkpt lat="-43.22946786191112" lon="171.716398054549">
        <ele>774</ele>
      </trkpt>
      <trkpt lat="-43.22939252336448" lon="171.716437154301">
        <ele>774</ele>
      </trkpt>
      <trkpt lat="-43.22931623116536" lon="171.716477207705">
        <ele>774</ele>
      </trkpt>
      <trkpt lat="-43.22922944878886" lon="171.716531565897">
        <ele>774</ele>
      </trkpt>
      <trkpt lat="-43.22915029563227" lon="171.71654014877">
        <ele>775</ele>
      </trkpt>
      <trkpt lat="-43.22910070570284" lon="171.716567804692">
        <ele>774</ele>
      </trkpt>
      <trkpt lat="-43.22905111577341" lon="171.716618348274">
        <ele>773</ele>
      </trkpt>
      <trkpt lat="-43.22896051878695" lon="171.716662216288">
        <ele>772</ele>
      </trkpt>
      <trkpt lat="-43.22886896814801" lon="171.716707037955">
        <ele>772</ele>
      </trkpt>
      <trkpt lat="-43.22880507343124" lon="171.71672038909">
        <ele>771</ele>
      </trkpt>
      <trkpt lat="-43.22870589357238" lon="171.716718481785">
        <ele>772</ele>
      </trkpt>
      <trkpt lat="-43.22860576006103" lon="171.71671657448">
        <ele>772</ele>
      </trkpt>
      <trkpt lat="-43.22860576006103" lon="171.71671657448">
        <ele>772</ele>
      </trkpt>
      <trkpt lat="-43.22863532328819" lon="171.716657448026">
        <ele>774</ele>
      </trkpt>
      <trkpt lat="-43.22870017165744" lon="171.716590692352">
        <ele>775</ele>
      </trkpt>
      <trkpt lat="-43.2287650200267" lon="171.71652489033">
        <ele>776</ele>
      </trkpt>
      <trkpt lat="-43.22882033187106" lon="171.71650200267">
        <ele>776</ele>
      </trkpt>
      <trkpt lat="-43.22889376311272" lon="171.716382796109">
        <ele>779</ele>
      </trkpt>
      <trkpt lat="-43.22890997520503" lon="171.71632939157">
        <ele>780</ele>
      </trkpt>
      <trkpt lat="-43.22894239938966" lon="171.716277894335">
        <ele>781</ele>
      </trkpt>
      <trkpt lat="-43.22897577722677" lon="171.716236887278">
        <ele>782</ele>
      </trkpt>
      <trkpt lat="-43.22902250619874" lon="171.716197787526">
        <ele>783</ele>
      </trkpt>
      <trkpt lat="-43.22907114247568" lon="171.716132939157">
        <ele>784</ele>
      </trkpt>
      <trkpt lat="-43.22909021552546" lon="171.71607285905">
        <ele>786</ele>
      </trkpt>
      <trkpt lat="-43.22904825481594" lon="171.715958420751">
        <ele>788</ele>
      </trkpt>
      <trkpt lat="-43.22905874499332" lon="171.715844936105">
        <ele>791</ele>
      </trkpt>
      <trkpt lat="-43.22904825481594" lon="171.715780087736">
        <ele>791</ele>
      </trkpt>
      <trkpt lat="-43.22902250619874" lon="171.715696166317">
        <ele>790</ele>
      </trkpt>
      <trkpt lat="-43.22903013541865" lon="171.715656112912">
        <ele>790</ele>
      </trkpt>
      <trkpt lat="-43.22907114247568" lon="171.715590310891">
        <ele>790</ele>
      </trkpt>
      <trkpt lat="-43.22907114247568" lon="171.715590310891">
        <ele>790</ele>
      </trkpt>
      <trkpt lat="-43.22916555407209" lon="171.715447263017">
        <ele>790</ele>
      </trkpt>
      <trkpt lat="-43.22927236315086" lon="171.715166889186">
        <ele>788</ele>
      </trkpt>
      <trkpt lat="-43.22927236315086" lon="171.715166889186">
        <ele>788</ele>
      </trkpt>
      <trkpt lat="-43.22935056265496" lon="171.715098226206">
        <ele>788</ele>
      </trkpt>
      <trkpt lat="-43.22946786191112" lon="171.715063894717">
        <ele>788</ele>
      </trkpt>
      <trkpt lat="-43.22956227350753" lon="171.715013351135">
        <ele>788</ele>
      </trkpt>
      <trkpt lat="-43.22961281708945" lon="171.714923707801">
        <ele>788</ele>
      </trkpt>
      <trkpt lat="-43.22961281708945" lon="171.714923707801">
        <ele>788</ele>
      </trkpt>
      <trkpt lat="-43.22968148006866" lon="171.71480831585">
        <ele>787</ele>
      </trkpt>
      <trkpt lat="-43.22975014304787" lon="171.714693877551">
        <ele>786</ele>
      </trkpt>
      <trkpt lat="-43.2297997329773" lon="171.714643333969">
        <ele>786</ele>
      </trkpt>
      <trkpt lat="-43.22983024985695" lon="171.714659546061">
        <ele>786</ele>
      </trkpt>
      <trkpt lat="-43.22989700553118" lon="171.71473965287">
        <ele>787</ele>
      </trkpt>
      <trkpt lat="-43.2299213982074" lon="171.714769348302">
        <ele>787</ele>
      </trkpt>
      <trkpt lat="-43.2299213982074" lon="171.714769348302">
        <ele>787</ele>
      </trkpt>
      <trkpt lat="-43.22989700553118" lon="171.71473965287">
        <ele>787</ele>
      </trkpt>
      <trkpt lat="-43.22986127349363" lon="171.714696774425">
        <ele>787</ele>
      </trkpt>
      <trkpt lat="-43.22986267404158" lon="171.714694831204">
        <ele>787</ele>
      </trkpt>
      <trkpt lat="-43.2299389662407" lon="171.714588975777">
        <ele>786</ele>
      </trkpt>
      <trkpt lat="-43.22998474156017" lon="171.714498378791">
        <ele>786</ele>
      </trkpt>
      <trkpt lat="-43.23003051687964" lon="171.714408735457">
        <ele>786</ele>
      </trkpt>
      <trkpt lat="-43.23006103375929" lon="171.714351516307">
        <ele>786</ele>
      </trkpt>
      <trkpt lat="-43.23010490177379" lon="171.714341979783">
        <ele>786</ele>
      </trkpt>
      <trkpt lat="-43.23016593553309" lon="171.7143677284">
        <ele>786</ele>
      </trkpt>
      <trkpt lat="-43.23022792294488" lon="171.714384894145">
        <ele>786</ele>
      </trkpt>
      <trkpt lat="-43.23031089071142" lon="171.714374403967">
        <ele>787</ele>
      </trkpt>
      <trkpt lat="-43.23036810986076" lon="171.714377264925">
        <ele>787</ele>
      </trkpt>
      <trkpt lat="-43.23043295823002" lon="171.714423040244">
        <ele>787</ele>
      </trkpt>
      <trkpt lat="-43.23050734312416" lon="171.714507915316">
        <ele>787</ele>
      </trkpt>
      <trkpt lat="-43.23055502574861" lon="171.714519359145">
        <ele>787</ele>
      </trkpt>
      <trkpt lat="-43.23059412550067" lon="171.714590883082">
        <ele>787</ele>
      </trkpt>
      <trkpt lat="-43.23063322525272" lon="171.714663360671">
        <ele>787</ele>
      </trkpt>
      <trkpt lat="-43.23067041769978" lon="171.714761586878">
        <ele>786</ele>
      </trkpt>
      <trkpt lat="-43.23070761014686" lon="171.714860766737">
        <ele>786</ele>
      </trkpt>
      <trkpt lat="-43.23070817168514" lon="171.714862263806">
        <ele>786</ele>
      </trkpt>
      <trkpt lat="-43.23068567613961" lon="171.714916078581">
        <ele>786</ele>
      </trkpt>
      <trkpt lat="-43.23062459056213" lon="171.715018069679">
        <ele>785</ele>
      </trkpt>
      <trkpt lat="-43.23062464238031" lon="171.715018119397">
        <ele>785</ele>
      </trkpt>
      <trkpt lat="-43.23074194163647" lon="171.715130650391">
        <ele>784</ele>
      </trkpt>
      <trkpt lat="-43.2308001144383" lon="171.715192637803">
        <ele>783</ele>
      </trkpt>
      <trkpt lat="-43.23085828724012" lon="171.715254625215">
        <ele>783</ele>
      </trkpt>
      <trkpt lat="-43.23089357238222" lon="171.715329010109">
        <ele>783</ele>
      </trkpt>
      <trkpt lat="-43.2309383940492" lon="171.715415792485">
        <ele>784</ele>
      </trkpt>
      <trkpt lat="-43.2309822620637" lon="171.715503528514">
        <ele>784</ele>
      </trkpt>
      <trkpt lat="-43.23100705702841" lon="171.715583635323">
        <ele>784</ele>
      </trkpt>
      <trkpt lat="-43.23103185199313" lon="171.715663742132">
        <ele>784</ele>
      </trkpt>
      <trkpt lat="-43.23109193209994" lon="171.715762921991">
        <ele>785</ele>
      </trkpt>
      <trkpt lat="-43.23111577341216" lon="171.715825863055">
        <ele>785</ele>
      </trkpt>
      <trkpt lat="-43.23113961472439" lon="171.71588880412">
        <ele>785</ele>
      </trkpt>
      <trkpt lat="-43.2311653633416" lon="171.715979401106">
        <ele>784</ele>
      </trkpt>
      <trkpt lat="-43.2311911119588" lon="171.716070951745">
        <ele>784</ele>
      </trkpt>
      <trkpt lat="-43.23131413312989" lon="171.716456227351">
        <ele>782</ele>
      </trkpt>
      <trkpt lat="-43.23136086210184" lon="171.7165515926">
        <ele>782</ele>
      </trkpt>
      <trkpt lat="-43.23140663742132" lon="171.716646957849">
        <ele>782</ele>
      </trkpt>
      <trkpt lat="-43.23143620064848" lon="171.71673183292">
        <ele>781</ele>
      </trkpt>
      <trkpt lat="-43.23146481022315" lon="171.716817661644">
        <ele>780</ele>
      </trkpt>
      <trkpt lat="-43.23147625405302" lon="171.716850085829">
        <ele>780</ele>
      </trkpt>
      <trkpt lat="-43.23153442685485" lon="171.716960709517">
        <ele>779</ele>
      </trkpt>
      <trkpt lat="-43.23161071905398" lon="171.717225824909">
        <ele>774</ele>
      </trkpt>
      <trkpt lat="-43.23162883845126" lon="171.717336448598">
        <ele>772</ele>
      </trkpt>
      <trkpt lat="-43.23164695784855" lon="171.717448025939">
        <ele>770</ele>
      </trkpt>
      <trkpt lat="-43.23164695784855" lon="171.717780850658">
        <ele>763</ele>
      </trkpt>
      <trkpt lat="-43.23162311653633" lon="171.717841884417">
        <ele>761</ele>
      </trkpt>
      <trkpt lat="-43.23159927522411" lon="171.717903871829">
        <ele>760</ele>
      </trkpt>
      <trkpt lat="-43.23158401678428" lon="171.717989700553">
        <ele>758</ele>
      </trkpt>
      <trkpt lat="-43.2316173946214" lon="171.718098416937">
        <ele>757</ele>
      </trkpt>
      <trkpt lat="-43.23162407018882" lon="171.718171848179">
        <ele>755</ele>
      </trkpt>
      <trkpt lat="-43.23163074575624" lon="171.718246233073">
        <ele>754</ele>
      </trkpt>
      <trkpt lat="-43.23166507724585" lon="171.718354949456">
        <ele>753</ele>
      </trkpt>
      <trkpt lat="-43.23169845508296" lon="171.718464619493">
        <ele>753</ele>
      </trkpt>
      <trkpt lat="-43.23171466717528" lon="171.718529467862">
        <ele>753</ele>
      </trkpt>
      <trkpt lat="-43.23172992561511" lon="171.718594316231">
        <ele>753</ele>
      </trkpt>
      <trkpt lat="-43.23173374022506" lon="171.71868968148">
        <ele>753</ele>
      </trkpt>
      <trkpt lat="-43.23173660118253" lon="171.718785046729">
        <ele>753</ele>
      </trkpt>
      <trkpt lat="-43.23172992561511" lon="171.718872782758">
        <ele>752</ele>
      </trkpt>
      <trkpt lat="-43.23172325004768" lon="171.718960518787">
        <ele>752</ele>
      </trkpt>
      <trkpt lat="-43.23170322334541" lon="171.719031089071">
        <ele>751</ele>
      </trkpt>
      <trkpt lat="-43.23168224299065" lon="171.719102613008">
        <ele>751</ele>
      </trkpt>
      <trkpt lat="-43.23166698455083" lon="171.71916841503">
        <ele>750</ele>
      </trkpt>
      <trkpt lat="-43.231651726111" lon="171.719235170704">
        <ele>750</ele>
      </trkpt>
      <trkpt lat="-43.231651726111" lon="171.719235170704">
        <ele>750</ele>
      </trkpt>
      <trkpt lat="-43.23203795536906" lon="171.72">
        <ele>752</ele>
      </trkpt>
      <trkpt lat="-43.23203795536906" lon="171.72">
        <ele>752</ele>
      </trkpt>
      <trkpt lat="-43.23238413122258" lon="171.72066660309">
        <ele>758</ele>
      </trkpt>
      <trkpt lat="-43.23277894335304" lon="171.721459088308">
        <ele>756</ele>
      </trkpt>
      <trkpt lat="-43.23285618920465" lon="171.72153633416">
        <ele>756</ele>
      </trkpt>
      <trkpt lat="-43.23305454892237" lon="171.721686057601">
        <ele>756</ele>
      </trkpt>
      <trkpt lat="-43.23315371021977" lon="171.721738517126">
        <ele>756</ele>
      </trkpt>
    </trkseg>
  </trk>
</gpx>