<?xml version="1.0" encoding="UTF-8" standalone="yes"?>
<gpx
 version="1.1"
 creator="Generated by MapOut iPhone App. See https://mapout.app"
 xmlns="http://www.topografix.com/GPX/1/1"
 xmlns:xsi="http://www.w3.org/2001/XMLSchema-instance"
 xmlns:gpxx="http://www.garmin.com/xmlschemas/GpxExtensions/v3"
 xmlns:mapout="https://mapout.app/xmlschemas/MapOutExtensions"
 xsi:schemaLocation="http://www.topografix.com/GPX/1/1 https://www.topografix.com/GPX/1/1/gpx.xsd http://www.garmin.com/xmlschemas/GpxExtensions/v3 https://www8.garmin.com/xmlschemas/GpxExtensionsv3.xsd https://mapout.app/xmlschemas/MapOutExtensions https://mapout.app/xmlschemas/MapOutExtensions.xsd">
  <metadata>
    <name>Red Rocks</name>
    <author><name>iPhone</name></author>
    <time>2026-07-09T20:24:14Z</time>
    <bounds minlat="-41.36202269692924" minlon="174.716596414267" maxlat="-41.34681289338165" maxlon="174.749283806981"/>
  </metadata>
  <trk>
    <name>Red Rocks</name>
    <trkseg>
      <trkpt lat="-41.34811367537669" lon="174.749283806981">
        <ele>20</ele>
      </trkpt>
      <trkpt lat="-41.34793534236125" lon="174.749218004959">
        <ele>22</ele>
      </trkpt>
      <trkpt lat="-41.34785046728972" lon="174.74916841503">
        <ele>22</ele>
      </trkpt>
      <trkpt lat="-41.34776940682816" lon="174.74913789815">
        <ele>23</ele>
      </trkpt>
      <trkpt lat="-41.34764829296205" lon="174.749077818043">
        <ele>23</ele>
      </trkpt>
      <trkpt lat="-41.34745851611673" lon="174.749008201411">
        <ele>24</ele>
      </trkpt>
      <trkpt lat="-41.34741464810223" lon="174.74890425329">
        <ele>23</ele>
      </trkpt>
      <trkpt lat="-41.34718863246233" lon="174.747936296014">
        <ele>23</ele>
      </trkpt>
      <trkpt lat="-41.34713332061797" lon="174.747468052642">
        <ele>24</ele>
      </trkpt>
      <trkpt lat="-41.34713999618539" lon="174.746967385085">
        <ele>16</ele>
      </trkpt>
      <trkpt lat="-41.34710947930574" lon="174.746477207706">
        <ele>12</ele>
      </trkpt>
      <trkpt lat="-41.34695308029754" lon="174.745427236315">
        <ele>11</ele>
      </trkpt>
      <trkpt lat="-41.34684531756628" lon="174.744780659928">
        <ele>14</ele>
      </trkpt>
      <trkpt lat="-41.34682242990655" lon="174.74452508106">
        <ele>15</ele>
      </trkpt>
      <trkpt lat="-41.34682910547397" lon="174.744317184818">
        <ele>15</ele>
      </trkpt>
      <trkpt lat="-41.34681289338165" lon="174.74389280946">
        <ele>19</ele>
      </trkpt>
      <trkpt lat="-41.34682529086401" lon="174.743736410452">
        <ele>20</ele>
      </trkpt>
      <trkpt lat="-41.34691874880794" lon="174.743242418463">
        <ele>23</ele>
      </trkpt>
      <trkpt lat="-41.34699980926951" lon="174.742870493992">
        <ele>23</ele>
      </trkpt>
      <trkpt lat="-41.34710852565325" lon="174.742527179096">
        <ele>22</ele>
      </trkpt>
      <trkpt lat="-41.34733358764066" lon="174.742015067709">
        <ele>22</ele>
      </trkpt>
      <trkpt lat="-41.34744707228686" lon="174.741837688346">
        <ele>20</ele>
      </trkpt>
      <trkpt lat="-41.34779706275034" lon="174.741465763876">
        <ele>22</ele>
      </trkpt>
      <trkpt lat="-41.34798588594317" lon="174.741375166889">
        <ele>20</ele>
      </trkpt>
      <trkpt lat="-41.34823955750525" lon="174.741282662598">
        <ele>15</ele>
      </trkpt>
      <trkpt lat="-41.34850181193973" lon="174.741156780469">
        <ele>12</ele>
      </trkpt>
      <trkpt lat="-41.34858859431623" lon="174.741070951745">
        <ele>12</ele>
      </trkpt>
      <trkpt lat="-41.34866774747282" lon="174.740928857524">
        <ele>13</ele>
      </trkpt>
      <trkpt lat="-41.34875929811177" lon="174.74069330536">
        <ele>15</ele>
      </trkpt>
      <trkpt lat="-41.34882223917604" lon="174.740442494755">
        <ele>17</ele>
      </trkpt>
      <trkpt lat="-41.34891474346748" lon="174.74">
        <ele>20</ele>
      </trkpt>
      <trkpt lat="-41.34891474346748" lon="174.74">
        <ele>20</ele>
      </trkpt>
      <trkpt lat="-41.34893095555979" lon="174.739749189395">
        <ele>19</ele>
      </trkpt>
      <trkpt lat="-41.34888613389281" lon="174.739278085066">
        <ele>22</ele>
      </trkpt>
      <trkpt lat="-41.34872782757963" lon="174.738498950982">
        <ele>25</ele>
      </trkpt>
      <trkpt lat="-41.34865153538051" lon="174.737736028991">
        <ele>22</ele>
      </trkpt>
      <trkpt lat="-41.3486439061606" lon="174.737197215335">
        <ele>22</ele>
      </trkpt>
      <trkpt lat="-41.34864676711806" lon="174.736520122068">
        <ele>26</ele>
      </trkpt>
      <trkpt lat="-41.34869063513256" lon="174.735650390998">
        <ele>28</ele>
      </trkpt>
      <trkpt lat="-41.34885084875071" lon="174.734206561129">
        <ele>23</ele>
      </trkpt>
      <trkpt lat="-41.34891092885753" lon="174.733553309174">
        <ele>26</ele>
      </trkpt>
      <trkpt lat="-41.34898436009918" lon="174.733156589739">
        <ele>29</ele>
      </trkpt>
      <trkpt lat="-41.34941827198169" lon="174.732528132748">
        <ele>29</ele>
      </trkpt>
      <trkpt lat="-41.34974442113294" lon="174.732325004768">
        <ele>26</ele>
      </trkpt>
      <trkpt lat="-41.35009059698646" lon="174.732205798207">
        <ele>19</ele>
      </trkpt>
      <trkpt lat="-41.35038336830059" lon="174.732115201221">
        <ele>17</ele>
      </trkpt>
      <trkpt lat="-41.35060461567805" lon="174.732120923136">
        <ele>13</ele>
      </trkpt>
      <trkpt lat="-41.35074575624643" lon="174.732023650582">
        <ele>12</ele>
      </trkpt>
      <trkpt lat="-41.35085828724013" lon="174.731572572954">
        <ele>15</ele>
      </trkpt>
      <trkpt lat="-41.35102708373069" lon="174.730941255007">
        <ele>21</ele>
      </trkpt>
      <trkpt lat="-41.35117966812894" lon="174.730660881175">
        <ele>20</ele>
      </trkpt>
      <trkpt lat="-41.35133129887469" lon="174.730355712378">
        <ele>19</ele>
      </trkpt>
      <trkpt lat="-41.35160976540149" lon="174.729963761205">
        <ele>14</ele>
      </trkpt>
      <trkpt lat="-41.35219530802976" lon="174.729481213046">
        <ele>12</ele>
      </trkpt>
      <trkpt lat="-41.35237554835018" lon="174.729240892619">
        <ele>10</ele>
      </trkpt>
      <trkpt lat="-41.35264257104711" lon="174.728917604425">
        <ele>16</ele>
      </trkpt>
      <trkpt lat="-41.35286763303452" lon="174.7287354568">
        <ele>19</ele>
      </trkpt>
      <trkpt lat="-41.35319759679573" lon="174.728537097082">
        <ele>16</ele>
      </trkpt>
      <trkpt lat="-41.35386229258059" lon="174.728285332825">
        <ele>8</ele>
      </trkpt>
      <trkpt lat="-41.35426664123594" lon="174.728107953462">
        <ele>6</ele>
      </trkpt>
      <trkpt lat="-41.35456513446501" lon="174.727931527751">
        <ele>7</ele>
      </trkpt>
      <trkpt lat="-41.35488270074385" lon="174.727780850658">
        <ele>5</ele>
      </trkpt>
      <trkpt lat="-41.35510776273127" lon="174.72760919321">
        <ele>6</ele>
      </trkpt>
      <trkpt lat="-41.35541483883273" lon="174.727443257677">
        <ele>10</ele>
      </trkpt>
      <trkpt lat="-41.35564466908259" lon="174.72740987984">
        <ele>11</ele>
      </trkpt>
      <trkpt lat="-41.35591646004196" lon="174.727319282853">
        <ele>14</ele>
      </trkpt>
      <trkpt lat="-41.35621113866107" lon="174.727196261682">
        <ele>17</ele>
      </trkpt>
      <trkpt lat="-41.35701888231928" lon="174.726912073241">
        <ele>10</ele>
      </trkpt>
      <trkpt lat="-41.35720770551211" lon="174.726810032424">
        <ele>7</ele>
      </trkpt>
      <trkpt lat="-41.35733358764067" lon="174.726596414267">
        <ele>8</ele>
      </trkpt>
      <trkpt lat="-41.35744707228686" lon="174.72606904444">
        <ele>17</ele>
      </trkpt>
      <trkpt lat="-41.35750047682625" lon="174.725784855998">
        <ele>20</ele>
      </trkpt>
      <trkpt lat="-41.35767404157925" lon="174.725608430288">
        <ele>18</ele>
      </trkpt>
      <trkpt lat="-41.35788289147435" lon="174.725157352661">
        <ele>18</ele>
      </trkpt>
      <trkpt lat="-41.35789719626168" lon="174.725087736029">
        <ele>18</ele>
      </trkpt>
      <trkpt lat="-41.35780373831776" lon="174.724755864963">
        <ele>20</ele>
      </trkpt>
      <trkpt lat="-41.35779515544536" lon="174.724423040244">
        <ele>18</ele>
      </trkpt>
      <trkpt lat="-41.35772267785619" lon="174.724143620065">
        <ele>18</ele>
      </trkpt>
      <trkpt lat="-41.35765401487698" lon="174.723557123784">
        <ele>16</ele>
      </trkpt>
      <trkpt lat="-41.3574871256914" lon="174.72322620637">
        <ele>17</ele>
      </trkpt>
      <trkpt lat="-41.35746614533664" lon="174.722839977112">
        <ele>18</ele>
      </trkpt>
      <trkpt lat="-41.35743753576197" lon="174.722770360481">
        <ele>18</ele>
      </trkpt>
      <trkpt lat="-41.35746614533664" lon="174.722512874309">
        <ele>17</ele>
      </trkpt>
      <trkpt lat="-41.35754529849323" lon="174.722106618348">
        <ele>19</ele>
      </trkpt>
      <trkpt lat="-41.35767213427427" lon="174.72177760824">
        <ele>19</ele>
      </trkpt>
      <trkpt lat="-41.35775605569331" lon="174.721473393096">
        <ele>20</ele>
      </trkpt>
      <trkpt lat="-41.35777894335305" lon="174.721163456037">
        <ele>22</ele>
      </trkpt>
      <trkpt lat="-41.35798683959565" lon="174.720780087736">
        <ele>17</ele>
      </trkpt>
      <trkpt lat="-41.358129887469" lon="174.720500667557">
        <ele>16</ele>
      </trkpt>
      <trkpt lat="-41.35826816707992" lon="174.720254625215">
        <ele>12</ele>
      </trkpt>
      <trkpt lat="-41.35833873736411" lon="174.720095365249">
        <ele>11</ele>
      </trkpt>
      <trkpt lat="-41.3583997711234" lon="174.72">
        <ele>11</ele>
      </trkpt>
      <trkpt lat="-41.35839977112359" lon="174.72">
        <ele>11</ele>
      </trkpt>
      <trkpt lat="-41.35843410261301" lon="174.719957085638">
        <ele>12</ele>
      </trkpt>
      <trkpt lat="-41.3584779706275" lon="174.719919893191">
        <ele>12</ele>
      </trkpt>
      <trkpt lat="-41.35858954796872" lon="174.719855044822">
        <ele>12</ele>
      </trkpt>
      <trkpt lat="-41.3586782376502" lon="174.71977398436">
        <ele>13</ele>
      </trkpt>
      <trkpt lat="-41.35870970818234" lon="174.719755864963">
        <ele>13</ele>
      </trkpt>
      <trkpt lat="-41.35875739080679" lon="174.719736791913">
        <ele>13</ele>
      </trkpt>
      <trkpt lat="-41.35883272935342" lon="174.719721533473">
        <ele>12</ele>
      </trkpt>
      <trkpt lat="-41.35890806790006" lon="174.719707228686">
        <ele>11</ele>
      </trkpt>
      <trkpt lat="-41.35900438680145" lon="174.719674804501">
        <ele>9</ele>
      </trkpt>
      <trkpt lat="-41.35907495708564" lon="174.719640473012">
        <ele>9</ele>
      </trkpt>
      <trkpt lat="-41.35913885180241" lon="174.719600419607">
        <ele>8</ele>
      </trkpt>
      <trkpt lat="-41.35921514400152" lon="174.719573717337">
        <ele>8</ele>
      </trkpt>
      <trkpt lat="-41.35929048254816" lon="174.719547015068">
        <ele>8</ele>
      </trkpt>
      <trkpt lat="-41.35936009917986" lon="174.719496471486">
        <ele>8</ele>
      </trkpt>
      <trkpt lat="-41.35942876215907" lon="174.719446881556">
        <ele>8</ele>
      </trkpt>
      <trkpt lat="-41.35950314705322" lon="174.719411596414">
        <ele>8</ele>
      </trkpt>
      <trkpt lat="-41.35958134655731" lon="174.719383940492">
        <ele>8</ele>
      </trkpt>
      <trkpt lat="-41.35963665840168" lon="174.719353423612">
        <ele>8</ele>
      </trkpt>
      <trkpt lat="-41.35973583826054" lon="174.719247568186">
        <ele>8</ele>
      </trkpt>
      <trkpt lat="-41.35981213045966" lon="174.719176044249">
        <ele>8</ele>
      </trkpt>
      <trkpt lat="-41.35990654205607" lon="174.719097844745">
        <ele>9</ele>
      </trkpt>
      <trkpt lat="-41.36" lon="174.719020598894">
        <ele>10</ele>
      </trkpt>
      <trkpt lat="-41.36" lon="174.719020598894">
        <ele>10</ele>
      </trkpt>
      <trkpt lat="-41.36037860003815" lon="174.718671562083">
        <ele>17</ele>
      </trkpt>
      <trkpt lat="-41.36067232500476" lon="174.718296776655">
        <ele>19</ele>
      </trkpt>
      <trkpt lat="-41.36099847415601" lon="174.71786191112">
        <ele>26</ele>
      </trkpt>
      <trkpt lat="-41.36124833110814" lon="174.717599656685">
        <ele>26</ele>
      </trkpt>
      <trkpt lat="-41.36153347320236" lon="174.717330726683">
        <ele>23</ele>
      </trkpt>
      <trkpt lat="-41.36176711806218" lon="174.717083730689">
        <ele>21</ele>
      </trkpt>
      <trkpt lat="-41.36182815182148" lon="174.716895861148">
        <ele>23</ele>
      </trkpt>
      <trkpt lat="-41.36194926568758" lon="174.716734693878">
        <ele>22</ele>
      </trkpt>
      <trkpt lat="-41.36202269692924" lon="174.716596414267">
        <ele>21</ele>
      </trkpt>
    </trkseg>
  </trk>
</gpx>