<?xml version="1.0" encoding="UTF-8" standalone="yes"?>
<gpx
 version="1.1"
 creator="Generated by MapOut iPhone App. See https://mapout.app"
 xmlns="http://www.topografix.com/GPX/1/1"
 xmlns:xsi="http://www.w3.org/2001/XMLSchema-instance"
 xmlns:gpxx="http://www.garmin.com/xmlschemas/GpxExtensions/v3"
 xmlns:mapout="https://mapout.app/xmlschemas/MapOutExtensions"
 xsi:schemaLocation="http://www.topografix.com/GPX/1/1 https://www.topografix.com/GPX/1/1/gpx.xsd http://www.garmin.com/xmlschemas/GpxExtensions/v3 https://www8.garmin.com/xmlschemas/GpxExtensionsv3.xsd https://mapout.app/xmlschemas/MapOutExtensions https://mapout.app/xmlschemas/MapOutExtensions.xsd">
  <metadata>
    <name>Tongariro Soda Springs</name>
    <author><name>iPhone</name></author>
    <time>2026-09-13T22:55:21Z</time>
    <bounds minlat="-39.14738603852756" minlon="175.580647522768" maxlat="-39.13880507343124" maxlon="175.628067084364"/>
  </metadata>
  <wpt lat="-39.13881067042405" lon="175.628067084364">
    <ele>1425</ele>
    <name>Soda Springs</name>
    <sym>Waypoint</sym>
    <extensions>
      <mapout:extension>
        <mapout:color>FF2E1B</mapout:color>
      </mapout:extension>
    </extensions>
  </wpt>
  <trk>
    <trkseg>
      <trkpt lat="-39.14409783095775" lon="175.580647522768">
        <ele>1120</ele>
      </trkpt>
      <trkpt lat="-39.1444259012016" lon="175.58091169178">
        <ele>1123</ele>
      </trkpt>
      <trkpt lat="-39.1444259012016" lon="175.58091169178">
        <ele>1123</ele>
      </trkpt>
      <trkpt lat="-39.14448121304596" lon="175.580977493801">
        <ele>1123</ele>
      </trkpt>
      <trkpt lat="-39.14448121304596" lon="175.580977493801">
        <ele>1123</ele>
      </trkpt>
      <trkpt lat="-39.14448121304596" lon="175.581237840931">
        <ele>1124</ele>
      </trkpt>
      <trkpt lat="-39.1444869349609" lon="175.581257867633">
        <ele>1124</ele>
      </trkpt>
      <trkpt lat="-39.14450219340073" lon="175.581289338165">
        <ele>1124</ele>
      </trkpt>
      <trkpt lat="-39.14455559794011" lon="175.581358001144">
        <ele>1124</ele>
      </trkpt>
      <trkpt lat="-39.14466145336639" lon="175.581469578486">
        <ele>1125</ele>
      </trkpt>
      <trkpt lat="-39.14470150677093" lon="175.58149437345">
        <ele>1125</ele>
      </trkpt>
      <trkpt lat="-39.14508487507153" lon="175.581676521076">
        <ele>1128</ele>
      </trkpt>
      <trkpt lat="-39.14516402822811" lon="175.581697501431">
        <ele>1129</ele>
      </trkpt>
      <trkpt lat="-39.1452260156399" lon="175.581700362388">
        <ele>1130</ele>
      </trkpt>
      <trkpt lat="-39.14531470532138" lon="175.581684150296">
        <ele>1131</ele>
      </trkpt>
      <trkpt lat="-39.14557886706084" lon="175.581815754339">
        <ele>1133</ele>
      </trkpt>
      <trkpt lat="-39.14568567613961" lon="175.581880602708">
        <ele>1134</ele>
      </trkpt>
      <trkpt lat="-39.1457915315659" lon="175.581945451078">
        <ele>1134</ele>
      </trkpt>
      <trkpt lat="-39.1458868968148" lon="175.582010299447">
        <ele>1135</ele>
      </trkpt>
      <trkpt lat="-39.14594602326912" lon="175.582072286859">
        <ele>1135</ele>
      </trkpt>
      <trkpt lat="-39.14600038146099" lon="175.582161930193">
        <ele>1136</ele>
      </trkpt>
      <trkpt lat="-39.14601563990082" lon="175.582219149342">
        <ele>1136</ele>
      </trkpt>
      <trkpt lat="-39.14602422277322" lon="175.582302117109">
        <ele>1136</ele>
      </trkpt>
      <trkpt lat="-39.14603280564562" lon="175.582386038528">
        <ele>1136</ele>
      </trkpt>
      <trkpt lat="-39.14605950791531" lon="175.582505245089">
        <ele>1136</ele>
      </trkpt>
      <trkpt lat="-39.14620160213618" lon="175.582948693496">
        <ele>1138</ele>
      </trkpt>
      <trkpt lat="-39.14621495327103" lon="175.582998283426">
        <ele>1138</ele>
      </trkpt>
      <trkpt lat="-39.14622735075339" lon="175.583079343887">
        <ele>1138</ele>
      </trkpt>
      <trkpt lat="-39.14623879458325" lon="175.583161358001">
        <ele>1138</ele>
      </trkpt>
      <trkpt lat="-39.14628075529277" lon="175.583242418463">
        <ele>1138</ele>
      </trkpt>
      <trkpt lat="-39.1463217623498" lon="175.583323478924">
        <ele>1138</ele>
      </trkpt>
      <trkpt lat="-39.14635323288194" lon="175.583412168606">
        <ele>1139</ele>
      </trkpt>
      <trkpt lat="-39.1463646767118" lon="175.583464619493">
        <ele>1139</ele>
      </trkpt>
      <trkpt lat="-39.14636658401678" lon="175.583525653252">
        <ele>1139</ele>
      </trkpt>
      <trkpt lat="-39.14636658401678" lon="175.583525653252">
        <ele>1139</ele>
      </trkpt>
      <trkpt lat="-39.14636181575434" lon="175.583630555026">
        <ele>1139</ele>
      </trkpt>
      <trkpt lat="-39.14636181575434" lon="175.583630555026">
        <ele>1139</ele>
      </trkpt>
      <trkpt lat="-39.14638851802403" lon="175.583734503147">
        <ele>1140</ele>
      </trkpt>
      <trkpt lat="-39.14642094220866" lon="175.583819378219">
        <ele>1140</ele>
      </trkpt>
      <trkpt lat="-39.14645241274079" lon="175.583905206943">
        <ele>1140</ele>
      </trkpt>
      <trkpt lat="-39.14652107572001" lon="175.584010108716">
        <ele>1140</ele>
      </trkpt>
      <trkpt lat="-39.14655254625215" lon="175.584048254816">
        <ele>1140</ele>
      </trkpt>
      <trkpt lat="-39.14660595079153" lon="175.584089261873">
        <ele>1140</ele>
      </trkpt>
      <trkpt lat="-39.14664218958611" lon="175.584140759107">
        <ele>1140</ele>
      </trkpt>
      <trkpt lat="-39.14665554072096" lon="175.584184627122">
        <ele>1140</ele>
      </trkpt>
      <trkpt lat="-39.1466688918558" lon="175.584290482548">
        <ele>1141</ele>
      </trkpt>
      <trkpt lat="-39.14665458706847" lon="175.58438298684">
        <ele>1142</ele>
      </trkpt>
      <trkpt lat="-39.14661548731642" lon="175.584459279039">
        <ele>1142</ele>
      </trkpt>
      <trkpt lat="-39.14656112912454" lon="175.584519359146">
        <ele>1143</ele>
      </trkpt>
      <trkpt lat="-39.14652775128743" lon="175.584541293153">
        <ele>1143</ele>
      </trkpt>
      <trkpt lat="-39.14644669082586" lon="175.584558458898">
        <ele>1144</ele>
      </trkpt>
      <trkpt lat="-39.14638184245661" lon="175.584562273508">
        <ele>1144</ele>
      </trkpt>
      <trkpt lat="-39.14631699408735" lon="175.584566088118">
        <ele>1144</ele>
      </trkpt>
      <trkpt lat="-39.14629029181766" lon="175.58457467099">
        <ele>1144</ele>
      </trkpt>
      <trkpt lat="-39.14620255578867" lon="175.584631890139">
        <ele>1145</ele>
      </trkpt>
      <trkpt lat="-39.14614724394431" lon="175.584685294679">
        <ele>1145</ele>
      </trkpt>
      <trkpt lat="-39.14609765401487" lon="175.584767308793">
        <ele>1146</ele>
      </trkpt>
      <trkpt lat="-39.14604901773794" lon="175.584876978829">
        <ele>1147</ele>
      </trkpt>
      <trkpt lat="-39.14602994468815" lon="175.584938966241">
        <ele>1147</ele>
      </trkpt>
      <trkpt lat="-39.14601373259584" lon="175.585005721915">
        <ele>1147</ele>
      </trkpt>
      <trkpt lat="-39.14600610337593" lon="175.585066755674">
        <ele>1148</ele>
      </trkpt>
      <trkpt lat="-39.14599847415602" lon="175.585128743086">
        <ele>1148</ele>
      </trkpt>
      <trkpt lat="-39.14600228876597" lon="175.585193591455">
        <ele>1148</ele>
      </trkpt>
      <trkpt lat="-39.14600514972344" lon="175.585258439825">
        <ele>1148</ele>
      </trkpt>
      <trkpt lat="-39.14605473965287" lon="175.585507343124">
        <ele>1149</ele>
      </trkpt>
      <trkpt lat="-39.14607381270265" lon="175.585587449933">
        <ele>1149</ele>
      </trkpt>
      <trkpt lat="-39.14609288575243" lon="175.585667556742">
        <ele>1149</ele>
      </trkpt>
      <trkpt lat="-39.14626740415792" lon="175.586312225825">
        <ele>1152</ele>
      </trkpt>
      <trkpt lat="-39.14628361625024" lon="175.586387564372">
        <ele>1153</ele>
      </trkpt>
      <trkpt lat="-39.14628838451268" lon="175.586448598131">
        <ele>1153</ele>
      </trkpt>
      <trkpt lat="-39.14629315277513" lon="175.586510585543">
        <ele>1154</ele>
      </trkpt>
      <trkpt lat="-39.14635132557696" lon="175.586821476254">
        <ele>1155</ele>
      </trkpt>
      <trkpt lat="-39.14640568376883" lon="175.58720293725">
        <ele>1158</ele>
      </trkpt>
      <trkpt lat="-39.14650963189014" lon="175.588295823002">
        <ele>1161</ele>
      </trkpt>
      <trkpt lat="-39.14656208277704" lon="175.588641998856">
        <ele>1162</ele>
      </trkpt>
      <trkpt lat="-39.14656780469197" lon="175.58888899485">
        <ele>1163</ele>
      </trkpt>
      <trkpt lat="-39.14664505054358" lon="175.589510776273">
        <ele>1165</ele>
      </trkpt>
      <trkpt lat="-39.14667747472821" lon="175.589846461949">
        <ele>1166</ele>
      </trkpt>
      <trkpt lat="-39.14669845508297" lon="175.589960900248">
        <ele>1167</ele>
      </trkpt>
      <trkpt lat="-39.14671848178524" lon="175.590075338547">
        <ele>1167</ele>
      </trkpt>
      <trkpt lat="-39.14674709135991" lon="175.590182147625">
        <ele>1167</ele>
      </trkpt>
      <trkpt lat="-39.14677474728209" lon="175.590289910357">
        <ele>1168</ele>
      </trkpt>
      <trkpt lat="-39.1467909593744" lon="175.590381460996">
        <ele>1168</ele>
      </trkpt>
      <trkpt lat="-39.14680621781423" lon="175.590473011635">
        <ele>1168</ele>
      </trkpt>
      <trkpt lat="-39.14682529086401" lon="175.590544535571">
        <ele>1169</ele>
      </trkpt>
      <trkpt lat="-39.1468434102613" lon="175.59061701316">
        <ele>1169</ele>
      </trkpt>
      <trkpt lat="-39.14685580774366" lon="175.590702841884">
        <ele>1169</ele>
      </trkpt>
      <trkpt lat="-39.14686725157352" lon="175.590788670608">
        <ele>1170</ele>
      </trkpt>
      <trkpt lat="-39.14689490749571" lon="175.59089261873">
        <ele>1170</ele>
      </trkpt>
      <trkpt lat="-39.1469301926378" lon="175.590961281709">
        <ele>1170</ele>
      </trkpt>
      <trkpt lat="-39.14696452412741" lon="175.591030898341">
        <ele>1170</ele>
      </trkpt>
      <trkpt lat="-39.1471476254053" lon="175.591290291818">
        <ele>1171</ele>
      </trkpt>
      <trkpt lat="-39.14719530802975" lon="175.591387564372">
        <ele>1172</ele>
      </trkpt>
      <trkpt lat="-39.14721342742705" lon="175.591444783521">
        <ele>1172</ele>
      </trkpt>
      <trkpt lat="-39.14723631508678" lon="175.591544917032">
        <ele>1172</ele>
      </trkpt>
      <trkpt lat="-39.14725824909403" lon="175.591646004196">
        <ele>1173</ele>
      </trkpt>
      <trkpt lat="-39.14736124356284" lon="175.591935914553">
        <ele>1174</ele>
      </trkpt>
      <trkpt lat="-39.14738317757009" lon="175.592033187107">
        <ele>1174</ele>
      </trkpt>
      <trkpt lat="-39.14738603852756" lon="175.592084684341">
        <ele>1174</ele>
      </trkpt>
      <trkpt lat="-39.14738127026511" lon="175.592142857143">
        <ele>1174</ele>
      </trkpt>
      <trkpt lat="-39.14735456799542" lon="175.592261110052">
        <ele>1175</ele>
      </trkpt>
      <trkpt lat="-39.14732691207324" lon="175.592380316613">
        <ele>1175</ele>
      </trkpt>
      <trkpt lat="-39.14723536143429" lon="175.592692160977">
        <ele>1176</ele>
      </trkpt>
      <trkpt lat="-39.14713618157543" lon="175.592985885943">
        <ele>1178</ele>
      </trkpt>
      <trkpt lat="-39.14712378409308" lon="175.593050734312">
        <ele>1179</ele>
      </trkpt>
      <trkpt lat="-39.14711043295823" lon="175.593116536334">
        <ele>1179</ele>
      </trkpt>
      <trkpt lat="-39.14701029944688" lon="175.593393095556">
        <ele>1181</ele>
      </trkpt>
      <trkpt lat="-39.14692065611291" lon="175.593703986267">
        <ele>1181</ele>
      </trkpt>
      <trkpt lat="-39.14690349036811" lon="175.593816517261">
        <ele>1182</ele>
      </trkpt>
      <trkpt lat="-39.1467995422468" lon="175.594110242228">
        <ele>1182</ele>
      </trkpt>
      <trkpt lat="-39.14678142284951" lon="175.594226587831">
        <ele>1183</ele>
      </trkpt>
      <trkpt lat="-39.14678142284951" lon="175.594226587831">
        <ele>1183</ele>
      </trkpt>
      <trkpt lat="-39.146782376502" lon="175.594288575243">
        <ele>1183</ele>
      </trkpt>
      <trkpt lat="-39.146782376502" lon="175.594350562655">
        <ele>1183</ele>
      </trkpt>
      <trkpt lat="-39.14677188632462" lon="175.594432576769">
        <ele>1184</ele>
      </trkpt>
      <trkpt lat="-39.14674709135991" lon="175.594519359146">
        <ele>1184</ele>
      </trkpt>
      <trkpt lat="-39.14672229639519" lon="175.594606141522">
        <ele>1185</ele>
      </trkpt>
      <trkpt lat="-39.14670799160785" lon="175.594683387374">
        <ele>1185</ele>
      </trkpt>
      <trkpt lat="-39.14669368682052" lon="175.594761586878">
        <ele>1185</ele>
      </trkpt>
      <trkpt lat="-39.14668128933816" lon="175.594867442304">
        <ele>1186</ele>
      </trkpt>
      <trkpt lat="-39.14668128933816" lon="175.594938012588">
        <ele>1186</ele>
      </trkpt>
      <trkpt lat="-39.14668033568567" lon="175.595009536525">
        <ele>1187</ele>
      </trkpt>
      <trkpt lat="-39.14670131604043" lon="175.595120160214">
        <ele>1187</ele>
      </trkpt>
      <trkpt lat="-39.1467213427427" lon="175.595231737555">
        <ele>1188</ele>
      </trkpt>
      <trkpt lat="-39.14670799160785" lon="175.595313751669">
        <ele>1188</ele>
      </trkpt>
      <trkpt lat="-39.14667556742323" lon="175.595392904826">
        <ele>1189</ele>
      </trkpt>
      <trkpt lat="-39.14647053213809" lon="175.595638947168">
        <ele>1190</ele>
      </trkpt>
      <trkpt lat="-39.14640759107381" lon="175.595732405112">
        <ele>1190</ele>
      </trkpt>
      <trkpt lat="-39.14634369635704" lon="175.595826816708">
        <ele>1191</ele>
      </trkpt>
      <trkpt lat="-39.1463303452222" lon="175.595859240893">
        <ele>1191</ele>
      </trkpt>
      <trkpt lat="-39.14631890139233" lon="175.595920274652">
        <ele>1192</ele>
      </trkpt>
      <trkpt lat="-39.14630650390998" lon="175.595981308411">
        <ele>1192</ele>
      </trkpt>
      <trkpt lat="-39.14629410642762" lon="175.596009917986">
        <ele>1192</ele>
      </trkpt>
      <trkpt lat="-39.1462693114629" lon="175.59605760061">
        <ele>1193</ele>
      </trkpt>
      <trkpt lat="-39.14619492656875" lon="175.596145336639">
        <ele>1193</ele>
      </trkpt>
      <trkpt lat="-39.14616536334159" lon="175.596195880221">
        <ele>1194</ele>
      </trkpt>
      <trkpt lat="-39.14613293915697" lon="175.596304596605">
        <ele>1195</ele>
      </trkpt>
      <trkpt lat="-39.14612244897959" lon="175.596390425329">
        <ele>1195</ele>
      </trkpt>
      <trkpt lat="-39.14611100514972" lon="175.596477207706">
        <ele>1196</ele>
      </trkpt>
      <trkpt lat="-39.14608907114248" lon="175.596553499905">
        <ele>1197</ele>
      </trkpt>
      <trkpt lat="-39.14603948121304" lon="175.596640282281">
        <ele>1198</ele>
      </trkpt>
      <trkpt lat="-39.14598893763112" lon="175.596727064658">
        <ele>1198</ele>
      </trkpt>
      <trkpt lat="-39.14596032805645" lon="175.59676997902">
        <ele>1198</ele>
      </trkpt>
      <trkpt lat="-39.14588403585734" lon="175.596857715049">
        <ele>1199</ele>
      </trkpt>
      <trkpt lat="-39.1458687774175" lon="175.596888231928">
        <ele>1199</ele>
      </trkpt>
      <trkpt lat="-39.14584684341026" lon="175.596956894908">
        <ele>1199</ele>
      </trkpt>
      <trkpt lat="-39.14578485599847" lon="175.597344077818">
        <ele>1200</ele>
      </trkpt>
      <trkpt lat="-39.14571810032424" lon="175.59759012016">
        <ele>1201</ele>
      </trkpt>
      <trkpt lat="-39.1457037955369" lon="175.597689300019">
        <ele>1201</ele>
      </trkpt>
      <trkpt lat="-39.14568949074957" lon="175.59778943353">
        <ele>1201</ele>
      </trkpt>
      <trkpt lat="-39.1456255960328" lon="175.597901964524">
        <ele>1202</ele>
      </trkpt>
      <trkpt lat="-39.14555979401106" lon="175.597984932291">
        <ele>1202</ele>
      </trkpt>
      <trkpt lat="-39.14549303833683" lon="175.598024985695">
        <ele>1202</ele>
      </trkpt>
      <trkpt lat="-39.14542532901011" lon="175.598065992752">
        <ele>1203</ele>
      </trkpt>
      <trkpt lat="-39.14535189776845" lon="175.598131794774">
        <ele>1203</ele>
      </trkpt>
      <trkpt lat="-39.14530898340644" lon="175.598201411406">
        <ele>1203</ele>
      </trkpt>
      <trkpt lat="-39.14527369826435" lon="175.598272935342">
        <ele>1203</ele>
      </trkpt>
      <trkpt lat="-39.14523745946977" lon="175.598345412932">
        <ele>1204</ele>
      </trkpt>
      <trkpt lat="-39.14521361815754" lon="175.598409307648">
        <ele>1204</ele>
      </trkpt>
      <trkpt lat="-39.14518882319283" lon="175.598474156018">
        <ele>1204</ele>
      </trkpt>
      <trkpt lat="-39.145173564753" lon="175.598495136372">
        <ele>1205</ele>
      </trkpt>
      <trkpt lat="-39.14509917985886" lon="175.598560938394">
        <ele>1205</ele>
      </trkpt>
      <trkpt lat="-39.1450171657448" lon="175.598655349991">
        <ele>1205</ele>
      </trkpt>
      <trkpt lat="-39.14498855617013" lon="175.598713522792">
        <ele>1205</ele>
      </trkpt>
      <trkpt lat="-39.14497139042533" lon="175.598782185772">
        <ele>1206</ele>
      </trkpt>
      <trkpt lat="-39.1449475491131" lon="175.598842265878">
        <ele>1206</ele>
      </trkpt>
      <trkpt lat="-39.14483215716193" lon="175.59895002861">
        <ele>1205</ele>
      </trkpt>
      <trkpt lat="-39.14476254053023" lon="175.599030135419">
        <ele>1205</ele>
      </trkpt>
      <trkpt lat="-39.14469292389853" lon="175.599110242228">
        <ele>1205</ele>
      </trkpt>
      <trkpt lat="-39.14463284379172" lon="175.599161739462">
        <ele>1205</ele>
      </trkpt>
      <trkpt lat="-39.14459755864963" lon="175.599182719817">
        <ele>1205</ele>
      </trkpt>
      <trkpt lat="-39.14455750524509" lon="175.599224680526">
        <ele>1205</ele>
      </trkpt>
      <trkpt lat="-39.14441541102422" lon="175.599481213046">
        <ele>1204</ele>
      </trkpt>
      <trkpt lat="-39.14437440396719" lon="175.599518405493">
        <ele>1204</ele>
      </trkpt>
      <trkpt lat="-39.14425710471104" lon="175.599594697692">
        <ele>1203</ele>
      </trkpt>
      <trkpt lat="-39.14421037573908" lon="175.599608048827">
        <ele>1202</ele>
      </trkpt>
      <trkpt lat="-39.14416746137707" lon="175.59960137326">
        <ele>1202</ele>
      </trkpt>
      <trkpt lat="-39.1441483883273" lon="175.599604234217">
        <ele>1201</ele>
      </trkpt>
      <trkpt lat="-39.14411501049018" lon="175.599633797444">
        <ele>1201</ele>
      </trkpt>
      <trkpt lat="-39.14410547396528" lon="175.599686248331">
        <ele>1201</ele>
      </trkpt>
      <trkpt lat="-39.14410738127027" lon="175.599723440778">
        <ele>1201</ele>
      </trkpt>
      <trkpt lat="-39.14411691779515" lon="175.599792103757">
        <ele>1201</ele>
      </trkpt>
      <trkpt lat="-39.14412550066756" lon="175.599861720389">
        <ele>1201</ele>
      </trkpt>
      <trkpt lat="-39.14411787144764" lon="175.599925615106">
        <ele>1200</ele>
      </trkpt>
      <trkpt lat="-39.1440959374404" lon="175.6">
        <ele>1200</ele>
      </trkpt>
      <trkpt lat="-39.1440959374404" lon="175.6">
        <ele>1200</ele>
      </trkpt>
      <trkpt lat="-39.14408449361053" lon="175.600031470532">
        <ele>1200</ele>
      </trkpt>
      <trkpt lat="-39.1440520694259" lon="175.600074384894">
        <ele>1200</ele>
      </trkpt>
      <trkpt lat="-39.14401964524127" lon="175.600096318901">
        <ele>1201</ele>
      </trkpt>
      <trkpt lat="-39.14397768453176" lon="175.600105855426">
        <ele>1200</ele>
      </trkpt>
      <trkpt lat="-39.14394144573717" lon="175.600128743086">
        <ele>1200</ele>
      </trkpt>
      <trkpt lat="-39.14389662407019" lon="175.600181193973">
        <ele>1201</ele>
      </trkpt>
      <trkpt lat="-39.14381270265115" lon="175.600300400534">
        <ele>1202</ele>
      </trkpt>
      <trkpt lat="-39.14373736410452" lon="175.600363341598">
        <ele>1202</ele>
      </trkpt>
      <trkpt lat="-39.1436610719054" lon="175.600427236315">
        <ele>1202</ele>
      </trkpt>
      <trkpt lat="-39.14364009155064" lon="175.600454892237">
        <ele>1202</ele>
      </trkpt>
      <trkpt lat="-39.14360385275605" lon="175.600525462521">
        <ele>1203</ele>
      </trkpt>
      <trkpt lat="-39.14356666030898" lon="175.600596986458">
        <ele>1203</ele>
      </trkpt>
      <trkpt lat="-39.14354281899676" lon="175.600671371352">
        <ele>1204</ele>
      </trkpt>
      <trkpt lat="-39.14352374594698" lon="175.600786763303">
        <ele>1205</ele>
      </trkpt>
      <trkpt lat="-39.14349322906732" lon="175.600849704368">
        <ele>1205</ele>
      </trkpt>
      <trkpt lat="-39.14346271218768" lon="175.600913599085">
        <ele>1206</ele>
      </trkpt>
      <trkpt lat="-39.14344459279039" lon="175.600987030326">
        <ele>1207</ele>
      </trkpt>
      <trkpt lat="-39.1434255197406" lon="175.601060461568">
        <ele>1208</ele>
      </trkpt>
      <trkpt lat="-39.14342265878314" lon="175.601177760824">
        <ele>1210</ele>
      </trkpt>
      <trkpt lat="-39.14341979782567" lon="175.60129506008">
        <ele>1212</ele>
      </trkpt>
      <trkpt lat="-39.14342361243563" lon="175.601408544726">
        <ele>1213</ele>
      </trkpt>
      <trkpt lat="-39.1434083539958" lon="175.601497234408">
        <ele>1214</ele>
      </trkpt>
      <trkpt lat="-39.14341216860576" lon="175.601590692352">
        <ele>1216</ele>
      </trkpt>
      <trkpt lat="-39.14340740034331" lon="175.601612626359">
        <ele>1216</ele>
      </trkpt>
      <trkpt lat="-39.14338069807362" lon="175.601664123593">
        <ele>1217</ele>
      </trkpt>
      <trkpt lat="-39.1433654396338" lon="175.601752813275">
        <ele>1218</ele>
      </trkpt>
      <trkpt lat="-39.14334159832157" lon="175.601764257105">
        <ele>1219</ele>
      </trkpt>
      <trkpt lat="-39.14331489605188" lon="175.601811939729">
        <ele>1220</ele>
      </trkpt>
      <trkpt lat="-39.14330535952698" lon="175.601914934198">
        <ele>1222</ele>
      </trkpt>
      <trkpt lat="-39.14328151821476" lon="175.601997901965">
        <ele>1225</ele>
      </trkpt>
      <trkpt lat="-39.14326339881747" lon="175.602035094412">
        <ele>1226</ele>
      </trkpt>
      <trkpt lat="-39.14324051115774" lon="175.602063703986">
        <ele>1227</ele>
      </trkpt>
      <trkpt lat="-39.14322143810795" lon="175.602082777036">
        <ele>1227</ele>
      </trkpt>
      <trkpt lat="-39.14319759679572" lon="175.602093267213">
        <ele>1228</ele>
      </trkpt>
      <trkpt lat="-39.14319473583826" lon="175.602132366965">
        <ele>1229</ele>
      </trkpt>
      <trkpt lat="-39.14314133129887" lon="175.60221056647">
        <ele>1231</ele>
      </trkpt>
      <trkpt lat="-39.143129887469" lon="175.602239176044">
        <ele>1231</ele>
      </trkpt>
      <trkpt lat="-39.1431308411215" lon="175.602284951364">
        <ele>1232</ele>
      </trkpt>
      <trkpt lat="-39.14315468243372" lon="175.602329773031">
        <ele>1233</ele>
      </trkpt>
      <trkpt lat="-39.14315849704368" lon="175.602351707038">
        <ele>1233</ele>
      </trkpt>
      <trkpt lat="-39.14315277512874" lon="175.602374594698">
        <ele>1234</ele>
      </trkpt>
      <trkpt lat="-39.14312321190158" lon="175.602431813847">
        <ele>1235</ele>
      </trkpt>
      <trkpt lat="-39.14312702651154" lon="175.602457562464">
        <ele>1236</ele>
      </trkpt>
      <trkpt lat="-39.14310986076674" lon="175.602496662216">
        <ele>1237</ele>
      </trkpt>
      <trkpt lat="-39.14311176807171" lon="175.602524318138">
        <ele>1237</ele>
      </trkpt>
      <trkpt lat="-39.1430955559794" lon="175.602587259203">
        <ele>1238</ele>
      </trkpt>
      <trkpt lat="-39.14309078771696" lon="175.602660690444">
        <ele>1239</ele>
      </trkpt>
      <trkpt lat="-39.1430955559794" lon="175.602683578104">
        <ele>1239</ele>
      </trkpt>
      <trkpt lat="-39.14312607285905" lon="175.602721724204">
        <ele>1240</ele>
      </trkpt>
      <trkpt lat="-39.14312893381651" lon="175.602777989701">
        <ele>1240</ele>
      </trkpt>
      <trkpt lat="-39.14316040434866" lon="175.60283520885">
        <ele>1241</ele>
      </trkpt>
      <trkpt lat="-39.14316898722105" lon="175.602871447645">
        <ele>1241</ele>
      </trkpt>
      <trkpt lat="-39.1431651726111" lon="175.602887659737">
        <ele>1242</ele>
      </trkpt>
      <trkpt lat="-39.1431308411215" lon="175.602913408354">
        <ele>1242</ele>
      </trkpt>
      <trkpt lat="-39.14310604615678" lon="175.602961090978">
        <ele>1243</ele>
      </trkpt>
      <trkpt lat="-39.14309174136945" lon="175.603022124738">
        <ele>1244</ele>
      </trkpt>
      <trkpt lat="-39.14309078771696" lon="175.6030650391">
        <ele>1244</ele>
      </trkpt>
      <trkpt lat="-39.14306694640473" lon="175.603168033569">
        <ele>1246</ele>
      </trkpt>
      <trkpt lat="-39.14304691970246" lon="175.603193782186">
        <ele>1246</ele>
      </trkpt>
      <trkpt lat="-39.14298779324814" lon="175.603224299065">
        <ele>1246</ele>
      </trkpt>
      <trkpt lat="-39.14294487888613" lon="175.603270074385">
        <ele>1247</ele>
      </trkpt>
      <trkpt lat="-39.14292389853137" lon="175.603281518215">
        <ele>1247</ele>
      </trkpt>
      <trkpt lat="-39.14288861338928" lon="175.603356856761">
        <ele>1248</ele>
      </trkpt>
      <trkpt lat="-39.14281899675758" lon="175.603399771123">
        <ele>1248</ele>
      </trkpt>
      <trkpt lat="-39.14274842647339" lon="175.603442685485">
        <ele>1248</ele>
      </trkpt>
      <trkpt lat="-39.14271886324623" lon="175.603464619493">
        <ele>1248</ele>
      </trkpt>
      <trkpt lat="-39.14268262445165" lon="175.603506580202">
        <ele>1249</ele>
      </trkpt>
      <trkpt lat="-39.14258821285524" lon="175.603576196834">
        <ele>1249</ele>
      </trkpt>
      <trkpt lat="-39.14256913980545" lon="175.603582872401">
        <ele>1249</ele>
      </trkpt>
      <trkpt lat="-39.14253576196834" lon="175.603575243181">
        <ele>1249</ele>
      </trkpt>
      <trkpt lat="-39.14249094030135" lon="175.603507533855">
        <ele>1248</ele>
      </trkpt>
      <trkpt lat="-39.14247377455655" lon="175.603498950982">
        <ele>1249</ele>
      </trkpt>
      <trkpt lat="-39.14243276749952" lon="175.603502765592">
        <ele>1250</ele>
      </trkpt>
      <trkpt lat="-39.14241846271219" lon="175.603514209422">
        <ele>1251</ele>
      </trkpt>
      <trkpt lat="-39.14240892618729" lon="175.603532328819">
        <ele>1251</ele>
      </trkpt>
      <trkpt lat="-39.14231356093839" lon="175.603618157543">
        <ele>1255</ele>
      </trkpt>
      <trkpt lat="-39.14228971962617" lon="175.603657257295">
        <ele>1256</ele>
      </trkpt>
      <trkpt lat="-39.14226873927141" lon="175.603713522792">
        <ele>1257</ele>
      </trkpt>
      <trkpt lat="-39.14225348083158" lon="175.603780278467">
        <ele>1258</ele>
      </trkpt>
      <trkpt lat="-39.14225443448407" lon="175.603832729353">
        <ele>1259</ele>
      </trkpt>
      <trkpt lat="-39.14222296395194" lon="175.603882319283">
        <ele>1260</ele>
      </trkpt>
      <trkpt lat="-39.14222105664695" lon="175.603941445737">
        <ele>1260</ele>
      </trkpt>
      <trkpt lat="-39.14220770551211" lon="175.603985313752">
        <ele>1261</ele>
      </trkpt>
      <trkpt lat="-39.14221247377456" lon="175.604051115773">
        <ele>1261</ele>
      </trkpt>
      <trkpt lat="-39.1422086591646" lon="175.60413408354">
        <ele>1262</ele>
      </trkpt>
      <trkpt lat="-39.14224012969674" lon="175.604400152584">
        <ele>1262</ele>
      </trkpt>
      <trkpt lat="-39.14224680526416" lon="175.604496471486">
        <ele>1262</ele>
      </trkpt>
      <trkpt lat="-39.1422525271791" lon="175.604592790387">
        <ele>1262</ele>
      </trkpt>
      <trkpt lat="-39.14224585161167" lon="175.604670036239">
        <ele>1263</ele>
      </trkpt>
      <trkpt lat="-39.14223917604425" lon="175.604748235743">
        <ele>1263</ele>
      </trkpt>
      <trkpt lat="-39.14222105664695" lon="175.604814991417">
        <ele>1264</ele>
      </trkpt>
      <trkpt lat="-39.14220198359718" lon="175.604881747091">
        <ele>1265</ele>
      </trkpt>
      <trkpt lat="-39.14218958611482" lon="175.60495803929">
        <ele>1265</ele>
      </trkpt>
      <trkpt lat="-39.14218767880984" lon="175.60499237078">
        <ele>1265</ele>
      </trkpt>
      <trkpt lat="-39.14219626168224" lon="175.605068662979">
        <ele>1266</ele>
      </trkpt>
      <trkpt lat="-39.14220389090215" lon="175.605145908831">
        <ele>1266</ele>
      </trkpt>
      <trkpt lat="-39.1422000762922" lon="175.605185008583">
        <ele>1267</ele>
      </trkpt>
      <trkpt lat="-39.14217909593744" lon="175.605280373832">
        <ele>1268</ele>
      </trkpt>
      <trkpt lat="-39.14215811558268" lon="175.605376692733">
        <ele>1269</ele>
      </trkpt>
      <trkpt lat="-39.14214953271028" lon="175.6054596605">
        <ele>1270</ele>
      </trkpt>
      <trkpt lat="-39.14213999618539" lon="175.605543581919">
        <ele>1271</ele>
      </trkpt>
      <trkpt lat="-39.1421218767881" lon="175.60564753004">
        <ele>1273</ele>
      </trkpt>
      <trkpt lat="-39.14212855235552" lon="175.605701888232">
        <ele>1273</ele>
      </trkpt>
      <trkpt lat="-39.14212664505055" lon="175.605816326531">
        <ele>1274</ele>
      </trkpt>
      <trkpt lat="-39.14212473774556" lon="175.605930764829">
        <ele>1274</ele>
      </trkpt>
      <trkpt lat="-39.14212950600801" lon="175.606003242418">
        <ele>1274</ele>
      </trkpt>
      <trkpt lat="-39.14213332061797" lon="175.60607667366">
        <ele>1274</ele>
      </trkpt>
      <trkpt lat="-39.14211996948312" lon="175.606412359336">
        <ele>1275</ele>
      </trkpt>
      <trkpt lat="-39.14210280373832" lon="175.606531565897">
        <ele>1276</ele>
      </trkpt>
      <trkpt lat="-39.14207991607858" lon="175.606616440969">
        <ele>1276</ele>
      </trkpt>
      <trkpt lat="-39.14205607476635" lon="175.60670131604">
        <ele>1277</ele>
      </trkpt>
      <trkpt lat="-39.14204844554644" lon="175.606787144764">
        <ele>1278</ele>
      </trkpt>
      <trkpt lat="-39.14202651153919" lon="175.606859622354">
        <ele>1279</ele>
      </trkpt>
      <trkpt lat="-39.14200457753195" lon="175.606933053595">
        <ele>1279</ele>
      </trkpt>
      <trkpt lat="-39.14201316040435" lon="175.606995041007">
        <ele>1280</ele>
      </trkpt>
      <trkpt lat="-39.14202078962426" lon="175.607057982071">
        <ele>1280</ele>
      </trkpt>
      <trkpt lat="-39.14201983597177" lon="175.607105664696">
        <ele>1280</ele>
      </trkpt>
      <trkpt lat="-39.14200934579439" lon="175.607117108526">
        <ele>1281</ele>
      </trkpt>
      <trkpt lat="-39.14199218004959" lon="175.607221056647">
        <ele>1281</ele>
      </trkpt>
      <trkpt lat="-39.14197310699981" lon="175.607293534236">
        <ele>1282</ele>
      </trkpt>
      <trkpt lat="-39.14195403395003" lon="175.607366965478">
        <ele>1283</ele>
      </trkpt>
      <trkpt lat="-39.14194068281518" lon="175.607459469769">
        <ele>1283</ele>
      </trkpt>
      <trkpt lat="-39.14192637802785" lon="175.607551974061">
        <ele>1284</ele>
      </trkpt>
      <trkpt lat="-39.14187583444593" lon="175.607656875834">
        <ele>1285</ele>
      </trkpt>
      <trkpt lat="-39.14184722487126" lon="175.607743658211">
        <ele>1285</ele>
      </trkpt>
      <trkpt lat="-39.14183768834636" lon="175.607807552928">
        <ele>1286</ele>
      </trkpt>
      <trkpt lat="-39.14182815182148" lon="175.607871447644">
        <ele>1286</ele>
      </trkpt>
      <trkpt lat="-39.14182433721152" lon="175.607963951936">
        <ele>1287</ele>
      </trkpt>
      <trkpt lat="-39.14181003242418" lon="175.608041197788">
        <ele>1287</ele>
      </trkpt>
      <trkpt lat="-39.14179477398436" lon="175.608118443639">
        <ele>1287</ele>
      </trkpt>
      <trkpt lat="-39.14174995231738" lon="175.608194735838">
        <ele>1287</ele>
      </trkpt>
      <trkpt lat="-39.14173469387755" lon="175.608271028037">
        <ele>1288</ele>
      </trkpt>
      <trkpt lat="-39.14171562082777" lon="175.608296776655">
        <ele>1288</ele>
      </trkpt>
      <trkpt lat="-39.14167175281327" lon="175.608309174137">
        <ele>1288</ele>
      </trkpt>
      <trkpt lat="-39.14158306313179" lon="175.608315849704">
        <ele>1292</ele>
      </trkpt>
      <trkpt lat="-39.14157257295442" lon="175.608321571619">
        <ele>1293</ele>
      </trkpt>
      <trkpt lat="-39.14155731451459" lon="175.608346366584">
        <ele>1294</ele>
      </trkpt>
      <trkpt lat="-39.14153728781232" lon="175.608358764066">
        <ele>1295</ele>
      </trkpt>
      <trkpt lat="-39.14152107572001" lon="175.608420751478">
        <ele>1296</ele>
      </trkpt>
      <trkpt lat="-39.14152298302498" lon="175.608454129315">
        <ele>1296</ele>
      </trkpt>
      <trkpt lat="-39.14150963189014" lon="175.60847510967">
        <ele>1297</ele>
      </trkpt>
      <trkpt lat="-39.14149151249285" lon="175.6084865535">
        <ele>1297</ele>
      </trkpt>
      <trkpt lat="-39.14147053213809" lon="175.608601945451">
        <ele>1299</ele>
      </trkpt>
      <trkpt lat="-39.14145718100324" lon="175.608614342933">
        <ele>1300</ele>
      </trkpt>
      <trkpt lat="-39.14145622735075" lon="175.608624833111">
        <ele>1300</ele>
      </trkpt>
      <trkpt lat="-39.14146290291818" lon="175.608632462331">
        <ele>1299</ele>
      </trkpt>
      <trkpt lat="-39.14145336639329" lon="175.608671562083">
        <ele>1300</ele>
      </trkpt>
      <trkpt lat="-39.14143810795346" lon="175.6086973107">
        <ele>1301</ele>
      </trkpt>
      <trkpt lat="-39.14142666412359" lon="175.608737364105">
        <ele>1301</ele>
      </trkpt>
      <trkpt lat="-39.14141522029372" lon="175.608836543963">
        <ele>1302</ele>
      </trkpt>
      <trkpt lat="-39.14139710089643" lon="175.608922372687">
        <ele>1303</ele>
      </trkpt>
      <trkpt lat="-39.14140949837879" lon="175.609025367156">
        <ele>1303</ele>
      </trkpt>
      <trkpt lat="-39.14136086210185" lon="175.609144573717">
        <ele>1305</ele>
      </trkpt>
      <trkpt lat="-39.14135800114438" lon="175.609207514782">
        <ele>1305</ele>
      </trkpt>
      <trkpt lat="-39.14134083539958" lon="175.609300019073">
        <ele>1306</ele>
      </trkpt>
      <trkpt lat="-39.14131127217242" lon="175.609395384322">
        <ele>1307</ele>
      </trkpt>
      <trkpt lat="-39.14131413312989" lon="175.609513637231">
        <ele>1306</ele>
      </trkpt>
      <trkpt lat="-39.14131604043487" lon="175.609631890139">
        <ele>1306</ele>
      </trkpt>
      <trkpt lat="-39.14133988174709" lon="175.609709135991">
        <ele>1305</ele>
      </trkpt>
      <trkpt lat="-39.141347510967" lon="175.60978542819">
        <ele>1305</ele>
      </trkpt>
      <trkpt lat="-39.14135514018692" lon="175.609862674042">
        <ele>1304</ele>
      </trkpt>
      <trkpt lat="-39.14135514018692" lon="175.609862674042">
        <ele>1304</ele>
      </trkpt>
      <trkpt lat="-39.14136276940683" lon="175.609956131986">
        <ele>1304</ele>
      </trkpt>
      <trkpt lat="-39.14134655731451" lon="175.610284188442">
        <ele>1305</ele>
      </trkpt>
      <trkpt lat="-39.14132557695975" lon="175.610350944116">
        <ele>1306</ele>
      </trkpt>
      <trkpt lat="-39.14130364295251" lon="175.61041769979">
        <ele>1307</ele>
      </trkpt>
      <trkpt lat="-39.14127407972535" lon="175.610751478161">
        <ele>1309</ele>
      </trkpt>
      <trkpt lat="-39.14128075529277" lon="175.610843982453">
        <ele>1309</ele>
      </trkpt>
      <trkpt lat="-39.1412874308602" lon="175.610936486744">
        <ele>1309</ele>
      </trkpt>
      <trkpt lat="-39.14128266259775" lon="175.61104615678">
        <ele>1309</ele>
      </trkpt>
      <trkpt lat="-39.14127694068281" lon="175.611155826817">
        <ele>1310</ele>
      </trkpt>
      <trkpt lat="-39.1412607285905" lon="175.61127217242">
        <ele>1310</ele>
      </trkpt>
      <trkpt lat="-39.14124451649818" lon="175.611389471677">
        <ele>1311</ele>
      </trkpt>
      <trkpt lat="-39.1411472439443" lon="175.611700362388">
        <ele>1313</ele>
      </trkpt>
      <trkpt lat="-39.14113961472439" lon="175.611775700935">
        <ele>1314</ele>
      </trkpt>
      <trkpt lat="-39.14113961472439" lon="175.611775700935">
        <ele>1314</ele>
      </trkpt>
      <trkpt lat="-39.14113675376693" lon="175.611844363914">
        <ele>1314</ele>
      </trkpt>
      <trkpt lat="-39.14112817089453" lon="175.611858668701">
        <ele>1314</ele>
      </trkpt>
      <trkpt lat="-39.14109383940492" lon="175.611876788098">
        <ele>1315</ele>
      </trkpt>
      <trkpt lat="-39.14101945451078" lon="175.611985504482">
        <ele>1316</ele>
      </trkpt>
      <trkpt lat="-39.14097081823383" lon="175.612034140759">
        <ele>1317</ele>
      </trkpt>
      <trkpt lat="-39.14095746709899" lon="175.612067518596">
        <ele>1317</ele>
      </trkpt>
      <trkpt lat="-39.14094697692161" lon="175.612139996185">
        <ele>1317</ele>
      </trkpt>
      <trkpt lat="-39.14093553309174" lon="175.61217623498">
        <ele>1318</ele>
      </trkpt>
      <trkpt lat="-39.1409040625596" lon="175.612223917604">
        <ele>1318</ele>
      </trkpt>
      <trkpt lat="-39.14088594316231" lon="175.612313560938">
        <ele>1318</ele>
      </trkpt>
      <trkpt lat="-39.14088975777226" lon="175.61236028991">
        <ele>1318</ele>
      </trkpt>
      <trkpt lat="-39.14087354567995" lon="175.612389853138">
        <ele>1318</ele>
      </trkpt>
      <trkpt lat="-39.14085351897769" lon="175.612490940301">
        <ele>1318</ele>
      </trkpt>
      <trkpt lat="-39.14085447263017" lon="175.612515735266">
        <ele>1318</ele>
      </trkpt>
      <trkpt lat="-39.14086973107" lon="175.612570093458">
        <ele>1319</ele>
      </trkpt>
      <trkpt lat="-39.14086114819759" lon="175.612631127217">
        <ele>1319</ele>
      </trkpt>
      <trkpt lat="-39.14084398245279" lon="175.612694068282">
        <ele>1320</ele>
      </trkpt>
      <trkpt lat="-39.1408258630555" lon="175.612757009346">
        <ele>1320</ele>
      </trkpt>
      <trkpt lat="-39.14082777036048" lon="175.612801831013">
        <ele>1320</ele>
      </trkpt>
      <trkpt lat="-39.14083635323288" lon="175.612825672325">
        <ele>1320</ele>
      </trkpt>
      <trkpt lat="-39.14082777036048" lon="175.612836162502">
        <ele>1321</ele>
      </trkpt>
      <trkpt lat="-39.14082967766546" lon="175.61286572573">
        <ele>1321</ele>
      </trkpt>
      <trkpt lat="-39.14079057791341" lon="175.612966812893">
        <ele>1322</ele>
      </trkpt>
      <trkpt lat="-39.14079057791341" lon="175.612966812893">
        <ele>1322</ele>
      </trkpt>
      <trkpt lat="-39.14075910738127" lon="175.613054548922">
        <ele>1324</ele>
      </trkpt>
      <trkpt lat="-39.14075910738127" lon="175.613054548922">
        <ele>1324</ele>
      </trkpt>
      <trkpt lat="-39.14075338546633" lon="175.613081251192">
        <ele>1324</ele>
      </trkpt>
      <trkpt lat="-39.14075147816136" lon="175.613168033569">
        <ele>1324</ele>
      </trkpt>
      <trkpt lat="-39.14074003433149" lon="175.613199504101">
        <ele>1325</ele>
      </trkpt>
      <trkpt lat="-39.14073526606904" lon="175.613239557505">
        <ele>1325</ele>
      </trkpt>
      <trkpt lat="-39.14073431241655" lon="175.613332061797">
        <ele>1325</ele>
      </trkpt>
      <trkpt lat="-39.14070951745184" lon="175.613417890521">
        <ele>1326</ele>
      </trkpt>
      <trkpt lat="-39.14067327865725" lon="175.613476063323">
        <ele>1327</ele>
      </trkpt>
      <trkpt lat="-39.1406522983025" lon="175.613535189777">
        <ele>1327</ele>
      </trkpt>
      <trkpt lat="-39.14064943734503" lon="175.613586687011">
        <ele>1327</ele>
      </trkpt>
      <trkpt lat="-39.1406341789052" lon="175.613665840168">
        <ele>1327</ele>
      </trkpt>
      <trkpt lat="-39.14063131794774" lon="175.61372782758">
        <ele>1327</ele>
      </trkpt>
      <trkpt lat="-39.14062845699027" lon="175.613790768644">
        <ele>1327</ele>
      </trkpt>
      <trkpt lat="-39.14061987411787" lon="175.613851802403">
        <ele>1328</ele>
      </trkpt>
      <trkpt lat="-39.14061033759298" lon="175.613913789815">
        <ele>1328</ele>
      </trkpt>
      <trkpt lat="-39.14061033759298" lon="175.613913789815">
        <ele>1328</ele>
      </trkpt>
      <trkpt lat="-39.14059603280565" lon="175.613963379744">
        <ele>1328</ele>
      </trkpt>
      <trkpt lat="-39.14059603280565" lon="175.614078771696">
        <ele>1328</ele>
      </trkpt>
      <trkpt lat="-39.14059507915316" lon="175.614195117299">
        <ele>1328</ele>
      </trkpt>
      <trkpt lat="-39.14059507915316" lon="175.614195117299">
        <ele>1328</ele>
      </trkpt>
      <trkpt lat="-39.14059507915316" lon="175.614487888613">
        <ele>1329</ele>
      </trkpt>
      <trkpt lat="-39.14059507915316" lon="175.614487888613">
        <ele>1329</ele>
      </trkpt>
      <trkpt lat="-39.14061033759298" lon="175.614548922373">
        <ele>1329</ele>
      </trkpt>
      <trkpt lat="-39.14062464238032" lon="175.614610909784">
        <ele>1330</ele>
      </trkpt>
      <trkpt lat="-39.14066278847988" lon="175.614732023651">
        <ele>1330</ele>
      </trkpt>
      <trkpt lat="-39.14066278847988" lon="175.614732023651">
        <ele>1330</ele>
      </trkpt>
      <trkpt lat="-39.14065992752241" lon="175.614866488652">
        <ele>1330</ele>
      </trkpt>
      <trkpt lat="-39.14066564943735" lon="175.61496566851">
        <ele>1331</ele>
      </trkpt>
      <trkpt lat="-39.14063894716765" lon="175.615099179859">
        <ele>1331</ele>
      </trkpt>
      <trkpt lat="-39.14062178142285" lon="175.615140186916">
        <ele>1331</ele>
      </trkpt>
      <trkpt lat="-39.14062082777036" lon="175.615286095747">
        <ele>1331</ele>
      </trkpt>
      <trkpt lat="-39.1405912645432" lon="175.61541388518">
        <ele>1331</ele>
      </trkpt>
      <trkpt lat="-39.1405912645432" lon="175.61541388518">
        <ele>1331</ele>
      </trkpt>
      <trkpt lat="-39.14058554262827" lon="175.615481594507">
        <ele>1331</ele>
      </trkpt>
      <trkpt lat="-39.14057982071333" lon="175.615550257486">
        <ele>1331</ele>
      </trkpt>
      <trkpt lat="-39.1405569330536" lon="175.615637039863">
        <ele>1331</ele>
      </trkpt>
      <trkpt lat="-39.14054072096128" lon="175.615672325005">
        <ele>1331</ele>
      </trkpt>
      <trkpt lat="-39.14054072096128" lon="175.615672325005">
        <ele>1331</ele>
      </trkpt>
      <trkpt lat="-39.14048254815945" lon="175.615777226779">
        <ele>1331</ele>
      </trkpt>
      <trkpt lat="-39.14042818996757" lon="175.615860194545">
        <ele>1331</ele>
      </trkpt>
      <trkpt lat="-39.14037287812321" lon="175.615944115964">
        <ele>1331</ele>
      </trkpt>
      <trkpt lat="-39.14037287812321" lon="175.615944115964">
        <ele>1331</ele>
      </trkpt>
      <trkpt lat="-39.14032042723631" lon="175.616022315468">
        <ele>1332</ele>
      </trkpt>
      <trkpt lat="-39.14026797634941" lon="175.616100514972">
        <ele>1332</ele>
      </trkpt>
      <trkpt lat="-39.14008964333397" lon="175.616422849514">
        <ele>1333</ele>
      </trkpt>
      <trkpt lat="-39.1400610337593" lon="175.616495327103">
        <ele>1333</ele>
      </trkpt>
      <trkpt lat="-39.1400524508869" lon="175.616586877742">
        <ele>1333</ele>
      </trkpt>
      <trkpt lat="-39.14003623879458" lon="175.616655540721">
        <ele>1333</ele>
      </trkpt>
      <trkpt lat="-39.14" lon="175.616736601183">
        <ele>1333</ele>
      </trkpt>
      <trkpt lat="-39.13999999999999" lon="175.616736601183">
        <ele>1333</ele>
      </trkpt>
      <trkpt lat="-39.13998283425519" lon="175.616770932672">
        <ele>1334</ele>
      </trkpt>
      <trkpt lat="-39.1399218004959" lon="175.616851993134">
        <ele>1336</ele>
      </trkpt>
      <trkpt lat="-39.1398607667366" lon="175.616933053595">
        <ele>1337</ele>
      </trkpt>
      <trkpt lat="-39.1398607667366" lon="175.616933053595">
        <ele>1337</ele>
      </trkpt>
      <trkpt lat="-39.13982643524699" lon="175.616959755865">
        <ele>1338</ele>
      </trkpt>
      <trkpt lat="-39.13977016975014" lon="175.616985504482">
        <ele>1340</ele>
      </trkpt>
      <trkpt lat="-39.13974251382795" lon="175.617012206752">
        <ele>1340</ele>
      </trkpt>
      <trkpt lat="-39.1397215334732" lon="175.617058935724">
        <ele>1341</ele>
      </trkpt>
      <trkpt lat="-39.1397129506008" lon="175.617107572001">
        <ele>1341</ele>
      </trkpt>
      <trkpt lat="-39.13972725538813" lon="175.617192447072">
        <ele>1340</ele>
      </trkpt>
      <trkpt lat="-39.13971104329582" lon="175.617229639519">
        <ele>1340</ele>
      </trkpt>
      <trkpt lat="-39.13969006294106" lon="175.617253480832">
        <ele>1341</ele>
      </trkpt>
      <trkpt lat="-39.13965763875643" lon="175.617274461186">
        <ele>1341</ele>
      </trkpt>
      <trkpt lat="-39.13963951935914" lon="175.617314514591">
        <ele>1341</ele>
      </trkpt>
      <trkpt lat="-39.13962521457181" lon="175.61737936296">
        <ele>1341</ele>
      </trkpt>
      <trkpt lat="-39.13962521457181" lon="175.61737936296">
        <ele>1341</ele>
      </trkpt>
      <trkpt lat="-39.1396166316994" lon="175.61742895289">
        <ele>1341</ele>
      </trkpt>
      <trkpt lat="-39.13957753194735" lon="175.617536715621">
        <ele>1342</ele>
      </trkpt>
      <trkpt lat="-39.13957276368491" lon="175.617566278848">
        <ele>1342</ele>
      </trkpt>
      <trkpt lat="-39.13957467098989" lon="175.617636849132">
        <ele>1342</ele>
      </trkpt>
      <trkpt lat="-39.13957657829486" lon="175.617708373069">
        <ele>1342</ele>
      </trkpt>
      <trkpt lat="-39.13957276368491" lon="175.617741750906">
        <ele>1342</ele>
      </trkpt>
      <trkpt lat="-39.13954606141522" lon="175.617807552928">
        <ele>1342</ele>
      </trkpt>
      <trkpt lat="-39.13948407400343" lon="175.617880984169">
        <ele>1343</ele>
      </trkpt>
      <trkpt lat="-39.13947263017356" lon="175.617907686439">
        <ele>1344</ele>
      </trkpt>
      <trkpt lat="-39.13946404730116" lon="175.61801926378">
        <ele>1344</ele>
      </trkpt>
      <trkpt lat="-39.13945546442876" lon="175.618130841122">
        <ele>1344</ele>
      </trkpt>
      <trkpt lat="-39.13943829868396" lon="175.618194735838">
        <ele>1344</ele>
      </trkpt>
      <trkpt lat="-39.13942113293916" lon="175.618258630555">
        <ele>1345</ele>
      </trkpt>
      <trkpt lat="-39.13940396719435" lon="175.618377837116">
        <ele>1345</ele>
      </trkpt>
      <trkpt lat="-39.1393991989319" lon="175.61844459279">
        <ele>1346</ele>
      </trkpt>
      <trkpt lat="-39.13939347701697" lon="175.618511348465">
        <ele>1346</ele>
      </trkpt>
      <trkpt lat="-39.13933435056265" lon="175.618854663361">
        <ele>1349</ele>
      </trkpt>
      <trkpt lat="-39.13933530421514" lon="175.618884226588">
        <ele>1349</ele>
      </trkpt>
      <trkpt lat="-39.13934960900247" lon="175.61893858478">
        <ele>1349</ele>
      </trkpt>
      <trkpt lat="-39.13938107953462" lon="175.619000572192">
        <ele>1349</ele>
      </trkpt>
      <trkpt lat="-39.13941636467671" lon="175.619051115773">
        <ele>1349</ele>
      </trkpt>
      <trkpt lat="-39.13942304024413" lon="175.619077818043">
        <ele>1349</ele>
      </trkpt>
      <trkpt lat="-39.13941541102422" lon="175.619194163647">
        <ele>1350</ele>
      </trkpt>
      <trkpt lat="-39.13940110623688" lon="175.619246614534">
        <ele>1350</ele>
      </trkpt>
      <trkpt lat="-39.13940301354186" lon="175.619332443258">
        <ele>1349</ele>
      </trkpt>
      <trkpt lat="-39.13940396719435" lon="175.619419225634">
        <ele>1349</ele>
      </trkpt>
      <trkpt lat="-39.13939252336448" lon="175.619490749571">
        <ele>1349</ele>
      </trkpt>
      <trkpt lat="-39.13938012588213" lon="175.61956322716">
        <ele>1349</ele>
      </trkpt>
      <trkpt lat="-39.13939347701697" lon="175.619677665459">
        <ele>1349</ele>
      </trkpt>
      <trkpt lat="-39.13938012588213" lon="175.619765401488">
        <ele>1349</ele>
      </trkpt>
      <trkpt lat="-39.13936582109479" lon="175.619854091169">
        <ele>1348</ele>
      </trkpt>
      <trkpt lat="-39.13934579439252" lon="175.619936105283">
        <ele>1348</ele>
      </trkpt>
      <trkpt lat="-39.13934579439252" lon="175.62">
        <ele>1348</ele>
      </trkpt>
      <trkpt lat="-39.13934579439252" lon="175.62">
        <ele>1348</ele>
      </trkpt>
      <trkpt lat="-39.13934484074003" lon="175.620053404539">
        <ele>1348</ele>
      </trkpt>
      <trkpt lat="-39.13932576769025" lon="175.620118252909">
        <ele>1348</ele>
      </trkpt>
      <trkpt lat="-39.1393209994278" lon="175.620158306313">
        <ele>1348</ele>
      </trkpt>
      <trkpt lat="-39.13932386038527" lon="175.620221247377">
        <ele>1348</ele>
      </trkpt>
      <trkpt lat="-39.13932386038527" lon="175.620221247377">
        <ele>1348</ele>
      </trkpt>
      <trkpt lat="-39.13931909212283" lon="175.620258439825">
        <ele>1349</ele>
      </trkpt>
      <trkpt lat="-39.13932195308029" lon="175.620404348655">
        <ele>1349</ele>
      </trkpt>
      <trkpt lat="-39.13934197978256" lon="175.620486362769">
        <ele>1349</ele>
      </trkpt>
      <trkpt lat="-39.13937535761968" lon="175.620578867061">
        <ele>1348</ele>
      </trkpt>
      <trkpt lat="-39.13949456418081" lon="175.62108048827">
        <ele>1347</ele>
      </trkpt>
      <trkpt lat="-39.13945069616631" lon="175.621395193591">
        <ele>1347</ele>
      </trkpt>
      <trkpt lat="-39.13944783520885" lon="175.621573526607">
        <ele>1346</ele>
      </trkpt>
      <trkpt lat="-39.13954510776273" lon="175.622025557887">
        <ele>1348</ele>
      </trkpt>
      <trkpt lat="-39.13956131985504" lon="175.622334541293">
        <ele>1349</ele>
      </trkpt>
      <trkpt lat="-39.13955941255006" lon="175.622416555407">
        <ele>1349</ele>
      </trkpt>
      <trkpt lat="-39.13967098989128" lon="175.622979210376">
        <ele>1351</ele>
      </trkpt>
      <trkpt lat="-39.13971104329582" lon="175.623213808888">
        <ele>1352</ele>
      </trkpt>
      <trkpt lat="-39.13975491131031" lon="175.623569521266">
        <ele>1355</ele>
      </trkpt>
      <trkpt lat="-39.1398512302117" lon="175.623967194354">
        <ele>1359</ele>
      </trkpt>
      <trkpt lat="-39.13988079343886" lon="175.624265687583">
        <ele>1361</ele>
      </trkpt>
      <trkpt lat="-39.13997043677283" lon="175.624707228686">
        <ele>1363</ele>
      </trkpt>
      <trkpt lat="-39.13999999999999" lon="175.624799732977">
        <ele>1363</ele>
      </trkpt>
      <trkpt lat="-39.14" lon="175.624799732977">
        <ele>1363</ele>
      </trkpt>
      <trkpt lat="-39.14003242418462" lon="175.624889376311">
        <ele>1364</ele>
      </trkpt>
      <trkpt lat="-39.14003822676433" lon="175.624905904872">
        <ele>1364</ele>
      </trkpt>
      <trkpt lat="-39.14003528514209" lon="175.624909403014">
        <ele>1364</ele>
      </trkpt>
      <trkpt lat="-39.14" lon="175.624951363723">
        <ele>1364</ele>
      </trkpt>
      <trkpt lat="-39.13999999999999" lon="175.624951363723">
        <ele>1364</ele>
      </trkpt>
      <trkpt lat="-39.13995422468052" lon="175.625005721915">
        <ele>1362</ele>
      </trkpt>
      <trkpt lat="-39.13991226397101" lon="175.625085828724">
        <ele>1362</ele>
      </trkpt>
      <trkpt lat="-39.13988079343886" lon="175.625183101278">
        <ele>1362</ele>
      </trkpt>
      <trkpt lat="-39.13988365439634" lon="175.625259393477">
        <ele>1363</ele>
      </trkpt>
      <trkpt lat="-39.1398865153538" lon="175.625335685676">
        <ele>1363</ele>
      </trkpt>
      <trkpt lat="-39.13988174709136" lon="175.625414838833">
        <ele>1363</ele>
      </trkpt>
      <trkpt lat="-39.13987697882891" lon="175.625494945642">
        <ele>1363</ele>
      </trkpt>
      <trkpt lat="-39.13987983978637" lon="175.625590310891">
        <ele>1363</ele>
      </trkpt>
      <trkpt lat="-39.13988842265878" lon="175.62565134465">
        <ele>1363</ele>
      </trkpt>
      <trkpt lat="-39.13989605187869" lon="175.625712378409">
        <ele>1363</ele>
      </trkpt>
      <trkpt lat="-39.13987888613389" lon="175.625816326531">
        <ele>1363</ele>
      </trkpt>
      <trkpt lat="-39.1398607667366" lon="175.625920274652">
        <ele>1365</ele>
      </trkpt>
      <trkpt lat="-39.13986267404157" lon="175.625967003624">
        <ele>1365</ele>
      </trkpt>
      <trkpt lat="-39.13987602517642" lon="175.626033759298">
        <ele>1366</ele>
      </trkpt>
      <trkpt lat="-39.13988842265878" lon="175.626100514972">
        <ele>1367</ele>
      </trkpt>
      <trkpt lat="-39.13988746900629" lon="175.626219721533">
        <ele>1368</ele>
      </trkpt>
      <trkpt lat="-39.13981594506961" lon="175.626493419798">
        <ele>1372</ele>
      </trkpt>
      <trkpt lat="-39.13977493801259" lon="175.626598321572">
        <ele>1374</ele>
      </trkpt>
      <trkpt lat="-39.13974442113293" lon="175.626634560366">
        <ele>1375</ele>
      </trkpt>
      <trkpt lat="-39.1396604997139" lon="175.626681289338">
        <ele>1376</ele>
      </trkpt>
      <trkpt lat="-39.13959279038718" lon="175.626748998665">
        <ele>1378</ele>
      </trkpt>
      <trkpt lat="-39.13952508106046" lon="175.626816707992">
        <ele>1380</ele>
      </trkpt>
      <trkpt lat="-39.13948216669845" lon="175.626835781041">
        <ele>1380</ele>
      </trkpt>
      <trkpt lat="-39.13946404730116" lon="175.626889185581">
        <ele>1381</ele>
      </trkpt>
      <trkpt lat="-39.13944783520885" lon="175.626888231928">
        <ele>1381</ele>
      </trkpt>
      <trkpt lat="-39.13940492084684" lon="175.626847224871">
        <ele>1381</ele>
      </trkpt>
      <trkpt lat="-39.13938298683959" lon="175.626884417318">
        <ele>1382</ele>
      </trkpt>
      <trkpt lat="-39.13935342361243" lon="175.62698455083">
        <ele>1384</ele>
      </trkpt>
      <trkpt lat="-39.13930955559793" lon="175.627017928667">
        <ele>1385</ele>
      </trkpt>
      <trkpt lat="-39.13925424375357" lon="175.627034140759">
        <ele>1386</ele>
      </trkpt>
      <trkpt lat="-39.13916173946213" lon="175.627071333206">
        <ele>1387</ele>
      </trkpt>
      <trkpt lat="-39.13906828151821" lon="175.627108525653">
        <ele>1391</ele>
      </trkpt>
      <trkpt lat="-39.13900152584398" lon="175.62714190349">
        <ele>1394</ele>
      </trkpt>
      <trkpt lat="-39.13893381651726" lon="175.627175281327">
        <ele>1397</ele>
      </trkpt>
      <trkpt lat="-39.13885657066565" lon="175.627263017356">
        <ele>1401</ele>
      </trkpt>
      <trkpt lat="-39.13882891474346" lon="175.627314514591">
        <ele>1403</ele>
      </trkpt>
      <trkpt lat="-39.13880507343124" lon="175.627341216861">
        <ele>1404</ele>
      </trkpt>
    </trkseg>
  </trk>
</gpx>