<?xml version="1.0" encoding="UTF-8" standalone="yes"?>
<gpx
 version="1.1"
 creator="Generated by MapOut iPhone App. See https://mapout.app"
 xmlns="http://www.topografix.com/GPX/1/1"
 xmlns:xsi="http://www.w3.org/2001/XMLSchema-instance"
 xmlns:gpxx="http://www.garmin.com/xmlschemas/GpxExtensions/v3"
 xmlns:mapout="https://mapout.app/xmlschemas/MapOutExtensions"
 xsi:schemaLocation="http://www.topografix.com/GPX/1/1 https://www.topografix.com/GPX/1/1/gpx.xsd http://www.garmin.com/xmlschemas/GpxExtensions/v3 https://www8.garmin.com/xmlschemas/GpxExtensionsv3.xsd https://mapout.app/xmlschemas/MapOutExtensions https://mapout.app/xmlschemas/MapOutExtensions.xsd">
  <metadata>
    <name>Auckland Newmarket to Orakei</name>
    <desc>Waitematā - Ōrākei</desc>
    <time>2026-02-19T18:48:54Z</time>
    <bounds minlat="-36.87116011579505" minlon="174.779206749196" maxlat="-36.860026292059" maxlon="174.811428571429"/>
  </metadata>
  <trk>
    <name>Auckland Newmarket to Orakei</name>
    <desc>Waitematā - Ōrākei</desc>
    <trkseg>
      <trkpt lat="-36.87116011579505" lon="174.779206749196">
        <ele>69</ele>
      </trkpt>
      <trkpt lat="-36.87115487316422" lon="174.779214190349">
        <ele>69</ele>
      </trkpt>
      <trkpt lat="-36.87115487316422" lon="174.779214190349">
        <ele>69</ele>
      </trkpt>
      <trkpt lat="-36.87115010490177" lon="174.779226587831">
        <ele>69</ele>
      </trkpt>
      <trkpt lat="-36.87115010490177" lon="174.779226587831">
        <ele>69</ele>
      </trkpt>
      <trkpt lat="-36.87114342933435" lon="174.779228495136">
        <ele>69</ele>
      </trkpt>
      <trkpt lat="-36.87114342933435" lon="174.779228495136">
        <ele>69</ele>
      </trkpt>
      <trkpt lat="-36.87087449933244" lon="174.779572763685">
        <ele>68</ele>
      </trkpt>
      <trkpt lat="-36.87056170131603" lon="174.78">
        <ele>67</ele>
      </trkpt>
      <trkpt lat="-36.87056170131603" lon="174.78">
        <ele>67</ele>
      </trkpt>
      <trkpt lat="-36.87038718291055" lon="174.78023745947">
        <ele>65</ele>
      </trkpt>
      <trkpt lat="-36.87038718291055" lon="174.78023745947">
        <ele>65</ele>
      </trkpt>
      <trkpt lat="-36.87031947358383" lon="174.780324241846">
        <ele>64</ele>
      </trkpt>
      <trkpt lat="-36.87031947358383" lon="174.780324241846">
        <ele>64</ele>
      </trkpt>
      <trkpt lat="-36.86989986648865" lon="174.780878313942">
        <ele>57</ele>
      </trkpt>
      <trkpt lat="-36.86989891283616" lon="174.780895479687">
        <ele>56</ele>
      </trkpt>
      <trkpt lat="-36.86989891283616" lon="174.780895479687">
        <ele>56</ele>
      </trkpt>
      <trkpt lat="-36.86988651535381" lon="174.78090406256">
        <ele>56</ele>
      </trkpt>
      <trkpt lat="-36.86988651535381" lon="174.78090406256">
        <ele>56</ele>
      </trkpt>
      <trkpt lat="-36.86984968780948" lon="174.780935949824">
        <ele>56</ele>
      </trkpt>
      <trkpt lat="-36.86984968780767" lon="174.780935949823">
        <ele>56</ele>
      </trkpt>
      <trkpt lat="-36.86979401106237" lon="174.780876406637">
        <ele>55</ele>
      </trkpt>
      <trkpt lat="-36.86979399649077" lon="174.780876390984">
        <ele>55</ele>
      </trkpt>
      <trkpt lat="-36.86979399529572" lon="174.780876392512">
        <ele>55</ele>
      </trkpt>
      <trkpt lat="-36.86979399526344" lon="174.780876392547">
        <ele>55</ele>
      </trkpt>
      <trkpt lat="-36.86975872592027" lon="174.780844936105">
        <ele>55</ele>
      </trkpt>
      <trkpt lat="-36.869741474664" lon="174.78082503081">
        <ele>55</ele>
      </trkpt>
      <trkpt lat="-36.86974147470641" lon="174.780825030859">
        <ele>55</ele>
      </trkpt>
      <trkpt lat="-36.86970532138088" lon="174.780876406637">
        <ele>55</ele>
      </trkpt>
      <trkpt lat="-36.86970532138088" lon="174.780876406637">
        <ele>55</ele>
      </trkpt>
      <trkpt lat="-36.86969483120351" lon="174.780887850467">
        <ele>54</ele>
      </trkpt>
      <trkpt lat="-36.86969006294106" lon="174.780925996567">
        <ele>54</ele>
      </trkpt>
      <trkpt lat="-36.86967575815373" lon="174.780954606142">
        <ele>54</ele>
      </trkpt>
      <trkpt lat="-36.86928476063322" lon="174.78149437345">
        <ele>47</ele>
      </trkpt>
      <trkpt lat="-36.86925615105855" lon="174.78152107572">
        <ele>46</ele>
      </trkpt>
      <trkpt lat="-36.86923421705131" lon="174.781529658592">
        <ele>46</ele>
      </trkpt>
      <trkpt lat="-36.86921950906009" lon="174.781525896083">
        <ele>46</ele>
      </trkpt>
      <trkpt lat="-36.8692170513065" lon="174.78152870494">
        <ele>46</ele>
      </trkpt>
      <trkpt lat="-36.86921037573908" lon="174.78153633416">
        <ele>45</ele>
      </trkpt>
      <trkpt lat="-36.86921037573908" lon="174.78153633416">
        <ele>45</ele>
      </trkpt>
      <trkpt lat="-36.86916699141786" lon="174.781596960968">
        <ele>44</ele>
      </trkpt>
      <trkpt lat="-36.86916699139189" lon="174.781596960922">
        <ele>44</ele>
      </trkpt>
      <trkpt lat="-36.86920465382414" lon="174.781661262636">
        <ele>45</ele>
      </trkpt>
      <trkpt lat="-36.86920501296311" lon="174.781661875699">
        <ele>45</ele>
      </trkpt>
      <trkpt lat="-36.86920499193925" lon="174.781661904961">
        <ele>45</ele>
      </trkpt>
      <trkpt lat="-36.86920499191078" lon="174.781661905001">
        <ele>45</ele>
      </trkpt>
      <trkpt lat="-36.86923326339881" lon="174.781715620828">
        <ele>45</ele>
      </trkpt>
      <trkpt lat="-36.86925710471104" lon="174.781746137707">
        <ele>45</ele>
      </trkpt>
      <trkpt lat="-36.86925710471104" lon="174.781746137707">
        <ele>45</ele>
      </trkpt>
      <trkpt lat="-36.86922849513637" lon="174.781784283807">
        <ele>45</ele>
      </trkpt>
      <trkpt lat="-36.86922849513637" lon="174.781784283807">
        <ele>45</ele>
      </trkpt>
      <trkpt lat="-36.86925710471104" lon="174.781746137707">
        <ele>45</ele>
      </trkpt>
      <trkpt lat="-36.86925710471104" lon="174.781746137707">
        <ele>45</ele>
      </trkpt>
      <trkpt lat="-36.86923326339881" lon="174.781715620828">
        <ele>45</ele>
      </trkpt>
      <trkpt lat="-36.86920499191078" lon="174.781661905001">
        <ele>45</ele>
      </trkpt>
      <trkpt lat="-36.86920499193925" lon="174.781661904961">
        <ele>45</ele>
      </trkpt>
      <trkpt lat="-36.86920501296311" lon="174.781661875699">
        <ele>45</ele>
      </trkpt>
      <trkpt lat="-36.86920465382414" lon="174.781661262636">
        <ele>45</ele>
      </trkpt>
      <trkpt lat="-36.86916699139189" lon="174.781596960922">
        <ele>44</ele>
      </trkpt>
      <trkpt lat="-36.86916699141786" lon="174.781596960968">
        <ele>44</ele>
      </trkpt>
      <trkpt lat="-36.86913599084493" lon="174.781640282281">
        <ele>44</ele>
      </trkpt>
      <trkpt lat="-36.86913599084493" lon="174.781640282281">
        <ele>44</ele>
      </trkpt>
      <trkpt lat="-36.86912645432005" lon="174.781649818806">
        <ele>44</ele>
      </trkpt>
      <trkpt lat="-36.86912645432005" lon="174.781649818806">
        <ele>44</ele>
      </trkpt>
      <trkpt lat="-36.86910833492275" lon="174.7817242037">
        <ele>43</ele>
      </trkpt>
      <trkpt lat="-36.86884512683578" lon="174.782091359908">
        <ele>41</ele>
      </trkpt>
      <trkpt lat="-36.86875166889185" lon="174.782308792676">
        <ele>41</ele>
      </trkpt>
      <trkpt lat="-36.86875166889185" lon="174.782308792676">
        <ele>41</ele>
      </trkpt>
      <trkpt lat="-36.86868300591264" lon="174.782504291436">
        <ele>40</ele>
      </trkpt>
      <trkpt lat="-36.86865916460042" lon="174.782553881366">
        <ele>41</ele>
      </trkpt>
      <trkpt lat="-36.86852946786191" lon="174.782679763494">
        <ele>42</ele>
      </trkpt>
      <trkpt lat="-36.86846843410261" lon="174.782697882891">
        <ele>42</ele>
      </trkpt>
      <trkpt lat="-36.86819568949075" lon="174.782741750906">
        <ele>41</ele>
      </trkpt>
      <trkpt lat="-36.86809078771695" lon="174.782748426473">
        <ele>41</ele>
      </trkpt>
      <trkpt lat="-36.86799065420561" lon="174.782762731261">
        <ele>40</ele>
      </trkpt>
      <trkpt lat="-36.86791817661644" lon="174.782782757963">
        <ele>40</ele>
      </trkpt>
      <trkpt lat="-36.86731928285332" lon="174.783059317185">
        <ele>42</ele>
      </trkpt>
      <trkpt lat="-36.86716765210757" lon="174.783137516689">
        <ele>42</ele>
      </trkpt>
      <trkpt lat="-36.86713808888041" lon="174.783189967576">
        <ele>43</ele>
      </trkpt>
      <trkpt lat="-36.86711043295823" lon="174.78329486935">
        <ele>45</ele>
      </trkpt>
      <trkpt lat="-36.86708182338356" lon="174.783375929811">
        <ele>45</ele>
      </trkpt>
      <trkpt lat="-36.86686248331108" lon="174.783646767118">
        <ele>42</ele>
      </trkpt>
      <trkpt lat="-36.86651726111005" lon="174.784048254816">
        <ele>37</ele>
      </trkpt>
      <trkpt lat="-36.86621972153347" lon="174.784413503719">
        <ele>35</ele>
      </trkpt>
      <trkpt lat="-36.86621972153347" lon="174.784413503719">
        <ele>35</ele>
      </trkpt>
      <trkpt lat="-36.8661300781995" lon="174.78432195308">
        <ele>35</ele>
      </trkpt>
      <trkpt lat="-36.86607190539767" lon="174.784277131413">
        <ele>34</ele>
      </trkpt>
      <trkpt lat="-36.86607190539767" lon="174.784277131413">
        <ele>34</ele>
      </trkpt>
      <trkpt lat="-36.86585065802021" lon="174.784008201411">
        <ele>33</ele>
      </trkpt>
      <trkpt lat="-36.86568186152966" lon="174.783864199886">
        <ele>31</ele>
      </trkpt>
      <trkpt lat="-36.86565611291245" lon="174.783724966622">
        <ele>30</ele>
      </trkpt>
      <trkpt lat="-36.86565611291245" lon="174.783724966622">
        <ele>30</ele>
      </trkpt>
      <trkpt lat="-36.86558744993324" lon="174.78368586687">
        <ele>30</ele>
      </trkpt>
      <trkpt lat="-36.86558744993324" lon="174.78368586687">
        <ele>30</ele>
      </trkpt>
      <trkpt lat="-36.8655035285142" lon="174.783641045203">
        <ele>30</ele>
      </trkpt>
      <trkpt lat="-36.8655035285142" lon="174.783641045203">
        <ele>30</ele>
      </trkpt>
      <trkpt lat="-36.86546347510967" lon="174.783688727828">
        <ele>29</ele>
      </trkpt>
      <trkpt lat="-36.8654091169178" lon="174.783733549495">
        <ele>29</ele>
      </trkpt>
      <trkpt lat="-36.86530612244898" lon="174.783785046729">
        <ele>28</ele>
      </trkpt>
      <trkpt lat="-36.86501144382986" lon="174.783970055312">
        <ele>23</ele>
      </trkpt>
      <trkpt lat="-36.86492656875834" lon="174.784061605951">
        <ele>23</ele>
      </trkpt>
      <trkpt lat="-36.8648865153538" lon="174.78413026893">
        <ele>23</ele>
      </trkpt>
      <trkpt lat="-36.86487221056647" lon="174.784192256342">
        <ele>23</ele>
      </trkpt>
      <trkpt lat="-36.86486839595651" lon="174.784256151059">
        <ele>23</ele>
      </trkpt>
      <trkpt lat="-36.86486362769406" lon="174.784320999428">
        <ele>23</ele>
      </trkpt>
      <trkpt lat="-36.86483978638184" lon="174.784425901202">
        <ele>23</ele>
      </trkpt>
      <trkpt lat="-36.86481594506962" lon="174.784530802975">
        <ele>23</ele>
      </trkpt>
      <trkpt lat="-36.86462998283425" lon="174.785014304787">
        <ele>25</ele>
      </trkpt>
      <trkpt lat="-36.86457753194735" lon="174.78526034713">
        <ele>25</ele>
      </trkpt>
      <trkpt lat="-36.86454320045775" lon="174.785376692733">
        <ele>24</ele>
      </trkpt>
      <trkpt lat="-36.86450886896814" lon="174.785493038337">
        <ele>24</ele>
      </trkpt>
      <trkpt lat="-36.86421228304405" lon="174.786301735648">
        <ele>19</ele>
      </trkpt>
      <trkpt lat="-36.86420179286668" lon="174.786408544726">
        <ele>18</ele>
      </trkpt>
      <trkpt lat="-36.8641913026893" lon="174.786516307458">
        <ele>17</ele>
      </trkpt>
      <trkpt lat="-36.86418844173183" lon="174.786593553309">
        <ele>16</ele>
      </trkpt>
      <trkpt lat="-36.86418462712187" lon="174.786670799161">
        <ele>16</ele>
      </trkpt>
      <trkpt lat="-36.86412740797253" lon="174.787094220866">
        <ele>13</ele>
      </trkpt>
      <trkpt lat="-36.86412740797253" lon="174.787094220866">
        <ele>13</ele>
      </trkpt>
      <trkpt lat="-36.86419416364676" lon="174.787366965478">
        <ele>11</ele>
      </trkpt>
      <trkpt lat="-36.86419416364676" lon="174.787366965478">
        <ele>11</ele>
      </trkpt>
      <trkpt lat="-36.864173183292" lon="174.787414648102">
        <ele>11</ele>
      </trkpt>
      <trkpt lat="-36.86416746137707" lon="174.787468052642">
        <ele>11</ele>
      </trkpt>
      <trkpt lat="-36.86416746137707" lon="174.787468052642">
        <ele>11</ele>
      </trkpt>
      <trkpt lat="-36.86407018882319" lon="174.787740797253">
        <ele>10</ele>
      </trkpt>
      <trkpt lat="-36.86407018882319" lon="174.787740797253">
        <ele>10</ele>
      </trkpt>
      <trkpt lat="-36.86405111577341" lon="174.787655922182">
        <ele>10</ele>
      </trkpt>
      <trkpt lat="-36.86407400343315" lon="174.787594888423">
        <ele>11</ele>
      </trkpt>
      <trkpt lat="-36.86406351325576" lon="174.787566278848">
        <ele>11</ele>
      </trkpt>
      <trkpt lat="-36.8640692351707" lon="174.787467098989">
        <ele>11</ele>
      </trkpt>
      <trkpt lat="-36.86403681098607" lon="174.787374594698">
        <ele>12</ele>
      </trkpt>
      <trkpt lat="-36.86405493038337" lon="174.787295441541">
        <ele>12</ele>
      </trkpt>
      <trkpt lat="-36.86407209612817" lon="174.787216288385">
        <ele>13</ele>
      </trkpt>
      <trkpt lat="-36.86407209612817" lon="174.787216288385">
        <ele>13</ele>
      </trkpt>
      <trkpt lat="-36.86402441350371" lon="174.78713427427">
        <ele>14</ele>
      </trkpt>
      <trkpt lat="-36.86402441350371" lon="174.78713427427">
        <ele>14</ele>
      </trkpt>
      <trkpt lat="-36.86398054548922" lon="174.787130459661">
        <ele>14</ele>
      </trkpt>
      <trkpt lat="-36.86394049208468" lon="174.787137135228">
        <ele>14</ele>
      </trkpt>
      <trkpt lat="-36.86390329963761" lon="174.787151440015">
        <ele>15</ele>
      </trkpt>
      <trkpt lat="-36.86362864772077" lon="174.787331680336">
        <ele>15</ele>
      </trkpt>
      <trkpt lat="-36.86358764066374" lon="174.78738317757">
        <ele>15</ele>
      </trkpt>
      <trkpt lat="-36.86352565325195" lon="174.787374594698">
        <ele>16</ele>
      </trkpt>
      <trkpt lat="-36.86342933435056" lon="174.787374594698">
        <ele>16</ele>
      </trkpt>
      <trkpt lat="-36.8633129887469" lon="174.7873564753">
        <ele>17</ele>
      </trkpt>
      <trkpt lat="-36.86323097463284" lon="174.787385084875">
        <ele>18</ele>
      </trkpt>
      <trkpt lat="-36.8631480068663" lon="174.78741369445">
        <ele>19</ele>
      </trkpt>
      <trkpt lat="-36.86304215144001" lon="174.787441350372">
        <ele>20</ele>
      </trkpt>
      <trkpt lat="-36.86293534236124" lon="174.787469006294">
        <ele>21</ele>
      </trkpt>
      <trkpt lat="-36.86286000381461" lon="174.787451840549">
        <ele>22</ele>
      </trkpt>
      <trkpt lat="-36.86278371161549" lon="174.787434674805">
        <ele>23</ele>
      </trkpt>
      <trkpt lat="-36.86271504863628" lon="174.787391760443">
        <ele>24</ele>
      </trkpt>
      <trkpt lat="-36.86263303452222" lon="174.787280183101">
        <ele>25</ele>
      </trkpt>
      <trkpt lat="-36.86258821285524" lon="174.787189586115">
        <ele>26</ele>
      </trkpt>
      <trkpt lat="-36.86254339118825" lon="174.787099942781">
        <ele>27</ele>
      </trkpt>
      <trkpt lat="-36.86242704558459" lon="174.787031279802">
        <ele>29</ele>
      </trkpt>
      <trkpt lat="-36.8623650581728" lon="174.78698836544">
        <ele>30</ele>
      </trkpt>
      <trkpt lat="-36.86230307076102" lon="174.786945451078">
        <ele>30</ele>
      </trkpt>
      <trkpt lat="-36.86193972916269" lon="174.786439061606">
        <ele>36</ele>
      </trkpt>
      <trkpt lat="-36.86191207324051" lon="174.786374213237">
        <ele>37</ele>
      </trkpt>
      <trkpt lat="-36.86188441731833" lon="174.78631031852">
        <ele>38</ele>
      </trkpt>
      <trkpt lat="-36.8618434102613" lon="174.786233072668">
        <ele>39</ele>
      </trkpt>
      <trkpt lat="-36.86177474728209" lon="174.786250238413">
        <ele>39</ele>
      </trkpt>
      <trkpt lat="-36.86177474728209" lon="174.786250238413">
        <ele>39</ele>
      </trkpt>
      <trkpt lat="-36.86173278657257" lon="174.786318901392">
        <ele>38</ele>
      </trkpt>
      <trkpt lat="-36.86173278657257" lon="174.786318901392">
        <ele>38</ele>
      </trkpt>
      <trkpt lat="-36.86167175281327" lon="174.786370398627">
        <ele>38</ele>
      </trkpt>
      <trkpt lat="-36.86159546061415" lon="174.786387564372">
        <ele>39</ele>
      </trkpt>
      <trkpt lat="-36.86153442685485" lon="174.786353232882">
        <ele>39</ele>
      </trkpt>
      <trkpt lat="-36.86147911501049" lon="174.786318901392">
        <ele>40</ele>
      </trkpt>
      <trkpt lat="-36.86145908830822" lon="174.786250238413">
        <ele>41</ele>
      </trkpt>
      <trkpt lat="-36.86143810795346" lon="174.786181575434">
        <ele>41</ele>
      </trkpt>
      <trkpt lat="-36.861347510967" lon="174.786094793057">
        <ele>42</ele>
      </trkpt>
      <trkpt lat="-36.861347510967" lon="174.786094793057">
        <ele>42</ele>
      </trkpt>
      <trkpt lat="-36.86135132557695" lon="174.786036620256">
        <ele>42</ele>
      </trkpt>
      <trkpt lat="-36.86135132557695" lon="174.786036620256">
        <ele>42</ele>
      </trkpt>
      <trkpt lat="-36.8612521457181" lon="174.785975586496">
        <ele>43</ele>
      </trkpt>
      <trkpt lat="-36.86122162883845" lon="174.785906923517">
        <ele>44</ele>
      </trkpt>
      <trkpt lat="-36.8611911119588" lon="174.785838260538">
        <ele>44</ele>
      </trkpt>
      <trkpt lat="-36.8611911119588" lon="174.785838260538">
        <ele>44</ele>
      </trkpt>
      <trkpt lat="-36.8611472439443" lon="174.785789624261">
        <ele>45</ele>
      </trkpt>
      <trkpt lat="-36.8610871638375" lon="174.785760061034">
        <ele>45</ele>
      </trkpt>
      <trkpt lat="-36.8610871638375" lon="174.785760061034">
        <ele>45</ele>
      </trkpt>
      <trkpt lat="-36.86105378600038" lon="174.785750524509">
        <ele>45</ele>
      </trkpt>
      <trkpt lat="-36.8609994278085" lon="174.785707610147">
        <ele>46</ele>
      </trkpt>
      <trkpt lat="-36.8609994278085" lon="174.785707610147">
        <ele>46</ele>
      </trkpt>
      <trkpt lat="-36.86091646004196" lon="174.78565897387">
        <ele>47</ele>
      </trkpt>
      <trkpt lat="-36.86091646004196" lon="174.78565897387">
        <ele>47</ele>
      </trkpt>
      <trkpt lat="-36.86089261872974" lon="174.785617966813">
        <ele>47</ele>
      </trkpt>
      <trkpt lat="-36.86089261872974" lon="174.785617966813">
        <ele>47</ele>
      </trkpt>
      <trkpt lat="-36.86082872401297" lon="174.785564562274">
        <ele>48</ele>
      </trkpt>
      <trkpt lat="-36.8607648292962" lon="174.785512111387">
        <ele>49</ele>
      </trkpt>
      <trkpt lat="-36.86071523936677" lon="174.785493991989">
        <ele>50</ele>
      </trkpt>
      <trkpt lat="-36.86067613961472" lon="174.785493038337">
        <ele>50</ele>
      </trkpt>
      <trkpt lat="-36.86067613961472" lon="174.785493038337">
        <ele>50</ele>
      </trkpt>
      <trkpt lat="-36.86059794011062" lon="174.785519740607">
        <ele>50</ele>
      </trkpt>
      <trkpt lat="-36.86059794011062" lon="174.785519740607">
        <ele>50</ele>
      </trkpt>
      <trkpt lat="-36.86057600610337" lon="174.785529277131">
        <ele>50</ele>
      </trkpt>
      <trkpt lat="-36.86057600610337" lon="174.785529277131">
        <ele>50</ele>
      </trkpt>
      <trkpt lat="-36.86050638947167" lon="174.785569330536">
        <ele>50</ele>
      </trkpt>
      <trkpt lat="-36.86050638947167" lon="174.785569330536">
        <ele>50</ele>
      </trkpt>
      <trkpt lat="-36.86042914362006" lon="174.7856322716">
        <ele>50</ele>
      </trkpt>
      <trkpt lat="-36.86040911691779" lon="174.78567804692">
        <ele>50</ele>
      </trkpt>
      <trkpt lat="-36.86039195117299" lon="174.785763875644">
        <ele>49</ele>
      </trkpt>
      <trkpt lat="-36.86037478542818" lon="174.785849704368">
        <ele>48</ele>
      </trkpt>
      <trkpt lat="-36.86038622925805" lon="174.785922181957">
        <ele>48</ele>
      </trkpt>
      <trkpt lat="-36.86041197787526" lon="174.785996566851">
        <ele>47</ele>
      </trkpt>
      <trkpt lat="-36.86042818996757" lon="174.786066183483">
        <ele>47</ele>
      </trkpt>
      <trkpt lat="-36.86042723631508" lon="174.7861300782">
        <ele>47</ele>
      </trkpt>
      <trkpt lat="-36.86040053404539" lon="174.786215906924">
        <ele>46</ele>
      </trkpt>
      <trkpt lat="-36.86040053404539" lon="174.786215906924">
        <ele>46</ele>
      </trkpt>
      <trkpt lat="-36.8600524508869" lon="174.78675853519">
        <ele>45</ele>
      </trkpt>
      <trkpt lat="-36.860026292059" lon="174.786792779474">
        <ele>45</ele>
      </trkpt>
      <trkpt lat="-36.8600262920615" lon="174.786792779469">
        <ele>45</ele>
      </trkpt>
      <trkpt lat="-36.86004577531947" lon="174.786819568949">
        <ele>45</ele>
      </trkpt>
      <trkpt lat="-36.86004577531947" lon="174.786819568949">
        <ele>45</ele>
      </trkpt>
      <trkpt lat="-36.86064943734503" lon="174.787456608812">
        <ele>42</ele>
      </trkpt>
      <trkpt lat="-36.86064943734503" lon="174.787456608812">
        <ele>42</ele>
      </trkpt>
      <trkpt lat="-36.8606351325577" lon="174.787481403776">
        <ele>42</ele>
      </trkpt>
      <trkpt lat="-36.8606351325577" lon="174.787481403776">
        <ele>42</ele>
      </trkpt>
      <trkpt lat="-36.86055121113866" lon="174.787602517643">
        <ele>41</ele>
      </trkpt>
      <trkpt lat="-36.86055120626206" lon="174.787602524855">
        <ele>41</ele>
      </trkpt>
      <trkpt lat="-36.86068199751419" lon="174.78773965494">
        <ele>41</ele>
      </trkpt>
      <trkpt lat="-36.86068186152966" lon="174.787739843601">
        <ele>41</ele>
      </trkpt>
      <trkpt lat="-36.86045870684723" lon="174.788051687965">
        <ele>39</ele>
      </trkpt>
      <trkpt lat="-36.86045966049971" lon="174.788112721724">
        <ele>39</ele>
      </trkpt>
      <trkpt lat="-36.86045966049971" lon="174.788112721724">
        <ele>39</ele>
      </trkpt>
      <trkpt lat="-36.86150963189014" lon="174.789266641236">
        <ele>31</ele>
      </trkpt>
      <trkpt lat="-36.86150963189014" lon="174.789266641236">
        <ele>31</ele>
      </trkpt>
      <trkpt lat="-36.8612349799733" lon="174.789622353614">
        <ele>30</ele>
      </trkpt>
      <trkpt lat="-36.86121399961853" lon="174.789638565707">
        <ele>30</ele>
      </trkpt>
      <trkpt lat="-36.86116631699409" lon="174.789651916842">
        <ele>30</ele>
      </trkpt>
      <trkpt lat="-36.86116631699409" lon="174.789651916842">
        <ele>30</ele>
      </trkpt>
      <trkpt lat="-36.86116727064658" lon="174.789715811558">
        <ele>30</ele>
      </trkpt>
      <trkpt lat="-36.86112626358955" lon="174.7898273889">
        <ele>29</ele>
      </trkpt>
      <trkpt lat="-36.86106332252527" lon="174.789912263971">
        <ele>28</ele>
      </trkpt>
      <trkpt lat="-36.86106332252527" lon="174.789912263971">
        <ele>28</ele>
      </trkpt>
      <trkpt lat="-36.86102994468816" lon="174.789956131986">
        <ele>28</ele>
      </trkpt>
      <trkpt lat="-36.86113293915697" lon="174.790024794965">
        <ele>26</ele>
      </trkpt>
      <trkpt lat="-36.8608258630555" lon="174.790250810605">
        <ele>20</ele>
      </trkpt>
      <trkpt lat="-36.8608258630555" lon="174.790250810605">
        <ele>20</ele>
      </trkpt>
      <trkpt lat="-36.86125691398054" lon="174.79043677284">
        <ele>14</ele>
      </trkpt>
      <trkpt lat="-36.86125691398054" lon="174.79043677284">
        <ele>14</ele>
      </trkpt>
      <trkpt lat="-36.86178333015449" lon="174.790607476636">
        <ele>10</ele>
      </trkpt>
      <trkpt lat="-36.86178333015449" lon="174.790607476636">
        <ele>10</ele>
      </trkpt>
      <trkpt lat="-36.861825290864" lon="174.790622735075">
        <ele>9</ele>
      </trkpt>
      <trkpt lat="-36.86187869540339" lon="174.79069711997">
        <ele>8</ele>
      </trkpt>
      <trkpt lat="-36.86193209994278" lon="174.790772458516">
        <ele>6</ele>
      </trkpt>
      <trkpt lat="-36.86193209994278" lon="174.790772458516">
        <ele>6</ele>
      </trkpt>
      <trkpt lat="-36.86194449742514" lon="174.790756246424">
        <ele>6</ele>
      </trkpt>
      <trkpt lat="-36.86194449742514" lon="174.790756246424">
        <ele>6</ele>
      </trkpt>
      <trkpt lat="-36.86234503147053" lon="174.79024508869">
        <ele>13</ele>
      </trkpt>
      <trkpt lat="-36.86311939729163" lon="174.789237078009">
        <ele>14</ele>
      </trkpt>
      <trkpt lat="-36.86342456608811" lon="174.78871256914">
        <ele>13</ele>
      </trkpt>
      <trkpt lat="-36.86348559984742" lon="174.788637230593">
        <ele>13</ele>
      </trkpt>
      <trkpt lat="-36.86354663360671" lon="174.788562845699">
        <ele>13</ele>
      </trkpt>
      <trkpt lat="-36.86354663360671" lon="174.788562845699">
        <ele>13</ele>
      </trkpt>
      <trkpt lat="-36.8636429525081" lon="174.788604806409">
        <ele>12</ele>
      </trkpt>
      <trkpt lat="-36.863738317757" lon="174.788646767118">
        <ele>10</ele>
      </trkpt>
      <trkpt lat="-36.863738317757" lon="174.788646767118">
        <ele>10</ele>
      </trkpt>
      <trkpt lat="-36.86367728399771" lon="174.78893477017">
        <ele>10</ele>
      </trkpt>
      <trkpt lat="-36.86371638374976" lon="174.789195117299">
        <ele>8</ele>
      </trkpt>
      <trkpt lat="-36.863695403395" lon="174.789408735457">
        <ele>8</ele>
      </trkpt>
      <trkpt lat="-36.86363913789815" lon="174.789634751097">
        <ele>7</ele>
      </trkpt>
      <trkpt lat="-36.86364390616059" lon="174.789702460423">
        <ele>7</ele>
      </trkpt>
      <trkpt lat="-36.86366202555789" lon="174.789763494183">
        <ele>7</ele>
      </trkpt>
      <trkpt lat="-36.86371161548731" lon="174.789828342552">
        <ele>6</ele>
      </trkpt>
      <trkpt lat="-36.86388613389281" lon="174.790028609575">
        <ele>5</ele>
      </trkpt>
      <trkpt lat="-36.86400534045394" lon="174.790196452413">
        <ele>5</ele>
      </trkpt>
      <trkpt lat="-36.86403013541865" lon="174.79025653252">
        <ele>5</ele>
      </trkpt>
      <trkpt lat="-36.86404920846843" lon="174.790339500286">
        <ele>5</ele>
      </trkpt>
      <trkpt lat="-36.86405302307839" lon="174.790509250429">
        <ele>5</ele>
      </trkpt>
      <trkpt lat="-36.86405302307839" lon="174.790509250429">
        <ele>5</ele>
      </trkpt>
      <trkpt lat="-36.86403967194354" lon="174.790598893763">
        <ele>5</ele>
      </trkpt>
      <trkpt lat="-36.86402536715621" lon="174.79068949075">
        <ele>5</ele>
      </trkpt>
      <trkpt lat="-36.86402536715621" lon="174.79068949075">
        <ele>5</ele>
      </trkpt>
      <trkpt lat="-36.86401487697883" lon="174.790758153729">
        <ele>5</ele>
      </trkpt>
      <trkpt lat="-36.86400438680145" lon="174.790826816708">
        <ele>5</ele>
      </trkpt>
      <trkpt lat="-36.86400438680145" lon="174.790826816708">
        <ele>5</ele>
      </trkpt>
      <trkpt lat="-36.86388804119778" lon="174.790824909403">
        <ele>5</ele>
      </trkpt>
      <trkpt lat="-36.86379458325386" lon="174.79090406256">
        <ele>6</ele>
      </trkpt>
      <trkpt lat="-36.86370112530994" lon="174.790983215716">
        <ele>6</ele>
      </trkpt>
      <trkpt lat="-36.86365534999046" lon="174.791049017738">
        <ele>6</ele>
      </trkpt>
      <trkpt lat="-36.8636086210185" lon="174.791115773412">
        <ele>6</ele>
      </trkpt>
      <trkpt lat="-36.86357142857143" lon="174.791210185009">
        <ele>6</ele>
      </trkpt>
      <trkpt lat="-36.86349227541483" lon="174.791633606714">
        <ele>6</ele>
      </trkpt>
      <trkpt lat="-36.86347034140759" lon="174.791717528133">
        <ele>6</ele>
      </trkpt>
      <trkpt lat="-36.86344840740034" lon="174.791802403204">
        <ele>6</ele>
      </trkpt>
      <trkpt lat="-36.86341693686821" lon="174.791897768453">
        <ele>6</ele>
      </trkpt>
      <trkpt lat="-36.86338451268357" lon="174.791994087355">
        <ele>6</ele>
      </trkpt>
      <trkpt lat="-36.8633826053786" lon="174.792103757391">
        <ele>6</ele>
      </trkpt>
      <trkpt lat="-36.86337211520122" lon="174.792174327675">
        <ele>6</ele>
      </trkpt>
      <trkpt lat="-36.86336067137135" lon="174.792244897959">
        <ele>6</ele>
      </trkpt>
      <trkpt lat="-36.86337497615869" lon="174.792336448598">
        <ele>6</ele>
      </trkpt>
      <trkpt lat="-36.8634522220103" lon="174.79243658211">
        <ele>6</ele>
      </trkpt>
      <trkpt lat="-36.86352946786191" lon="174.792537669273">
        <ele>7</ele>
      </trkpt>
      <trkpt lat="-36.86358382605378" lon="174.792648292962">
        <ele>7</ele>
      </trkpt>
      <trkpt lat="-36.86360576006103" lon="174.792755102041">
        <ele>7</ele>
      </trkpt>
      <trkpt lat="-36.86360289910356" lon="174.792832347892">
        <ele>7</ele>
      </trkpt>
      <trkpt lat="-36.86359908449361" lon="174.792909593744">
        <ele>7</ele>
      </trkpt>
      <trkpt lat="-36.86360671371352" lon="174.792973488461">
        <ele>7</ele>
      </trkpt>
      <trkpt lat="-36.86361338928094" lon="174.79303833683">
        <ele>7</ele>
      </trkpt>
      <trkpt lat="-36.86357905779134" lon="174.793124165554">
        <ele>7</ele>
      </trkpt>
      <trkpt lat="-36.86354472630173" lon="174.793209994278">
        <ele>7</ele>
      </trkpt>
      <trkpt lat="-36.86348273888994" lon="174.793299637612">
        <ele>6</ele>
      </trkpt>
      <trkpt lat="-36.86342075147816" lon="174.793390234599">
        <ele>6</ele>
      </trkpt>
      <trkpt lat="-36.86334732023651" lon="174.79370112531">
        <ele>6</ele>
      </trkpt>
      <trkpt lat="-36.86332729353423" lon="174.793773602899">
        <ele>5</ele>
      </trkpt>
      <trkpt lat="-36.86330631317947" lon="174.793847034141">
        <ele>5</ele>
      </trkpt>
      <trkpt lat="-36.8632433721152" lon="174.793965287049">
        <ele>5</ele>
      </trkpt>
      <trkpt lat="-36.86317947739843" lon="174.794084493611">
        <ele>5</ele>
      </trkpt>
      <trkpt lat="-36.86319664314323" lon="174.794166507725">
        <ele>5</ele>
      </trkpt>
      <trkpt lat="-36.86319664314323" lon="174.794166507725">
        <ele>5</ele>
      </trkpt>
      <trkpt lat="-36.86328437917223" lon="174.794238031661">
        <ele>5</ele>
      </trkpt>
      <trkpt lat="-36.86337211520122" lon="174.794309555598">
        <ele>6</ele>
      </trkpt>
      <trkpt lat="-36.86337211520122" lon="174.794309555598">
        <ele>6</ele>
      </trkpt>
      <trkpt lat="-36.86332824718672" lon="174.794393477017">
        <ele>5</ele>
      </trkpt>
      <trkpt lat="-36.86328437917223" lon="174.794477398436">
        <ele>5</ele>
      </trkpt>
      <trkpt lat="-36.86330440587449" lon="174.794526988365">
        <ele>5</ele>
      </trkpt>
      <trkpt lat="-36.86331203509441" lon="174.794644287622">
        <ele>6</ele>
      </trkpt>
      <trkpt lat="-36.86331871066183" lon="174.79476254053">
        <ele>6</ele>
      </trkpt>
      <trkpt lat="-36.86323860385275" lon="174.795344268549">
        <ele>6</ele>
      </trkpt>
      <trkpt lat="-36.86324814037764" lon="174.795407209613">
        <ele>6</ele>
      </trkpt>
      <trkpt lat="-36.86327674995231" lon="174.795514018692">
        <ele>6</ele>
      </trkpt>
      <trkpt lat="-36.86330535952698" lon="174.79562082777">
        <ele>7</ele>
      </trkpt>
      <trkpt lat="-36.86333969101659" lon="174.795702841884">
        <ele>7</ele>
      </trkpt>
      <trkpt lat="-36.8633730688537" lon="174.795784855999">
        <ele>7</ele>
      </trkpt>
      <trkpt lat="-36.86344840740034" lon="174.795853518978">
        <ele>7</ele>
      </trkpt>
      <trkpt lat="-36.86353518977684" lon="174.79585828724">
        <ele>8</ele>
      </trkpt>
      <trkpt lat="-36.86362101850086" lon="174.795864009155">
        <ele>8</ele>
      </trkpt>
      <trkpt lat="-36.86368777417509" lon="174.795852565325">
        <ele>8</ele>
      </trkpt>
      <trkpt lat="-36.86375357619683" lon="174.795842075148">
        <ele>8</ele>
      </trkpt>
      <trkpt lat="-36.86409403013542" lon="174.795913599085">
        <ele>9</ele>
      </trkpt>
      <trkpt lat="-36.86419225634179" lon="174.79588880412">
        <ele>9</ele>
      </trkpt>
      <trkpt lat="-36.86429048254816" lon="174.795864962808">
        <ele>9</ele>
      </trkpt>
      <trkpt lat="-36.86437154300972" lon="174.795772458516">
        <ele>8</ele>
      </trkpt>
      <trkpt lat="-36.8644087354568" lon="174.795761968339">
        <ele>8</ele>
      </trkpt>
      <trkpt lat="-36.8644087354568" lon="174.795761968339">
        <ele>8</ele>
      </trkpt>
      <trkpt lat="-36.86446171568848" lon="174.795791829924">
        <ele>8</ele>
      </trkpt>
      <trkpt lat="-36.86446171562476" lon="174.795791830108">
        <ele>8</ele>
      </trkpt>
      <trkpt lat="-36.86432672134274" lon="174.796190158306">
        <ele>12</ele>
      </trkpt>
      <trkpt lat="-36.86427999237078" lon="174.796381842457">
        <ele>14</ele>
      </trkpt>
      <trkpt lat="-36.86395861148198" lon="174.798115582682">
        <ele>33</ele>
      </trkpt>
      <trkpt lat="-36.86395098226206" lon="174.798236696548">
        <ele>35</ele>
      </trkpt>
      <trkpt lat="-36.86395384321953" lon="174.798373068854">
        <ele>36</ele>
      </trkpt>
      <trkpt lat="-36.86399580392904" lon="174.798847987793">
        <ele>39</ele>
      </trkpt>
      <trkpt lat="-36.86413217623497" lon="174.799976158688">
        <ele>41</ele>
      </trkpt>
      <trkpt lat="-36.86413217623497" lon="174.799976158688">
        <ele>41</ele>
      </trkpt>
      <trkpt lat="-36.86410642761777" lon="174.8">
        <ele>41</ele>
      </trkpt>
      <trkpt lat="-36.86410642761777" lon="174.8">
        <ele>41</ele>
      </trkpt>
      <trkpt lat="-36.86408830822048" lon="174.800044821667">
        <ele>41</ele>
      </trkpt>
      <trkpt lat="-36.86408830822048" lon="174.800044821667">
        <ele>41</ele>
      </trkpt>
      <trkpt lat="-36.86261872973488" lon="174.800826816708">
        <ele>23</ele>
      </trkpt>
      <trkpt lat="-36.86261872973488" lon="174.800826816708">
        <ele>23</ele>
      </trkpt>
      <trkpt lat="-36.86258725920274" lon="174.800767690254">
        <ele>23</ele>
      </trkpt>
      <trkpt lat="-36.86253671562083" lon="174.800763875644">
        <ele>22</ele>
      </trkpt>
      <trkpt lat="-36.8624775891665" lon="174.800788670608">
        <ele>21</ele>
      </trkpt>
      <trkpt lat="-36.86238794583254" lon="174.800838260538">
        <ele>19</ele>
      </trkpt>
      <trkpt lat="-36.86237650200267" lon="174.800878313942">
        <ele>19</ele>
      </trkpt>
      <trkpt lat="-36.86231546824337" lon="174.800962235361">
        <ele>17</ele>
      </trkpt>
      <trkpt lat="-36.86225443448407" lon="174.801047110433">
        <ele>15</ele>
      </trkpt>
      <trkpt lat="-36.86225443448407" lon="174.801047110433">
        <ele>15</ele>
      </trkpt>
      <trkpt lat="-36.86219816898722" lon="174.801120541675">
        <ele>13</ele>
      </trkpt>
      <trkpt lat="-36.86219626168224" lon="174.801307457562">
        <ele>13</ele>
      </trkpt>
      <trkpt lat="-36.86221438107953" lon="174.801649818806">
        <ele>12</ele>
      </trkpt>
      <trkpt lat="-36.86226397100896" lon="174.80195021934">
        <ele>12</ele>
      </trkpt>
      <trkpt lat="-36.86226206370398" lon="174.802135227923">
        <ele>12</ele>
      </trkpt>
      <trkpt lat="-36.86222010299446" lon="174.802669273317">
        <ele>12</ele>
      </trkpt>
      <trkpt lat="-36.86220102994469" lon="174.8028161358">
        <ele>11</ele>
      </trkpt>
      <trkpt lat="-36.86220102994469" lon="174.8028161358">
        <ele>11</ele>
      </trkpt>
      <trkpt lat="-36.86217909593744" lon="174.802932481404">
        <ele>11</ele>
      </trkpt>
      <trkpt lat="-36.86215716193019" lon="174.803048827007">
        <ele>11</ele>
      </trkpt>
      <trkpt lat="-36.86206751859622" lon="174.803331108144">
        <ele>9</ele>
      </trkpt>
      <trkpt lat="-36.86205988937631" lon="174.803386419989">
        <ele>9</ele>
      </trkpt>
      <trkpt lat="-36.8620694259012" lon="174.803438870875">
        <ele>9</ele>
      </trkpt>
      <trkpt lat="-36.86209898912836" lon="174.80350181194">
        <ele>9</ele>
      </trkpt>
      <trkpt lat="-36.86212664505054" lon="174.803544726302">
        <ele>9</ele>
      </trkpt>
      <trkpt lat="-36.86215811558268" lon="174.803575243181">
        <ele>9</ele>
      </trkpt>
      <trkpt lat="-36.86219149341979" lon="174.803590501621">
        <ele>9</ele>
      </trkpt>
      <trkpt lat="-36.8622258249094" lon="174.803595269884">
        <ele>10</ele>
      </trkpt>
      <trkpt lat="-36.86227446118634" lon="174.803587640664">
        <ele>10</ele>
      </trkpt>
      <trkpt lat="-36.86238031661262" lon="174.803547587259">
        <ele>12</ele>
      </trkpt>
      <trkpt lat="-36.86241846271218" lon="174.803547587259">
        <ele>12</ele>
      </trkpt>
      <trkpt lat="-36.86250905969865" lon="174.803589547969">
        <ele>13</ele>
      </trkpt>
      <trkpt lat="-36.86259870303261" lon="174.803632462331">
        <ele>13</ele>
      </trkpt>
      <trkpt lat="-36.86268548540912" lon="174.803725920275">
        <ele>13</ele>
      </trkpt>
      <trkpt lat="-36.86277512874308" lon="174.803779324814">
        <ele>13</ele>
      </trkpt>
      <trkpt lat="-36.86286381842456" lon="174.803833683006">
        <ele>13</ele>
      </trkpt>
      <trkpt lat="-36.86297062750334" lon="174.803870875453">
        <ele>14</ele>
      </trkpt>
      <trkpt lat="-36.86304787335494" lon="174.803918558077">
        <ele>14</ele>
      </trkpt>
      <trkpt lat="-36.86312511920656" lon="174.803966240702">
        <ele>14</ele>
      </trkpt>
      <trkpt lat="-36.86318710661835" lon="174.804039671944">
        <ele>14</ele>
      </trkpt>
      <trkpt lat="-36.86324814037764" lon="174.804113103185">
        <ele>14</ele>
      </trkpt>
      <trkpt lat="-36.86335494945641" lon="174.804190349037">
        <ele>14</ele>
      </trkpt>
      <trkpt lat="-36.8634083539958" lon="174.804273316803">
        <ele>14</ele>
      </trkpt>
      <trkpt lat="-36.86346175853519" lon="174.80435628457">
        <ele>13</ele>
      </trkpt>
      <trkpt lat="-36.8634951363723" lon="174.804382033187">
        <ele>13</ele>
      </trkpt>
      <trkpt lat="-36.86359908449361" lon="174.804442113294">
        <ele>13</ele>
      </trkpt>
      <trkpt lat="-36.86364009155064" lon="174.804484074003">
        <ele>13</ele>
      </trkpt>
      <trkpt lat="-36.86366965477779" lon="174.804499332443">
        <ele>13</ele>
      </trkpt>
      <trkpt lat="-36.86373259584207" lon="174.804503147053">
        <ele>13</ele>
      </trkpt>
      <trkpt lat="-36.86379553690635" lon="174.804506961663">
        <ele>13</ele>
      </trkpt>
      <trkpt lat="-36.8638603852756" lon="174.804531756628">
        <ele>13</ele>
      </trkpt>
      <trkpt lat="-36.86392427999237" lon="174.804557505245">
        <ele>13</ele>
      </trkpt>
      <trkpt lat="-36.86399866488652" lon="174.804620446309">
        <ele>13</ele>
      </trkpt>
      <trkpt lat="-36.86407209612817" lon="174.804684341026">
        <ele>12</ele>
      </trkpt>
      <trkpt lat="-36.86407209612817" lon="174.804684341026">
        <ele>12</ele>
      </trkpt>
      <trkpt lat="-36.86424184627121" lon="174.805033377837">
        <ele>9</ele>
      </trkpt>
      <trkpt lat="-36.86427427045584" lon="174.805118252909">
        <ele>8</ele>
      </trkpt>
      <trkpt lat="-36.8643734503147" lon="174.80518786954">
        <ele>8</ele>
      </trkpt>
      <trkpt lat="-36.86445832538622" lon="174.805186915888">
        <ele>8</ele>
      </trkpt>
      <trkpt lat="-36.86458611481976" lon="174.805165935533">
        <ele>8</ele>
      </trkpt>
      <trkpt lat="-36.86517642571047" lon="174.805056265497">
        <ele>8</ele>
      </trkpt>
      <trkpt lat="-36.86531470532138" lon="174.805010490177">
        <ele>8</ele>
      </trkpt>
      <trkpt lat="-36.86580965096319" lon="174.8047510967">
        <ele>9</ele>
      </trkpt>
      <trkpt lat="-36.86586400915506" lon="174.804711996948">
        <ele>9</ele>
      </trkpt>
      <trkpt lat="-36.86587551213711" lon="174.804707523566">
        <ele>9</ele>
      </trkpt>
      <trkpt lat="-36.86587551213734" lon="174.804707523565">
        <ele>9</ele>
      </trkpt>
      <trkpt lat="-36.8659393477017" lon="174.805025748617">
        <ele>7</ele>
      </trkpt>
      <trkpt lat="-36.8659393477017" lon="174.805025748617">
        <ele>7</ele>
      </trkpt>
      <trkpt lat="-36.8661386610719" lon="174.806155826817">
        <ele>6</ele>
      </trkpt>
      <trkpt lat="-36.8661386610719" lon="174.806155826817">
        <ele>6</ele>
      </trkpt>
      <trkpt lat="-36.86608811748999" lon="174.806175853519">
        <ele>6</ele>
      </trkpt>
      <trkpt lat="-36.86608811748999" lon="174.806175853519">
        <ele>6</ele>
      </trkpt>
      <trkpt lat="-36.86598798397863" lon="174.806211138661">
        <ele>6</ele>
      </trkpt>
      <trkpt lat="-36.86588785046729" lon="174.806270265115">
        <ele>6</ele>
      </trkpt>
      <trkpt lat="-36.86578008773603" lon="174.806370398627">
        <ele>6</ele>
      </trkpt>
      <trkpt lat="-36.86571905397673" lon="174.806461949266">
        <ele>6</ele>
      </trkpt>
      <trkpt lat="-36.86569235170703" lon="174.80652107572">
        <ele>5</ele>
      </trkpt>
      <trkpt lat="-36.86565229830249" lon="174.806638374976">
        <ele>5</ele>
      </trkpt>
      <trkpt lat="-36.8656170131604" lon="174.806707991608">
        <ele>6</ele>
      </trkpt>
      <trkpt lat="-36.86557123784092" lon="174.806782376502">
        <ele>6</ele>
      </trkpt>
      <trkpt lat="-36.86552546252145" lon="174.806857715049">
        <ele>6</ele>
      </trkpt>
      <trkpt lat="-36.86549399198932" lon="174.806943543773">
        <ele>6</ele>
      </trkpt>
      <trkpt lat="-36.86546156780469" lon="174.807029372497">
        <ele>7</ele>
      </trkpt>
      <trkpt lat="-36.8653566660309" lon="174.807272553881">
        <ele>8</ele>
      </trkpt>
      <trkpt lat="-36.86533282471867" lon="174.807359336258">
        <ele>8</ele>
      </trkpt>
      <trkpt lat="-36.86531851993134" lon="174.807445164982">
        <ele>8</ele>
      </trkpt>
      <trkpt lat="-36.86530326149151" lon="174.807530993706">
        <ele>9</ele>
      </trkpt>
      <trkpt lat="-36.86524127407972" lon="174.807817089453">
        <ele>12</ele>
      </trkpt>
      <trkpt lat="-36.86521075720007" lon="174.807887659737">
        <ele>13</ele>
      </trkpt>
      <trkpt lat="-36.86518024032043" lon="174.807959183673">
        <ele>13</ele>
      </trkpt>
      <trkpt lat="-36.86518024032043" lon="174.807959183673">
        <ele>13</ele>
      </trkpt>
      <trkpt lat="-36.86506389471676" lon="174.808027846653">
        <ele>14</ele>
      </trkpt>
      <trkpt lat="-36.86448598130841" lon="174.808323478924">
        <ele>12</ele>
      </trkpt>
      <trkpt lat="-36.86440778180431" lon="174.808370207896">
        <ele>12</ele>
      </trkpt>
      <trkpt lat="-36.86432958230021" lon="174.808417890521">
        <ele>12</ele>
      </trkpt>
      <trkpt lat="-36.86426187297349" lon="174.808473202365">
        <ele>12</ele>
      </trkpt>
      <trkpt lat="-36.86417222963951" lon="174.808557123784">
        <ele>12</ele>
      </trkpt>
      <trkpt lat="-36.86410547396528" lon="174.808600038146">
        <ele>12</ele>
      </trkpt>
      <trkpt lat="-36.86403585733358" lon="174.808618157543">
        <ele>12</ele>
      </trkpt>
      <trkpt lat="-36.86400534045394" lon="174.808636276941">
        <ele>12</ele>
      </trkpt>
      <trkpt lat="-36.86395193591455" lon="174.80871638375">
        <ele>12</ele>
      </trkpt>
      <trkpt lat="-36.86389853137516" lon="174.808796490559">
        <ele>13</ele>
      </trkpt>
      <trkpt lat="-36.86378695403395" lon="174.80888136563">
        <ele>13</ele>
      </trkpt>
      <trkpt lat="-36.86372401296967" lon="174.808962426092">
        <ele>13</ele>
      </trkpt>
      <trkpt lat="-36.8636610719054" lon="174.809043486553">
        <ele>13</ele>
      </trkpt>
      <trkpt lat="-36.86363723059317" lon="174.809098798398">
        <ele>14</ele>
      </trkpt>
      <trkpt lat="-36.86363723059317" lon="174.809098798398">
        <ele>14</ele>
      </trkpt>
      <trkpt lat="-36.86361815754339" lon="174.809210375739">
        <ele>14</ele>
      </trkpt>
      <trkpt lat="-36.86360766736601" lon="174.809374403967">
        <ele>15</ele>
      </trkpt>
      <trkpt lat="-36.86356189204653" lon="174.809712950601">
        <ele>15</ele>
      </trkpt>
      <trkpt lat="-36.86356189204653" lon="174.809712950601">
        <ele>15</ele>
      </trkpt>
      <trkpt lat="-36.86347320236506" lon="174.810097272554">
        <ele>16</ele>
      </trkpt>
      <trkpt lat="-36.86339677849594" lon="174.810361364504">
        <ele>15</ele>
      </trkpt>
      <trkpt lat="-36.86339691016593" lon="174.810361434293">
        <ele>15</ele>
      </trkpt>
      <trkpt lat="-36.86344301321562" lon="174.810385897136">
        <ele>15</ele>
      </trkpt>
      <trkpt lat="-36.86344301319568" lon="174.810385897205">
        <ele>15</ele>
      </trkpt>
      <trkpt lat="-36.86344301073396" lon="174.81038590572">
        <ele>15</ele>
      </trkpt>
      <trkpt lat="-36.8634436391379" lon="174.810386229258">
        <ele>15</ele>
      </trkpt>
      <trkpt lat="-36.86349411210414" lon="174.81041221534">
        <ele>15</ele>
      </trkpt>
      <trkpt lat="-36.86349411208212" lon="174.810412215415">
        <ele>15</ele>
      </trkpt>
      <trkpt lat="-36.86328914743467" lon="174.811101468625">
        <ele>13</ele>
      </trkpt>
      <trkpt lat="-36.86326053786" lon="174.811182529086">
        <ele>13</ele>
      </trkpt>
      <trkpt lat="-36.86317089452604" lon="174.81134465001">
        <ele>13</ele>
      </trkpt>
      <trkpt lat="-36.86317089452604" lon="174.81134465001">
        <ele>13</ele>
      </trkpt>
      <trkpt lat="-36.86310223154682" lon="174.811428571429">
        <ele>13</ele>
      </trkpt>
    </trkseg>
  </trk>
</gpx>