<?xml version="1.0" encoding="UTF-8" standalone="yes"?>
<gpx
 version="1.1"
 creator="Generated by MapOut iPhone App. See https://mapout.app"
 xmlns="http://www.topografix.com/GPX/1/1"
 xmlns:xsi="http://www.w3.org/2001/XMLSchema-instance"
 xmlns:gpxx="http://www.garmin.com/xmlschemas/GpxExtensions/v3"
 xmlns:mapout="https://mapout.app/xmlschemas/MapOutExtensions"
 xsi:schemaLocation="http://www.topografix.com/GPX/1/1 https://www.topografix.com/GPX/1/1/gpx.xsd http://www.garmin.com/xmlschemas/GpxExtensions/v3 https://www8.garmin.com/xmlschemas/GpxExtensionsv3.xsd https://mapout.app/xmlschemas/MapOutExtensions https://mapout.app/xmlschemas/MapOutExtensions.xsd">
  <metadata>
    <name>Te Puia Geothermal Walk</name>
    <author><name>iPhone</name></author>
    <time>2026-05-12T02:59:01Z</time>
    <bounds minlat="-38.16723536143429" minlon="176.248261491512" maxlat="-38.16262254434484" maxlon="176.255438991834"/>
  </metadata>
  <trk>
    <name>Te Puia Geothermal Walk</name>
    <trkseg>
      <trkpt lat="-38.16455780545103" lon="176.251002288766">
        <ele>309</ele>
      </trkpt>
      <trkpt lat="-38.16485885943163" lon="176.251002288766">
        <ele>308</ele>
      </trkpt>
      <trkpt lat="-38.16497520503529" lon="176.250928857524">
        <ele>308</ele>
      </trkpt>
      <trkpt lat="-38.16507247758917" lon="176.250925996567">
        <ele>308</ele>
      </trkpt>
      <trkpt lat="-38.16507247758917" lon="176.250925996567">
        <ele>308</ele>
      </trkpt>
      <trkpt lat="-38.16525843982453" lon="176.250918367347">
        <ele>309</ele>
      </trkpt>
      <trkpt lat="-38.1653833683006" lon="176.250792485218">
        <ele>310</ele>
      </trkpt>
      <trkpt lat="-38.16551592599657" lon="176.250438680145">
        <ele>310</ele>
      </trkpt>
      <trkpt lat="-38.16566278847988" lon="176.250249856952">
        <ele>310</ele>
      </trkpt>
      <trkpt lat="-38.16566278847988" lon="176.250249856952">
        <ele>310</ele>
      </trkpt>
      <trkpt lat="-38.16551783330155" lon="176.250039099752">
        <ele>310</ele>
      </trkpt>
      <trkpt lat="-38.16544154110242" lon="176.249916078581">
        <ele>311</ele>
      </trkpt>
      <trkpt lat="-38.16546728971963" lon="176.249798779325">
        <ele>311</ele>
      </trkpt>
      <trkpt lat="-38.16554358191875" lon="176.249636658402">
        <ele>310</ele>
      </trkpt>
      <trkpt lat="-38.16571237840931" lon="176.249402059889">
        <ele>310</ele>
      </trkpt>
      <trkpt lat="-38.16576292199123" lon="176.249246614534">
        <ele>309</ele>
      </trkpt>
      <trkpt lat="-38.16570665649437" lon="176.249155063895">
        <ele>309</ele>
      </trkpt>
      <trkpt lat="-38.16571619301926" lon="176.249023459851">
        <ele>310</ele>
      </trkpt>
      <trkpt lat="-38.16581918748808" lon="176.248847034141">
        <ele>310</ele>
      </trkpt>
      <trkpt lat="-38.16591550638947" lon="176.248519931337">
        <ele>310</ele>
      </trkpt>
      <trkpt lat="-38.16621209231356" lon="176.248314896052">
        <ele>311</ele>
      </trkpt>
      <trkpt lat="-38.16618348273889" lon="176.248261491512">
        <ele>311</ele>
      </trkpt>
      <trkpt lat="-38.16618348273889" lon="176.248261491512">
        <ele>311</ele>
      </trkpt>
      <trkpt lat="-38.16610337592981" lon="176.248261491512">
        <ele>311</ele>
      </trkpt>
      <trkpt lat="-38.16610337592981" lon="176.248261491512">
        <ele>311</ele>
      </trkpt>
      <trkpt lat="-38.16636086210185" lon="176.248484646195">
        <ele>311</ele>
      </trkpt>
      <trkpt lat="-38.16636086210185" lon="176.248484646195">
        <ele>311</ele>
      </trkpt>
      <trkpt lat="-38.16641998855617" lon="176.248512302117">
        <ele>311</ele>
      </trkpt>
      <trkpt lat="-38.16650963189014" lon="176.248577150486">
        <ele>311</ele>
      </trkpt>
      <trkpt lat="-38.16667747472821" lon="176.248641998856">
        <ele>311</ele>
      </trkpt>
      <trkpt lat="-38.16698931909212" lon="176.248895670418">
        <ele>313</ele>
      </trkpt>
      <trkpt lat="-38.16698931909212" lon="176.248895670418">
        <ele>313</ele>
      </trkpt>
      <trkpt lat="-38.16698741178715" lon="176.248976730879">
        <ele>313</ele>
      </trkpt>
      <trkpt lat="-38.16698455082968" lon="176.249057791341">
        <ele>313</ele>
      </trkpt>
      <trkpt lat="-38.16701983597177" lon="176.249142666412">
        <ele>313</ele>
      </trkpt>
      <trkpt lat="-38.16709994278085" lon="176.249187488079">
        <ele>314</ele>
      </trkpt>
      <trkpt lat="-38.16717909593744" lon="176.249233263399">
        <ele>315</ele>
      </trkpt>
      <trkpt lat="-38.16720770551211" lon="176.249311462903">
        <ele>316</ele>
      </trkpt>
      <trkpt lat="-38.16723536143429" lon="176.249389662407">
        <ele>317</ele>
      </trkpt>
      <trkpt lat="-38.16721628838452" lon="176.249490749571">
        <ele>318</ele>
      </trkpt>
      <trkpt lat="-38.16719721533473" lon="176.249591836735">
        <ele>319</ele>
      </trkpt>
      <trkpt lat="-38.16719721533473" lon="176.249591836735">
        <ele>319</ele>
      </trkpt>
      <trkpt lat="-38.1670961281709" lon="176.249779706275">
        <ele>320</ele>
      </trkpt>
      <trkpt lat="-38.16695308029754" lon="176.250134465001">
        <ele>319</ele>
      </trkpt>
      <trkpt lat="-38.16652584398246" lon="176.250699980927">
        <ele>318</ele>
      </trkpt>
      <trkpt lat="-38.16623784093077" lon="176.251136753767">
        <ele>317</ele>
      </trkpt>
      <trkpt lat="-38.16616822429906" lon="176.251223536143">
        <ele>317</ele>
      </trkpt>
      <trkpt lat="-38.16605760061034" lon="176.251311272172">
        <ele>316</ele>
      </trkpt>
      <trkpt lat="-38.16601563990082" lon="176.25133702079">
        <ele>316</ele>
      </trkpt>
      <trkpt lat="-38.16594888422659" lon="176.251352279229">
        <ele>315</ele>
      </trkpt>
      <trkpt lat="-38.16594888422659" lon="176.251352279229">
        <ele>315</ele>
      </trkpt>
      <trkpt lat="-38.16588975777227" lon="176.251355140187">
        <ele>315</ele>
      </trkpt>
      <trkpt lat="-38.16582872401297" lon="176.251368491322">
        <ele>314</ele>
      </trkpt>
      <trkpt lat="-38.16557314514591" lon="176.251439061606">
        <ele>312</ele>
      </trkpt>
      <trkpt lat="-38.16550734312417" lon="176.251470532138">
        <ele>312</ele>
      </trkpt>
      <trkpt lat="-38.16544058744994" lon="176.251502956323">
        <ele>311</ele>
      </trkpt>
      <trkpt lat="-38.16537764638566" lon="176.251581155827">
        <ele>311</ele>
      </trkpt>
      <trkpt lat="-38.16533854663361" lon="176.251668891856">
        <ele>310</ele>
      </trkpt>
      <trkpt lat="-38.16532424184627" lon="176.251757581537">
        <ele>310</ele>
      </trkpt>
      <trkpt lat="-38.16530898340645" lon="176.251846271219">
        <ele>310</ele>
      </trkpt>
      <trkpt lat="-38.16530898340645" lon="176.25191970246">
        <ele>310</ele>
      </trkpt>
      <trkpt lat="-38.16530898340645" lon="176.251993133702">
        <ele>310</ele>
      </trkpt>
      <trkpt lat="-38.16531947358383" lon="176.252060843029">
        <ele>311</ele>
      </trkpt>
      <trkpt lat="-38.16532901010872" lon="176.252128552356">
        <ele>311</ele>
      </trkpt>
      <trkpt lat="-38.16532328819378" lon="176.252233454129">
        <ele>311</ele>
      </trkpt>
      <trkpt lat="-38.16530612244898" lon="176.252265878314">
        <ele>311</ele>
      </trkpt>
      <trkpt lat="-38.16524032042724" lon="176.252316421896">
        <ele>310</ele>
      </trkpt>
      <trkpt lat="-38.16473715686671" lon="176.252500776589">
        <ele>307</ele>
      </trkpt>
      <trkpt lat="-38.16473679191303" lon="176.252502384131">
        <ele>307</ele>
      </trkpt>
      <trkpt lat="-38.16467480450124" lon="176.252775128743">
        <ele>307</ele>
      </trkpt>
      <trkpt lat="-38.16481308411215" lon="176.253151821476">
        <ele>308</ele>
      </trkpt>
      <trkpt lat="-38.16488937631127" lon="176.2532757963">
        <ele>309</ele>
      </trkpt>
      <trkpt lat="-38.1648436009918" lon="176.253327293534">
        <ele>309</ele>
      </trkpt>
      <trkpt lat="-38.164695784856" lon="176.253327293534">
        <ele>308</ele>
      </trkpt>
      <trkpt lat="-38.16463951935915" lon="176.253373068854">
        <ele>308</ele>
      </trkpt>
      <trkpt lat="-38.16479210375739" lon="176.253633415983">
        <ele>309</ele>
      </trkpt>
      <trkpt lat="-38.16496662216289" lon="176.253815563609">
        <ele>311</ele>
      </trkpt>
      <trkpt lat="-38.16500730026684" lon="176.254017259207">
        <ele>312</ele>
      </trkpt>
      <trkpt lat="-38.16500730026684" lon="176.254017259207">
        <ele>312</ele>
      </trkpt>
      <trkpt lat="-38.16496662216289" lon="176.253815563609">
        <ele>311</ele>
      </trkpt>
      <trkpt lat="-38.16479210375739" lon="176.253633415983">
        <ele>309</ele>
      </trkpt>
      <trkpt lat="-38.16463951935915" lon="176.253373068854">
        <ele>308</ele>
      </trkpt>
      <trkpt lat="-38.164695784856" lon="176.253327293534">
        <ele>308</ele>
      </trkpt>
      <trkpt lat="-38.1648436009918" lon="176.253327293534">
        <ele>309</ele>
      </trkpt>
      <trkpt lat="-38.16488937631127" lon="176.2532757963">
        <ele>309</ele>
      </trkpt>
      <trkpt lat="-38.16481308411215" lon="176.253151821476">
        <ele>308</ele>
      </trkpt>
      <trkpt lat="-38.16467480450124" lon="176.252775128743">
        <ele>307</ele>
      </trkpt>
      <trkpt lat="-38.16473679191303" lon="176.252502384131">
        <ele>307</ele>
      </trkpt>
      <trkpt lat="-38.16473715686671" lon="176.252500776589">
        <ele>307</ele>
      </trkpt>
      <trkpt lat="-38.1645479687202" lon="176.252570093458">
        <ele>306</ele>
      </trkpt>
      <trkpt lat="-38.16443257676903" lon="176.252589166508">
        <ele>306</ele>
      </trkpt>
      <trkpt lat="-38.16431718481785" lon="176.25260919321">
        <ele>305</ele>
      </trkpt>
      <trkpt lat="-38.16431718481785" lon="176.25260919321">
        <ele>305</ele>
      </trkpt>
      <trkpt lat="-38.16434579439252" lon="176.252481403776">
        <ele>305</ele>
      </trkpt>
      <trkpt lat="-38.16443162311653" lon="176.252380316613">
        <ele>306</ele>
      </trkpt>
      <trkpt lat="-38.16453843219531" lon="176.252198168987">
        <ele>307</ele>
      </trkpt>
      <trkpt lat="-38.16458516116727" lon="176.252029372497">
        <ele>307</ele>
      </trkpt>
      <trkpt lat="-38.16460137325959" lon="176.251821476254">
        <ele>307</ele>
      </trkpt>
      <trkpt lat="-38.16460137325959" lon="176.251821476254">
        <ele>307</ele>
      </trkpt>
      <trkpt lat="-38.16458516116727" lon="176.252029372497">
        <ele>307</ele>
      </trkpt>
      <trkpt lat="-38.16453843219531" lon="176.252198168987">
        <ele>307</ele>
      </trkpt>
      <trkpt lat="-38.16443162311653" lon="176.252380316613">
        <ele>306</ele>
      </trkpt>
      <trkpt lat="-38.16434579439252" lon="176.252481403776">
        <ele>305</ele>
      </trkpt>
      <trkpt lat="-38.16431718481785" lon="176.25260919321">
        <ele>305</ele>
      </trkpt>
      <trkpt lat="-38.16431718481785" lon="176.25260919321">
        <ele>305</ele>
      </trkpt>
      <trkpt lat="-38.16395193591455" lon="176.252790387183">
        <ele>305</ele>
      </trkpt>
      <trkpt lat="-38.16391665077246" lon="176.252839977112">
        <ele>305</ele>
      </trkpt>
      <trkpt lat="-38.16390711424757" lon="176.252901964524">
        <ele>305</ele>
      </trkpt>
      <trkpt lat="-38.16392523364486" lon="176.252982071333">
        <ele>305</ele>
      </trkpt>
      <trkpt lat="-38.16397482357429" lon="176.253071714667">
        <ele>305</ele>
      </trkpt>
      <trkpt lat="-38.16402345985123" lon="176.253161358001">
        <ele>305</ele>
      </trkpt>
      <trkpt lat="-38.16404825481595" lon="176.253262445165">
        <ele>305</ele>
      </trkpt>
      <trkpt lat="-38.16404825481595" lon="176.253262445165">
        <ele>305</ele>
      </trkpt>
      <trkpt lat="-38.16384608048827" lon="176.253550448217">
        <ele>305</ele>
      </trkpt>
      <trkpt lat="-38.16381556360862" lon="176.253621018501">
        <ele>306</ele>
      </trkpt>
      <trkpt lat="-38.16378504672898" lon="176.253691588785">
        <ele>306</ele>
      </trkpt>
      <trkpt lat="-38.16373545679954" lon="176.253768834637">
        <ele>306</ele>
      </trkpt>
      <trkpt lat="-38.16369826435247" lon="176.253792675949">
        <ele>305</ele>
      </trkpt>
      <trkpt lat="-38.16363436963571" lon="176.253807934389">
        <ele>305</ele>
      </trkpt>
      <trkpt lat="-38.16363436963571" lon="176.253807934389">
        <ele>305</ele>
      </trkpt>
      <trkpt lat="-38.16365725729544" lon="176.253828914743">
        <ele>305</ele>
      </trkpt>
      <trkpt lat="-38.16369826435247" lon="176.253830822048">
        <ele>306</ele>
      </trkpt>
      <trkpt lat="-38.16374213236697" lon="176.253803166126">
        <ele>306</ele>
      </trkpt>
      <trkpt lat="-38.16379267594888" lon="176.253754529849">
        <ele>306</ele>
      </trkpt>
      <trkpt lat="-38.16380698073622" lon="176.253766927332">
        <ele>306</ele>
      </trkpt>
      <trkpt lat="-38.16380316612626" lon="176.253862292581">
        <ele>306</ele>
      </trkpt>
      <trkpt lat="-38.16382128552355" lon="176.25392332634">
        <ele>306</ele>
      </trkpt>
      <trkpt lat="-38.16383845126836" lon="176.253984360099">
        <ele>306</ele>
      </trkpt>
      <trkpt lat="-38.16383845126836" lon="176.253984360099">
        <ele>306</ele>
      </trkpt>
      <trkpt lat="-38.16385466336067" lon="176.254030135419">
        <ele>307</ele>
      </trkpt>
      <trkpt lat="-38.16382414648103" lon="176.254191302689">
        <ele>307</ele>
      </trkpt>
      <trkpt lat="-38.1637650200267" lon="176.254412550067">
        <ele>307</ele>
      </trkpt>
      <trkpt lat="-38.16378886133893" lon="176.25459374404">
        <ele>308</ele>
      </trkpt>
      <trkpt lat="-38.16378886133893" lon="176.25459374404">
        <ele>308</ele>
      </trkpt>
      <trkpt lat="-38.16386801449552" lon="176.254622353614">
        <ele>308</ele>
      </trkpt>
      <trkpt lat="-38.16394621399962" lon="176.254651916842">
        <ele>309</ele>
      </trkpt>
      <trkpt lat="-38.16402822811368" lon="176.254564180813">
        <ele>309</ele>
      </trkpt>
      <trkpt lat="-38.16414171275987" lon="176.254608048827">
        <ele>309</ele>
      </trkpt>
      <trkpt lat="-38.16425519740606" lon="176.254651916842">
        <ele>310</ele>
      </trkpt>
      <trkpt lat="-38.16432862864772" lon="176.254718672516">
        <ele>311</ele>
      </trkpt>
      <trkpt lat="-38.16440110623689" lon="176.254786381842">
        <ele>311</ele>
      </trkpt>
      <trkpt lat="-38.16462235361435" lon="176.255123974824">
        <ele>314</ele>
      </trkpt>
      <trkpt lat="-38.16463284379172" lon="176.255211710853">
        <ele>314</ele>
      </trkpt>
      <trkpt lat="-38.16460423421705" lon="176.255251764257">
        <ele>314</ele>
      </trkpt>
      <trkpt lat="-38.16457753194736" lon="176.255255578867">
        <ele>314</ele>
      </trkpt>
      <trkpt lat="-38.16455082967767" lon="176.255247949647">
        <ele>314</ele>
      </trkpt>
      <trkpt lat="-38.16453461758535" lon="176.255223154682">
        <ele>313</ele>
      </trkpt>
      <trkpt lat="-38.16451840549304" lon="176.255226969292">
        <ele>313</ele>
      </trkpt>
      <trkpt lat="-38.16449837879077" lon="176.25524508869">
        <ele>313</ele>
      </trkpt>
      <trkpt lat="-38.16449837879077" lon="176.25524508869">
        <ele>313</ele>
      </trkpt>
      <trkpt lat="-38.16444783520885" lon="176.255329010109">
        <ele>313</ele>
      </trkpt>
      <trkpt lat="-38.1644526034713" lon="176.25542914362">
        <ele>313</ele>
      </trkpt>
      <trkpt lat="-38.16444556903298" lon="176.255438991834">
        <ele>313</ele>
      </trkpt>
      <trkpt lat="-38.16444556903298" lon="176.255438991834">
        <ele>313</ele>
      </trkpt>
      <trkpt lat="-38.1644526034713" lon="176.25542914362">
        <ele>313</ele>
      </trkpt>
      <trkpt lat="-38.16444783520885" lon="176.255329010109">
        <ele>313</ele>
      </trkpt>
      <trkpt lat="-38.16449837879077" lon="176.25524508869">
        <ele>313</ele>
      </trkpt>
      <trkpt lat="-38.16449837879077" lon="176.25524508869">
        <ele>313</ele>
      </trkpt>
      <trkpt lat="-38.16451840549304" lon="176.255226969292">
        <ele>313</ele>
      </trkpt>
      <trkpt lat="-38.16453461758535" lon="176.255223154682">
        <ele>313</ele>
      </trkpt>
      <trkpt lat="-38.16455082967767" lon="176.255247949647">
        <ele>314</ele>
      </trkpt>
      <trkpt lat="-38.16457753194736" lon="176.255255578867">
        <ele>314</ele>
      </trkpt>
      <trkpt lat="-38.16460423421705" lon="176.255251764257">
        <ele>314</ele>
      </trkpt>
      <trkpt lat="-38.16463284379172" lon="176.255211710853">
        <ele>314</ele>
      </trkpt>
      <trkpt lat="-38.16462235361435" lon="176.255123974824">
        <ele>314</ele>
      </trkpt>
      <trkpt lat="-38.16440110623689" lon="176.254786381842">
        <ele>311</ele>
      </trkpt>
      <trkpt lat="-38.16432862864772" lon="176.254718672516">
        <ele>311</ele>
      </trkpt>
      <trkpt lat="-38.16425519740606" lon="176.254651916842">
        <ele>310</ele>
      </trkpt>
      <trkpt lat="-38.16414171275987" lon="176.254608048827">
        <ele>309</ele>
      </trkpt>
      <trkpt lat="-38.16402822811368" lon="176.254564180813">
        <ele>309</ele>
      </trkpt>
      <trkpt lat="-38.16394621399962" lon="176.254651916842">
        <ele>309</ele>
      </trkpt>
      <trkpt lat="-38.16386801449552" lon="176.254622353614">
        <ele>308</ele>
      </trkpt>
      <trkpt lat="-38.16378886133893" lon="176.25459374404">
        <ele>308</ele>
      </trkpt>
      <trkpt lat="-38.16378886133893" lon="176.25459374404">
        <ele>308</ele>
      </trkpt>
      <trkpt lat="-38.1637650200267" lon="176.254412550067">
        <ele>307</ele>
      </trkpt>
      <trkpt lat="-38.16382414648103" lon="176.254191302689">
        <ele>307</ele>
      </trkpt>
      <trkpt lat="-38.16385466336067" lon="176.254030135419">
        <ele>307</ele>
      </trkpt>
      <trkpt lat="-38.16383845126836" lon="176.253984360099">
        <ele>306</ele>
      </trkpt>
      <trkpt lat="-38.16383845126836" lon="176.253984360099">
        <ele>306</ele>
      </trkpt>
      <trkpt lat="-38.16382128552355" lon="176.25392332634">
        <ele>306</ele>
      </trkpt>
      <trkpt lat="-38.16380316612626" lon="176.253862292581">
        <ele>306</ele>
      </trkpt>
      <trkpt lat="-38.16380698073622" lon="176.253766927332">
        <ele>306</ele>
      </trkpt>
      <trkpt lat="-38.16379267594888" lon="176.253754529849">
        <ele>306</ele>
      </trkpt>
      <trkpt lat="-38.16374213236697" lon="176.253803166126">
        <ele>306</ele>
      </trkpt>
      <trkpt lat="-38.16369826435247" lon="176.253830822048">
        <ele>306</ele>
      </trkpt>
      <trkpt lat="-38.16365725729544" lon="176.253828914743">
        <ele>305</ele>
      </trkpt>
      <trkpt lat="-38.16363436963571" lon="176.253807934389">
        <ele>305</ele>
      </trkpt>
      <trkpt lat="-38.16363436963571" lon="176.253807934389">
        <ele>305</ele>
      </trkpt>
      <trkpt lat="-38.16356379935151" lon="176.253791722296">
        <ele>305</ele>
      </trkpt>
      <trkpt lat="-38.16356379935151" lon="176.253791722296">
        <ele>305</ele>
      </trkpt>
      <trkpt lat="-38.16353423612436" lon="176.253781232119">
        <ele>305</ele>
      </trkpt>
      <trkpt lat="-38.16344936105283" lon="176.253672515735">
        <ele>304</ele>
      </trkpt>
      <trkpt lat="-38.16336353232882" lon="176.253564753004">
        <ele>304</ele>
      </trkpt>
      <trkpt lat="-38.16336353232882" lon="176.253564753004">
        <ele>304</ele>
      </trkpt>
      <trkpt lat="-38.16327865725729" lon="176.253127026512">
        <ele>305</ele>
      </trkpt>
      <trkpt lat="-38.16272649246615" lon="176.253250047683">
        <ele>307</ele>
      </trkpt>
      <trkpt lat="-38.16269692923899" lon="176.2532376502">
        <ele>307</ele>
      </trkpt>
      <trkpt lat="-38.16268548540912" lon="176.253183292008">
        <ele>307</ele>
      </trkpt>
      <trkpt lat="-38.16270646576388" lon="176.253074575625">
        <ele>307</ele>
      </trkpt>
      <trkpt lat="-38.16272744611864" lon="176.252965859241">
        <ele>307</ele>
      </trkpt>
      <trkpt lat="-38.16277989700554" lon="176.252896242609">
        <ele>307</ele>
      </trkpt>
      <trkpt lat="-38.1628523745947" lon="176.252845699027">
        <ele>307</ele>
      </trkpt>
      <trkpt lat="-38.16287907686439" lon="176.252761777608">
        <ele>307</ele>
      </trkpt>
      <trkpt lat="-38.16286763303452" lon="176.252672134274">
        <ele>307</ele>
      </trkpt>
      <trkpt lat="-38.16279897005531" lon="176.252598703033">
        <ele>308</ele>
      </trkpt>
      <trkpt lat="-38.16273698264353" lon="176.252565325195">
        <ele>308</ele>
      </trkpt>
      <trkpt lat="-38.16267404157925" lon="176.252531947358">
        <ele>308</ele>
      </trkpt>
      <trkpt lat="-38.16264543200458" lon="176.252496662216">
        <ele>309</ele>
      </trkpt>
      <trkpt lat="-38.16262254434484" lon="176.252441350372">
        <ele>309</ele>
      </trkpt>
      <trkpt lat="-38.16262540530231" lon="176.252342170513">
        <ele>308</ele>
      </trkpt>
      <trkpt lat="-38.16262731260728" lon="176.252243944307">
        <ele>308</ele>
      </trkpt>
      <trkpt lat="-38.16264257104712" lon="176.25214953271">
        <ele>308</ele>
      </trkpt>
      <trkpt lat="-38.16265687583445" lon="176.252056074766">
        <ele>308</ele>
      </trkpt>
      <trkpt lat="-38.16269502193401" lon="176.251978828915">
        <ele>308</ele>
      </trkpt>
      <trkpt lat="-38.16277989700554" lon="176.251904444021">
        <ele>308</ele>
      </trkpt>
      <trkpt lat="-38.16280469197025" lon="176.251840549304">
        <ele>308</ele>
      </trkpt>
      <trkpt lat="-38.16282948693496" lon="176.25177760824">
        <ele>308</ele>
      </trkpt>
      <trkpt lat="-38.1628609574671" lon="176.25173564753">
        <ele>308</ele>
      </trkpt>
      <trkpt lat="-38.16316421895861" lon="176.251673660118">
        <ele>308</ele>
      </trkpt>
      <trkpt lat="-38.16325576959756" lon="176.251617394621">
        <ele>309</ele>
      </trkpt>
      <trkpt lat="-38.16334636658402" lon="176.251562082777">
        <ele>309</ele>
      </trkpt>
      <trkpt lat="-38.16339881747091" lon="176.251477207706">
        <ele>309</ele>
      </trkpt>
      <trkpt lat="-38.16345126835781" lon="176.251393286286">
        <ele>309</ele>
      </trkpt>
      <trkpt lat="-38.16348178523746" lon="176.251373259584">
        <ele>309</ele>
      </trkpt>
      <trkpt lat="-38.16348345968211" lon="176.251372160727">
        <ele>309</ele>
      </trkpt>
      <trkpt lat="-38.16351230211711" lon="176.251365630364">
        <ele>309</ele>
      </trkpt>
      <trkpt lat="-38.16354002000357" lon="176.251368295546">
        <ele>309</ele>
      </trkpt>
    </trkseg>
  </trk>
</gpx>