<?xml version="1.0" encoding="UTF-8" standalone="yes"?>
<gpx
 version="1.1"
 creator="Generated by MapOut iPhone App. See https://mapout.app"
 xmlns="http://www.topografix.com/GPX/1/1"
 xmlns:xsi="http://www.w3.org/2001/XMLSchema-instance"
 xmlns:gpxx="http://www.garmin.com/xmlschemas/GpxExtensions/v3"
 xmlns:mapout="https://mapout.app/xmlschemas/MapOutExtensions"
 xsi:schemaLocation="http://www.topografix.com/GPX/1/1 https://www.topografix.com/GPX/1/1/gpx.xsd http://www.garmin.com/xmlschemas/GpxExtensions/v3 https://www8.garmin.com/xmlschemas/GpxExtensionsv3.xsd https://mapout.app/xmlschemas/MapOutExtensions https://mapout.app/xmlschemas/MapOutExtensions.xsd">
  <metadata>
    <name>Gannet Walk</name>
    <author><name>iPhone</name></author>
    <time>2026-04-05T22:41:43Z</time>
    <bounds minlat="-36.83329338714162" minlon="174.424576578295" maxlat="-36.82700458347433" maxlon="174.428340641698"/>
  </metadata>
  <trk>
    <name>Gannet Walk</name>
    <trkseg>
      <trkpt lat="-36.82700458347433" lon="174.428340641698">
        <ele>15</ele>
      </trkpt>
      <trkpt lat="-36.82704653824146" lon="174.428319664314">
        <ele>15</ele>
      </trkpt>
      <trkpt lat="-36.82711806217814" lon="174.42828342552">
        <ele>15</ele>
      </trkpt>
      <trkpt lat="-36.82722201029944" lon="174.428221438108">
        <ele>15</ele>
      </trkpt>
      <trkpt lat="-36.82730688537097" lon="174.428135609384">
        <ele>14</ele>
      </trkpt>
      <trkpt lat="-36.82742799923707" lon="174.428073621972">
        <ele>14</ele>
      </trkpt>
      <trkpt lat="-36.82752336448598" lon="174.42804596605">
        <ele>14</ele>
      </trkpt>
      <trkpt lat="-36.82761205416746" lon="174.427928666794">
        <ele>14</ele>
      </trkpt>
      <trkpt lat="-36.82767213427427" lon="174.427871447644">
        <ele>14</ele>
      </trkpt>
      <trkpt lat="-36.82775128743086" lon="174.427828533282">
        <ele>14</ele>
      </trkpt>
      <trkpt lat="-36.82781613580011" lon="174.427801831013">
        <ele>14</ele>
      </trkpt>
      <trkpt lat="-36.82788003051688" lon="174.427775128743">
        <ele>14</ele>
      </trkpt>
      <trkpt lat="-36.82795155445356" lon="174.427692160977">
        <ele>14</ele>
      </trkpt>
      <trkpt lat="-36.82795155445356" lon="174.427692160977">
        <ele>14</ele>
      </trkpt>
      <trkpt lat="-36.82788193782186" lon="174.427480450124">
        <ele>13</ele>
      </trkpt>
      <trkpt lat="-36.82786286477207" lon="174.427296395194">
        <ele>12</ele>
      </trkpt>
      <trkpt lat="-36.82786763303452" lon="174.427117108526">
        <ele>12</ele>
      </trkpt>
      <trkpt lat="-36.82786763303452" lon="174.427117108526">
        <ele>12</ele>
      </trkpt>
      <trkpt lat="-36.82788003051688" lon="174.426924470723">
        <ele>11</ele>
      </trkpt>
      <trkpt lat="-36.82786191111958" lon="174.426880602708">
        <ele>11</ele>
      </trkpt>
      <trkpt lat="-36.82786191111958" lon="174.426880602708">
        <ele>11</ele>
      </trkpt>
      <trkpt lat="-36.82796204463094" lon="174.426813847034">
        <ele>11</ele>
      </trkpt>
      <trkpt lat="-36.82811844363913" lon="174.426814800687">
        <ele>11</ele>
      </trkpt>
      <trkpt lat="-36.82866011825291" lon="174.426888231928">
        <ele>12</ele>
      </trkpt>
      <trkpt lat="-36.82866011825291" lon="174.426888231928">
        <ele>12</ele>
      </trkpt>
      <trkpt lat="-36.828652489033" lon="174.426801449552">
        <ele>12</ele>
      </trkpt>
      <trkpt lat="-36.82857715048636" lon="174.426387564372">
        <ele>10</ele>
      </trkpt>
      <trkpt lat="-36.82858573335876" lon="174.426109097845">
        <ele>8</ele>
      </trkpt>
      <trkpt lat="-36.82858573335876" lon="174.426109097845">
        <ele>8</ele>
      </trkpt>
      <trkpt lat="-36.82872300896098" lon="174.425955195866">
        <ele>7</ele>
      </trkpt>
      <trkpt lat="-36.82878030671974" lon="174.425903156049">
        <ele>6</ele>
      </trkpt>
      <trkpt lat="-36.82885846354303" lon="174.425856380118">
        <ele>6</ele>
      </trkpt>
      <trkpt lat="-36.82895389325687" lon="174.425820033552">
        <ele>6</ele>
      </trkpt>
      <trkpt lat="-36.82903151066976" lon="174.4257636019">
        <ele>5</ele>
      </trkpt>
      <trkpt lat="-36.82913580901923" lon="174.425715282973">
        <ele>5</ele>
      </trkpt>
      <trkpt lat="-36.82920000741261" lon="174.425685403401">
        <ele>5</ele>
      </trkpt>
      <trkpt lat="-36.82926347361182" lon="174.42564775099">
        <ele>5</ele>
      </trkpt>
      <trkpt lat="-36.82931221001319" lon="174.425634526311">
        <ele>5</ele>
      </trkpt>
      <trkpt lat="-36.82938199820465" lon="174.425624682668">
        <ele>5</ele>
      </trkpt>
      <trkpt lat="-36.82945221145756" lon="174.425595769119">
        <ele>5</ele>
      </trkpt>
      <trkpt lat="-36.82952308187497" lon="174.425530598614">
        <ele>4</ele>
      </trkpt>
      <trkpt lat="-36.82954849123608" lon="174.425521282769">
        <ele>4</ele>
      </trkpt>
      <trkpt lat="-36.82961527204144" lon="174.425510956089">
        <ele>4</ele>
      </trkpt>
      <trkpt lat="-36.82971667731009" lon="174.425490879772">
        <ele>4</ele>
      </trkpt>
      <trkpt lat="-36.82976842107574" lon="174.425478138086">
        <ele>4</ele>
      </trkpt>
      <trkpt lat="-36.82980323839193" lon="174.425466505576">
        <ele>4</ele>
      </trkpt>
      <trkpt lat="-36.82983562691571" lon="174.42544874153">
        <ele>4</ele>
      </trkpt>
      <trkpt lat="-36.82986200062633" lon="174.425430011497">
        <ele>4</ele>
      </trkpt>
      <trkpt lat="-36.82993815362543" lon="174.425358034087">
        <ele>4</ele>
      </trkpt>
      <trkpt lat="-36.82996980992731" lon="174.425332497222">
        <ele>4</ele>
      </trkpt>
      <trkpt lat="-36.83002479326215" lon="174.42530305148">
        <ele>4</ele>
      </trkpt>
      <trkpt lat="-36.83010965779077" lon="174.425280318623">
        <ele>4</ele>
      </trkpt>
      <trkpt lat="-36.83021858155381" lon="174.425261449795">
        <ele>4</ele>
      </trkpt>
      <trkpt lat="-36.8302761865326" lon="174.425236252746">
        <ele>4</ele>
      </trkpt>
      <trkpt lat="-36.83035314686832" lon="174.425216078146">
        <ele>4</ele>
      </trkpt>
      <trkpt lat="-36.83047390733383" lon="174.425201024131">
        <ele>4</ele>
      </trkpt>
      <trkpt lat="-36.83062597420768" lon="174.425223532975">
        <ele>5</ele>
      </trkpt>
      <trkpt lat="-36.83066453107868" lon="174.425220156349">
        <ele>5</ele>
      </trkpt>
      <trkpt lat="-36.83068843673219" lon="174.425210598942">
        <ele>5</ele>
      </trkpt>
      <trkpt lat="-36.83079642846336" lon="174.425335116689">
        <ele>7</ele>
      </trkpt>
      <trkpt lat="-36.83084782229183" lon="174.425385474698">
        <ele>8</ele>
      </trkpt>
      <trkpt lat="-36.83096734351624" lon="174.425486964498">
        <ele>11</ele>
      </trkpt>
      <trkpt lat="-36.83103489234257" lon="174.425543744733">
        <ele>13</ele>
      </trkpt>
      <trkpt lat="-36.83107560665142" lon="174.425578990897">
        <ele>15</ele>
      </trkpt>
      <trkpt lat="-36.83110952382468" lon="174.425599827305">
        <ele>16</ele>
      </trkpt>
      <trkpt lat="-36.83110952382468" lon="174.425599827305">
        <ele>16</ele>
      </trkpt>
      <trkpt lat="-36.8310186955589" lon="174.425782981678">
        <ele>17</ele>
      </trkpt>
      <trkpt lat="-36.83099006362679" lon="174.425836740838">
        <ele>17</ele>
      </trkpt>
      <trkpt lat="-36.83099006362679" lon="174.425836740838">
        <ele>17</ele>
      </trkpt>
      <trkpt lat="-36.83067995422468" lon="174.42649818806">
        <ele>25</ele>
      </trkpt>
      <trkpt lat="-36.83057791340836" lon="174.426760442495">
        <ele>26</ele>
      </trkpt>
      <trkpt lat="-36.83057791340836" lon="174.426760442495">
        <ele>26</ele>
      </trkpt>
      <trkpt lat="-36.83053118443639" lon="174.426876788098">
        <ele>25</ele>
      </trkpt>
      <trkpt lat="-36.83036906351325" lon="174.427337402251">
        <ele>24</ele>
      </trkpt>
      <trkpt lat="-36.830304215144" lon="174.427565325196">
        <ele>24</ele>
      </trkpt>
      <trkpt lat="-36.83026893000191" lon="174.427713141331">
        <ele>23</ele>
      </trkpt>
      <trkpt lat="-36.83025367156208" lon="174.427821857715">
        <ele>23</ele>
      </trkpt>
      <trkpt lat="-36.83025367156208" lon="174.427821857715">
        <ele>23</ele>
      </trkpt>
      <trkpt lat="-36.83034712950601" lon="174.427749380126">
        <ele>25</ele>
      </trkpt>
      <trkpt lat="-36.8304176997902" lon="174.427779897006">
        <ele>26</ele>
      </trkpt>
      <trkpt lat="-36.83052355521648" lon="174.427714094984">
        <ele>27</ele>
      </trkpt>
      <trkpt lat="-36.83062845699027" lon="174.427648292962">
        <ele>29</ele>
      </trkpt>
      <trkpt lat="-36.83062845699027" lon="174.427648292962">
        <ele>29</ele>
      </trkpt>
      <trkpt lat="-36.8306522983025" lon="174.427645432005">
        <ele>29</ele>
      </trkpt>
      <trkpt lat="-36.8306522983025" lon="174.427645432005">
        <ele>29</ele>
      </trkpt>
      <trkpt lat="-36.83072191493419" lon="174.427623497997">
        <ele>30</ele>
      </trkpt>
      <trkpt lat="-36.83079153156589" lon="174.42760156399">
        <ele>31</ele>
      </trkpt>
      <trkpt lat="-36.83084684341026" lon="174.42762826626">
        <ele>32</ele>
      </trkpt>
      <trkpt lat="-36.83087736028991" lon="174.427676902537">
        <ele>33</ele>
      </trkpt>
      <trkpt lat="-36.83096700362388" lon="174.427703604806">
        <ele>34</ele>
      </trkpt>
      <trkpt lat="-36.83100610337593" lon="174.427676902537">
        <ele>34</ele>
      </trkpt>
      <trkpt lat="-36.83106999809269" lon="174.42765115392">
        <ele>35</ele>
      </trkpt>
      <trkpt lat="-36.83113389280946" lon="174.427625405302">
        <ele>36</ele>
      </trkpt>
      <trkpt lat="-36.83113389280946" lon="174.427625405302">
        <ele>36</ele>
      </trkpt>
      <trkpt lat="-36.83119301926378" lon="174.427644478352">
        <ele>37</ele>
      </trkpt>
      <trkpt lat="-36.83119301926378" lon="174.427644478352">
        <ele>37</ele>
      </trkpt>
      <trkpt lat="-36.83123021171085" lon="174.427665458707">
        <ele>37</ele>
      </trkpt>
      <trkpt lat="-36.83123021171085" lon="174.427665458707">
        <ele>37</ele>
      </trkpt>
      <trkpt lat="-36.83128933816517" lon="174.427736028991">
        <ele>38</ele>
      </trkpt>
      <trkpt lat="-36.83137135227923" lon="174.427783711615">
        <ele>39</ele>
      </trkpt>
      <trkpt lat="-36.83147625405302" lon="174.427834255197">
        <ele>40</ele>
      </trkpt>
      <trkpt lat="-36.83158115582682" lon="174.427885752432">
        <ele>41</ele>
      </trkpt>
      <trkpt lat="-36.83163742132367" lon="174.427940110624">
        <ele>41</ele>
      </trkpt>
      <trkpt lat="-36.83170989891283" lon="174.428025939348">
        <ele>41</ele>
      </trkpt>
      <trkpt lat="-36.83172515735266" lon="174.42808792676">
        <ele>41</ele>
      </trkpt>
      <trkpt lat="-36.83172515735266" lon="174.42808792676">
        <ele>41</ele>
      </trkpt>
      <trkpt lat="-36.83181193972916" lon="174.428148960519">
        <ele>42</ele>
      </trkpt>
      <trkpt lat="-36.83188632462331" lon="174.428143238604">
        <ele>42</ele>
      </trkpt>
      <trkpt lat="-36.83196070951745" lon="174.428138470341">
        <ele>43</ele>
      </trkpt>
      <trkpt lat="-36.83196070951745" lon="174.428138470341">
        <ele>43</ele>
      </trkpt>
      <trkpt lat="-36.83201411405683" lon="174.428168987221">
        <ele>44</ele>
      </trkpt>
      <trkpt lat="-36.83201411405683" lon="174.428168987221">
        <ele>44</ele>
      </trkpt>
      <trkpt lat="-36.83266450505435" lon="174.427736982644">
        <ele>47</ele>
      </trkpt>
      <trkpt lat="-36.83290959374404" lon="174.427592027465">
        <ele>44</ele>
      </trkpt>
      <trkpt lat="-36.83290959374404" lon="174.427592027465">
        <ele>44</ele>
      </trkpt>
      <trkpt lat="-36.83295823002098" lon="174.427467098989">
        <ele>41</ele>
      </trkpt>
      <trkpt lat="-36.83295823002098" lon="174.427467098989">
        <ele>41</ele>
      </trkpt>
      <trkpt lat="-36.83298016402823" lon="174.427395575052">
        <ele>40</ele>
      </trkpt>
      <trkpt lat="-36.83300114438298" lon="174.427325004768">
        <ele>39</ele>
      </trkpt>
      <trkpt lat="-36.8329906542056" lon="174.427213427427">
        <ele>38</ele>
      </trkpt>
      <trkpt lat="-36.83294678619111" lon="174.427111386611">
        <ele>38</ele>
      </trkpt>
      <trkpt lat="-36.83286381842456" lon="174.426668891856">
        <ele>37</ele>
      </trkpt>
      <trkpt lat="-36.83285523555217" lon="174.426564943735">
        <ele>36</ele>
      </trkpt>
      <trkpt lat="-36.83284665267976" lon="174.426461949266">
        <ele>35</ele>
      </trkpt>
      <trkpt lat="-36.83286000381461" lon="174.426381842457">
        <ele>34</ele>
      </trkpt>
      <trkpt lat="-36.83287240129697" lon="174.426301735648">
        <ele>33</ele>
      </trkpt>
      <trkpt lat="-36.83288575243181" lon="174.426191111959">
        <ele>31</ele>
      </trkpt>
      <trkpt lat="-36.83289814991417" lon="174.42608048827">
        <ele>30</ele>
      </trkpt>
      <trkpt lat="-36.83288575243181" lon="174.426012778943">
        <ele>30</ele>
      </trkpt>
      <trkpt lat="-36.83287240129697" lon="174.425945069617">
        <ele>29</ele>
      </trkpt>
      <trkpt lat="-36.8327913408354" lon="174.42590024795">
        <ele>30</ele>
      </trkpt>
      <trkpt lat="-36.83270932672134" lon="174.425856379935">
        <ele>31</ele>
      </trkpt>
      <trkpt lat="-36.83270932672134" lon="174.425856379935">
        <ele>31</ele>
      </trkpt>
      <trkpt lat="-36.83270455845889" lon="174.425828724013">
        <ele>31</ele>
      </trkpt>
      <trkpt lat="-36.83271409498379" lon="174.425725729544">
        <ele>30</ele>
      </trkpt>
      <trkpt lat="-36.83273793629601" lon="174.425692351707">
        <ele>29</ele>
      </trkpt>
      <trkpt lat="-36.83277703604806" lon="174.425657066565">
        <ele>28</ele>
      </trkpt>
      <trkpt lat="-36.83283234789243" lon="174.42565897387">
        <ele>27</ele>
      </trkpt>
      <trkpt lat="-36.83291054739653" lon="174.425673278657">
        <ele>26</ele>
      </trkpt>
      <trkpt lat="-36.83291054739653" lon="174.425673278657">
        <ele>26</ele>
      </trkpt>
      <trkpt lat="-36.83300686629792" lon="174.4256322716">
        <ele>23</ele>
      </trkpt>
      <trkpt lat="-36.83310604615678" lon="174.425601754721">
        <ele>21</ele>
      </trkpt>
      <trkpt lat="-36.83314896051878" lon="174.425563608621">
        <ele>20</ele>
      </trkpt>
      <trkpt lat="-36.83314896051878" lon="174.425563608621">
        <ele>20</ele>
      </trkpt>
      <trkpt lat="-36.83322716002289" lon="174.425493038337">
        <ele>18</ele>
      </trkpt>
      <trkpt lat="-36.83325767690253" lon="174.42542914362">
        <ele>17</ele>
      </trkpt>
      <trkpt lat="-36.83327770360481" lon="174.425365248903">
        <ele>16</ele>
      </trkpt>
      <trkpt lat="-36.83329338714162" lon="174.425255464146">
        <ele>14</ele>
      </trkpt>
      <trkpt lat="-36.83329338714162" lon="174.425255464146">
        <ele>14</ele>
      </trkpt>
      <trkpt lat="-36.83327770360481" lon="174.425365248903">
        <ele>16</ele>
      </trkpt>
      <trkpt lat="-36.83325767690253" lon="174.42542914362">
        <ele>17</ele>
      </trkpt>
      <trkpt lat="-36.83322716002289" lon="174.425493038337">
        <ele>18</ele>
      </trkpt>
      <trkpt lat="-36.83314896051878" lon="174.425563608621">
        <ele>20</ele>
      </trkpt>
      <trkpt lat="-36.83314896051878" lon="174.425563608621">
        <ele>20</ele>
      </trkpt>
      <trkpt lat="-36.83310604615678" lon="174.425601754721">
        <ele>21</ele>
      </trkpt>
      <trkpt lat="-36.83300686629792" lon="174.4256322716">
        <ele>23</ele>
      </trkpt>
      <trkpt lat="-36.83291054739653" lon="174.425673278657">
        <ele>26</ele>
      </trkpt>
      <trkpt lat="-36.83291054739653" lon="174.425673278657">
        <ele>26</ele>
      </trkpt>
      <trkpt lat="-36.83283234789243" lon="174.42565897387">
        <ele>27</ele>
      </trkpt>
      <trkpt lat="-36.83277703604806" lon="174.425657066565">
        <ele>28</ele>
      </trkpt>
      <trkpt lat="-36.83273793629601" lon="174.425692351707">
        <ele>29</ele>
      </trkpt>
      <trkpt lat="-36.83271409498379" lon="174.425725729544">
        <ele>30</ele>
      </trkpt>
      <trkpt lat="-36.83270455845889" lon="174.425828724013">
        <ele>31</ele>
      </trkpt>
      <trkpt lat="-36.83270932672134" lon="174.425856379935">
        <ele>31</ele>
      </trkpt>
      <trkpt lat="-36.83270932672134" lon="174.425856379935">
        <ele>31</ele>
      </trkpt>
      <trkpt lat="-36.83267022696929" lon="174.425848750715">
        <ele>32</ele>
      </trkpt>
      <trkpt lat="-36.83256723250047" lon="174.425795346176">
        <ele>33</ele>
      </trkpt>
      <trkpt lat="-36.83254053023078" lon="174.425732405112">
        <ele>33</ele>
      </trkpt>
      <trkpt lat="-36.8325128743086" lon="174.4256704177">
        <ele>32</ele>
      </trkpt>
      <trkpt lat="-36.83250905969864" lon="174.425607476636">
        <ele>32</ele>
      </trkpt>
      <trkpt lat="-36.8325042914362" lon="174.425545489224">
        <ele>31</ele>
      </trkpt>
      <trkpt lat="-36.8325386229258" lon="174.425428189968">
        <ele>29</ele>
      </trkpt>
      <trkpt lat="-36.83255197406065" lon="174.425343314896">
        <ele>28</ele>
      </trkpt>
      <trkpt lat="-36.83256437154301" lon="174.425258439825">
        <ele>26</ele>
      </trkpt>
      <trkpt lat="-36.83256437154301" lon="174.425258439825">
        <ele>26</ele>
      </trkpt>
      <trkpt lat="-36.8325386229258" lon="174.425161167271">
        <ele>25</ele>
      </trkpt>
      <trkpt lat="-36.83251573526606" lon="174.425153538051">
        <ele>26</ele>
      </trkpt>
      <trkpt lat="-36.83249197943893" lon="174.425101153406">
        <ele>25</ele>
      </trkpt>
      <trkpt lat="-36.83249197943893" lon="174.425101153406">
        <ele>25</ele>
      </trkpt>
      <trkpt lat="-36.832478542819" lon="174.425071523937">
        <ele>25</ele>
      </trkpt>
      <trkpt lat="-36.832478542819" lon="174.424968529468">
        <ele>23</ele>
      </trkpt>
      <trkpt lat="-36.832478542819" lon="174.424865534999">
        <ele>21</ele>
      </trkpt>
      <trkpt lat="-36.832478542819" lon="174.424865534999">
        <ele>21</ele>
      </trkpt>
      <trkpt lat="-36.83248617203891" lon="174.424774938013">
        <ele>20</ele>
      </trkpt>
      <trkpt lat="-36.83253004005341" lon="174.424688155636">
        <ele>18</ele>
      </trkpt>
      <trkpt lat="-36.83257295441541" lon="174.42460137326">
        <ele>16</ele>
      </trkpt>
      <trkpt lat="-36.83257295441541" lon="174.42460137326">
        <ele>16</ele>
      </trkpt>
      <trkpt lat="-36.83260251764257" lon="174.424576578295">
        <ele>15</ele>
      </trkpt>
    </trkseg>
  </trk>
</gpx>