<?xml version="1.0" encoding="UTF-8" standalone="yes"?>
<gpx
 version="1.1"
 creator="Generated by MapOut iPhone App. See https://mapout.app"
 xmlns="http://www.topografix.com/GPX/1/1"
 xmlns:xsi="http://www.w3.org/2001/XMLSchema-instance"
 xmlns:gpxx="http://www.garmin.com/xmlschemas/GpxExtensions/v3"
 xmlns:mapout="https://mapout.app/xmlschemas/MapOutExtensions"
 xsi:schemaLocation="http://www.topografix.com/GPX/1/1 https://www.topografix.com/GPX/1/1/gpx.xsd http://www.garmin.com/xmlschemas/GpxExtensions/v3 https://www8.garmin.com/xmlschemas/GpxExtensionsv3.xsd https://mapout.app/xmlschemas/MapOutExtensions https://mapout.app/xmlschemas/MapOutExtensions.xsd">
  <metadata>
    <name>Boggy Pond Lagoon</name>
    <author><name>iPhone</name></author>
    <time>2026-07-29T04:00:11Z</time>
    <bounds minlat="-41.2567737936296" minlon="175.253066946405" maxlat="-41.24203795536906" maxlon="175.276989319092"/>
  </metadata>
  <trk>
    <name>Boggy Pond Lagoon</name>
    <trkseg>
      <trkpt lat="-41.25386966408312" lon="175.275793314573">
        <ele>11</ele>
      </trkpt>
      <trkpt lat="-41.25384038830723" lon="175.275691489176">
        <ele>11</ele>
      </trkpt>
      <trkpt lat="-41.25380196403328" lon="175.275650274077">
        <ele>10</ele>
      </trkpt>
      <trkpt lat="-41.25356140210568" lon="175.275201955592">
        <ele>7</ele>
      </trkpt>
      <trkpt lat="-41.25356140210568" lon="175.275201955592">
        <ele>7</ele>
      </trkpt>
      <trkpt lat="-41.25226683196643" lon="175.276362769407">
        <ele>7</ele>
      </trkpt>
      <trkpt lat="-41.25203890902155" lon="175.276548731642">
        <ele>8</ele>
      </trkpt>
      <trkpt lat="-41.25180621781423" lon="175.276718481785">
        <ele>8</ele>
      </trkpt>
      <trkpt lat="-41.2515735266069" lon="175.276836734694">
        <ele>8</ele>
      </trkpt>
      <trkpt lat="-41.25130364295251" lon="175.276930192638">
        <ele>8</ele>
      </trkpt>
      <trkpt lat="-41.25105950791531" lon="175.27696929239">
        <ele>7</ele>
      </trkpt>
      <trkpt lat="-41.25081441922563" lon="175.276989319092">
        <ele>7</ele>
      </trkpt>
      <trkpt lat="-41.25055502574862" lon="175.27697692161">
        <ele>6</ele>
      </trkpt>
      <trkpt lat="-41.25031184436391" lon="175.276941636468">
        <ele>6</ele>
      </trkpt>
      <trkpt lat="-41.25007724585161" lon="175.276861529659">
        <ele>5</ele>
      </trkpt>
      <trkpt lat="-41.24982357428953" lon="175.276748045012">
        <ele>5</ele>
      </trkpt>
      <trkpt lat="-41.24951935914553" lon="175.276548731642">
        <ele>4</ele>
      </trkpt>
      <trkpt lat="-41.247652107572" lon="175.275186915888">
        <ele>4</ele>
      </trkpt>
      <trkpt lat="-41.24684627121876" lon="175.27480068663">
        <ele>4</ele>
      </trkpt>
      <trkpt lat="-41.24516784283807" lon="175.2741569712">
        <ele>3</ele>
      </trkpt>
      <trkpt lat="-41.24504290315001" lon="175.274096963221">
        <ele>3</ele>
      </trkpt>
      <trkpt lat="-41.24504290100156" lon="175.27409696219">
        <ele>3</ele>
      </trkpt>
      <trkpt lat="-41.24504291436201" lon="175.274096891093">
        <ele>3</ele>
      </trkpt>
      <trkpt lat="-41.24504291436201" lon="175.274096891093">
        <ele>3</ele>
      </trkpt>
      <trkpt lat="-41.24508868968148" lon="175.273948121305">
        <ele>3</ele>
      </trkpt>
      <trkpt lat="-41.24513255769597" lon="175.273872782758">
        <ele>4</ele>
      </trkpt>
      <trkpt lat="-41.24518405493038" lon="175.273845126836">
        <ele>4</ele>
      </trkpt>
      <trkpt lat="-41.24757962998284" lon="175.274006294106">
        <ele>4</ele>
      </trkpt>
      <trkpt lat="-41.24839023459851" lon="175.274033950029">
        <ele>4</ele>
      </trkpt>
      <trkpt lat="-41.24853137516689" lon="175.273945260347">
        <ele>4</ele>
      </trkpt>
      <trkpt lat="-41.24903108907115" lon="175.273551401869">
        <ele>3</ele>
      </trkpt>
      <trkpt lat="-41.24957943925234" lon="175.273166126264">
        <ele>2</ele>
      </trkpt>
      <trkpt lat="-41.24984264733931" lon="175.272508106046">
        <ele>2</ele>
      </trkpt>
      <trkpt lat="-41.25043391188251" lon="175.271154873164">
        <ele>2</ele>
      </trkpt>
      <trkpt lat="-41.25101659355331" lon="175.27023364486">
        <ele>3</ele>
      </trkpt>
      <trkpt lat="-41.25205130650391" lon="175.268630555026">
        <ele>2</ele>
      </trkpt>
      <trkpt lat="-41.25218672515735" lon="175.268403585733">
        <ele>2</ele>
      </trkpt>
      <trkpt lat="-41.25227064657638" lon="175.268077436582">
        <ele>1</ele>
      </trkpt>
      <trkpt lat="-41.25248998664887" lon="175.266502956323">
        <ele>1</ele>
      </trkpt>
      <trkpt lat="-41.25259488842266" lon="175.265908830822">
        <ele>1</ele>
      </trkpt>
      <trkpt lat="-41.25295441541103" lon="175.265051497234">
        <ele>1</ele>
      </trkpt>
      <trkpt lat="-41.25340072477589" lon="175.264194163647">
        <ele>1</ele>
      </trkpt>
      <trkpt lat="-41.25388327293534" lon="175.263313942399">
        <ele>1</ele>
      </trkpt>
      <trkpt lat="-41.25447930574099" lon="175.262486172039">
        <ele>2</ele>
      </trkpt>
      <trkpt lat="-41.25502288765973" lon="175.261699408735">
        <ele>2</ele>
      </trkpt>
      <trkpt lat="-41.25520694259012" lon="175.261390425329">
        <ele>2</ele>
      </trkpt>
      <trkpt lat="-41.25546538241465" lon="175.260469197025">
        <ele>2</ele>
      </trkpt>
      <trkpt lat="-41.25558649628076" lon="175.26">
        <ele>3</ele>
      </trkpt>
      <trkpt lat="-41.25558649628076" lon="175.26">
        <ele>3</ele>
      </trkpt>
      <trkpt lat="-41.25569330535953" lon="175.259583253862">
        <ele>3</ele>
      </trkpt>
      <trkpt lat="-41.2559736791913" lon="175.258796490559">
        <ele>3</ele>
      </trkpt>
      <trkpt lat="-41.25611386610719" lon="175.258358764066">
        <ele>3</ele>
      </trkpt>
      <trkpt lat="-41.25597844745375" lon="175.257350753385">
        <ele>3</ele>
      </trkpt>
      <trkpt lat="-41.25578580965097" lon="175.255688537097">
        <ele>2</ele>
      </trkpt>
      <trkpt lat="-41.25586400915506" lon="175.255356666031">
        <ele>2</ele>
      </trkpt>
      <trkpt lat="-41.25670608430288" lon="175.254017737936">
        <ele>2</ele>
      </trkpt>
      <trkpt lat="-41.25674709135991" lon="175.253798397864">
        <ele>2</ele>
      </trkpt>
      <trkpt lat="-41.2567737936296" lon="175.253574289529">
        <ele>3</ele>
      </trkpt>
      <trkpt lat="-41.25668224299066" lon="175.253380698074">
        <ele>3</ele>
      </trkpt>
      <trkpt lat="-41.2565916460042" lon="175.253258630555">
        <ele>3</ele>
      </trkpt>
      <trkpt lat="-41.256347510967" lon="175.253066946405">
        <ele>3</ele>
      </trkpt>
      <trkpt lat="-41.25569902727446" lon="175.253391188251">
        <ele>3</ele>
      </trkpt>
      <trkpt lat="-41.25418367346938" lon="175.254079725348">
        <ele>2</ele>
      </trkpt>
      <trkpt lat="-41.25338451268358" lon="175.254468815564">
        <ele>2</ele>
      </trkpt>
      <trkpt lat="-41.24986648865153" lon="175.256146290292">
        <ele>4</ele>
      </trkpt>
      <trkpt lat="-41.2491045203128" lon="175.255617966813">
        <ele>4</ele>
      </trkpt>
      <trkpt lat="-41.2491045203128" lon="175.255617966813">
        <ele>4</ele>
      </trkpt>
      <trkpt lat="-41.24839500286096" lon="175.256562082777">
        <ele>3</ele>
      </trkpt>
      <trkpt lat="-41.24626454320046" lon="175.25982357429">
        <ele>4</ele>
      </trkpt>
      <trkpt lat="-41.24613770741941" lon="175.26">
        <ele>4</ele>
      </trkpt>
      <trkpt lat="-41.24613770741941" lon="175.26">
        <ele>4</ele>
      </trkpt>
      <trkpt lat="-41.24481308411215" lon="175.261840549304">
        <ele>3</ele>
      </trkpt>
      <trkpt lat="-41.24219912263971" lon="175.266003242418">
        <ele>3</ele>
      </trkpt>
      <trkpt lat="-41.24203795536906" lon="175.267762731261">
        <ele>3</ele>
      </trkpt>
      <trkpt lat="-41.24203795536906" lon="175.268706847225">
        <ele>3</ele>
      </trkpt>
      <trkpt lat="-41.24207037955369" lon="175.269479305741">
        <ele>3</ele>
      </trkpt>
      <trkpt lat="-41.24239271409498" lon="175.271152965859">
        <ele>4</ele>
      </trkpt>
      <trkpt lat="-41.24271504863628" lon="175.272097081823">
        <ele>3</ele>
      </trkpt>
      <trkpt lat="-41.24323192828533" lon="175.272912454701">
        <ele>3</ele>
      </trkpt>
      <trkpt lat="-41.24400629410643" lon="175.273599084494">
        <ele>3</ele>
      </trkpt>
      <trkpt lat="-41.2450428942881" lon="175.274096958965">
        <ele>3</ele>
      </trkpt>
      <trkpt lat="-41.2450428942881" lon="175.274096958965">
        <ele>3</ele>
      </trkpt>
      <trkpt lat="-41.24516784283807" lon="175.2741569712">
        <ele>3</ele>
      </trkpt>
      <trkpt lat="-41.24684627121876" lon="175.27480068663">
        <ele>4</ele>
      </trkpt>
      <trkpt lat="-41.247652107572" lon="175.275186915888">
        <ele>4</ele>
      </trkpt>
      <trkpt lat="-41.24951935914553" lon="175.276548731642">
        <ele>4</ele>
      </trkpt>
      <trkpt lat="-41.24982357428953" lon="175.276748045012">
        <ele>5</ele>
      </trkpt>
      <trkpt lat="-41.25007724585161" lon="175.276861529659">
        <ele>5</ele>
      </trkpt>
      <trkpt lat="-41.25031184436391" lon="175.276941636468">
        <ele>6</ele>
      </trkpt>
      <trkpt lat="-41.25055502574862" lon="175.27697692161">
        <ele>6</ele>
      </trkpt>
      <trkpt lat="-41.25081441922563" lon="175.276989319092">
        <ele>7</ele>
      </trkpt>
      <trkpt lat="-41.25105950791531" lon="175.27696929239">
        <ele>7</ele>
      </trkpt>
      <trkpt lat="-41.25130364295251" lon="175.276930192638">
        <ele>8</ele>
      </trkpt>
      <trkpt lat="-41.2515735266069" lon="175.276836734694">
        <ele>8</ele>
      </trkpt>
      <trkpt lat="-41.25180621781423" lon="175.276718481785">
        <ele>8</ele>
      </trkpt>
      <trkpt lat="-41.25203890902155" lon="175.276548731642">
        <ele>8</ele>
      </trkpt>
      <trkpt lat="-41.25226683196643" lon="175.276362769407">
        <ele>7</ele>
      </trkpt>
      <trkpt lat="-41.25324937927753" lon="175.275481739899">
        <ele>5</ele>
      </trkpt>
      <trkpt lat="-41.25324937927753" lon="175.275481739899">
        <ele>5</ele>
      </trkpt>
      <trkpt lat="-41.25360947856316" lon="175.276102458899">
        <ele>9</ele>
      </trkpt>
      <trkpt lat="-41.25370521410004" lon="175.276177883687">
        <ele>10</ele>
      </trkpt>
      <trkpt lat="-41.25372850112253" lon="175.276205310788">
        <ele>10</ele>
      </trkpt>
    </trkseg>
  </trk>
</gpx>