<?xml version="1.0" encoding="UTF-8" standalone="yes"?>
<gpx
 version="1.1"
 creator="Generated by MapOut iPhone App. See https://mapout.app"
 xmlns="http://www.topografix.com/GPX/1/1"
 xmlns:xsi="http://www.w3.org/2001/XMLSchema-instance"
 xmlns:gpxx="http://www.garmin.com/xmlschemas/GpxExtensions/v3"
 xmlns:mapout="https://mapout.app/xmlschemas/MapOutExtensions"
 xsi:schemaLocation="http://www.topografix.com/GPX/1/1 https://www.topografix.com/GPX/1/1/gpx.xsd http://www.garmin.com/xmlschemas/GpxExtensions/v3 https://www8.garmin.com/xmlschemas/GpxExtensionsv3.xsd https://mapout.app/xmlschemas/MapOutExtensions https://mapout.app/xmlschemas/MapOutExtensions.xsd">
  <metadata>
    <name>Mount Damper Falls</name>
    <author><name>iPhone</name></author>
    <time>2026-05-30T02:26:58Z</time>
    <bounds minlat="-38.92485521171545" minlon="174.783362578676" maxlat="-38.91990177379363" maxlon="174.788582872401"/>
  </metadata>
  <wpt lat="-38.9199175689714" lon="174.78837811021">
    <ele>281</ele>
    <name>Mount Damper Falls viewing platform</name>
    <sym>Waypoint</sym>
    <extensions>
      <mapout:extension>
        <mapout:color>FF2E1B</mapout:color>
      </mapout:extension>
    </extensions>
  </wpt>
  <trk>
    <name>Mount Damper Falls</name>
    <trkseg>
      <trkpt lat="-38.92485521171545" lon="174.783533939342">
        <ele>321</ele>
      </trkpt>
      <trkpt lat="-38.92451459088308" lon="174.783442685485">
        <ele>319</ele>
      </trkpt>
      <trkpt lat="-38.9241388518024" lon="174.783367346939">
        <ele>316</ele>
      </trkpt>
      <trkpt lat="-38.92388899485027" lon="174.783362578676">
        <ele>317</ele>
      </trkpt>
      <trkpt lat="-38.92374594697692" lon="174.783422658783">
        <ele>317</ele>
      </trkpt>
      <trkpt lat="-38.92367728399771" lon="174.783428380698">
        <ele>318</ele>
      </trkpt>
      <trkpt lat="-38.92364962807553" lon="174.783449361053">
        <ele>318</ele>
      </trkpt>
      <trkpt lat="-38.92356856761396" lon="174.783538050734">
        <ele>317</ele>
      </trkpt>
      <trkpt lat="-38.9235390043868" lon="174.783696357048">
        <ele>316</ele>
      </trkpt>
      <trkpt lat="-38.92349990463475" lon="174.783760251764">
        <ele>316</ele>
      </trkpt>
      <trkpt lat="-38.92344554644288" lon="174.783808888041">
        <ele>316</ele>
      </trkpt>
      <trkpt lat="-38.92333396910166" lon="174.783940492085">
        <ele>315</ele>
      </trkpt>
      <trkpt lat="-38.92294392523365" lon="174.784214190349">
        <ele>314</ele>
      </trkpt>
      <trkpt lat="-38.92280755292771" lon="174.784330535953">
        <ele>314</ele>
      </trkpt>
      <trkpt lat="-38.9226873927141" lon="174.784417318329">
        <ele>313</ele>
      </trkpt>
      <trkpt lat="-38.92256818615297" lon="174.784425901202">
        <ele>313</ele>
      </trkpt>
      <trkpt lat="-38.9224432576769" lon="174.784388708755">
        <ele>313</ele>
      </trkpt>
      <trkpt lat="-38.92227255388136" lon="174.784366774747">
        <ele>313</ele>
      </trkpt>
      <trkpt lat="-38.92211996948312" lon="174.78436391379">
        <ele>313</ele>
      </trkpt>
      <trkpt lat="-38.92186534426855" lon="174.784420179287">
        <ele>312</ele>
      </trkpt>
      <trkpt lat="-38.92132366965478" lon="174.784522220103">
        <ele>314</ele>
      </trkpt>
      <trkpt lat="-38.9211996948312" lon="174.784511729926">
        <ele>314</ele>
      </trkpt>
      <trkpt lat="-38.92107476635514" lon="174.784487888613">
        <ele>315</ele>
      </trkpt>
      <trkpt lat="-38.92089929429716" lon="174.784442113294">
        <ele>315</ele>
      </trkpt>
      <trkpt lat="-38.92081823383559" lon="174.784403967194">
        <ele>315</ele>
      </trkpt>
      <trkpt lat="-38.92065992752241" lon="174.784259965669">
        <ele>315</ele>
      </trkpt>
      <trkpt lat="-38.92059031089071" lon="174.784257104711">
        <ele>315</ele>
      </trkpt>
      <trkpt lat="-38.92028132748426" lon="174.784441159641">
        <ele>317</ele>
      </trkpt>
      <trkpt lat="-38.92028132748426" lon="174.784441159641">
        <ele>317</ele>
      </trkpt>
      <trkpt lat="-38.92028991035667" lon="174.784516498188">
        <ele>318</ele>
      </trkpt>
      <trkpt lat="-38.92029849322907" lon="174.784592790387">
        <ele>318</ele>
      </trkpt>
      <trkpt lat="-38.92029849322907" lon="174.784592790387">
        <ele>318</ele>
      </trkpt>
      <trkpt lat="-38.92030040053405" lon="174.784683387374">
        <ele>319</ele>
      </trkpt>
      <trkpt lat="-38.92035285142094" lon="174.78498092695">
        <ele>320</ele>
      </trkpt>
      <trkpt lat="-38.92040720961282" lon="174.78523364486">
        <ele>320</ele>
      </trkpt>
      <trkpt lat="-38.92038622925806" lon="174.785294678619">
        <ele>320</ele>
      </trkpt>
      <trkpt lat="-38.92035475872592" lon="174.785350944116">
        <ele>320</ele>
      </trkpt>
      <trkpt lat="-38.92035475872592" lon="174.785648483693">
        <ele>320</ele>
      </trkpt>
      <trkpt lat="-38.92037764638566" lon="174.78604615678">
        <ele>318</ele>
      </trkpt>
      <trkpt lat="-38.92037764638566" lon="174.786148197597">
        <ele>317</ele>
      </trkpt>
      <trkpt lat="-38.92037192447072" lon="174.786224489796">
        <ele>316</ele>
      </trkpt>
      <trkpt lat="-38.9203652489033" lon="174.786300781995">
        <ele>316</ele>
      </trkpt>
      <trkpt lat="-38.92037192447072" lon="174.786376120542">
        <ele>315</ele>
      </trkpt>
      <trkpt lat="-38.92039671943544" lon="174.786429525081">
        <ele>315</ele>
      </trkpt>
      <trkpt lat="-38.92045966049972" lon="174.786499141713">
        <ele>314</ele>
      </trkpt>
      <trkpt lat="-38.92049017737936" lon="174.786563990082">
        <ele>314</ele>
      </trkpt>
      <trkpt lat="-38.92050925042914" lon="174.786641235934">
        <ele>313</ele>
      </trkpt>
      <trkpt lat="-38.92052832347893" lon="174.786719435438">
        <ele>313</ele>
      </trkpt>
      <trkpt lat="-38.92055311844364" lon="174.786785237459">
        <ele>312</ele>
      </trkpt>
      <trkpt lat="-38.92057791340835" lon="174.786851039481">
        <ele>312</ele>
      </trkpt>
      <trkpt lat="-38.92060556933053" lon="174.786947358383">
        <ele>312</ele>
      </trkpt>
      <trkpt lat="-38.92061892046538" lon="174.787021743277">
        <ele>312</ele>
      </trkpt>
      <trkpt lat="-38.92063227160023" lon="174.787097081823">
        <ele>312</ele>
      </trkpt>
      <trkpt lat="-38.92063990082014" lon="174.787167652108">
        <ele>312</ele>
      </trkpt>
      <trkpt lat="-38.92064657638756" lon="174.787239176044">
        <ele>311</ele>
      </trkpt>
      <trkpt lat="-38.92072859050162" lon="174.787552927713">
        <ele>313</ele>
      </trkpt>
      <trkpt lat="-38.92069616631699" lon="174.78763589548">
        <ele>312</ele>
      </trkpt>
      <trkpt lat="-38.92066374213237" lon="174.787719816899">
        <ele>312</ele>
      </trkpt>
      <trkpt lat="-38.92063894716765" lon="174.787821857715">
        <ele>311</ele>
      </trkpt>
      <trkpt lat="-38.92064085447263" lon="174.787907686439">
        <ele>312</ele>
      </trkpt>
      <trkpt lat="-38.92060747663552" lon="174.787947739844">
        <ele>311</ele>
      </trkpt>
      <trkpt lat="-38.92055121113866" lon="174.787942017929">
        <ele>309</ele>
      </trkpt>
      <trkpt lat="-38.92048254815945" lon="174.787955369064">
        <ele>306</ele>
      </trkpt>
      <trkpt lat="-38.92037573908068" lon="174.78803070761">
        <ele>302</ele>
      </trkpt>
      <trkpt lat="-38.92031470532138" lon="174.788144192256">
        <ele>299</ele>
      </trkpt>
      <trkpt lat="-38.92028800305169" lon="174.788171848179">
        <ele>298</ele>
      </trkpt>
      <trkpt lat="-38.92024508868968" lon="174.788189967576">
        <ele>296</ele>
      </trkpt>
      <trkpt lat="-38.92017070379553" lon="174.78824527942">
        <ele>292</ele>
      </trkpt>
      <trkpt lat="-38.92015449170322" lon="174.788305359527">
        <ele>291</ele>
      </trkpt>
      <trkpt lat="-38.92016402822811" lon="174.788346366584">
        <ele>291</ele>
      </trkpt>
      <trkpt lat="-38.92016116727065" lon="174.788422658783">
        <ele>292</ele>
      </trkpt>
      <trkpt lat="-38.92014209422086" lon="174.78847892428">
        <ele>292</ele>
      </trkpt>
      <trkpt lat="-38.92009155063894" lon="174.788521838642">
        <ele>290</ele>
      </trkpt>
      <trkpt lat="-38.92" lon="174.788575243181">
        <ele>286</ele>
      </trkpt>
      <trkpt lat="-38.91999999999999" lon="174.788575243181">
        <ele>286</ele>
      </trkpt>
      <trkpt lat="-38.91998092695022" lon="174.788582872401">
        <ele>286</ele>
      </trkpt>
      <trkpt lat="-38.9199561319855" lon="174.788564753004">
        <ele>285</ele>
      </trkpt>
      <trkpt lat="-38.91992466145336" lon="174.788516116727">
        <ele>283</ele>
      </trkpt>
      <trkpt lat="-38.91990177379363" lon="174.788470341408">
        <ele>282</ele>
      </trkpt>
      <trkpt lat="-38.91990723643075" lon="174.788424212472">
        <ele>282</ele>
      </trkpt>
    </trkseg>
  </trk>
</gpx>