<?xml version="1.0" encoding="UTF-8" standalone="yes"?>
<gpx
 version="1.1"
 creator="Generated by MapOut iPhone App. See https://mapout.app"
 xmlns="http://www.topografix.com/GPX/1/1"
 xmlns:xsi="http://www.w3.org/2001/XMLSchema-instance"
 xmlns:gpxx="http://www.garmin.com/xmlschemas/GpxExtensions/v3"
 xmlns:mapout="https://mapout.app/xmlschemas/MapOutExtensions"
 xsi:schemaLocation="http://www.topografix.com/GPX/1/1 https://www.topografix.com/GPX/1/1/gpx.xsd http://www.garmin.com/xmlschemas/GpxExtensions/v3 https://www8.garmin.com/xmlschemas/GpxExtensionsv3.xsd https://mapout.app/xmlschemas/MapOutExtensions https://mapout.app/xmlschemas/MapOutExtensions.xsd">
  <metadata>
    <name>Dacre Cottage</name>
    <author><name>iPhone</name></author>
    <time>2026-04-04T03:25:53Z</time>
    <bounds minlat="-36.65818144349181" minlon="174.71844459279" maxlat="-36.652825672325" maxlon="174.728070742432"/>
  </metadata>
  <wpt lat="-36.65810060500758" lon="174.727621161149">
    <ele>11</ele>
    <name>Cottage</name>
    <sym>Waypoint</sym>
    <extensions>
      <mapout:extension>
        <mapout:color>FF2E1B</mapout:color>
      </mapout:extension>
    </extensions>
  </wpt>
  <trk>
    <name>Dacre Cottage</name>
    <trkseg>
      <trkpt lat="-36.652825672325" lon="174.71844459279">
        <ele>28</ele>
      </trkpt>
      <trkpt lat="-36.65284951363723" lon="174.718506580202">
        <ele>28</ele>
      </trkpt>
      <trkpt lat="-36.65287240129697" lon="174.718569521266">
        <ele>28</ele>
      </trkpt>
      <trkpt lat="-36.65288765973679" lon="174.718667747473">
        <ele>29</ele>
      </trkpt>
      <trkpt lat="-36.65290196452413" lon="174.718766927332">
        <ele>29</ele>
      </trkpt>
      <trkpt lat="-36.65291626931146" lon="174.718830822048">
        <ele>29</ele>
      </trkpt>
      <trkpt lat="-36.6529305740988" lon="174.718894716765">
        <ele>29</ele>
      </trkpt>
      <trkpt lat="-36.65294011062369" lon="174.719015830631">
        <ele>29</ele>
      </trkpt>
      <trkpt lat="-36.65303738317757" lon="174.719402059889">
        <ele>29</ele>
      </trkpt>
      <trkpt lat="-36.65303738317757" lon="174.719478352088">
        <ele>29</ele>
      </trkpt>
      <trkpt lat="-36.65302212473775" lon="174.719580392905">
        <ele>29</ele>
      </trkpt>
      <trkpt lat="-36.65300686629792" lon="174.719683387374">
        <ele>29</ele>
      </trkpt>
      <trkpt lat="-36.65301831012779" lon="174.719778752623">
        <ele>29</ele>
      </trkpt>
      <trkpt lat="-36.65303833683006" lon="174.719838832729">
        <ele>29</ele>
      </trkpt>
      <trkpt lat="-36.65307076101468" lon="174.719878886134">
        <ele>29</ele>
      </trkpt>
      <trkpt lat="-36.65311367537669" lon="174.719906542056">
        <ele>29</ele>
      </trkpt>
      <trkpt lat="-36.65315277512874" lon="174.719907495709">
        <ele>28</ele>
      </trkpt>
      <trkpt lat="-36.65327007438489" lon="174.719860766737">
        <ele>27</ele>
      </trkpt>
      <trkpt lat="-36.65329486934961" lon="174.719930383368">
        <ele>27</ele>
      </trkpt>
      <trkpt lat="-36.65331871066184" lon="174.72">
        <ele>26</ele>
      </trkpt>
      <trkpt lat="-36.65331871066184" lon="174.72">
        <ele>26</ele>
      </trkpt>
      <trkpt lat="-36.65342170513065" lon="174.720294678619">
        <ele>26</ele>
      </trkpt>
      <trkpt lat="-36.65342551974061" lon="174.720380507343">
        <ele>25</ele>
      </trkpt>
      <trkpt lat="-36.65342933435056" lon="174.720466336067">
        <ele>25</ele>
      </trkpt>
      <trkpt lat="-36.6534436391379" lon="174.720524508869">
        <ele>25</ele>
      </trkpt>
      <trkpt lat="-36.65349227541483" lon="174.720588403586">
        <ele>25</ele>
      </trkpt>
      <trkpt lat="-36.65353137516689" lon="174.720622735075">
        <ele>25</ele>
      </trkpt>
      <trkpt lat="-36.65356666030898" lon="174.720680907877">
        <ele>25</ele>
      </trkpt>
      <trkpt lat="-36.65359526988365" lon="174.720744802594">
        <ele>25</ele>
      </trkpt>
      <trkpt lat="-36.65372592027465" lon="174.721175853519">
        <ele>24</ele>
      </trkpt>
      <trkpt lat="-36.6537392714095" lon="174.721245470151">
        <ele>24</ele>
      </trkpt>
      <trkpt lat="-36.65373831775701" lon="174.72133320618">
        <ele>23</ele>
      </trkpt>
      <trkpt lat="-36.65373831775701" lon="174.72133320618">
        <ele>23</ele>
      </trkpt>
      <trkpt lat="-36.65373164218958" lon="174.721380888804">
        <ele>23</ele>
      </trkpt>
      <trkpt lat="-36.65370493991989" lon="174.721435246996">
        <ele>23</ele>
      </trkpt>
      <trkpt lat="-36.65366393286286" lon="174.721499141713">
        <ele>23</ele>
      </trkpt>
      <trkpt lat="-36.65362292580583" lon="174.72156303643">
        <ele>22</ele>
      </trkpt>
      <trkpt lat="-36.65362292580583" lon="174.72156303643">
        <ele>22</ele>
      </trkpt>
      <trkpt lat="-36.65358191874881" lon="174.721636467671">
        <ele>22</ele>
      </trkpt>
      <trkpt lat="-36.65357619683387" lon="174.721756627885">
        <ele>23</ele>
      </trkpt>
      <trkpt lat="-36.65357619683387" lon="174.721756627885">
        <ele>23</ele>
      </trkpt>
      <trkpt lat="-36.65357619683387" lon="174.721837688346">
        <ele>24</ele>
      </trkpt>
      <trkpt lat="-36.65357619683387" lon="174.72191970246">
        <ele>25</ele>
      </trkpt>
      <trkpt lat="-36.65358859431623" lon="174.722009345794">
        <ele>26</ele>
      </trkpt>
      <trkpt lat="-36.65358859431623" lon="174.722009345794">
        <ele>26</ele>
      </trkpt>
      <trkpt lat="-36.65360576006103" lon="174.722098989128">
        <ele>27</ele>
      </trkpt>
      <trkpt lat="-36.65362292580583" lon="174.72215334732">
        <ele>27</ele>
      </trkpt>
      <trkpt lat="-36.65362292580583" lon="174.72215334732">
        <ele>27</ele>
      </trkpt>
      <trkpt lat="-36.65365058172802" lon="174.722233454129">
        <ele>28</ele>
      </trkpt>
      <trkpt lat="-36.65370875452984" lon="174.722326912073">
        <ele>27</ele>
      </trkpt>
      <trkpt lat="-36.65368968148007" lon="174.72240606523">
        <ele>28</ele>
      </trkpt>
      <trkpt lat="-36.65367060843029" lon="174.722485218386">
        <ele>30</ele>
      </trkpt>
      <trkpt lat="-36.65371733740225" lon="174.72258630555">
        <ele>30</ele>
      </trkpt>
      <trkpt lat="-36.65376311272172" lon="174.722688346367">
        <ele>31</ele>
      </trkpt>
      <trkpt lat="-36.65382319282853" lon="174.72278561892">
        <ele>31</ele>
      </trkpt>
      <trkpt lat="-36.65388327293534" lon="174.722883845127">
        <ele>32</ele>
      </trkpt>
      <trkpt lat="-36.65396051878695" lon="174.722997329773">
        <ele>33</ele>
      </trkpt>
      <trkpt lat="-36.65403776463857" lon="174.723111768072">
        <ele>34</ele>
      </trkpt>
      <trkpt lat="-36.65405874499332" lon="174.723190921228">
        <ele>35</ele>
      </trkpt>
      <trkpt lat="-36.65407877169559" lon="174.723271028037">
        <ele>36</ele>
      </trkpt>
      <trkpt lat="-36.65406732786573" lon="174.723362578676">
        <ele>38</ele>
      </trkpt>
      <trkpt lat="-36.65405493038337" lon="174.723455082968">
        <ele>40</ele>
      </trkpt>
      <trkpt lat="-36.65407972534808" lon="174.723547587259">
        <ele>41</ele>
      </trkpt>
      <trkpt lat="-36.65413312988747" lon="174.723600991799">
        <ele>41</ele>
      </trkpt>
      <trkpt lat="-36.65424279992371" lon="174.723621972153">
        <ele>39</ele>
      </trkpt>
      <trkpt lat="-36.65431241655541" lon="174.723609574671">
        <ele>38</ele>
      </trkpt>
      <trkpt lat="-36.65438107953462" lon="174.723597177189">
        <ele>36</ele>
      </trkpt>
      <trkpt lat="-36.65449742513828" lon="174.723639137898">
        <ele>34</ele>
      </trkpt>
      <trkpt lat="-36.65461377074194" lon="174.72368205226">
        <ele>32</ele>
      </trkpt>
      <trkpt lat="-36.65467861911119" lon="174.723785046729">
        <ele>33</ele>
      </trkpt>
      <trkpt lat="-36.65474346748045" lon="174.723888041198">
        <ele>33</ele>
      </trkpt>
      <trkpt lat="-36.65502860957467" lon="174.724032996376">
        <ele>30</ele>
      </trkpt>
      <trkpt lat="-36.6550867823765" lon="174.724098798398">
        <ele>29</ele>
      </trkpt>
      <trkpt lat="-36.65514400152584" lon="174.72416460042">
        <ele>29</ele>
      </trkpt>
      <trkpt lat="-36.6553909975205" lon="174.724412550067">
        <ele>26</ele>
      </trkpt>
      <trkpt lat="-36.65544535571237" lon="174.724485981308">
        <ele>25</ele>
      </trkpt>
      <trkpt lat="-36.65549971390425" lon="174.724560366203">
        <ele>25</ele>
      </trkpt>
      <trkpt lat="-36.6556341789052" lon="174.724873164219">
        <ele>28</ele>
      </trkpt>
      <trkpt lat="-36.65567423230974" lon="174.724910356666">
        <ele>28</ele>
      </trkpt>
      <trkpt lat="-36.65567423230974" lon="174.724910356666">
        <ele>28</ele>
      </trkpt>
      <trkpt lat="-36.65574480259394" lon="174.724974251383">
        <ele>28</ele>
      </trkpt>
      <trkpt lat="-36.65581441922563" lon="174.725039099752">
        <ele>28</ele>
      </trkpt>
      <trkpt lat="-36.65581441922563" lon="174.725039099752">
        <ele>28</ele>
      </trkpt>
      <trkpt lat="-36.65586210185008" lon="174.725082967767">
        <ele>27</ele>
      </trkpt>
      <trkpt lat="-36.65620160213618" lon="174.725225061987">
        <ele>22</ele>
      </trkpt>
      <trkpt lat="-36.65635514018692" lon="174.72519549876">
        <ele>18</ele>
      </trkpt>
      <trkpt lat="-36.65649151249285" lon="174.725261300782">
        <ele>16</ele>
      </trkpt>
      <trkpt lat="-36.65664409689109" lon="174.725294678619">
        <ele>13</ele>
      </trkpt>
      <trkpt lat="-36.65677283997711" lon="174.725379553691">
        <ele>13</ele>
      </trkpt>
      <trkpt lat="-36.65687392714095" lon="174.725485409117">
        <ele>14</ele>
      </trkpt>
      <trkpt lat="-36.65698836543963" lon="174.72566660309">
        <ele>15</ele>
      </trkpt>
      <trkpt lat="-36.65712473774556" lon="174.725857333588">
        <ele>15</ele>
      </trkpt>
      <trkpt lat="-36.65729830249857" lon="174.726204463094">
        <ele>16</ele>
      </trkpt>
      <trkpt lat="-36.6573564753004" lon="174.726354186534">
        <ele>16</ele>
      </trkpt>
      <trkpt lat="-36.65737745565516" lon="174.726586877742">
        <ele>18</ele>
      </trkpt>
      <trkpt lat="-36.65737078008773" lon="174.726916841503">
        <ele>20</ele>
      </trkpt>
      <trkpt lat="-36.65737745565516" lon="174.727336448598">
        <ele>20</ele>
      </trkpt>
      <trkpt lat="-36.65735933625787" lon="174.727511920656">
        <ele>21</ele>
      </trkpt>
      <trkpt lat="-36.6574175090597" lon="174.727786572573">
        <ele>17</ele>
      </trkpt>
      <trkpt lat="-36.6574175090597" lon="174.727786572573">
        <ele>17</ele>
      </trkpt>
      <trkpt lat="-36.65745470150677" lon="174.727745565516">
        <ele>16</ele>
      </trkpt>
      <trkpt lat="-36.65745470150677" lon="174.727745565516">
        <ele>16</ele>
      </trkpt>
      <trkpt lat="-36.65748140377647" lon="174.727698836544">
        <ele>16</ele>
      </trkpt>
      <trkpt lat="-36.6575739080679" lon="174.727695021934">
        <ele>15</ele>
      </trkpt>
      <trkpt lat="-36.65766545870684" lon="174.727692160977">
        <ele>14</ele>
      </trkpt>
      <trkpt lat="-36.65770360480641" lon="174.727746519168">
        <ele>13</ele>
      </trkpt>
      <trkpt lat="-36.6577131413313" lon="174.727807552928">
        <ele>13</ele>
      </trkpt>
      <trkpt lat="-36.65778180431051" lon="174.727888613389">
        <ele>12</ele>
      </trkpt>
      <trkpt lat="-36.6578352088499" lon="174.727917222964">
        <ele>12</ele>
      </trkpt>
      <trkpt lat="-36.65790864009155" lon="174.727943925234">
        <ele>11</ele>
      </trkpt>
      <trkpt lat="-36.65798111768071" lon="174.727971581156">
        <ele>11</ele>
      </trkpt>
      <trkpt lat="-36.65818144349181" lon="174.728070742432">
        <ele>9</ele>
      </trkpt>
    </trkseg>
  </trk>
</gpx>